{"type":"FeatureCollection","features":[{"type":"Feature","properties":{"code":"53-01","provinceCode":"53","name":"Ardeşen"},"geometry":{"type":"Polygon","coordinates":[[[41.245238,40.979704],[41.3115736,41.0094776],[41.3212793,41.0158401],[41.3202872,41.0288452],[41.3293054,41.0352032],[41.3312356,41.0409206],[41.3434931,41.0504441],[41.3315785,41.0618231],[41.3163542,41.0704822],[41.2985947,41.0837684],[41.2926599,41.0934358],[41.2662883,41.1121765],[41.2455269,41.1124457],[41.237268,41.1174364],[41.2356335,41.123334],[41.218701,41.1262217],[41.2066718,41.1315461],[41.1685997,41.143968],[41.1295356,41.1481704],[41.1254431,41.1548937],[41.1209787,41.1816864],[41.1182504,41.1862597],[41.095804,41.2003508],[41.1156461,41.222368],[41.1170102,41.2269385],[41.1066897,41.2481249],[41.095054,41.2410301],[41.0903008,41.2363198],[41.081223,41.2309074],[41.0799673,41.2316216],[41.0733067,41.2241839],[41.0642041,41.2183348],[41.0464399,41.2117962],[41.0471907,41.2137565],[41.0440195,41.2109855],[41.0339405,41.2103807],[41.0197803,41.2048249],[41.020063,41.2037616],[41.0169978,41.2036818],[41.0154961,41.202007],[40.993059,41.1943102],[40.9917251,41.1965302],[40.9925643,41.1941839],[40.9861512,41.1949948],[40.9873525,41.1973478],[40.9931473,41.1992554],[40.9869197,41.197494],[40.9854091,41.1956994],[40.9592178,41.1889591],[40.9510815,41.1852126],[40.9585321,41.1729621],[40.9581353,41.1544393],[40.9606155,41.1504801],[40.9684532,41.1442794],[40.9821442,41.1394977],[40.9867079,41.1361354],[41.0069469,41.1167052],[41.0142884,41.1041473],[41.0139908,41.0997365],[41.0104192,41.094503],[41.0233166,41.0921851],[41.042365,41.0862032],[41.0566513,41.0860537],[41.0698463,41.0828382],[41.0753029,41.0787999],[41.077684,41.074537],[41.1161285,41.0565825],[41.1304525,41.0298819],[41.1787317,41.0284361],[41.1951236,41.0178514],[41.211239,41.0107428],[41.2380285,40.995809],[41.2460667,40.9883585],[41.245238,40.979704]]]}},{"type":"Feature","properties":{"code":"53-02","provinceCode":"53","name":"Çamlıhemşin"},"geometry":{"type":"Polygon","coordinates":[[[40.8478938,40.8901281],[40.8525453,40.8816564],[40.8521224,40.8707854],[40.8491624,40.859273],[40.8434538,40.8496778],[40.8428195,40.84408],[40.8457795,40.8344826],[40.8423966,40.8266437],[40.8294994,40.8151236],[40.8250594,40.8024812],[40.8237908,40.7893562],[40.8206194,40.7805514],[40.8224625,40.7676617],[40.8240292,40.7638275],[40.8324595,40.7599488],[40.8366429,40.7560699],[40.8442587,40.7560603],[40.846432,40.7539805],[40.8485688,40.7479152],[40.84707,40.7407712],[40.8575488,40.7355693],[40.8660587,40.7342259],[40.8714786,40.7352226],[40.8730047,40.7338708],[40.874719,40.735521],[40.8811411,40.7338583],[40.8868676,40.7359265],[40.8983204,40.7368187],[40.9241543,40.7338746],[40.9336018,40.7379652],[40.9384518,40.7371343],[40.9537238,40.7474471],[40.9583862,40.7470753],[40.961699,40.7499568],[40.9618217,40.7540465],[40.9758142,40.7626229],[40.9800847,40.7616826],[40.9986639,40.7640697],[41.007955,40.7599946],[41.0113305,40.7642841],[41.0153167,40.7634331],[41.0287818,40.7661071],[41.0272181,40.7682653],[41.0335982,40.772168],[41.0372791,40.7701238],[41.0414507,40.7729114],[41.058304,40.7691489],[41.0591188,40.773376],[41.0707473,40.7795112],[41.087584,40.7791365],[41.0942095,40.783596],[41.1003559,40.7837062],[41.1014485,40.7887054],[41.1100372,40.7906562],[41.118135,40.790006],[41.1210797,40.7967868],[41.1175326,40.7999721],[41.1180123,40.8075605],[41.1150677,40.8120181],[41.1141067,40.8210058],[41.1224066,40.8271003],[41.1293315,40.8256779],[41.1378025,40.8489113],[41.1436766,40.8589133],[41.1513405,40.8665123],[41.1808165,40.8863184],[41.2011781,40.9075417],[41.2159921,40.9081451],[41.2174109,40.9245438],[41.2152405,40.9274209],[41.2166949,40.9314495],[41.227549,40.9388595],[41.2269053,40.9458115],[41.2293184,40.9524916],[41.245238,40.979704],[41.2460667,40.9883585],[41.2380285,40.995809],[41.211239,41.0107428],[41.1951236,41.0178514],[41.1787317,41.0284361],[41.1304525,41.0298819],[41.1161285,41.0565825],[41.077684,41.074537],[41.0753029,41.0787999],[41.0698463,41.0828382],[41.0566513,41.0860537],[41.042365,41.0862032],[41.0233166,41.0921851],[41.0104192,41.094503],[41.0139908,41.0997365],[41.0142884,41.1041473],[41.0020053,41.102781],[40.9853023,41.0924244],[40.9715594,41.0868471],[40.9635251,41.0795163],[40.9468221,41.0737785],[40.9478792,41.062142],[40.9335547,41.0325942],[40.9329567,41.0201877],[40.9093971,40.9899865],[40.9096961,40.9789264],[40.9177693,40.9660582],[40.9201613,40.9579297],[40.8990598,40.9305537],[40.8620596,40.9035528],[40.8478938,40.8901281]]]}},{"type":"Feature","properties":{"code":"53-03","provinceCode":"53","name":"Çayeli"},"geometry":{"type":"Polygon","coordinates":[[[40.8478938,40.8901281],[40.8383795,40.9137793],[40.8280194,40.9778187],[40.8294994,40.9857993],[40.8455681,41.012288],[40.8540253,41.0378092],[40.8629053,41.0537549],[40.8654425,41.0709719],[40.8614253,41.0787819],[40.8567739,41.0931243],[40.8523338,41.1006129],[40.8464138,41.1055518],[40.8235794,41.099179],[40.8056079,41.1006129],[40.7969392,41.1081008],[40.7944021,41.1311961],[40.7770061,41.1438775],[40.7732216,41.1397439],[40.7628046,41.1333418],[40.74276,41.1072292],[40.7414444,41.107354],[40.7419671,41.1093431],[40.7394753,41.1038942],[40.7224074,41.0889635],[40.7194625,41.0880704],[40.7222505,41.0923386],[40.7183996,41.0870066],[40.6974196,41.0797499],[40.6977159,41.0808533],[40.6924012,41.0774381],[40.6839587,41.076315],[40.6812229,41.0791063],[40.6853004,41.0797696],[40.6820158,41.0799666],[40.6683283,41.073228],[40.6661763,41.07332],[40.6677794,41.0746927],[40.663501,41.07178],[40.6573424,41.0703555],[40.6633764,41.0647225],[40.6632397,41.0599823],[40.6610193,41.0495735],[40.6495391,41.0349363],[40.6510812,41.0122823],[40.6458899,41.0046873],[40.647585,40.9995702],[40.6449814,40.9968281],[40.6596526,40.9953377],[40.6878063,40.9819265],[40.7072132,40.9662423],[40.7088532,40.957986],[40.7238868,40.9472512],[40.7323602,40.9363082],[40.7318136,40.9195804],[40.7266202,40.9119379],[40.7263468,40.9067736],[40.7173267,40.8910715],[40.7077599,40.8813592],[40.7077599,40.8735056],[40.7042065,40.8662712],[40.7129533,40.8509731],[40.7118179,40.8418372],[40.7192001,40.8406503],[40.7230956,40.8368856],[40.7213173,40.8310826],[40.7228603,40.8251172],[40.7286676,40.8192723],[40.7359238,40.799213],[40.753119,40.7924644],[40.7608797,40.7878161],[40.7768269,40.7862969],[40.782247,40.7776756],[40.7912273,40.7745428],[40.7935996,40.7686377],[40.7963133,40.7675904],[40.800063,40.7668628],[40.8073318,40.7692129],[40.8224625,40.7676617],[40.8206194,40.7805514],[40.8237908,40.7893562],[40.8250594,40.8024812],[40.8294994,40.8151236],[40.8423966,40.8266437],[40.8457795,40.8344826],[40.8428195,40.84408],[40.8434538,40.8496778],[40.8491624,40.859273],[40.8521224,40.8707854],[40.8525453,40.8816564],[40.8478938,40.8901281]]]}},{"type":"Feature","properties":{"code":"53-04","provinceCode":"53","name":"Derepazarı"},"geometry":{"type":"Polygon","coordinates":[[[40.4610102,41.0314857],[40.457496,41.0310542],[40.458412,41.0321021],[40.4561359,41.0327224],[40.4515845,41.0306442],[40.45276,41.0316491],[40.4431089,41.0308051],[40.4272379,41.0261617],[40.4285786,41.0277708],[40.4211263,41.0271994],[40.4226672,41.0268514],[40.4217542,41.025247],[40.422135,41.0263083],[40.4199248,41.0265492],[40.4160594,41.0249073],[40.4104614,41.0256297],[40.4115671,41.0267266],[40.405203,41.0250123],[40.400641,41.0253145],[40.4028204,41.0264163],[40.3997443,41.025321],[40.391108,41.0263456],[40.3906813,41.0176384],[40.3988102,41.0113961],[40.4070836,41.0075135],[40.4080904,40.9995278],[40.4134869,40.9927084],[40.4029644,40.9868755],[40.3976542,40.9789337],[40.405316,40.9664241],[40.4238812,40.9781142],[40.4422702,40.9800665],[40.4552,40.9761619],[40.4566367,40.9789819],[40.4552,40.9930801],[40.4643945,41.020834],[40.4610102,41.0314857]]]}},{"type":"Feature","properties":{"code":"53-05","provinceCode":"53","name":"Fındıklı"},"geometry":{"type":"Polygon","coordinates":[[[41.2462108,41.3235292],[41.2447441,41.322091],[41.2448142,41.3241149],[41.2429668,41.320112],[41.2325415,41.3131652],[41.2250697,41.3101564],[41.2198526,41.3058323],[41.2112693,41.3031584],[41.2053687,41.2984389],[41.1778775,41.2872841],[41.1742875,41.2867392],[41.1755077,41.2885332],[41.1732706,41.2867392],[41.158681,41.284427],[41.1616607,41.2868055],[41.1576377,41.283942],[41.1527128,41.2830383],[41.1370031,41.2699032],[41.137728,41.268355],[41.1360749,41.2690659],[41.1256672,41.2572712],[41.1246335,41.2585066],[41.1272575,41.2616214],[41.1245452,41.2594231],[41.1246247,41.2566867],[41.1154098,41.2533591],[41.1143761,41.2512734],[41.1066897,41.2481249],[41.1170102,41.2269385],[41.1156461,41.222368],[41.095804,41.2003508],[41.1182504,41.1862597],[41.1209787,41.1816864],[41.1254431,41.1548937],[41.1295356,41.1481704],[41.1685997,41.143968],[41.2066718,41.1315461],[41.218701,41.1262217],[41.2356335,41.123334],[41.237268,41.1174364],[41.2455269,41.1124457],[41.2662883,41.1121765],[41.2926599,41.0934358],[41.2985947,41.0837684],[41.3163542,41.0704822],[41.3315785,41.0618231],[41.3434931,41.0504441],[41.3514145,41.056157],[41.3514145,41.0613936],[41.357619,41.0655126],[41.3681149,41.0888653],[41.3685538,41.1035432],[41.3757653,41.1208494],[41.373966,41.1344897],[41.3686242,41.1457541],[41.3437845,41.1724991],[41.3403122,41.185164],[41.3389768,41.2064677],[41.3341691,41.2157105],[41.2871606,41.2498575],[41.2691709,41.2780848],[41.2462108,41.3235292]]]}},{"type":"Feature","properties":{"code":"53-06","provinceCode":"53","name":"Güneysu"},"geometry":{"type":"Polygon","coordinates":[[[40.6449814,40.9968281],[40.6365397,40.9967097],[40.6298922,41.0012493],[40.6280911,41.0072457],[40.6201099,41.0080905],[40.6172847,41.0114029],[40.6115754,41.0110578],[40.5949724,41.0036932],[40.593521,40.9868251],[40.58911,40.9853538],[40.5789544,40.9870574],[40.5749181,40.9841963],[40.5760115,40.9782122],[40.5842116,40.9728466],[40.5839382,40.9676871],[40.5743715,40.9633527],[40.5730048,40.9592245],[40.5762848,40.9553024],[40.5754648,40.9476641],[40.567538,40.9402313],[40.5661713,40.9342432],[40.5598846,40.9253633],[40.5656247,40.917515],[40.5771048,40.9086328],[40.5817515,40.9001627],[40.6213854,40.8945842],[40.6353256,40.8842524],[40.6487191,40.8817725],[40.6746861,40.8652377],[40.6897197,40.8615168],[40.7042065,40.8662712],[40.7077599,40.8735056],[40.7077599,40.8813592],[40.7173267,40.8910715],[40.7263468,40.9067736],[40.7266202,40.9119379],[40.7318136,40.9195804],[40.7323602,40.9363082],[40.7238868,40.9472512],[40.7088532,40.957986],[40.7072132,40.9662423],[40.6878063,40.9819265],[40.6596526,40.9953377],[40.6449814,40.9968281]]]}},{"type":"Feature","properties":{"code":"53-07","provinceCode":"53","name":"Hemşin"},"geometry":{"type":"Polygon","coordinates":[[[40.9478792,41.062142],[40.9425935,41.0629391],[40.9354049,41.0693154],[40.9248334,41.07075],[40.9138599,41.0829256],[40.9066713,41.0856348],[40.8954655,41.07926],[40.8800311,41.0768693],[40.871574,41.07926],[40.8614253,41.0787819],[40.8654425,41.0709719],[40.8629053,41.0537549],[40.8540253,41.0378092],[40.8455681,41.012288],[40.8294994,40.9857993],[40.8280194,40.9778187],[40.8383795,40.9137793],[40.8478938,40.8901281],[40.8620596,40.9035528],[40.8990598,40.9305537],[40.9201613,40.9579297],[40.9177693,40.9660582],[40.9096961,40.9789264],[40.9093971,40.9899865],[40.9329567,41.0201877],[40.9335547,41.0325942],[40.9478792,41.062142]]]}},{"type":"Feature","properties":{"code":"53-08","provinceCode":"53","name":"İkizdere"},"geometry":{"type":"Polygon","coordinates":[[[40.8224625,40.7676617],[40.8073318,40.7692129],[40.800063,40.7668628],[40.7963133,40.7675904],[40.7935996,40.7686377],[40.7912273,40.7745428],[40.782247,40.7776756],[40.7768269,40.7862969],[40.7608797,40.7878161],[40.753119,40.7924644],[40.7359238,40.799213],[40.7286676,40.8192723],[40.7228603,40.8251172],[40.7213173,40.8310826],[40.7230956,40.8368856],[40.7192001,40.8406503],[40.7118179,40.8418372],[40.6998838,40.8423123],[40.6895583,40.8377937],[40.673028,40.8355198],[40.6456027,40.8368699],[40.6153597,40.8353066],[40.6035255,40.8377226],[40.5617301,40.8409202],[40.543093,40.8378342],[40.5334212,40.8378299],[40.519178,40.8345535],[40.4945851,40.8323711],[40.4809224,40.8338643],[40.4704282,40.8379192],[40.4701013,40.8417184],[40.4631339,40.8461462],[40.451195,40.8397925],[40.4421786,40.8314551],[40.440618,40.8277803],[40.4352187,40.8247132],[40.4347082,40.8209104],[40.4317346,40.8185049],[40.4334082,40.8151414],[40.4186392,40.8050935],[40.4194294,40.8009677],[40.4262651,40.7958872],[40.4302475,40.7954568],[40.4275274,40.7850415],[40.4326479,40.7792247],[40.4307126,40.7656206],[40.4287593,40.7634171],[40.4193736,40.7630923],[40.4168344,40.760617],[40.4196986,40.758578],[40.416534,40.7564472],[40.4184679,40.7511199],[40.4223358,40.7485893],[40.4185741,40.7446412],[40.4358735,40.7384658],[40.442027,40.7316716],[40.4527916,40.7333859],[40.4665865,40.7321913],[40.4777746,40.7369794],[40.4805704,40.7365957],[40.4819941,40.7345921],[40.4952412,40.7291039],[40.49621,40.7252883],[40.5074515,40.7146281],[40.5044868,40.6974998],[40.491496,40.6843502],[40.4801564,40.6632153],[40.4664053,40.6558944],[40.4600622,40.6482731],[40.4545312,40.6368399],[40.4442022,40.6318695],[40.4416394,40.6255002],[40.4369865,40.6219741],[40.4366878,40.6118883],[40.4405064,40.6053326],[40.4411459,40.5994702],[40.4503483,40.5897563],[40.4649154,40.5831287],[40.4638604,40.5786449],[40.4679894,40.5754835],[40.4698999,40.5698261],[40.4653299,40.5624029],[40.4670078,40.5544903],[40.4764688,40.5426286],[40.4789285,40.5369098],[40.4762464,40.528455],[40.483414,40.5213345],[40.4955625,40.5199082],[40.5012443,40.5166127],[40.5046458,40.5160397],[40.5164989,40.5185086],[40.5170178,40.5246887],[40.5199811,40.5289384],[40.5263041,40.5316621],[40.5350492,40.5317952],[40.5461677,40.5408962],[40.5493464,40.5479089],[40.5625799,40.5548348],[40.5738865,40.5554551],[40.5776326,40.5556606],[40.5870867,40.5527001],[40.59853,40.5546322],[40.6142595,40.5595558],[40.6192019,40.5582782],[40.6222513,40.5595173],[40.6238919,40.562867],[40.641781,40.5664887],[40.646553,40.5638796],[40.6569363,40.570617],[40.6590075,40.5818009],[40.6620017,40.585352],[40.6713673,40.5891134],[40.67607,40.5935436],[40.7018995,40.5983623],[40.7104206,40.6039452],[40.7162547,40.605498],[40.7249902,40.6031569],[40.7256961,40.6006921],[40.7235517,40.5959456],[40.7313609,40.5985822],[40.7425403,40.599853],[40.747937,40.5970996],[40.757904,40.6002114],[40.760597,40.5986881],[40.7615947,40.594843],[40.7715302,40.5912195],[40.7770652,40.5917798],[40.777742,40.5868165],[40.7856342,40.5850456],[40.7854369,40.5830357],[40.7768452,40.5823212],[40.7789976,40.5789155],[40.7678769,40.5722399],[40.7651864,40.5665174],[40.7762699,40.5528244],[40.7798235,40.5567977],[40.7812206,40.5673772],[40.7927245,40.5758965],[40.794438,40.5804498],[40.7989538,40.5819805],[40.8040716,40.5816498],[40.8178563,40.5776579],[40.8273932,40.5730387],[40.8353739,40.5752695],[40.8620151,40.5920688],[40.868905,40.61106],[40.8652357,40.6211435],[40.861469,40.6283588],[40.8533975,40.6373428],[40.8415435,40.6391276],[40.8393809,40.6431389],[40.8411345,40.6532586],[40.8353345,40.654454],[40.8333979,40.6578533],[40.8268725,40.6594964],[40.832602,40.6624378],[40.8342904,40.666829],[40.841411,40.6679155],[40.844744,40.6725193],[40.8534188,40.6761835],[40.8566338,40.6811239],[40.8620576,40.6812849],[40.8645505,40.6857616],[40.8599317,40.6889725],[40.8572958,40.6966783],[40.865942,40.6963123],[40.8769667,40.6995583],[40.8883126,40.7125407],[40.8858507,40.7135954],[40.8845663,40.7174896],[40.8762175,40.7178952],[40.8694742,40.7231682],[40.8730047,40.7338708],[40.8714786,40.7352226],[40.8660587,40.7342259],[40.8575488,40.7355693],[40.84707,40.7407712],[40.8485688,40.7479152],[40.846432,40.7539805],[40.8442587,40.7560603],[40.8366429,40.7560699],[40.8324595,40.7599488],[40.8240292,40.7638275],[40.8224625,40.7676617]]]}},{"type":"Feature","properties":{"code":"53-09","provinceCode":"53","name":"İyidere"},"geometry":{"type":"Polygon","coordinates":[[[40.405316,40.9664241],[40.3976542,40.9789337],[40.4029644,40.9868755],[40.4134869,40.9927084],[40.4080904,40.9995278],[40.4070836,41.0075135],[40.3988102,41.0113961],[40.3906813,41.0176384],[40.391108,41.0263456],[40.3829766,41.0246774],[40.383081,41.0257414],[40.3808262,41.0238695],[40.3802603,41.0247956],[40.3782492,41.0221605],[40.3764649,41.0214776],[40.3763866,41.022607],[40.370764,41.018273],[40.3685706,41.019258],[40.3694845,41.0174652],[40.3617295,41.0150682],[40.3612072,41.0135511],[40.3598669,41.0141356],[40.361155,41.0164013],[40.3299741,40.9906571],[40.3297991,40.9883937],[40.3412822,40.9793533],[40.3429077,40.9754729],[40.3529466,40.9669926],[40.3645948,40.9651671],[40.3731662,40.9677228],[40.37984,40.9674726],[40.3987474,40.9614956],[40.405316,40.9664241]]]}},{"type":"Feature","properties":{"code":"53-10","provinceCode":"53","name":"Kalkandere"},"geometry":{"type":"Polygon","coordinates":[[[40.543093,40.8378342],[40.5444043,40.8437833],[40.5504767,40.8520515],[40.5398501,40.8724877],[40.5167753,40.8979667],[40.5152572,40.906687],[40.5052378,40.9151767],[40.5034161,40.9232065],[40.4943077,40.9319234],[40.4961294,40.94729],[40.4906643,40.9527936],[40.4906643,40.9587553],[40.4851992,40.9635701],[40.4645533,40.9637993],[40.452105,40.966092],[40.4311555,40.9642579],[40.4153114,40.9568336],[40.4088184,40.959763],[40.3987474,40.9614956],[40.3979631,40.9554395],[40.4018694,40.9526989],[40.4058753,40.9461887],[40.4092834,40.9355034],[40.4124469,40.9349515],[40.4147597,40.9323075],[40.4149405,40.9160258],[40.4173512,40.9127259],[40.418783,40.9047332],[40.4227298,40.9005145],[40.4352797,40.8934551],[40.4362251,40.8911676],[40.4448473,40.8873558],[40.4494749,40.8834723],[40.4530673,40.8771931],[40.4641405,40.8694029],[40.4638159,40.8663775],[40.467453,40.8641543],[40.4690436,40.8596496],[40.4736007,40.8576395],[40.4768107,40.8515754],[40.4771496,40.8469836],[40.4711057,40.8438533],[40.4701013,40.8417184],[40.4704282,40.8379192],[40.4809224,40.8338643],[40.4945851,40.8323711],[40.519178,40.8345535],[40.5334212,40.8378299],[40.543093,40.8378342]]]}},{"type":"Feature","properties":{"code":"53-11","provinceCode":"53","name":"Pazar"},"geometry":{"type":"Polygon","coordinates":[[[41.0142884,41.1041473],[41.0069469,41.1167052],[40.9867079,41.1361354],[40.9821442,41.1394977],[40.9684532,41.1442794],[40.9606155,41.1504801],[40.9581353,41.1544393],[40.9585321,41.1729621],[40.9510815,41.1852126],[40.9334913,41.1772203],[40.9235024,41.1763241],[40.9147751,41.1771579],[40.9101708,41.1792435],[40.910606,41.1810294],[40.90991,41.1793821],[40.9061227,41.1816313],[40.9132823,41.1818737],[40.9102808,41.1830563],[40.9053352,41.1822585],[40.8971763,41.1842727],[40.8812569,41.181053],[40.8776467,41.1824766],[40.880484,41.18338],[40.8743547,41.1829489],[40.8677071,41.1783152],[40.8636422,41.1774186],[40.8616316,41.1862649],[40.8280502,41.1772682],[40.82865,41.1731978],[40.8320273,41.1715587],[40.8306224,41.1695878],[40.8215922,41.16687],[40.815111,41.1625616],[40.8131568,41.1623362],[40.8130072,41.1636219],[40.8124086,41.1623097],[40.8088787,41.1629592],[40.8128047,41.165378],[40.798572,41.1598172],[40.795242,41.1559973],[40.7844323,41.15072],[40.7770061,41.1438775],[40.7944021,41.1311961],[40.7969392,41.1081008],[40.8056079,41.1006129],[40.8235794,41.099179],[40.8464138,41.1055518],[40.8523338,41.1006129],[40.8567739,41.0931243],[40.8614253,41.0787819],[40.871574,41.07926],[40.8800311,41.0768693],[40.8954655,41.07926],[40.9066713,41.0856348],[40.9138599,41.0829256],[40.9248334,41.07075],[40.9354049,41.0693154],[40.9425935,41.0629391],[40.9478792,41.062142],[40.9468221,41.0737785],[40.9635251,41.0795163],[40.9715594,41.0868471],[40.9853023,41.0924244],[41.0020053,41.102781],[41.0142884,41.1041473]]]}},{"type":"Feature","properties":{"code":"53-12","provinceCode":"53","name":"Rize merkezi"},"geometry":{"type":"Polygon","coordinates":[[[40.6573424,41.0703555],[40.6518677,41.0685801],[40.6525357,41.0703163],[40.6505843,41.0682553],[40.6471913,41.0676721],[40.6475429,41.0692163],[40.6349467,41.0619129],[40.6277828,41.0590099],[40.6295848,41.0607066],[40.6262462,41.0603961],[40.6249114,41.0587089],[40.624332,41.0602143],[40.6263553,41.0616159],[40.6241256,41.0604324],[40.6244675,41.0585879],[40.6119409,41.0525519],[40.6110701,41.0532939],[40.611671,41.0522038],[40.6089627,41.0510415],[40.6109308,41.055172],[40.6080745,41.0530313],[40.6082835,41.0505424],[40.6014999,41.047771],[40.5845625,41.0476003],[40.5870531,41.0494194],[40.5761505,41.0456432],[40.576821,41.04718],[40.5524382,41.0312586],[40.5498721,41.0299741],[40.5478229,41.030628],[40.548267,41.032868],[40.5470391,41.0322505],[40.5473526,41.0292025],[40.5423542,41.0272908],[40.5425806,41.0284273],[40.5335067,41.0260295],[40.5346126,41.0273434],[40.5246331,41.0275733],[40.5172747,41.0310156],[40.5156724,41.0302141],[40.5144968,41.0314688],[40.5160295,41.0323491],[40.5191208,41.0314294],[40.5119976,41.0361721],[40.5135128,41.0378404],[40.5084272,41.0376697],[40.5066421,41.0400802],[40.509629,41.0409538],[40.5200178,41.0388322],[40.5096551,41.0413084],[40.493799,41.0398048],[40.4950995,41.0414033],[40.4876857,41.0387378],[40.4865225,41.0370661],[40.4839131,41.0365553],[40.4845406,41.0378112],[40.4754015,41.034648],[40.4766254,41.0365647],[40.4686109,41.0325484],[40.4610102,41.0314857],[40.4643945,41.020834],[40.4552,40.9930801],[40.4566367,40.9789819],[40.4552,40.9761619],[40.4422702,40.9800665],[40.4238812,40.9781142],[40.405316,40.9664241],[40.3987474,40.9614956],[40.4088184,40.959763],[40.4153114,40.9568336],[40.4311555,40.9642579],[40.452105,40.966092],[40.4645533,40.9637993],[40.4851992,40.9635701],[40.4906643,40.9587553],[40.4906643,40.9527936],[40.4961294,40.94729],[40.4943077,40.9319234],[40.5034161,40.9232065],[40.5052378,40.9151767],[40.5152572,40.906687],[40.5167753,40.8979667],[40.5398501,40.8724877],[40.5504767,40.8520515],[40.5444043,40.8437833],[40.543093,40.8378342],[40.5617301,40.8409202],[40.6035255,40.8377226],[40.6153597,40.8353066],[40.6456027,40.8368699],[40.673028,40.8355198],[40.6895583,40.8377937],[40.6998838,40.8423123],[40.7118179,40.8418372],[40.7129533,40.8509731],[40.7042065,40.8662712],[40.6897197,40.8615168],[40.6746861,40.8652377],[40.6487191,40.8817725],[40.6353256,40.8842524],[40.6213854,40.8945842],[40.5817515,40.9001627],[40.5771048,40.9086328],[40.5656247,40.917515],[40.5598846,40.9253633],[40.5661713,40.9342432],[40.567538,40.9402313],[40.5754648,40.9476641],[40.5762848,40.9553024],[40.5730048,40.9592245],[40.5743715,40.9633527],[40.5839382,40.9676871],[40.5842116,40.9728466],[40.5760115,40.9782122],[40.5749181,40.9841963],[40.5789544,40.9870574],[40.58911,40.9853538],[40.593521,40.9868251],[40.5949724,41.0036932],[40.6115754,41.0110578],[40.6172847,41.0114029],[40.6201099,41.0080905],[40.6280911,41.0072457],[40.6298922,41.0012493],[40.6365397,40.9967097],[40.6449814,40.9968281],[40.647585,40.9995702],[40.6458899,41.0046873],[40.6510812,41.0122823],[40.6495391,41.0349363],[40.6610193,41.0495735],[40.6632397,41.0599823],[40.6633764,41.0647225],[40.6573424,41.0703555]]]}}]}