{"type":"FeatureCollection","features":[{"type":"Feature","properties":{"code":"31-01","provinceCode":"31","name":"Altınözü"},"geometry":{"type":"Polygon","coordinates":[[[36.1654017,36.1108036],[36.1795398,36.0633168],[36.1586,36.0193],[36.1601,36.0168],[36.1625,36.0166],[36.1639,36.0133],[36.1938,36.0126],[36.192,36.0172],[36.1942,36.0205],[36.1957,36.0204],[36.1965,36.0249],[36.1994,36.0235],[36.2008,36.0267],[36.2058,36.0228],[36.2106,36.0262],[36.2114,36.0243],[36.2161,36.0253],[36.2157,36.0195],[36.2181,36.0177],[36.2159,36.0131],[36.2181,36.0053],[36.2126,36.0047],[36.2125,36.0025],[36.2084,35.9999],[36.2119,35.9981],[36.2163,35.9995],[36.2202649,35.9719559],[36.2251622,35.9630961],[36.2214883,35.9556508],[36.2420213,35.9614927],[36.2547036,35.9629855],[36.2604609,35.9614749],[36.2681426,35.9533309],[36.2768201,35.94949],[36.2816567,35.9498279],[36.2944899,35.9564188],[36.2989096,35.962779],[36.2919346,35.9709881],[36.2908789,35.9766631],[36.2861319,35.9833732],[36.2854538,35.9913682],[36.2864475,36.0087238],[36.2903164,36.0105524],[36.2939261,36.0097878],[36.3000394,36.0109569],[36.306667,36.0071502],[36.3142862,36.0050401],[36.3323168,35.9895522],[36.3392161,35.9884675],[36.3491028,35.9920239],[36.3662799,36.0016971],[36.3762168,36.0115926],[36.3742076,36.0144283],[36.3767902,36.0172806],[36.3762142,36.0191813],[36.369599,36.0194505],[36.3734214,36.0223126],[36.3714774,36.0246753],[36.3797447,36.0290739],[36.3775339,36.0315629],[36.3809805,36.0345441],[36.380852,36.0380809],[36.3900438,36.0401756],[36.3881529,36.0433086],[36.3800053,36.0448952],[36.3790796,36.0484038],[36.3834266,36.0505735],[36.3861401,36.0492435],[36.3873157,36.0523008],[36.3790488,36.0570029],[36.3814064,36.0590561],[36.3793246,36.0621422],[36.3811195,36.0652124],[36.3786654,36.0721776],[36.3815059,36.0749238],[36.3862877,36.0745109],[36.3873734,36.076304],[36.3861591,36.0776624],[36.388865,36.0784614],[36.3903299,36.0820629],[36.3787706,36.093839],[36.3770974,36.0982373],[36.3780819,36.0997572],[36.3807287,36.0994061],[36.385316,36.0944362],[36.3867097,36.0963394],[36.3861856,36.1023779],[36.3813234,36.1051739],[36.379254,36.1020441],[36.3755086,36.1028446],[36.3751185,36.1056754],[36.381194,36.1063116],[36.3818204,36.1087202],[36.3798561,36.1108605],[36.3750801,36.1095075],[36.374577,36.1144554],[36.370471,36.1166714],[36.3747693,36.1188612],[36.3770245,36.1184743],[36.3783534,36.115507],[36.3800533,36.1157402],[36.3777377,36.1225888],[36.3715327,36.122244],[36.3732432,36.1243396],[36.3782565,36.125387],[36.3750661,36.1285079],[36.3799585,36.1307017],[36.3845791,36.1309144],[36.3824314,36.1321281],[36.3822194,36.1345366],[36.3844227,36.140142],[36.3881305,36.1407745],[36.38624,36.1439544],[36.3885973,36.1438332],[36.3891101,36.1460314],[36.3836227,36.149405],[36.378522,36.1474811],[36.3761068,36.152732],[36.3798942,36.1529446],[36.3807102,36.1553463],[36.3681981,36.1591289],[36.368059,36.1629353],[36.3624632,36.1649221],[36.3625681,36.1723747],[36.3582085,36.1769117],[36.3540966,36.1761209],[36.3362239,36.1861183],[36.3149628,36.1786098],[36.2671379,36.1907144],[36.2311442,36.1956902],[36.2206461,36.1940765],[36.2146471,36.1884281],[36.1928176,36.1478017],[36.1788201,36.1303071],[36.1751541,36.1207507],[36.1654017,36.1108036]]]}},{"type":"Feature","properties":{"code":"31-02","provinceCode":"31","name":"Antakya"},"geometry":{"type":"Polygon","coordinates":[[[35.9227378,36.3110552],[35.9456803,36.28962],[35.9706531,36.2763632],[35.9968441,36.2470594],[36.0577462,36.1976203],[36.0696239,36.1992789],[36.068257,36.2061517],[36.0655231,36.2072547],[36.0614222,36.2058123],[36.0624737,36.2151448],[36.0581625,36.2260878],[36.0586883,36.2303289],[36.0642612,36.2309226],[36.0698342,36.2249003],[36.0714115,36.2271905],[36.0699394,36.2319405],[36.0728836,36.2348242],[36.0763535,36.2346546],[36.0863428,36.2287173],[36.0947549,36.2392344],[36.102536,36.2345698],[36.1009587,36.2299896],[36.1027463,36.2249003],[36.1047967,36.2242217],[36.1113686,36.2259182],[36.113419,36.2240096],[36.1157324,36.2243065],[36.116889,36.227445],[36.1243547,36.2178595],[36.1340599,36.2120164],[36.1332627,36.2100093],[36.1350903,36.207963],[36.1410686,36.2060251],[36.141205,36.2012002],[36.1487003,36.1993039],[36.1541613,36.1996685],[36.1562074,36.1956565],[36.1610854,36.1927848],[36.1624947,36.1897033],[36.1582273,36.1827468],[36.1604684,36.1736754],[36.1662194,36.1650487],[36.1711008,36.1618806],[36.1681267,36.1540465],[36.1619772,36.1495943],[36.1577391,36.1434101],[36.1594938,36.1331918],[36.163836,36.13068],[36.1622453,36.1287428],[36.1656618,36.126194],[36.1654017,36.1108036],[36.1751541,36.1207507],[36.1788201,36.1303071],[36.1928176,36.1478017],[36.2146471,36.1884281],[36.2206461,36.1940765],[36.2311442,36.1956902],[36.2671379,36.1907144],[36.3149628,36.1786098],[36.3362239,36.1861183],[36.3540966,36.1761209],[36.3582085,36.1769117],[36.3625681,36.1723747],[36.3624632,36.1649221],[36.368059,36.1629353],[36.3690203,36.1658944],[36.3657176,36.1664036],[36.365904,36.1680078],[36.369286,36.1684591],[36.3701692,36.1714113],[36.3729165,36.1696616],[36.3743062,36.172216],[36.3677821,36.1778788],[36.3678161,36.1795572],[36.3701302,36.1801056],[36.3724039,36.1783116],[36.3773836,36.1839272],[36.3801524,36.1824585],[36.3817939,36.184359],[36.3811518,36.1882294],[36.3868934,36.189034],[36.3867036,36.1871777],[36.3822688,36.1855467],[36.3871271,36.1833588],[36.3892715,36.1875988],[36.3965311,36.1881781],[36.3970891,36.1923308],[36.3982355,36.1903936],[36.4000726,36.1911421],[36.4001765,36.1937091],[36.3953957,36.1967836],[36.3960881,36.1997195],[36.3933453,36.1983269],[36.394824,36.1950056],[36.3910841,36.1966136],[36.3923495,36.2042475],[36.3970499,36.2017187],[36.3925038,36.2103908],[36.3906568,36.2104047],[36.3900225,36.207448],[36.3878994,36.2069039],[36.3910088,36.2140857],[36.3870226,36.2158203],[36.3835643,36.2131063],[36.3812916,36.2158968],[36.3830775,36.2174834],[36.388647,36.2178314],[36.3893474,36.2192505],[36.3784976,36.2318029],[36.3726084,36.2489126],[36.3720775,36.2593296],[36.3628964,36.2979205],[36.3546524,36.3154274],[36.3323002,36.3179293],[36.3230421,36.3524002],[36.3139793,36.3646632],[36.3018251,36.3746111],[36.290931,36.3778784],[36.2848077,36.3841113],[36.2699433,36.3905218],[36.2649885,36.3952224],[36.2447712,36.4149422],[36.2437802,36.4184737],[36.2263677,36.4184737],[36.2103707,36.4233721],[36.1582745,36.4239416],[36.143127,36.4139169],[36.1363406,36.4131679],[36.10555,36.3936556],[36.0921013,36.3929433],[36.0825456,36.385251],[36.0644959,36.3775578],[36.0444998,36.3661591],[36.0344132,36.3627392],[35.9922974,36.3413613],[35.9432803,36.3211181],[35.9300085,36.3172684],[35.9227378,36.3110552]]]}},{"type":"Feature","properties":{"code":"31-03","provinceCode":"31","name":"Arsuz"},"geometry":{"type":"Polygon","coordinates":[[[36.0921013,36.3929433],[36.0926321,36.4040532],[36.0824148,36.4165601],[36.0774138,36.435665],[36.1000643,36.4591519],[36.1083813,36.4705369],[36.1114199,36.4800644],[36.1308563,36.5007932],[36.1407998,36.5022007],[36.1439497,36.5122203],[36.1544358,36.5283218],[36.1465534,36.5347521],[36.1476804,36.5376466],[36.1530155,36.5407048],[36.1507686,36.5473446],[36.1522302,36.553014],[36.1460055,36.5545512],[36.1363901,36.5636601],[36.1484433,36.5673355],[36.1478115,36.5691999],[36.1494682,36.5705489],[36.1475848,36.5721827],[36.1490158,36.5775143],[36.1460595,36.5785538],[36.1475251,36.5827323],[36.1457848,36.5825925],[36.1417787,36.5861512],[36.1357638,36.579967],[36.1341657,36.5805563],[36.1322129,36.5780595],[36.104119,36.563827],[36.0946022,36.5571397],[36.0496646,36.5376147],[36.0369071,36.5337413],[36.0288045,36.5184582],[36.0219513,36.5146428],[36.0103566,36.5009109],[36.0049549,36.4969846],[35.998531,36.494897],[35.9935915,36.4863251],[35.982797,36.474489],[35.95909,36.465705],[35.9520023,36.4646308],[35.9517247,36.4655369],[35.941693,36.459714],[35.931841,36.459829],[35.923798,36.448854],[35.913095,36.443208],[35.9093675,36.4445287],[35.9062727,36.4396217],[35.901803,36.438732],[35.900155,36.42439],[35.8952588,36.4156752],[35.8875213,36.4125953],[35.8879436,36.4137482],[35.8845061,36.4142156],[35.8856696,36.4164937],[35.884455,36.4146432],[35.880618,36.416002],[35.86942,36.40099],[35.8608005,36.3958049],[35.860517,36.383481],[35.857995,36.375323],[35.853791,36.3694678],[35.849925,36.367425],[35.831111,36.365304],[35.825256,36.361462],[35.8215124,36.360616],[35.8201751,36.3616921],[35.8211992,36.3605041],[35.817535,36.35869],[35.816113,36.360306],[35.8189499,36.3623876],[35.8155719,36.3605192],[35.817484,36.357279],[35.816822,36.352158],[35.813578,36.345813],[35.80869,36.342333],[35.806658,36.338784],[35.801872,36.338126],[35.798893,36.334728],[35.79506,36.334048],[35.787744,36.32921],[35.785124,36.322465],[35.7800932,36.3217148],[35.783607,36.311071],[35.782415,36.308787],[35.784683,36.305652],[35.783392,36.300545],[35.780465,36.298558],[35.78219,36.298004],[35.783389,36.291555],[35.788632,36.287323],[35.790921,36.280335],[35.798065,36.276058],[35.806852,36.264551],[35.810273,36.262672],[35.810498,36.260099],[35.814264,36.258983],[35.8200523,36.2523295],[35.8476767,36.2742109],[35.865077,36.2796367],[35.9227378,36.3110552],[35.9300085,36.3172684],[35.9432803,36.3211181],[35.9922974,36.3413613],[36.0344132,36.3627392],[36.0444998,36.3661591],[36.0644959,36.3775578],[36.0825456,36.385251],[36.0921013,36.3929433]]]}},{"type":"Feature","properties":{"code":"31-04","provinceCode":"31","name":"Belen"},"geometry":{"type":"Polygon","coordinates":[[[36.2649885,36.3952224],[36.2688815,36.4034835],[36.2687046,36.4145919],[36.2805607,36.4359497],[36.2826842,36.4527471],[36.2819763,36.4678331],[36.2777294,36.4792169],[36.271005,36.4894608],[36.2653424,36.5133581],[36.2589719,36.5262994],[36.1967008,36.5141348],[36.1857539,36.5170983],[36.1821215,36.521075],[36.1712453,36.5252685],[36.1731366,36.5363284],[36.1695967,36.5519908],[36.1724201,36.5610243],[36.1652307,36.5563127],[36.1605698,36.5499174],[36.1507686,36.5473446],[36.1530155,36.5407048],[36.1476804,36.5376466],[36.1465534,36.5347521],[36.1544358,36.5283218],[36.1439497,36.5122203],[36.1407998,36.5022007],[36.1308563,36.5007932],[36.1114199,36.4800644],[36.1083813,36.4705369],[36.1000643,36.4591519],[36.0774138,36.435665],[36.0824148,36.4165601],[36.0926321,36.4040532],[36.0921013,36.3929433],[36.10555,36.3936556],[36.1363406,36.4131679],[36.143127,36.4139169],[36.1582745,36.4239416],[36.2103707,36.4233721],[36.2263677,36.4184737],[36.2437802,36.4184737],[36.2447712,36.4149422],[36.2649885,36.3952224]]]}},{"type":"Feature","properties":{"code":"31-05","provinceCode":"31","name":"Defne"},"geometry":{"type":"Polygon","coordinates":[[[36.0577462,36.1976203],[36.0602229,36.1871822],[36.0549278,36.1833847],[36.0563964,36.1793808],[36.0596812,36.1751343],[36.0697633,36.1731388],[36.0707172,36.1632289],[36.0792623,36.1535474],[36.0869383,36.1481559],[36.0885155,36.1443774],[36.0936679,36.1407686],[36.0866228,36.1387306],[36.0831529,36.1317669],[36.0840992,36.1277753],[36.0907763,36.1267137],[36.0926164,36.1199613],[36.0866754,36.1220423],[36.0819436,36.1259068],[36.0651319,36.1469081],[36.0610955,36.1475518],[36.0561994,36.1462931],[36.042304,36.1356226],[36.0555711,36.1303442],[36.0792061,36.1089139],[36.0509431,36.1066111],[36.0508179,36.0965264],[36.0539873,36.0861172],[36.0427513,36.0730681],[36.0412189,36.0734488],[36.0393553,36.078956],[36.0339722,36.074769],[36.0332061,36.073743],[36.0357472,36.0721781],[36.0340019,36.0684442],[36.0362,36.0652],[36.0457632,36.0643689],[36.048107,36.0610693],[36.0563087,36.0586042],[36.0566242,36.0625144],[36.0530491,36.0681242],[36.0596735,36.0760284],[36.0635641,36.0801076],[36.0663321,36.0793357],[36.0780095,36.0808375],[36.0834871,36.0835359],[36.0839257,36.0874412],[36.0874134,36.0891411],[36.0937959,36.1033813],[36.099298,36.1056941],[36.1027554,36.1105297],[36.1110085,36.1115509],[36.1134622,36.1092082],[36.1116777,36.1061447],[36.1136109,36.1019395],[36.1260649,36.0978844],[36.1324592,36.1033212],[36.1332771,36.1066553],[36.1329797,36.1096888],[36.1300056,36.1065051],[36.1277378,36.1062648],[36.1268456,36.1086976],[36.1330912,36.112572],[36.1375524,36.1213412],[36.1518652,36.1269566],[36.1622453,36.1287428],[36.163836,36.13068],[36.1594938,36.1331918],[36.1577391,36.1434101],[36.1619772,36.1495943],[36.1681267,36.1540465],[36.1711008,36.1618806],[36.1662194,36.1650487],[36.1604684,36.1736754],[36.1582273,36.1827468],[36.1624947,36.1897033],[36.1610854,36.1927848],[36.1562074,36.1956565],[36.1541613,36.1996685],[36.1487003,36.1993039],[36.141205,36.2012002],[36.1410686,36.2060251],[36.1350903,36.207963],[36.1332627,36.2100093],[36.1340599,36.2120164],[36.1243547,36.2178595],[36.116889,36.227445],[36.1157324,36.2243065],[36.113419,36.2240096],[36.1113686,36.2259182],[36.1047967,36.2242217],[36.1027463,36.2249003],[36.1009587,36.2299896],[36.102536,36.2345698],[36.0947549,36.2392344],[36.0863428,36.2287173],[36.0763535,36.2346546],[36.0728836,36.2348242],[36.0699394,36.2319405],[36.0714115,36.2271905],[36.0698342,36.2249003],[36.0642612,36.2309226],[36.0586883,36.2303289],[36.0581625,36.2260878],[36.0624737,36.2151448],[36.0614222,36.2058123],[36.0655231,36.2072547],[36.068257,36.2061517],[36.0696239,36.1992789],[36.0577462,36.1976203]]]}},{"type":"Feature","properties":{"code":"31-06","provinceCode":"31","name":"Dörtyol"},"geometry":{"type":"Polygon","coordinates":[[[36.3980404,36.7839214],[36.4042893,36.801019],[36.4240775,36.8214478],[36.4295452,36.8360364],[36.430066,36.8443715],[36.4399601,36.8608306],[36.442043,36.8816599],[36.4561031,36.9047738],[36.4614947,36.9194321],[36.4482614,36.931072],[36.4428239,36.9330997],[36.4111591,36.9299367],[36.3690029,36.9316716],[36.348821,36.9420972],[36.3349941,36.9472587],[36.3159602,36.9201285],[36.3070354,36.9172423],[36.275949,36.9179639],[36.2597039,36.9205293],[36.2411523,36.9264617],[36.2300214,36.9275038],[36.2216982,36.9263815],[36.1973305,36.9189259],[36.1772748,36.9095453],[36.1567858,36.8947233],[36.1205408,36.8790785],[36.1360375,36.8670359],[36.1488589,36.8546497],[36.1543753,36.8482214],[36.1522046,36.8469013],[36.1512592,36.8477537],[36.1519456,36.846445],[36.1542674,36.8478316],[36.1570984,36.845206],[36.1628627,36.8379677],[36.163811,36.83424],[36.1722094,36.824572],[36.1695112,36.8218322],[36.1724092,36.8236821],[36.1743829,36.8211122],[36.1715598,36.8195622],[36.170498,36.8195522],[36.1674126,36.8222721],[36.1698609,36.8197122],[36.1709352,36.8192722],[36.176279,36.8205213],[36.181592,36.812322],[36.200671,36.791137],[36.2298574,36.7958893],[36.3980404,36.7839214]]]}},{"type":"Feature","properties":{"code":"31-07","provinceCode":"31","name":"Erzin"},"geometry":{"type":"Polygon","coordinates":[[[36.1705946,36.993537],[36.1580554,36.9930651],[36.139259,36.994825],[36.0940996,37.0032477],[36.0701861,37.0032595],[36.0575643,37.0082109],[36.0497375,37.0072065],[36.0428257,37.0042587],[36.0305679,36.9942728],[36.0216368,36.982258],[36.0076561,36.9712209],[35.9843527,36.9670257],[35.9474325,36.9336066],[35.9410487,36.906597],[35.9386705,36.8987155],[35.9396508,36.8935745],[35.9435262,36.8895176],[35.953707,36.891272],[35.961681,36.899035],[35.9633598,36.9036889],[35.9718628,36.9069784],[35.9739315,36.9055038],[35.972513,36.9071958],[35.9800784,36.9139632],[35.9832219,36.9113079],[35.9821234,36.9134151],[35.9833173,36.9143318],[35.9820643,36.9135852],[35.9816151,36.915173],[35.9841448,36.9186888],[35.9876421,36.9195327],[35.9898306,36.9167627],[35.9880176,36.919725],[35.992637,36.922013],[35.994901,36.9208755],[35.9965389,36.9216557],[35.9952604,36.9232583],[36.0070408,36.9306382],[36.0271712,36.9256575],[36.0641777,36.9102942],[36.0963354,36.8939391],[36.1205408,36.8790785],[36.1567858,36.8947233],[36.1772748,36.9095453],[36.1973305,36.9189259],[36.2216982,36.9263815],[36.2300214,36.9275038],[36.2411523,36.9264617],[36.2597039,36.9205293],[36.275949,36.9179639],[36.3070354,36.9172423],[36.3159602,36.9201285],[36.3349941,36.9472587],[36.3168361,36.9516873],[36.3038486,36.9531917],[36.2699201,36.9626118],[36.2463559,36.963008],[36.2353925,36.9647451],[36.2259351,36.9774658],[36.2060466,36.9780535],[36.2149417,36.9899851],[36.2175473,36.9982443],[36.2159432,37.0044304],[36.2058292,37.0045991],[36.1970841,36.9982688],[36.1866097,36.9941396],[36.1705946,36.993537]]]}},{"type":"Feature","properties":{"code":"31-08","provinceCode":"31","name":"Hassa"},"geometry":{"type":"Polygon","coordinates":[[[36.3615364,36.6642566],[36.3802831,36.6719421],[36.4169433,36.6726104],[36.4315241,36.6644237],[36.4421472,36.6629199],[36.4696987,36.6641998],[36.4808799,36.666442],[36.5024436,36.661477],[36.5180174,36.65491],[36.5446451,36.6496177],[36.5488783,36.6529643],[36.5514113,36.6527434],[36.5599229,36.6569256],[36.5606208,36.6612926],[36.5662042,36.663476],[36.5675303,36.6598929],[36.5736284,36.6591335],[36.5797288,36.6591353],[36.585035,36.6624428],[36.587938,36.6618003],[36.5892467,36.6689387],[36.600906,36.6729838],[36.6030951,36.6770765],[36.6081158,36.6770051],[36.608901,36.6814309],[36.6123513,36.6847383],[36.6131841,36.6912343],[36.6193945,36.694042],[36.6234871,36.7008235],[36.6287457,36.7053921],[36.6314821,36.7127208],[36.6304827,36.7197878],[36.6254145,36.7205254],[36.6187044,36.7282111],[36.6188948,36.732042],[36.6155159,36.7360871],[36.6171816,36.7379669],[36.6147783,36.7402036],[36.6160394,36.7418216],[36.6129461,36.7455336],[36.620727,36.7536237],[36.6253669,36.761928],[36.6289837,36.7628322],[36.6280081,36.7668535],[36.6348372,36.7677815],[36.6346468,36.7711604],[36.6403337,36.7695185],[36.6394533,36.7739919],[36.643546,36.7777991],[36.6426894,36.7814872],[36.6459492,36.7864365],[36.6509699,36.7866031],[36.6523024,36.7885066],[36.6558954,36.7891491],[36.6581321,36.7930752],[36.6620582,36.7931228],[36.6671978,36.8003088],[36.6695059,36.800856],[36.6717188,36.7995473],[36.6685779,36.8054484],[36.6713619,36.8100883],[36.6694107,36.8128961],[36.6680306,36.8121109],[36.6668885,36.8132054],[36.6715284,36.8210339],[36.668911,36.8214146],[36.669149,36.8243413],[36.6651945,36.8267665],[36.6425195,36.8459089],[36.627407,36.8539188],[36.6180584,36.856855],[36.5714735,36.8640238],[36.5323275,36.8790426],[36.5219641,36.8861681],[36.5096276,36.8875522],[36.4942286,36.8930202],[36.4763977,36.9032289],[36.4634928,36.9188062],[36.4614947,36.9194321],[36.4561031,36.9047738],[36.442043,36.8816599],[36.4399601,36.8608306],[36.430066,36.8443715],[36.4295452,36.8360364],[36.4240775,36.8214478],[36.4042893,36.801019],[36.3980404,36.7839214],[36.3962178,36.7651513],[36.3840324,36.711694],[36.3717429,36.6891482],[36.3615364,36.6642566]]]}},{"type":"Feature","properties":{"code":"31-09","provinceCode":"31","name":"İskenderun"},"geometry":{"type":"Polygon","coordinates":[[[36.2016588,36.7253702],[36.1987378,36.7224256],[36.202088,36.7228536],[36.2001063,36.720188],[36.197215,36.7210316],[36.197665,36.7225648],[36.1967216,36.7209128],[36.1837748,36.7239356],[36.1941059,36.7214303],[36.1961567,36.7175672],[36.195499,36.708687],[36.1929264,36.7051516],[36.2029292,36.6875475],[36.19818,36.6851259],[36.2021639,36.6861415],[36.2032759,36.6819647],[36.2068273,36.682548],[36.2033736,36.6813262],[36.2043353,36.6787529],[36.1992487,36.6769015],[36.2083362,36.6786494],[36.2119564,36.6719541],[36.2109624,36.6711826],[36.2153232,36.6597098],[36.2136063,36.6586603],[36.2147545,36.6571802],[36.212341,36.653092],[36.2117106,36.6417845],[36.2076372,36.6390183],[36.2056663,36.6349166],[36.197872,36.630151],[36.196443,36.608029],[36.1929084,36.6074053],[36.1911844,36.601265],[36.1923833,36.5993123],[36.1890828,36.5991946],[36.1922879,36.5982646],[36.1892426,36.5932113],[36.1853391,36.5942986],[36.1839981,36.5919622],[36.1844958,36.5946988],[36.1831179,36.5929139],[36.181013,36.5922339],[36.1802152,36.5932667],[36.1818048,36.5956141],[36.1833615,36.5949265],[36.1818613,36.5957658],[36.1859135,36.6034842],[36.1803646,36.5940623],[36.1789982,36.5943364],[36.1795017,36.592083],[36.176353,36.591261],[36.1758693,36.5927552],[36.1790777,36.5958584],[36.1757923,36.5940391],[36.1757286,36.5919947],[36.1737261,36.5918782],[36.1622873,36.5958066],[36.1540118,36.5915284],[36.1490254,36.5909796],[36.1417787,36.5861512],[36.1457848,36.5825925],[36.1475251,36.5827323],[36.1460595,36.5785538],[36.1490158,36.5775143],[36.1475848,36.5721827],[36.1494682,36.5705489],[36.1478115,36.5691999],[36.1484433,36.5673355],[36.1363901,36.5636601],[36.1460055,36.5545512],[36.1522302,36.553014],[36.1507686,36.5473446],[36.1605698,36.5499174],[36.1652307,36.5563127],[36.1724201,36.5610243],[36.1695967,36.5519908],[36.1731366,36.5363284],[36.1712453,36.5252685],[36.1821215,36.521075],[36.1857539,36.5170983],[36.1967008,36.5141348],[36.2589719,36.5262994],[36.2596797,36.5381011],[36.2658732,36.543788],[36.2676428,36.5513225],[36.2766676,36.559567],[36.2890492,36.5672864],[36.3150862,36.5995676],[36.3323749,36.6166227],[36.3340412,36.624313],[36.3517465,36.6453737],[36.3550792,36.6530611],[36.3123022,36.6847601],[36.2925902,36.6968312],[36.2753016,36.7043465],[36.2584296,36.7055155],[36.2388698,36.7131797],[36.2155491,36.7190696],[36.2016588,36.7253702]]]}},{"type":"Feature","properties":{"code":"31-10","provinceCode":"31","name":"Kırıkhan"},"geometry":{"type":"Polygon","coordinates":[[[36.3550792,36.6530611],[36.3517465,36.6453737],[36.3340412,36.624313],[36.3323749,36.6166227],[36.3150862,36.5995676],[36.2890492,36.5672864],[36.2766676,36.559567],[36.2676428,36.5513225],[36.2658732,36.543788],[36.2596797,36.5381011],[36.2589719,36.5262994],[36.2653424,36.5133581],[36.271005,36.4894608],[36.2777294,36.4792169],[36.2819763,36.4678331],[36.2826842,36.4527471],[36.2805607,36.4359497],[36.2687046,36.4145919],[36.2688815,36.4034835],[36.2649885,36.3952224],[36.2699433,36.3905218],[36.2848077,36.3841113],[36.2931949,36.3873672],[36.3209933,36.3817242],[36.3625782,36.3706823],[36.3767348,36.3703261],[36.4019512,36.3746006],[36.4269464,36.3811899],[36.438891,36.391518],[36.4489864,36.3971516],[36.4752124,36.4051195],[36.4937169,36.4174051],[36.5230946,36.4421542],[36.5427949,36.4432664],[36.553357,36.4488468],[36.5574095,36.449481],[36.5558866,36.4520033],[36.5592179,36.4534071],[36.5575209,36.4544531],[36.5593249,36.4573754],[36.558286,36.4588012],[36.5619724,36.4637385],[36.553307,36.4674794],[36.5554827,36.4738463],[36.5539811,36.4763466],[36.5507269,36.4798749],[36.5451602,36.4809461],[36.5437317,36.4844992],[36.5492197,36.4891278],[36.5481603,36.4974212],[36.5458636,36.4970234],[36.5466994,36.5006884],[36.5441675,36.5018126],[36.5668994,36.5210245],[36.5723692,36.528412],[36.5826811,36.5683884],[36.5873336,36.5767548],[36.5886042,36.5828974],[36.5914358,36.5855386],[36.5851778,36.5990539],[36.5779205,36.6079293],[36.5753268,36.6202311],[36.5775064,36.6246058],[36.5736284,36.6591335],[36.5675303,36.6598929],[36.5662042,36.663476],[36.5606208,36.6612926],[36.5599229,36.6569256],[36.5514113,36.6527434],[36.5488783,36.6529643],[36.5446451,36.6496177],[36.5180174,36.65491],[36.5024436,36.661477],[36.4808799,36.666442],[36.4696987,36.6641998],[36.4421472,36.6629199],[36.4315241,36.6644237],[36.4169433,36.6726104],[36.3802831,36.6719421],[36.3615364,36.6642566],[36.3550792,36.6530611]]]}},{"type":"Feature","properties":{"code":"31-11","provinceCode":"31","name":"Kumlu"},"geometry":{"type":"Polygon","coordinates":[[[36.3230421,36.3524002],[36.3613953,36.3519322],[36.3746918,36.3498885],[36.3814784,36.3465795],[36.3896225,36.3525755],[36.4329546,36.3580851],[36.4419662,36.3523497],[36.4488318,36.3542899],[36.4500743,36.3580246],[36.4593432,36.3639622],[36.4674812,36.3621852],[36.4729832,36.3593451],[36.4901486,36.3574071],[36.5026576,36.3578551],[36.5090228,36.3529056],[36.5163014,36.335698],[36.5158834,36.3236926],[36.5189868,36.3165315],[36.5282647,36.3105471],[36.5524724,36.3091781],[36.570159,36.3211448],[36.5827032,36.3204351],[36.5933246,36.3237765],[36.6075121,36.3251554],[36.6062836,36.327962],[36.6052129,36.3273195],[36.6029286,36.3319357],[36.5991928,36.3495675],[36.611844,36.3525441],[36.6186568,36.3574911],[36.5994699,36.3685966],[36.5968372,36.3724817],[36.6023099,36.3731003],[36.6059505,36.3777879],[36.6046478,36.382254],[36.6059505,36.392255],[36.5862724,36.3916601],[36.5755172,36.416121],[36.5715197,36.4194998],[36.5663325,36.4189763],[36.5637151,36.4268761],[36.5661897,36.4373696],[36.5641196,36.4397014],[36.5603124,36.438821],[36.5556487,36.4427709],[36.5550685,36.4474566],[36.5574095,36.449481],[36.553357,36.4488468],[36.5427949,36.4432664],[36.5230946,36.4421542],[36.4937169,36.4174051],[36.4752124,36.4051195],[36.4489864,36.3971516],[36.438891,36.391518],[36.4269464,36.3811899],[36.4019512,36.3746006],[36.3767348,36.3703261],[36.3625782,36.3706823],[36.3209933,36.3817242],[36.2931949,36.3873672],[36.2848077,36.3841113],[36.290931,36.3778784],[36.3018251,36.3746111],[36.3139793,36.3646632],[36.3230421,36.3524002]]]}},{"type":"Feature","properties":{"code":"31-12","provinceCode":"31","name":"Payas"},"geometry":{"type":"Polygon","coordinates":[[[36.200671,36.791137],[36.2042456,36.7840042],[36.2012877,36.7834319],[36.2010254,36.7849026],[36.1992072,36.782606],[36.1870499,36.7802659],[36.2011068,36.7827582],[36.2025179,36.778346],[36.2048195,36.7777801],[36.206545,36.771204],[36.2061572,36.7661235],[36.2030315,36.7617325],[36.1996291,36.7611127],[36.1995487,36.7625892],[36.197601,36.761503],[36.1915932,36.7528916],[36.190283,36.7448133],[36.1954368,36.7330668],[36.1883367,36.7291115],[36.1871804,36.726621],[36.1881757,36.7286251],[36.1967682,36.7324128],[36.1979464,36.7310601],[36.1954589,36.7296187],[36.1968985,36.727996],[36.2004775,36.7296247],[36.2016588,36.7253702],[36.2155491,36.7190696],[36.2388698,36.7131797],[36.2584296,36.7055155],[36.2753016,36.7043465],[36.2925902,36.6968312],[36.3123022,36.6847601],[36.3550792,36.6530611],[36.3615364,36.6642566],[36.3717429,36.6891482],[36.3840324,36.711694],[36.3962178,36.7651513],[36.3980404,36.7839214],[36.2298574,36.7958893],[36.200671,36.791137]]]}},{"type":"Feature","properties":{"code":"31-13","provinceCode":"31","name":"Reyhanlı"},"geometry":{"type":"Polygon","coordinates":[[[36.3893474,36.2192505],[36.3949725,36.2253355],[36.4300097,36.2074053],[36.4401382,36.2065183],[36.4570158,36.2078262],[36.4559245,36.2027436],[36.4607542,36.1990939],[36.4655416,36.1982287],[36.4651011,36.1969439],[36.4698729,36.1988894],[36.4698474,36.2009505],[36.473411,36.2014664],[36.4718901,36.2078741],[36.4764777,36.2142511],[36.4865118,36.2184304],[36.4844304,36.2233172],[36.4864295,36.225196],[36.4834186,36.2329655],[36.4912193,36.2308504],[36.492651,36.2266148],[36.4996516,36.2234887],[36.5033686,36.2261449],[36.5002528,36.2306711],[36.5024222,36.2422648],[36.5245181,36.2431838],[36.5259767,36.2421408],[36.5339615,36.2452718],[36.5439892,36.2326589],[36.5537624,36.2240635],[36.5617597,36.230511],[36.5598017,36.2340872],[36.5621322,36.2373199],[36.5801587,36.2297463],[36.5812661,36.2276176],[36.5849584,36.2262884],[36.5892414,36.2268792],[36.6017952,36.22171],[36.6023859,36.2200854],[36.6246873,36.2143254],[36.6282319,36.2237777],[36.6255735,36.22363],[36.6252781,36.2276176],[36.6269027,36.2311622],[36.6292657,36.2323438],[36.6236535,36.2333776],[36.6235058,36.2370699],[36.6218542,36.2373224],[36.6229164,36.2382157],[36.6314505,36.2388313],[36.656075,36.2289332],[36.6670057,36.2292511],[36.6639732,36.2351499],[36.6726869,36.2350022],[36.6753454,36.2326391],[36.6820645,36.2322976],[36.6810401,36.239164],[36.6906057,36.240621],[36.6949134,36.2452455],[36.6922527,36.2578518],[36.6871215,36.2653269],[36.6791396,36.2712817],[36.6800899,36.2759061],[36.6830268,36.2822334],[36.6866534,36.2817452],[36.69164,36.2879348],[36.6956328,36.2884928],[36.6951271,36.2950137],[36.6924769,36.2959204],[36.683916,36.2948742],[36.6841252,36.2966178],[36.6819743,36.2979332],[36.6563229,36.2981058],[36.6554195,36.3075224],[36.6568948,36.30757],[36.6569186,36.3090928],[36.6545867,36.3121623],[36.6577514,36.3123527],[36.6574896,36.3173972],[36.6619392,36.3203477],[36.6621534,36.3238217],[36.6651101,36.3260385],[36.6642235,36.329461],[36.6585366,36.3338392],[36.6572517,36.3375988],[36.6417775,36.3356988],[36.6366819,36.3421597],[36.6297451,36.3448085],[36.6261283,36.3430477],[36.6273894,36.3370515],[36.6240344,36.3382888],[36.6182761,36.3347434],[36.6135172,36.3377653],[36.6090438,36.3356238],[36.6092667,36.3324272],[36.6054306,36.3328641],[36.6062836,36.327962],[36.6075121,36.3251554],[36.5933246,36.3237765],[36.5827032,36.3204351],[36.570159,36.3211448],[36.5524724,36.3091781],[36.5282647,36.3105471],[36.5189868,36.3165315],[36.5158834,36.3236926],[36.5163014,36.335698],[36.5090228,36.3529056],[36.5026576,36.3578551],[36.4901486,36.3574071],[36.4729832,36.3593451],[36.4674812,36.3621852],[36.4593432,36.3639622],[36.4500743,36.3580246],[36.4488318,36.3542899],[36.4419662,36.3523497],[36.4329546,36.3580851],[36.3896225,36.3525755],[36.3814784,36.3465795],[36.3746918,36.3498885],[36.3613953,36.3519322],[36.3230421,36.3524002],[36.3323002,36.3179293],[36.3546524,36.3154274],[36.3628964,36.2979205],[36.3720775,36.2593296],[36.3726084,36.2489126],[36.3784976,36.2318029],[36.3893474,36.2192505]]]}},{"type":"Feature","properties":{"code":"31-14","provinceCode":"31","name":"Samandağ"},"geometry":{"type":"Polygon","coordinates":[[[35.9227378,36.3110552],[35.865077,36.2796367],[35.8476767,36.2742109],[35.8200523,36.2523295],[35.823019,36.246704],[35.8300977,36.240838],[35.8304485,36.2387569],[35.839439,36.231675],[35.841014,36.227014],[35.853617,36.211817],[35.8556387,36.2049527],[35.8741658,36.1810978],[35.8734198,36.1798743],[35.8768181,36.1789736],[35.880222,36.172395],[35.882126,36.172477],[35.886747,36.168899],[35.895733,36.159178],[35.905348,36.145076],[35.9041141,36.1430954],[35.9063192,36.1428328],[35.909875,36.139058],[35.9143321,36.1296628],[35.9133764,36.1267795],[35.9158931,36.1268521],[35.9166876,36.1255323],[35.9145589,36.1245454],[35.9112054,36.1272972],[35.9143303,36.1244031],[35.9180968,36.1245848],[35.9345754,36.0991973],[35.9621388,36.0464039],[35.974954,36.025988],[35.98163,36.010154],[35.9843,36.0098],[35.9912,36.0143],[35.9917,36.0174],[35.9873,36.0229],[35.9917,36.0252],[35.9998,36.0256],[35.9996,36.0281],[35.9948,36.0312],[35.9842,36.0315],[35.9828,36.0366],[35.9928,36.0456],[36.001,36.0474],[36,36.0509],[36.0043,36.052],[36.0043,36.0541],[36.011,36.0556],[36.0123,36.0545],[36.0122,36.0574],[36.0151,36.0583],[36.0139,36.061],[36.0195,36.0609],[36.0201,36.063],[36.0221,36.0642],[36.0237,36.0634],[36.0264,36.0664],[36.0362,36.0652],[36.0340019,36.0684442],[36.0357472,36.0721781],[36.0332061,36.073743],[36.0339722,36.074769],[36.0393553,36.078956],[36.0412189,36.0734488],[36.0427513,36.0730681],[36.0539873,36.0861172],[36.0508179,36.0965264],[36.0509431,36.1066111],[36.0792061,36.1089139],[36.0555711,36.1303442],[36.042304,36.1356226],[36.0561994,36.1462931],[36.0610955,36.1475518],[36.0651319,36.1469081],[36.0819436,36.1259068],[36.0866754,36.1220423],[36.0926164,36.1199613],[36.0907763,36.1267137],[36.0840992,36.1277753],[36.0831529,36.1317669],[36.0866228,36.1387306],[36.0936679,36.1407686],[36.0885155,36.1443774],[36.0869383,36.1481559],[36.0792623,36.1535474],[36.0707172,36.1632289],[36.0697633,36.1731388],[36.0596812,36.1751343],[36.0563964,36.1793808],[36.0549278,36.1833847],[36.0602229,36.1871822],[36.0577462,36.1976203],[35.9968441,36.2470594],[35.9706531,36.2763632],[35.9456803,36.28962],[35.9227378,36.3110552]]]}},{"type":"Feature","properties":{"code":"31-15","provinceCode":"31","name":"Yayladağı"},"geometry":{"type":"Polygon","coordinates":[[[36.1622453,36.1287428],[36.1518652,36.1269566],[36.1375524,36.1213412],[36.1330912,36.112572],[36.1268456,36.1086976],[36.1277378,36.1062648],[36.1300056,36.1065051],[36.1329797,36.1096888],[36.1332771,36.1066553],[36.1324592,36.1033212],[36.1260649,36.0978844],[36.1136109,36.1019395],[36.1116777,36.1061447],[36.1134622,36.1092082],[36.1110085,36.1115509],[36.1027554,36.1105297],[36.099298,36.1056941],[36.0937959,36.1033813],[36.0874134,36.0891411],[36.0839257,36.0874412],[36.0834871,36.0835359],[36.0780095,36.0808375],[36.0663321,36.0793357],[36.0635641,36.0801076],[36.0596735,36.0760284],[36.0530491,36.0681242],[36.0566242,36.0625144],[36.0563087,36.0586042],[36.048107,36.0610693],[36.0457632,36.0643689],[36.0362,36.0652],[36.0264,36.0664],[36.0237,36.0634],[36.0221,36.0642],[36.0201,36.063],[36.0195,36.0609],[36.0139,36.061],[36.0151,36.0583],[36.0122,36.0574],[36.0123,36.0545],[36.011,36.0556],[36.0043,36.0541],[36.0043,36.052],[36,36.0509],[36.001,36.0474],[35.9928,36.0456],[35.9828,36.0366],[35.9842,36.0315],[35.9948,36.0312],[35.9996,36.0281],[35.9998,36.0256],[35.9917,36.0252],[35.9873,36.0229],[35.9917,36.0174],[35.9912,36.0143],[35.9843,36.0098],[35.98163,36.010154],[35.9791311,36.0084204],[35.9801519,36.0076983],[35.978584,36.004836],[35.9598082,35.9924008],[35.9578234,35.9823525],[35.9556743,35.9827083],[35.954951,35.9809659],[35.9500733,35.9787711],[35.941719,35.9699883],[35.9285299,35.9607167],[35.92958,35.957627],[35.927323,35.956398],[35.924186,35.956988],[35.9223084,35.9551086],[35.9217947,35.9501853],[35.918795,35.947873],[35.9202907,35.947025],[35.9182155,35.9430162],[35.9195552,35.9398156],[35.9177629,35.9287314],[35.9228491,35.9219057],[35.931439,35.9205373],[35.9487534,35.9295],[35.955706,35.9301934],[35.959668,35.9274995],[35.9682362,35.9336899],[35.9735247,35.9341408],[35.9759434,35.9389374],[35.9830357,35.9404132],[35.9932027,35.9400443],[35.9940227,35.9386094],[35.9977123,35.9397163],[35.9991062,35.9386094],[36.0065396,35.94081],[36.0178887,35.9210181],[36.0111754,35.9106844],[36.0102946,35.9043191],[36.0076907,35.9025034],[35.9983442,35.8839003],[35.9995216,35.8800336],[36.0290455,35.8825193],[36.0325198,35.8785945],[36.0391485,35.8776641],[36.0476216,35.8800386],[36.0587874,35.8760215],[36.0683505,35.8692689],[36.081757,35.8718949],[36.0907144,35.8653669],[36.1128557,35.8620061],[36.11642,35.8594865],[36.1173715,35.856208],[36.1229876,35.8537899],[36.1356757,35.8413098],[36.1397635,35.8336977],[36.1395037,35.8155798],[36.1515656,35.8080486],[36.156319,35.8081028],[36.1568206,35.8102145],[36.1618623,35.8117983],[36.1628126,35.8140948],[36.165637,35.8151506],[36.1632613,35.8176319],[36.1652146,35.8207731],[36.1628654,35.8241782],[36.1673791,35.8251021],[36.170098,35.8273194],[36.1733711,35.8355287],[36.171761,35.8414679],[36.1726584,35.8466152],[36.1703774,35.8504537],[36.1737929,35.8589989],[36.1729393,35.8655781],[36.1752332,35.8662005],[36.1752154,35.8688322],[36.1691399,35.8835716],[36.1714361,35.8854539],[36.170915,35.8879774],[36.1729947,35.8914238],[36.1744507,35.9036649],[36.173046,35.9094989],[36.1758733,35.9215549],[36.1842733,35.9341471],[36.1997892,35.949293],[36.2083327,35.9533344],[36.2214883,35.9556508],[36.2251622,35.9630961],[36.2202649,35.9719559],[36.2163,35.9995],[36.2119,35.9981],[36.2084,35.9999],[36.2125,36.0025],[36.2126,36.0047],[36.2181,36.0053],[36.2159,36.0131],[36.2181,36.0177],[36.2157,36.0195],[36.2161,36.0253],[36.2114,36.0243],[36.2106,36.0262],[36.2058,36.0228],[36.2008,36.0267],[36.1994,36.0235],[36.1965,36.0249],[36.1957,36.0204],[36.1942,36.0205],[36.192,36.0172],[36.1938,36.0126],[36.1639,36.0133],[36.1625,36.0166],[36.1601,36.0168],[36.1586,36.0193],[36.1795398,36.0633168],[36.1654017,36.1108036],[36.1656618,36.126194],[36.1622453,36.1287428]]]}}]}