{"type":"FeatureCollection","features":[{"type":"Feature","properties":{"code":"03-01","provinceCode":"03","name":"Afyonkarahisar (Merkez İlçe)"},"geometry":{"type":"Polygon","coordinates":[[[30.7551141,38.563902],[30.7995551,38.5677742],[30.8052894,38.5601314],[30.8194948,38.5487168],[30.8372886,38.5487331],[30.8405467,38.5501664],[30.8423794,38.5547847],[30.8372886,38.5684783],[30.837085,38.5992],[30.834845,38.6028602],[30.8352523,38.607475],[30.843194,38.6098619],[30.8472666,38.6141581],[30.850932,38.6240224],[30.8468594,38.6391343],[30.8374922,38.6432697],[30.8285833,38.647047],[30.7990564,38.659769],[30.7848021,38.6774568],[30.7733477,38.6808349],[30.7649445,38.6914691],[30.771256,38.7148389],[30.781059,38.7336968],[30.7841476,38.7362108],[30.8036193,38.7408196],[30.8139594,38.7465802],[30.8118108,38.77747],[30.8215018,38.7974692],[30.811296,38.7968412],[30.7962558,38.8204904],[30.7794699,38.8131663],[30.7630868,38.8110736],[30.7146091,38.8101318],[30.7025232,38.8014461],[30.6933917,38.802702],[30.684663,38.7994577],[30.6451825,38.8344042],[30.6611627,38.8674516],[30.6653256,38.8822971],[30.6778143,38.891391],[30.6674742,38.9033053],[30.6654599,38.9081123],[30.6692199,38.923994],[30.6743229,38.9310978],[30.67204,38.9455121],[30.6788886,38.9564776],[30.6788886,38.9606545],[30.6747257,38.9723484],[30.6441082,38.9998008],[30.6224879,38.9957305],[30.5984652,38.986889],[30.5912472,38.9778856],[30.5922544,38.9724047],[30.5972902,38.9654878],[30.6147475,38.9513908],[30.6127332,38.9474745],[30.6021581,38.9470828],[30.5937651,38.942644],[30.5717756,38.9251473],[30.555829,38.9286731],[30.5405538,38.9238414],[30.5157106,38.9231884],[30.5055719,38.9197929],[30.4840859,38.8996256],[30.454677,38.8952361],[30.4373539,38.8954451],[30.416808,38.9040148],[30.4087507,38.9044328],[30.3912934,38.9019247],[30.3859219,38.9058958],[30.3876676,38.9142553],[30.3978735,38.9311802],[30.3982763,38.9412079],[30.3898162,38.9561423],[30.3777303,38.9610501],[30.3652416,38.9703428],[30.3591987,38.9726396],[30.3371756,38.9709692],[30.3267012,38.9670017],[30.304678,38.955098],[30.288295,38.9497721],[30.2725833,38.9497721],[30.2682862,38.9553069],[30.2758062,38.959275],[30.2728519,38.9668973],[30.2621089,38.9699251],[30.2568255,38.9766001],[30.2388032,38.9740736],[30.2281671,38.9703985],[30.2125084,38.9533985],[30.2008081,38.9328243],[30.1921225,38.9175474],[30.1838651,38.9094403],[30.1955147,38.8993633],[30.1992616,38.8982223],[30.2207652,38.9039273],[30.2271186,38.9021525],[30.2360785,38.8946722],[30.2461787,38.9016454],[30.2614919,38.901265],[30.2816923,38.8963205],[30.2764793,38.8793289],[30.2816923,38.8738755],[30.3162286,38.8740024],[30.3178576,38.8704511],[30.3103639,38.838228],[30.3123188,38.8351826],[30.3362661,38.8191918],[30.3519051,38.8059904],[30.3602783,38.8030832],[30.3945867,38.8012931],[30.4211405,38.7951989],[30.4445672,38.7773174],[30.4539503,38.7560253],[30.446207,38.733307],[30.4489142,38.7256786],[30.439386,38.7199943],[30.4369424,38.7081728],[30.4268422,38.6997822],[30.4203259,38.7006722],[30.4094112,38.6813449],[30.4125064,38.6673548],[30.409737,38.6490363],[30.4116919,38.6397481],[30.4147871,38.6342763],[30.4216699,38.6293133],[30.4342571,38.6331829],[30.4615457,38.6349626],[30.4685295,38.6331906],[30.4726039,38.6213278],[30.4773433,38.6191315],[30.4918569,38.6250178],[30.5035862,38.623796],[30.5203982,38.6194177],[30.5326487,38.6143263],[30.5498517,38.6040406],[30.5872551,38.5907993],[30.5979417,38.5905956],[30.6015908,38.6045498],[30.6177512,38.612697],[30.6319567,38.6137153],[30.6413401,38.6110676],[30.6804377,38.5821403],[30.6878662,38.5785745],[30.7087183,38.570831],[30.734653,38.5635962],[30.7551141,38.563902]]]}},{"type":"Feature","properties":{"code":"03-02","provinceCode":"03","name":"Başmakçı"},"geometry":{"type":"Polygon","coordinates":[[[29.9744246,37.7970431],[29.9939163,37.8069305],[30.0256915,37.8074119],[30.0370711,37.8010456],[30.0478943,37.790497],[30.0925532,37.7992402],[30.1108857,37.8135606],[30.1225366,37.8310583],[30.1499846,37.8531948],[30.1553437,37.8595684],[30.1573537,37.8656952],[30.1502464,37.8834908],[30.1616807,37.9044434],[30.1628435,37.9105598],[30.1566419,37.9221796],[30.1321962,37.9280917],[30.1269371,37.9349496],[30.0976628,37.9402776],[30.0781466,37.9396856],[30.0651358,37.944816],[30.0536263,37.9517216],[30.0456246,37.9688864],[30.0433828,37.9923632],[30.0174412,37.9926156],[29.9919121,37.9964781],[29.9848662,37.992036],[29.9755145,37.9772943],[29.9602698,37.9594186],[29.9498932,37.9501256],[29.9071057,37.9536611],[29.9017252,37.953257],[29.8968572,37.9506306],[29.9105646,37.9371941],[29.9346485,37.9303234],[29.9523272,37.9207235],[29.9533521,37.9169843],[29.9446408,37.9069783],[29.9447689,37.8911075],[29.9412504,37.8725934],[29.9256124,37.8565441],[29.8868858,37.8254386],[29.8906435,37.8071856],[29.8957542,37.8008886],[29.8970523,37.7774879],[29.9206932,37.7877545],[29.9350846,37.7890306],[29.9528198,37.7937085],[29.9744246,37.7970431]]]}},{"type":"Feature","properties":{"code":"03-03","provinceCode":"03","name":"Bayat"},"geometry":{"type":"Polygon","coordinates":[[[31.0166393,38.8994603],[31.0148877,38.9219209],[31.0052358,38.9398922],[31.0047774,38.9535678],[31.0003229,38.9681648],[30.9831413,38.9807802],[30.9694597,38.9933932],[30.9608689,39.019107],[30.9589599,39.0351734],[30.9780505,39.050742],[30.9984138,39.0546954],[31.0066865,39.0588956],[31.0136863,39.0756939],[31.0120955,39.0826097],[31.0063683,39.0910066],[31.0054137,39.0964393],[31.0082773,39.1023655],[31.0276861,39.1228562],[31.0455041,39.1354439],[31.0289588,39.1351971],[31.0085955,39.1322355],[30.987914,39.1337163],[30.9739142,39.1310014],[30.9437892,39.1300339],[30.9380875,39.1336669],[30.938902,39.1410904],[30.9456219,39.1450387],[30.9741306,39.1560928],[30.9566181,39.1731442],[30.9466401,39.1865615],[30.9395129,39.1993449],[30.9392557,39.2170491],[30.9272868,39.2181737],[30.9090449,39.2146078],[30.8914744,39.2133812],[30.8811773,39.2042889],[30.8773099,39.1943807],[30.8779009,39.1791603],[30.8844093,39.1676825],[30.9049104,39.149626],[30.9207548,39.1387157],[30.9210956,39.131017],[30.9180198,39.1202926],[30.9072753,39.1167487],[30.8915777,39.1165996],[30.8544044,39.1223951],[30.8197438,39.1231145],[30.7971496,39.1160589],[30.7853146,39.0923915],[30.7845816,39.071423],[30.7969858,39.060725],[30.8196624,39.0584987],[30.8368654,39.0461515],[30.8363441,39.0395722],[30.8445546,39.0349156],[30.8448152,39.0312712],[30.8548503,39.0247917],[30.85472,39.0219568],[30.8461185,39.010312],[30.8480734,39.0033243],[30.8472914,38.9953229],[30.8308704,38.9842816],[30.8307401,38.9777978],[30.880394,38.9486135],[30.8870406,38.9411128],[30.8991609,38.9116092],[30.8983789,38.9091753],[30.8955118,38.9080598],[30.8766146,38.9085669],[30.8609756,38.9013662],[30.8562839,38.8952806],[30.8551109,38.8896002],[30.8573265,38.8806729],[30.8596723,38.8785424],[30.8697074,38.876006],[30.8727048,38.8736724],[30.8836522,38.8528695],[30.8983789,38.8437346],[30.9020281,38.8387607],[30.9032639,38.8328134],[30.9081002,38.8266664],[30.9190455,38.8262698],[30.9406517,38.8135774],[30.9431971,38.8340031],[30.951597,38.8393564],[30.9541424,38.8480795],[30.9589787,38.888509],[30.9673786,38.8918771],[30.9711967,38.8982166],[30.9767966,38.8982166],[30.9799853,38.8875418],[31.0166393,38.8994603]]]}},{"type":"Feature","properties":{"code":"03-04","provinceCode":"03","name":"Bolvadin"},"geometry":{"type":"Polygon","coordinates":[[[30.8285833,38.647047],[30.8374922,38.6432697],[30.8532738,38.6432697],[30.8609101,38.6502277],[30.8690554,38.6687128],[30.8810189,38.6687128],[31.0876908,38.6428323],[31.1618752,38.635794],[31.2050995,38.642871],[31.2369172,38.6521896],[31.250046,38.65892],[31.3516082,38.7618068],[31.3663716,38.7637916],[31.3762987,38.7731193],[31.3874985,38.7911759],[31.3943712,38.7983179],[31.3880076,38.802087],[31.3821532,38.8191446],[31.3734987,38.8264821],[31.2368263,38.827057],[31.1922815,38.8483709],[31.1919633,38.8600166],[31.189736,38.865467],[31.182418,38.8746328],[31.1722363,38.8771098],[31.1677818,38.8889984],[31.1521911,38.8971706],[31.1397822,38.9117792],[31.1203734,38.9271274],[31.0903681,38.93364],[31.0510126,38.9118838],[31.0166393,38.8994603],[30.9799853,38.8875418],[30.9767966,38.8982166],[30.9711967,38.8982166],[30.9673786,38.8918771],[30.9589787,38.888509],[30.9541424,38.8480795],[30.951597,38.8393564],[30.9431971,38.8340031],[30.9406517,38.8135774],[30.9411906,38.8034615],[30.9335544,38.7957249],[30.9193,38.7897731],[30.9134456,38.7836223],[30.9063184,38.7667547],[30.9045366,38.7512726],[30.8999549,38.7377727],[30.8803552,38.723873],[30.8723644,38.6985174],[30.8464012,38.6774568],[30.8352013,38.6641417],[30.8285833,38.647047]]]}},{"type":"Feature","properties":{"code":"03-05","provinceCode":"03","name":"Çay"},"geometry":{"type":"Polygon","coordinates":[[[30.7952099,38.3413548],[30.7986702,38.352884],[30.7963137,38.3604392],[30.7996931,38.3660822],[30.8101014,38.3717581],[30.8112097,38.3784546],[30.8186009,38.3847494],[30.8420509,38.3896104],[30.850772,38.400091],[30.857555,38.4047991],[30.8718963,38.4081402],[30.9127885,38.4075328],[30.9392655,38.4155574],[30.9450207,38.4242267],[30.9581981,38.427272],[30.9647273,38.4426051],[30.9622079,38.4568721],[30.9759678,38.4781156],[30.977712,38.4899485],[30.9833323,38.4993528],[30.9895339,38.5031445],[30.9994178,38.5060261],[31.0093017,38.5067844],[31.0387595,38.5034478],[31.0693802,38.5084526],[31.0815897,38.5090592],[31.0928887,38.5049782],[31.1178306,38.5045095],[31.1323657,38.5016278],[31.1452703,38.5057523],[31.1557065,38.5173045],[31.1572338,38.5236773],[31.1585065,38.5376158],[31.1535949,38.5424976],[31.1570791,38.5531388],[31.1612645,38.5565206],[31.1621678,38.5595891],[31.1618752,38.635794],[31.0876908,38.6428323],[30.8810189,38.6687128],[30.8690554,38.6687128],[30.8609101,38.6502277],[30.8532738,38.6432697],[30.8374922,38.6432697],[30.8468594,38.6391343],[30.850932,38.6240224],[30.8472666,38.6141581],[30.843194,38.6098619],[30.8352523,38.607475],[30.834845,38.6028602],[30.837085,38.5992],[30.8372886,38.5684783],[30.8423794,38.5547847],[30.8405467,38.5501664],[30.8372886,38.5487331],[30.8194948,38.5487168],[30.8052894,38.5601314],[30.7995551,38.5677742],[30.7551141,38.563902],[30.7596755,38.5524879],[30.7590239,38.5463725],[30.7560264,38.5408682],[30.7565477,38.5376061],[30.7596755,38.530266],[30.7668434,38.523435],[30.767886,38.5186427],[30.7628033,38.5045699],[30.7548535,38.4969204],[30.7547231,38.4910043],[30.7446881,38.4838635],[30.7490866,38.4808029],[30.7510414,38.4757017],[30.7497382,38.468942],[30.7428961,38.4609061],[30.7266054,38.4605234],[30.7102772,38.4499578],[30.6966306,38.4108848],[30.6831094,38.3955652],[30.6831094,38.3905856],[30.6849013,38.387138],[30.6998396,38.3790606],[30.7080502,38.3792396],[30.7231325,38.3739295],[30.7238518,38.3639773],[30.7433277,38.3550798],[30.7484349,38.3511514],[30.7533221,38.35112],[30.7727103,38.3370066],[30.7952099,38.3413548]]]}},{"type":"Feature","properties":{"code":"03-06","provinceCode":"03","name":"Çobanlar"},"geometry":{"type":"Polygon","coordinates":[[[30.9406517,38.8135774],[30.9190455,38.8262698],[30.9081002,38.8266664],[30.9032639,38.8328134],[30.8846948,38.8246491],[30.8749204,38.8240399],[30.8407049,38.8046903],[30.8215018,38.7974692],[30.8118108,38.77747],[30.8139594,38.7465802],[30.8036193,38.7408196],[30.7841476,38.7362108],[30.781059,38.7336968],[30.771256,38.7148389],[30.7649445,38.6914691],[30.7733477,38.6808349],[30.7848021,38.6774568],[30.7990564,38.659769],[30.8285833,38.647047],[30.8352013,38.6641417],[30.8464012,38.6774568],[30.8723644,38.6985174],[30.8803552,38.723873],[30.8999549,38.7377727],[30.9045366,38.7512726],[30.9063184,38.7667547],[30.9134456,38.7836223],[30.9193,38.7897731],[30.9335544,38.7957249],[30.9411906,38.8034615],[30.9406517,38.8135774]]]}},{"type":"Feature","properties":{"code":"03-07","provinceCode":"03","name":"Dazkırı"},"geometry":{"type":"Polygon","coordinates":[[[29.6681494,38.0154021],[29.660877,38.0091862],[29.6688243,38.0085992],[29.6688243,38.0017499],[29.6633605,37.9894197],[29.6658441,37.9845262],[29.6588901,37.9763043],[29.6668375,37.9631866],[29.6782618,37.9600536],[29.6832289,37.9561373],[29.6961434,37.9528082],[29.7093062,37.9559415],[29.7137766,37.9549623],[29.7227018,37.9433465],[29.7056274,37.9231459],[29.6943739,37.9154927],[29.6684703,37.9121635],[29.669439,37.8981155],[29.6780054,37.8932216],[29.6822895,37.8864444],[29.6799711,37.879343],[29.6976929,37.8789011],[29.7045421,37.872527],[29.7352292,37.8631011],[29.7418215,37.8582439],[29.7474416,37.8215969],[29.7702514,37.8125987],[29.8868858,37.8254386],[29.9256124,37.8565441],[29.9412504,37.8725934],[29.9447689,37.8911075],[29.9446408,37.9069783],[29.9533521,37.9169843],[29.9523272,37.9207235],[29.9346485,37.9303234],[29.9105646,37.9371941],[29.8968572,37.9506306],[29.9017252,37.953257],[29.9071057,37.9536611],[29.9498932,37.9501256],[29.9602698,37.9594186],[29.9755145,37.9772943],[29.9501494,37.9833529],[29.9442565,37.9972857],[29.9381134,37.9998205],[29.9286055,38.000412],[29.9133429,38.0000177],[29.9048358,37.996863],[29.8903238,37.9810873],[29.8557951,38.0118467],[29.8477885,38.0163807],[29.8297735,38.016972],[29.8117586,38.0250535],[29.7984975,38.0230825],[29.7785566,38.0360475],[29.7708982,38.0219044],[29.7631992,38.0177957],[29.7448209,37.9949001],[29.745566,37.9878538],[29.7401022,37.9858964],[29.7247042,37.9862879],[29.7101392,37.9793522],[29.7070459,37.979505],[29.7028988,37.9854845],[29.6999698,37.9850487],[29.6951891,37.9877381],[29.6837256,37.988441],[29.67702,38.0005757],[29.6765233,38.0054682],[29.6723341,38.0123171],[29.6681494,38.0154021]]]}},{"type":"Feature","properties":{"code":"03-08","provinceCode":"03","name":"Dinar"},"geometry":{"type":"Polygon","coordinates":[[[30.6070894,38.2202332],[30.5783786,38.2840392],[30.5702894,38.308945],[30.5587778,38.3299374],[30.5369991,38.3433596],[30.5214429,38.3477518],[30.5111758,38.3475078],[30.4953084,38.368489],[30.4875303,38.3740992],[30.474152,38.379709],[30.4571614,38.3833039],[30.4318279,38.382078],[30.4140006,38.3860006],[30.3896054,38.3852652],[30.3839757,38.3815877],[30.3833502,38.3717802],[30.3902309,38.3563308],[30.3902309,38.3482369],[30.375627,38.3240594],[30.3634294,38.3174343],[30.335281,38.3085998],[30.3280875,38.3044276],[30.3246472,38.298537],[30.2805481,38.2820899],[30.2680377,38.2793893],[30.2636591,38.2631834],[30.2636591,38.248202],[30.2339469,38.2219158],[30.1910988,38.2224072],[30.1757736,38.2211787],[30.154506,38.2140526],[30.1385552,38.2066802],[30.1176003,38.2071717],[30.0763187,38.2111817],[30.08002,38.1978189],[30.0719765,38.1894002],[30.0580578,38.184182],[30.0199993,38.1950242],[30.0175312,38.1903443],[30.0174164,38.1845616],[30.0096677,38.1837807],[30.0047006,38.1795639],[29.9988677,38.1771398],[30.0033716,38.1686913],[30.000948,38.1625157],[30.0019415,38.1517142],[29.9993449,38.1414641],[29.9686483,38.1349431],[29.9881344,38.0997907],[30.0038975,38.0795074],[30.0169083,38.077144],[30.0211618,38.0745835],[30.0191601,38.0696592],[30.0199108,38.0637495],[30.0336722,38.0596125],[30.0336722,38.0570514],[30.0306697,38.0552783],[30.0079008,38.0487764],[29.9908867,38.0464119],[29.9833805,38.0426681],[29.9881344,38.0343914],[30.0149417,38.0269258],[30.041912,38.0368705],[30.0440695,38.0290272],[30.0433828,37.9923632],[30.0456246,37.9688864],[30.0536263,37.9517216],[30.0651358,37.944816],[30.0781466,37.9396856],[30.0976628,37.9402776],[30.1269371,37.9349496],[30.1321962,37.9280917],[30.1566419,37.9221796],[30.1673009,37.936396],[30.1663319,37.9493871],[30.1791228,37.9565694],[30.1884253,37.9677236],[30.1917199,37.9793343],[30.2101311,37.978876],[30.2376647,37.9926058],[30.2452283,37.9930121],[30.2505818,37.9917247],[30.2627809,38.0018672],[30.2799249,38.0064073],[30.3204387,38.0393013],[30.3479405,38.0401819],[30.3559189,38.0518752],[30.3616554,38.0556598],[30.3742138,38.0602988],[30.382586,38.0600546],[30.3887877,38.0744579],[30.3979351,38.1092339],[30.4073539,38.1267987],[30.4170439,38.1411279],[30.4282844,38.1534731],[30.450184,38.166121],[30.4528972,38.1769386],[30.4558043,38.1815089],[30.4670448,38.1863836],[30.4699518,38.1946089],[30.4742154,38.1978073],[30.4806109,38.1990258],[30.499991,38.1950658],[30.5118129,38.1949135],[30.52441,38.1962843],[30.5625889,38.2067928],[30.5784807,38.2166907],[30.6070894,38.2202332]]]}},{"type":"Feature","properties":{"code":"03-09","provinceCode":"03","name":"Emirdağ"},"geometry":{"type":"Polygon","coordinates":[[[31.3039392,39.2610881],[31.2933275,39.2452367],[31.2821217,39.2400165],[31.2584931,39.2356579],[31.248611,39.2358759],[31.2371507,39.2440323],[31.1650543,39.2504284],[31.1211192,39.2612629],[31.1104413,39.2598934],[31.0719467,39.2422241],[31.0708129,39.238773],[31.0749276,39.2331414],[31.1055227,39.2189081],[31.1030576,39.2043989],[31.0895833,39.1983879],[31.0545439,39.2019731],[31.0348098,39.1917803],[31.0248695,39.1847264],[30.9923546,39.1965092],[30.9532121,39.2136084],[30.9392557,39.2170491],[30.9395129,39.1993449],[30.9466401,39.1865615],[30.9566181,39.1731442],[30.9741306,39.1560928],[30.9456219,39.1450387],[30.938902,39.1410904],[30.9380875,39.1336669],[30.9437892,39.1300339],[30.9739142,39.1310014],[30.987914,39.1337163],[31.0085955,39.1322355],[31.0289588,39.1351971],[31.0455041,39.1354439],[31.0276861,39.1228562],[31.0082773,39.1023655],[31.0054137,39.0964393],[31.0063683,39.0910066],[31.0120955,39.0826097],[31.0136863,39.0756939],[31.0066865,39.0588956],[30.9984138,39.0546954],[30.9780505,39.050742],[30.9589599,39.0351734],[30.9608689,39.019107],[30.9694597,38.9933932],[30.9831413,38.9807802],[31.0003229,38.9681648],[31.0047774,38.9535678],[31.0052358,38.9398922],[31.0148877,38.9219209],[31.0166393,38.8994603],[31.0510126,38.9118838],[31.0903681,38.93364],[31.1203734,38.9271274],[31.1397822,38.9117792],[31.1521911,38.8971706],[31.1677818,38.8889984],[31.1722363,38.8771098],[31.182418,38.8746328],[31.189736,38.865467],[31.1919633,38.8600166],[31.1922815,38.8483709],[31.2368263,38.827057],[31.3734987,38.8264821],[31.3821532,38.8191446],[31.3880076,38.802087],[31.3943712,38.7983179],[31.423898,38.7981195],[31.4465522,38.7915727],[31.4783699,38.7899855],[31.5325873,38.7818505],[31.5491325,38.7770882],[31.5786664,38.7613717],[31.5911841,38.7760504],[31.6096637,38.7919562],[31.6185833,38.8191668],[31.6208578,38.8364616],[31.6162062,38.8500358],[31.6034067,38.8606883],[31.5997803,38.8568619],[31.5877748,38.8558844],[31.5869808,38.8544139],[31.5820885,38.8611812],[31.5643644,38.8586832],[31.570555,38.8640967],[31.5868735,38.887609],[31.5986431,38.897187],[31.5973556,38.9014203],[31.6000914,38.9030485],[31.5994155,38.9041756],[31.6022372,38.9054948],[31.6088033,38.9046432],[31.6095704,38.912278],[31.6152674,38.9105207],[31.6210449,38.9201875],[31.6219568,38.9232676],[31.6199613,38.9242692],[31.6191459,38.934076],[31.6202188,38.9416617],[31.6180944,38.9455837],[31.6201866,38.9477448],[31.6171825,38.948963],[31.6170216,38.9524757],[31.6083634,38.9600679],[31.6093397,38.9616863],[31.6067111,38.964823],[31.6081488,38.9659491],[31.6071403,38.9687102],[31.6098762,38.9709708],[31.6077304,38.9736566],[31.6235447,38.9690105],[31.6243011,38.9737817],[31.626007,38.9743406],[31.6287482,38.971955],[31.637975,38.9694193],[31.6394341,38.9702451],[31.639713,38.9683682],[31.6473305,38.9686268],[31.6474164,38.9701199],[31.6566539,38.9700616],[31.6566968,38.9727975],[31.6582739,38.9727725],[31.6582954,38.9700616],[31.6627479,38.9696278],[31.6737556,38.9838068],[31.686877,38.9795701],[31.6822851,38.9762673],[31.6799998,38.9768094],[31.6778648,38.9742342],[31.6811371,38.9736941],[31.6812121,38.9693275],[31.6916621,38.9636134],[31.6990542,38.9621827],[31.706028,38.9582909],[31.7071009,38.9605434],[31.7164081,38.9665247],[31.7173362,38.9648876],[31.7253184,38.9674131],[31.7237896,38.9692441],[31.7292665,38.9713421],[31.7280125,38.9800459],[31.7299533,38.9803291],[31.7288696,38.9840321],[31.7319863,38.9847993],[31.7277646,38.9926131],[31.725528,38.9922184],[31.7261284,38.9936138],[31.7188221,38.9953315],[31.7164725,39.0003344],[31.712932,38.9999258],[31.7117732,39.0022562],[31.7091769,39.0007012],[31.7046332,39.0009055],[31.7037642,39.0037111],[31.7020476,39.0019435],[31.6944945,39.0017518],[31.6927671,39.0038153],[31.6973484,39.0022812],[31.6763949,39.0199339],[31.6687506,39.0214426],[31.6617823,39.0159369],[31.6553128,39.016683],[31.6467565,39.0154868],[31.6457748,39.0175666],[31.6425937,39.016312],[31.6402763,39.01775],[31.6396487,39.0150908],[31.637696,39.0148157],[31.6382861,39.011948],[31.6310817,39.0110935],[31.606679,39.0131651],[31.6067219,39.0161328],[31.5960145,39.0165162],[31.5925598,39.0202632],[31.5897166,39.0299108],[31.5924847,39.0433112],[31.5553722,39.0402632],[31.5445518,39.044144],[31.5456603,39.067185],[31.5410532,39.076385],[31.5297004,39.08309],[31.5082113,39.0850924],[31.4904678,39.0890546],[31.4708527,39.0987609],[31.4474983,39.1131991],[31.4427383,39.1210765],[31.4592699,39.1476456],[31.4521775,39.1654255],[31.4119047,39.1657405],[31.4044624,39.1682105],[31.3867168,39.1838676],[31.3657122,39.1846219],[31.3458365,39.1887467],[31.3363221,39.1929696],[31.328693,39.2012508],[31.317577,39.2207249],[31.3185281,39.235217],[31.3295875,39.2517034],[31.3304717,39.2613957],[31.3219929,39.2670225],[31.3134227,39.2667059],[31.3039392,39.2610881]]]}},{"type":"Feature","properties":{"code":"03-10","provinceCode":"03","name":"Evciler"},"geometry":{"type":"Polygon","coordinates":[[[29.7785566,38.0360475],[29.7984975,38.0230825],[29.8117586,38.0250535],[29.8297735,38.016972],[29.8477885,38.0163807],[29.8557951,38.0118467],[29.8903238,37.9810873],[29.9048358,37.996863],[29.9133429,38.0000177],[29.9286055,38.000412],[29.9381134,37.9998205],[29.9442565,37.9972857],[29.9501494,37.9833529],[29.9755145,37.9772943],[29.9848662,37.992036],[29.9919121,37.9964781],[30.0174412,37.9926156],[30.0433828,37.9923632],[30.0440695,38.0290272],[30.041912,38.0368705],[30.0149417,38.0269258],[29.9881344,38.0343914],[29.9833805,38.0426681],[29.9908867,38.0464119],[30.0079008,38.0487764],[30.0306697,38.0552783],[30.0336722,38.0570514],[30.0336722,38.0596125],[30.0199108,38.0637495],[30.0191601,38.0696592],[30.0211618,38.0745835],[30.0169083,38.077144],[30.0038975,38.0795074],[29.9881344,38.0997907],[29.9686483,38.1349431],[29.9724344,38.1480906],[29.9581291,38.1413404],[29.9520039,38.152236],[29.9583936,38.1637359],[29.9293597,38.170212],[29.9120344,38.1620891],[29.8994776,38.1584648],[29.8850134,38.1504655],[29.874205,38.137965],[29.8671318,38.1357952],[29.8702176,38.1155617],[29.8853668,38.0971097],[29.8937984,38.0931607],[29.863375,38.0818633],[29.8474276,38.0733807],[29.8410232,38.0756454],[29.8120447,38.070631],[29.8140598,38.0603923],[29.8117676,38.0506935],[29.8024393,38.0453784],[29.7785566,38.0360475]]]}},{"type":"Feature","properties":{"code":"03-11","provinceCode":"03","name":"Hocalar"},"geometry":{"type":"Polygon","coordinates":[[[29.8142623,38.4740857],[29.8342817,38.4709478],[29.8460459,38.4631163],[29.8653178,38.461088],[29.873535,38.4629123],[29.8811858,38.4594829],[29.8855932,38.4544877],[29.8852568,38.447652],[29.8909532,38.444614],[29.8952346,38.4387167],[29.8987924,38.4470057],[29.9056134,38.4515666],[29.9270439,38.4567767],[29.9536123,38.4738864],[29.953425,38.4813075],[29.9357501,38.4930791],[29.9246373,38.511969],[29.9302738,38.520976],[30.0073795,38.5459753],[30.0525006,38.5409664],[30.0627491,38.5554939],[30.0851677,38.5708949],[30.0816448,38.6019372],[30.0846873,38.6373442],[30.090292,38.6460994],[30.0944554,38.6694831],[30.0792428,38.6896094],[30.0676442,38.7194221],[30.0554262,38.728001],[29.9967029,38.7360151],[29.9786806,38.7394719],[29.9606583,38.7362456],[29.9509086,38.7316362],[29.9387952,38.7178065],[29.9257955,38.7125043],[29.9119095,38.7125043],[29.9039324,38.7088157],[29.9077963,38.6847746],[29.9010441,38.6722458],[29.898182,38.6606367],[29.9021089,38.6562369],[29.9109934,38.6513137],[29.9277482,38.6378255],[29.9214856,38.6345156],[29.9013106,38.6354056],[29.8939324,38.6282212],[29.8652359,38.5835913],[29.8412572,38.5528528],[29.8319991,38.5403535],[29.8281553,38.5091365],[29.8118339,38.4848797],[29.8142623,38.4740857]]]}},{"type":"Feature","properties":{"code":"03-12","provinceCode":"03","name":"İhsaniye"},"geometry":{"type":"Polygon","coordinates":[[[30.2729309,39.1169911],[30.2694417,39.1137531],[30.2657008,39.1131563],[30.2696716,39.098777],[30.2679698,39.089972],[30.2450397,39.0684771],[30.2422698,39.0594396],[30.2576067,39.0364911],[30.2587046,39.0209825],[30.2677221,39.002181],[30.2606663,38.9798156],[30.2568255,38.9766001],[30.2621089,38.9699251],[30.2728519,38.9668973],[30.2758062,38.959275],[30.2682862,38.9553069],[30.2725833,38.9497721],[30.288295,38.9497721],[30.304678,38.955098],[30.3267012,38.9670017],[30.3371756,38.9709692],[30.3591987,38.9726396],[30.3652416,38.9703428],[30.3777303,38.9610501],[30.3898162,38.9561423],[30.3982763,38.9412079],[30.3978735,38.9311802],[30.3876676,38.9142553],[30.3859219,38.9058958],[30.3912934,38.9019247],[30.4087507,38.9044328],[30.416808,38.9040148],[30.4373539,38.8954451],[30.454677,38.8952361],[30.4840859,38.8996256],[30.5055719,38.9197929],[30.5157106,38.9231884],[30.5405538,38.9238414],[30.555829,38.9286731],[30.5717756,38.9251473],[30.5937651,38.942644],[30.6021581,38.9470828],[30.6127332,38.9474745],[30.6147475,38.9513908],[30.5972902,38.9654878],[30.5922544,38.9724047],[30.5912472,38.9778856],[30.5984652,38.986889],[30.6224879,38.9957305],[30.6441082,38.9998008],[30.6713685,39.0013662],[30.6817087,39.0057491],[30.6830515,39.0130534],[30.6885573,39.0156619],[30.708029,39.0150358],[30.7139376,39.0192093],[30.7262921,39.0231738],[30.7390494,39.0381952],[30.7420138,39.0523158],[30.7348286,39.0476168],[30.7064864,39.0497797],[30.6933577,39.0554082],[30.6712955,39.0769804],[30.6688014,39.0896008],[30.6613693,39.091407],[30.6327042,39.0882363],[30.6097714,39.0935689],[30.5902867,39.0925669],[30.5797134,39.096684],[30.5723129,39.1048386],[30.561203,39.1077979],[30.5481324,39.1146031],[30.54466,39.1439941],[30.5321051,39.157873],[30.525261,39.1806784],[30.5082413,39.2159248],[30.4962392,39.2276103],[30.4790021,39.2287755],[30.4461877,39.2204708],[30.4300168,39.2124106],[30.4190498,39.1977585],[30.4099736,39.1789994],[30.378018,39.1534907],[30.3386881,39.1583293],[30.3277211,39.1586225],[30.3178886,39.1568631],[30.3080561,39.1531974],[30.2995472,39.1439592],[30.2936855,39.1341331],[30.2923629,39.1283885],[30.2729309,39.1169911]]]}},{"type":"Feature","properties":{"code":"03-13","provinceCode":"03","name":"İscehisar"},"geometry":{"type":"Polygon","coordinates":[[[30.6441082,38.9998008],[30.6747257,38.9723484],[30.6788886,38.9606545],[30.6788886,38.9564776],[30.67204,38.9455121],[30.6743229,38.9310978],[30.6692199,38.923994],[30.6654599,38.9081123],[30.6674742,38.9033053],[30.6778143,38.891391],[30.6653256,38.8822971],[30.6611627,38.8674516],[30.6451825,38.8344042],[30.684663,38.7994577],[30.6933917,38.802702],[30.7025232,38.8014461],[30.7146091,38.8101318],[30.7630868,38.8110736],[30.7794699,38.8131663],[30.7962558,38.8204904],[30.811296,38.7968412],[30.8215018,38.7974692],[30.8407049,38.8046903],[30.8749204,38.8240399],[30.8846948,38.8246491],[30.9032639,38.8328134],[30.9020281,38.8387607],[30.8983789,38.8437346],[30.8836522,38.8528695],[30.8727048,38.8736724],[30.8697074,38.876006],[30.8596723,38.8785424],[30.8573265,38.8806729],[30.8551109,38.8896002],[30.8562839,38.8952806],[30.8609756,38.9013662],[30.8766146,38.9085669],[30.8955118,38.9080598],[30.8983789,38.9091753],[30.8991609,38.9116092],[30.8870406,38.9411128],[30.880394,38.9486135],[30.8307401,38.9777978],[30.8308704,38.9842816],[30.8472914,38.9953229],[30.8480734,39.0033243],[30.8461185,39.010312],[30.85472,39.0219568],[30.8548503,39.0247917],[30.8448152,39.0312712],[30.8445546,39.0349156],[30.8363441,39.0395722],[30.8368654,39.0461515],[30.8196624,39.0584987],[30.7969858,39.060725],[30.7845816,39.071423],[30.7690532,39.0661173],[30.7505647,39.0632341],[30.7420138,39.0523158],[30.7390494,39.0381952],[30.7262921,39.0231738],[30.7139376,39.0192093],[30.708029,39.0150358],[30.6885573,39.0156619],[30.6830515,39.0130534],[30.6817087,39.0057491],[30.6713685,39.0013662],[30.6441082,38.9998008]]]}},{"type":"Feature","properties":{"code":"03-14","provinceCode":"03","name":"Kızılören"},"geometry":{"type":"Polygon","coordinates":[[[30.0763187,38.2111817],[30.1176003,38.2071717],[30.1385552,38.2066802],[30.154506,38.2140526],[30.1757736,38.2211787],[30.1910988,38.2224072],[30.2339469,38.2219158],[30.2636591,38.248202],[30.2636591,38.2631834],[30.2680377,38.2793893],[30.2561528,38.2781617],[30.2508359,38.2683402],[30.2267534,38.2717779],[30.2057985,38.2803713],[30.2004816,38.2865089],[30.1992306,38.2928914],[30.2120537,38.3301933],[30.1839054,38.3392705],[30.1742098,38.3267584],[30.1667036,38.3213604],[30.1554442,38.3162073],[30.1560698,38.3090906],[30.1501273,38.2965734],[30.1457487,38.2919095],[30.1373042,38.2889638],[30.1182258,38.2855269],[30.0543895,38.288187],[30.0643409,38.2792412],[30.0852879,38.2517733],[30.0929783,38.235894],[30.0843492,38.2248335],[30.0765616,38.21929],[30.0763187,38.2111817]]]}},{"type":"Feature","properties":{"code":"03-15","provinceCode":"03","name":"Sandıklı"},"geometry":{"type":"Polygon","coordinates":[[[29.8952346,38.4387167],[29.9007051,38.4250509],[29.9320539,38.4094307],[29.9666626,38.4114148],[29.9781627,38.4210296],[30.0055947,38.404135],[30.0059384,38.392377],[29.9931416,38.3879444],[29.9795001,38.3749578],[29.9841391,38.3686294],[29.9830814,38.3564681],[29.9796902,38.3459966],[29.9697287,38.3381835],[29.9902876,38.3205595],[29.9911354,38.3114133],[30.0038524,38.3047543],[30.019017,38.3029901],[30.0245128,38.2973569],[30.0364806,38.2960521],[30.0543895,38.288187],[30.1182258,38.2855269],[30.1373042,38.2889638],[30.1457487,38.2919095],[30.1501273,38.2965734],[30.1560698,38.3090906],[30.1554442,38.3162073],[30.1667036,38.3213604],[30.1742098,38.3267584],[30.1839054,38.3392705],[30.2120537,38.3301933],[30.1992306,38.2928914],[30.2004816,38.2865089],[30.2057985,38.2803713],[30.2267534,38.2717779],[30.2508359,38.2683402],[30.2561528,38.2781617],[30.2680377,38.2793893],[30.2805481,38.2820899],[30.3246472,38.298537],[30.3280875,38.3044276],[30.335281,38.3085998],[30.3634294,38.3174343],[30.375627,38.3240594],[30.3902309,38.3482369],[30.3902309,38.3563308],[30.3833502,38.3717802],[30.3839757,38.3815877],[30.3896054,38.3852652],[30.4140006,38.3860006],[30.4130623,38.3992378],[30.4074327,38.4070809],[30.4074327,38.4176187],[30.401803,38.4247248],[30.3967988,38.42791],[30.3921075,38.4516723],[30.3777205,38.4498598],[30.3724662,38.4557381],[30.3722159,38.5111663],[30.3564529,38.5383752],[30.3486964,38.5411151],[30.3376873,38.5514866],[30.3286798,38.5554],[30.3199225,38.5667476],[30.3106649,38.5702689],[30.3059109,38.57379],[30.2934005,38.5939354],[30.2774873,38.608069],[30.2771671,38.6185794],[30.291579,38.6549786],[30.2952621,38.6703582],[30.2930202,38.6792344],[30.2694807,38.6796094],[30.2525066,38.6843596],[30.2368136,38.6846096],[30.2195192,38.674984],[30.2020647,38.6599805],[30.1964601,38.6582298],[30.1846102,38.6581048],[30.1700381,38.6637316],[30.1549857,38.6668575],[30.1106288,38.6664824],[30.1018215,38.669358],[30.0944554,38.6694831],[30.090292,38.6460994],[30.0846873,38.6373442],[30.0816448,38.6019372],[30.0851677,38.5708949],[30.0627491,38.5554939],[30.0525006,38.5409664],[30.0073795,38.5459753],[29.9302738,38.520976],[29.9246373,38.511969],[29.9357501,38.4930791],[29.953425,38.4813075],[29.9536123,38.4738864],[29.9270439,38.4567767],[29.9056134,38.4515666],[29.8987924,38.4470057],[29.8952346,38.4387167]]]}},{"type":"Feature","properties":{"code":"03-16","provinceCode":"03","name":"Sinanpaşa"},"geometry":{"type":"Polygon","coordinates":[[[30.0944554,38.6694831],[30.1018215,38.669358],[30.1106288,38.6664824],[30.1549857,38.6668575],[30.1700381,38.6637316],[30.1846102,38.6581048],[30.1964601,38.6582298],[30.2020647,38.6599805],[30.2195192,38.674984],[30.2368136,38.6846096],[30.2525066,38.6843596],[30.2694807,38.6796094],[30.2930202,38.6792344],[30.2952621,38.6703582],[30.291579,38.6549786],[30.2771671,38.6185794],[30.2774873,38.608069],[30.2934005,38.5939354],[30.3059109,38.57379],[30.3106649,38.5702689],[30.3199225,38.5667476],[30.3286798,38.5554],[30.3376873,38.5514866],[30.3486964,38.5411151],[30.3564529,38.5383752],[30.3722159,38.5111663],[30.3849765,38.5131242],[30.3884794,38.5182142],[30.3982521,38.5747285],[30.404972,38.5879409],[30.4055829,38.5923975],[30.4031393,38.6084709],[30.398577,38.6130771],[30.3992893,38.6154448],[30.4216699,38.6293133],[30.4147871,38.6342763],[30.4116919,38.6397481],[30.409737,38.6490363],[30.4125064,38.6673548],[30.4094112,38.6813449],[30.4203259,38.7006722],[30.4268422,38.6997822],[30.4369424,38.7081728],[30.439386,38.7199943],[30.4489142,38.7256786],[30.446207,38.733307],[30.4539503,38.7560253],[30.4445672,38.7773174],[30.4211405,38.7951989],[30.3945867,38.8012931],[30.3602783,38.8030832],[30.3519051,38.8059904],[30.3362661,38.8191918],[30.3123188,38.8351826],[30.3103639,38.838228],[30.3178576,38.8704511],[30.3162286,38.8740024],[30.2816923,38.8738755],[30.2764793,38.8793289],[30.2816923,38.8963205],[30.2614919,38.901265],[30.2461787,38.9016454],[30.2360785,38.8946722],[30.2271186,38.9021525],[30.2207652,38.9039273],[30.1992616,38.8982223],[30.1955147,38.8993633],[30.1838651,38.9094403],[30.1668667,38.9027522],[30.1424065,38.8861368],[30.1300488,38.8731855],[30.1035393,38.8333528],[30.0722313,38.8173787],[30.0637879,38.8155802],[30.0340791,38.8220466],[30.0070436,38.8060406],[30.0070436,38.801666],[30.0156115,38.7924555],[30.0156115,38.7873892],[30.0094071,38.7779465],[30.0076345,38.7638953],[30.0029073,38.7551407],[30.0026118,38.7420068],[29.9967029,38.7360151],[30.0554262,38.728001],[30.0676442,38.7194221],[30.0792428,38.6896094],[30.0944554,38.6694831]]]}},{"type":"Feature","properties":{"code":"03-17","provinceCode":"03","name":"Sultandağı"},"geometry":{"type":"Polygon","coordinates":[[[31.5778072,38.6421726],[31.5791069,38.6502499],[31.5748071,38.6624765],[31.5692906,38.6706843],[31.5479201,38.6801014],[31.5407828,38.6876203],[31.5405787,38.721063],[31.5436231,38.7273315],[31.5591939,38.7346891],[31.5720333,38.7458374],[31.5786664,38.7613717],[31.5491325,38.7770882],[31.5325873,38.7818505],[31.4783699,38.7899855],[31.4465522,38.7915727],[31.423898,38.7981195],[31.3943712,38.7983179],[31.3874985,38.7911759],[31.3762987,38.7731193],[31.3663716,38.7637916],[31.3516082,38.7618068],[31.250046,38.65892],[31.2369172,38.6521896],[31.2050995,38.642871],[31.1618752,38.635794],[31.1621678,38.5595891],[31.1612645,38.5565206],[31.1570791,38.5531388],[31.1535949,38.5424976],[31.1585065,38.5376158],[31.1572338,38.5236773],[31.1557065,38.5173045],[31.1452703,38.5057523],[31.1323657,38.5016278],[31.1271331,38.4814533],[31.1381797,38.4618801],[31.1676376,38.4488283],[31.1891496,38.4406318],[31.1994211,38.4385066],[31.2021343,38.4353188],[31.2058165,38.4243878],[31.1829479,38.4038879],[31.1825603,38.3940155],[31.1856611,38.3858128],[31.208098,38.3823904],[31.2225221,38.383732],[31.2366219,38.3817788],[31.2420071,38.3765871],[31.2509723,38.3749006],[31.2585563,38.3768823],[31.2671612,38.3785259],[31.2721151,38.3856627],[31.2741156,38.3991991],[31.2734959,38.4217624],[31.2759027,38.4281899],[31.2825324,38.4332597],[31.3019489,38.4394797],[31.3050646,38.4559529],[31.3096654,38.4636304],[31.3175159,38.4690884],[31.3221653,38.4876775],[31.342185,38.5036397],[31.4428698,38.5462666],[31.4808599,38.5682699],[31.5333325,38.6047133],[31.5555694,38.6163251],[31.5778072,38.6421726]]]}},{"type":"Feature","properties":{"code":"03-18","provinceCode":"03","name":"Şuhut"},"geometry":{"type":"Polygon","coordinates":[[[30.7341034,38.2752893],[30.7430183,38.2835045],[30.7505765,38.2958256],[30.7571658,38.2985634],[30.776132,38.2981711],[30.7825825,38.3012776],[30.7884255,38.3071226],[30.7981917,38.3334219],[30.7952099,38.3413548],[30.7727103,38.3370066],[30.7533221,38.35112],[30.7484349,38.3511514],[30.7433277,38.3550798],[30.7238518,38.3639773],[30.7231325,38.3739295],[30.7080502,38.3792396],[30.6998396,38.3790606],[30.6849013,38.387138],[30.6831094,38.3905856],[30.6831094,38.3955652],[30.6966306,38.4108848],[30.7102772,38.4499578],[30.7266054,38.4605234],[30.7428961,38.4609061],[30.7497382,38.468942],[30.7510414,38.4757017],[30.7490866,38.4808029],[30.7446881,38.4838635],[30.7547231,38.4910043],[30.7548535,38.4969204],[30.7628033,38.5045699],[30.767886,38.5186427],[30.7668434,38.523435],[30.7596755,38.530266],[30.7565477,38.5376061],[30.7560264,38.5408682],[30.7590239,38.5463725],[30.7596755,38.5524879],[30.7551141,38.563902],[30.734653,38.5635962],[30.7087183,38.570831],[30.6878662,38.5785745],[30.6804377,38.5821403],[30.6413401,38.6110676],[30.6319567,38.6137153],[30.6177512,38.612697],[30.6015908,38.6045498],[30.5979417,38.5905956],[30.5872551,38.5907993],[30.5498517,38.6040406],[30.5326487,38.6143263],[30.5203982,38.6194177],[30.5035862,38.623796],[30.4918569,38.6250178],[30.4773433,38.6191315],[30.4726039,38.6213278],[30.4685295,38.6331906],[30.4615457,38.6349626],[30.4342571,38.6331829],[30.4216699,38.6293133],[30.3992893,38.6154448],[30.398577,38.6130771],[30.4031393,38.6084709],[30.4055829,38.5923975],[30.404972,38.5879409],[30.3982521,38.5747285],[30.3884794,38.5182142],[30.3849765,38.5131242],[30.3722159,38.5111663],[30.3724662,38.4557381],[30.3777205,38.4498598],[30.3921075,38.4516723],[30.3967988,38.42791],[30.401803,38.4247248],[30.4074327,38.4176187],[30.4074327,38.4070809],[30.4130623,38.3992378],[30.4140006,38.3860006],[30.4318279,38.382078],[30.4571614,38.3833039],[30.474152,38.379709],[30.4875303,38.3740992],[30.4953084,38.368489],[30.5111758,38.3475078],[30.5214429,38.3477518],[30.5369991,38.3433596],[30.5587778,38.3299374],[30.5702894,38.308945],[30.5783786,38.2840392],[30.6070894,38.2202332],[30.6437145,38.2282937],[30.6586664,38.2370285],[30.6726386,38.2539042],[30.6844889,38.2604936],[30.6961183,38.2661601],[30.7098782,38.266008],[30.7248009,38.2693555],[30.7341034,38.2752893]]]}}]}