{"type":"FeatureCollection","features":[{"type":"Feature","properties":{"code":"12-01","provinceCode":"12","name":"Adaklı"},"geometry":{"type":"Polygon","coordinates":[[[40.727022,39.0725874],[40.7224097,39.0867383],[40.7219705,39.1347958],[40.7164797,39.1496154],[40.7241668,39.1647725],[40.7216011,39.1732625],[40.722012,39.1796326],[40.7417337,39.1844099],[40.7462532,39.1898237],[40.7409119,39.2235708],[40.7269424,39.2655729],[40.7302294,39.2903805],[40.7092751,39.3065961],[40.6932512,39.3135899],[40.6920186,39.318358],[40.6546296,39.3231258],[40.6040929,39.3466421],[40.547804,39.3704681],[40.4816542,39.3946035],[40.4642039,39.3894154],[40.4376723,39.3603998],[40.4195249,39.3047796],[40.4038727,39.2803769],[40.3952527,39.2731774],[40.3764248,39.2622889],[40.3631115,39.2363708],[40.3293485,39.196534],[40.332239,39.1842805],[40.3523615,39.1774963],[40.3600366,39.1709089],[40.382646,39.1695518],[40.4192586,39.1567718],[40.425385,39.1528128],[40.4255683,39.1504202],[40.4976649,39.1347814],[40.5249817,39.1134798],[40.582286,39.0937274],[40.6633294,39.0746335],[40.6903438,39.0777025],[40.7052786,39.0777025],[40.727022,39.0725874]]]}},{"type":"Feature","properties":{"code":"12-02","provinceCode":"12","name":"Bingöl merkez"},"geometry":{"type":"Polygon","coordinates":[[[40.302096,39.131539],[40.2884577,39.123727],[40.2757091,39.1223024],[40.2561004,39.1077419],[40.2410418,39.0872858],[40.241779,39.0703558],[40.2282239,39.0501885],[40.2132922,39.0346508],[40.2192184,39.0173952],[40.1861232,38.9836909],[40.1801646,38.973329],[40.1830321,38.962726],[40.2102342,38.9433729],[40.2145195,38.9357135],[40.2152277,38.9049158],[40.2240265,38.892474],[40.2329527,38.8877262],[40.2409535,38.8811842],[40.249812,38.8823461],[40.255614,38.8803408],[40.2639413,38.8650894],[40.2462628,38.8628572],[40.2359442,38.8593497],[40.23169,38.8463836],[40.2358359,38.836696],[40.2968271,38.8272987],[40.3179822,38.8129652],[40.3296396,38.7974821],[40.3348277,38.7840276],[40.3333669,38.7708023],[40.3173585,38.7512645],[40.2888369,38.7408295],[40.2873999,38.7384417],[40.291144,38.7375216],[40.2948109,38.7335079],[40.3057267,38.7299284],[40.3131617,38.7214028],[40.3228133,38.7258397],[40.3268584,38.7252204],[40.3326667,38.7268935],[40.3397377,38.7236943],[40.3486204,38.7244281],[40.3519033,38.7209434],[40.3645694,38.7181236],[40.3715508,38.7222466],[40.3819557,38.7225774],[40.387739,38.7248862],[40.3937441,38.7226168],[40.3953935,38.7154672],[40.4037348,38.7125832],[40.4156182,38.7130186],[40.4262273,38.7161205],[40.4380045,38.7166501],[40.4390314,38.7157153],[40.4454539,38.7189316],[40.4532828,38.7192666],[40.4588147,38.7262012],[40.4692756,38.7252443],[40.4753005,38.7274124],[40.4819082,38.7268743],[40.4902443,38.7354029],[40.5141317,38.7373969],[40.5236111,38.7441526],[40.5288924,38.7510031],[40.5329957,38.7530045],[40.5321917,38.7553808],[40.5339827,38.7595356],[40.5456934,38.7605945],[40.5568408,38.7670164],[40.5597331,38.767149],[40.569523,38.7628659],[40.5748497,38.7655342],[40.5836357,38.7668282],[40.5865896,38.769568],[40.5859369,38.7738602],[40.5884138,38.7756331],[40.6006291,38.7729751],[40.6103031,38.7846459],[40.6301634,38.7995411],[40.6332275,38.804997],[40.6401127,38.8086865],[40.6513072,38.8114878],[40.6644642,38.82186],[40.6772607,38.8209752],[40.6865364,38.823072],[40.6931901,38.8273749],[40.7058846,38.8273155],[40.7171808,38.8396582],[40.7217868,38.8401897],[40.7381225,38.837383],[40.7432822,38.8426895],[40.753768,38.8431003],[40.7642856,38.8471988],[40.7752485,38.8482584],[40.7926977,38.855661],[40.8007552,38.8542279],[40.804848,38.8549429],[40.8117889,38.8613247],[40.8241281,38.8627837],[40.8290707,38.8670535],[40.8393945,38.8633162],[40.8483346,38.8717431],[40.8500808,38.8742379],[40.848763,38.8778286],[40.8389895,38.881419],[40.8132094,38.8806937],[40.811967,38.8864964],[40.8340198,38.8981005],[40.8478182,38.911358],[40.8524305,38.9358776],[40.8456219,38.9831842],[40.8168505,39.0185154],[40.8109205,39.0328477],[40.8144345,39.0420597],[40.8225085,39.0506571],[40.8311264,39.0806009],[40.817729,39.0800894],[40.7766582,39.0729285],[40.7509616,39.0717349],[40.727022,39.0725874],[40.7052786,39.0777025],[40.6903438,39.0777025],[40.6633294,39.0746335],[40.582286,39.0937274],[40.5249817,39.1134798],[40.4976649,39.1347814],[40.4255683,39.1504202],[40.3581928,39.130447],[40.302096,39.131539]]]}},{"type":"Feature","properties":{"code":"12-03","provinceCode":"12","name":"Genç"},"geometry":{"type":"Polygon","coordinates":[[[40.2873999,38.7384417],[40.2810605,38.7391577],[40.2733155,38.7428545],[40.2656636,38.7421899],[40.2566049,38.7447718],[40.243149,38.7414017],[40.2334613,38.7370417],[40.2290549,38.738362],[40.2199064,38.716881],[40.2097673,38.7042613],[40.1779979,38.6880354],[40.1687479,38.6753263],[40.1041187,38.6585508],[40.0915332,38.6506245],[40.0938871,38.637667],[40.1106011,38.6167865],[40.1658186,38.5790686],[40.2107378,38.5654542],[40.2328252,38.5516435],[40.2452925,38.5376763],[40.2532322,38.5222005],[40.2634045,38.4950746],[40.2909663,38.4834919],[40.2935596,38.4767007],[40.3021734,38.4815174],[40.3040214,38.4893828],[40.308306,38.4893873],[40.3191329,38.4848741],[40.324816,38.4857574],[40.3273101,38.4878709],[40.3361446,38.4851317],[40.3396193,38.4900943],[40.3441849,38.487247],[40.3549105,38.4891945],[40.357044,38.4930768],[40.3615246,38.4950009],[40.3664183,38.5008432],[40.3593744,38.5057575],[40.3543737,38.5325035],[40.3659921,38.5449394],[40.400589,38.5649688],[40.4433296,38.5811645],[40.4379233,38.5881263],[40.4403865,38.5934069],[40.4453022,38.5944519],[40.4447921,38.5976544],[40.4381508,38.5993237],[40.4476738,38.6138196],[40.4574375,38.6184369],[40.4730503,38.62052],[40.4842907,38.6194696],[40.4984054,38.6141971],[40.5410197,38.5925799],[40.551448,38.5895709],[40.5609595,38.5827357],[40.5740015,38.5832947],[40.5855513,38.580397],[40.6033615,38.5633017],[40.6191582,38.5633584],[40.624166,38.5690353],[40.633144,38.5707328],[40.6463325,38.5780994],[40.6589129,38.5963837],[40.6720445,38.6012964],[40.7175288,38.5965501],[40.7441555,38.6011043],[40.7672685,38.6000714],[40.7841603,38.5926034],[40.7937787,38.5819279],[40.7914892,38.5746287],[40.7985934,38.5760973],[40.8003695,38.5740145],[40.8067291,38.5747909],[40.809079,38.5734023],[40.8054449,38.5681043],[40.8077784,38.5667775],[40.8088678,38.5610685],[40.813241,38.561555],[40.8147054,38.5639084],[40.8363415,38.5768467],[40.8473453,38.5764446],[40.8942991,38.6120462],[40.9328082,38.6290027],[41.0003822,38.67062],[40.98588,38.7002507],[40.9715875,38.7448538],[40.9623768,38.7535234],[40.9484019,38.7713547],[40.9274396,38.7901718],[40.915688,38.7956179],[40.9033011,38.8062614],[40.8947256,38.821605],[40.881386,38.8332343],[40.8802743,38.8435011],[40.8693167,38.8511693],[40.853595,38.8554978],[40.8483544,38.8632884],[40.8483346,38.8717431],[40.8393945,38.8633162],[40.8290707,38.8670535],[40.8241281,38.8627837],[40.8117889,38.8613247],[40.804848,38.8549429],[40.8007552,38.8542279],[40.7926977,38.855661],[40.7752485,38.8482584],[40.7642856,38.8471988],[40.753768,38.8431003],[40.7432822,38.8426895],[40.7381225,38.837383],[40.7217868,38.8401897],[40.7171808,38.8396582],[40.7058846,38.8273155],[40.6931901,38.8273749],[40.6865364,38.823072],[40.6772607,38.8209752],[40.6644642,38.82186],[40.6513072,38.8114878],[40.6401127,38.8086865],[40.6332275,38.804997],[40.6301634,38.7995411],[40.6103031,38.7846459],[40.6006291,38.7729751],[40.5884138,38.7756331],[40.5859369,38.7738602],[40.5865896,38.769568],[40.5836357,38.7668282],[40.5748497,38.7655342],[40.569523,38.7628659],[40.5597331,38.767149],[40.5568408,38.7670164],[40.5456934,38.7605945],[40.5339827,38.7595356],[40.5321917,38.7553808],[40.5329957,38.7530045],[40.5288924,38.7510031],[40.5236111,38.7441526],[40.5141317,38.7373969],[40.4902443,38.7354029],[40.4819082,38.7268743],[40.4753005,38.7274124],[40.4692756,38.7252443],[40.4588147,38.7262012],[40.4532828,38.7192666],[40.4454539,38.7189316],[40.4390314,38.7157153],[40.4380045,38.7166501],[40.4262273,38.7161205],[40.4156182,38.7130186],[40.4037348,38.7125832],[40.3953935,38.7154672],[40.3937441,38.7226168],[40.387739,38.7248862],[40.3819557,38.7225774],[40.3715508,38.7222466],[40.3645694,38.7181236],[40.3519033,38.7209434],[40.3486204,38.7244281],[40.3397377,38.7236943],[40.3326667,38.7268935],[40.3268584,38.7252204],[40.3228133,38.7258397],[40.3131617,38.7214028],[40.3057267,38.7299284],[40.2948109,38.7335079],[40.291144,38.7375216],[40.2873999,38.7384417]]]}},{"type":"Feature","properties":{"code":"12-04","provinceCode":"12","name":"Karlıova"},"geometry":{"type":"Polygon","coordinates":[[[41.1675568,39.3724904],[41.17825,39.3789296],[41.1829113,39.3871803],[41.1792795,39.4047393],[41.1665886,39.412896],[41.1475113,39.4134836],[41.1289233,39.4324112],[41.1248013,39.43102],[41.1224778,39.4272675],[41.1155073,39.4262885],[41.1085368,39.4344461],[41.0988204,39.4341198],[41.0992429,39.4300411],[41.093751,39.4266149],[41.0939622,39.4192723],[41.0859356,39.4191091],[41.0738957,39.4303674],[41.0654466,39.4264517],[41.061222,39.4261254],[41.0538291,39.4297148],[41.0534067,39.4422764],[41.0502383,39.4455388],[41.0504495,39.4527155],[41.0373534,39.4567929],[41.0299605,39.463153],[41.0174981,39.4633161],[41.002501,39.4740782],[40.9887713,39.473426],[40.9828569,39.4703279],[40.9837018,39.4615223],[40.9818008,39.4563036],[40.9759042,39.4555392],[40.9716619,39.4574452],[40.9619454,39.4574452],[40.9505098,39.4546023],[40.9279208,39.453973],[40.909129,39.4565825],[40.9000027,39.4532119],[40.8837787,39.4422656],[40.8658214,39.4470825],[40.8442456,39.4398991],[40.8235405,39.4364501],[40.8019654,39.4255744],[40.7735777,39.4258142],[40.759952,39.420713],[40.7500164,39.4224885],[40.7316972,39.4220017],[40.7211591,39.4186627],[40.7131497,39.4076649],[40.6995019,39.4111626],[40.6791917,39.4136246],[40.6821578,39.395556],[40.6809252,39.3752323],[40.6887317,39.3612564],[40.6928404,39.3450534],[40.6920186,39.318358],[40.6932512,39.3135899],[40.7092751,39.3065961],[40.7302294,39.2903805],[40.7269424,39.2655729],[40.7409119,39.2235708],[40.7462532,39.1898237],[40.7417337,39.1844099],[40.722012,39.1796326],[40.7216011,39.1732625],[40.7241668,39.1647725],[40.7164797,39.1496154],[40.7219705,39.1347958],[40.7224097,39.0867383],[40.727022,39.0725874],[40.7509616,39.0717349],[40.7766582,39.0729285],[40.817729,39.0800894],[40.8311264,39.0806009],[40.8570427,39.0850335],[40.8814216,39.0860564],[40.9519161,39.0979812],[41.0148999,39.0989303],[41.0564815,39.0922863],[41.1121274,39.0870655],[41.1689963,39.0756733],[41.2155092,39.0521649],[41.2641215,39.0352805],[41.2615342,39.0419905],[41.2503294,39.0537045],[41.2487492,39.0656397],[41.2526278,39.0680934],[41.253777,39.0761231],[41.2659873,39.0848209],[41.2636889,39.0902844],[41.2588048,39.0888349],[41.2543516,39.0915108],[41.250904,39.1050002],[41.2555008,39.113583],[41.2264834,39.124505],[41.2197318,39.1310797],[41.2155659,39.1392137],[41.2185826,39.1509116],[41.2098199,39.1587091],[41.2026373,39.1608254],[41.1901397,39.1707378],[41.1816643,39.1928965],[41.1822389,39.2050307],[41.1849683,39.211264],[41.1772111,39.224174],[41.1652881,39.2287365],[41.1326794,39.2368592],[41.1305246,39.2452034],[41.1333977,39.2494307],[41.142304,39.2529904],[41.1434532,39.2568836],[41.1433096,39.2662264],[41.1369889,39.2697853],[41.1387127,39.2767912],[41.1348342,39.2919127],[41.1354088,39.294692],[41.1391437,39.2980271],[41.1412984,39.3066975],[41.1387127,39.3106989],[41.1425913,39.3187009],[41.139,39.3205901],[41.1391437,39.3231461],[41.1440278,39.3291466],[41.1431659,39.3325911],[41.1454643,39.3380354],[41.1398619,39.3435903],[41.1519286,39.3542544],[41.14805,39.3623625],[41.1675568,39.3724904]]]}},{"type":"Feature","properties":{"code":"12-05","provinceCode":"12","name":"Kiğı"},"geometry":{"type":"Polygon","coordinates":[[[40.4255683,39.1504202],[40.425385,39.1528128],[40.4192586,39.1567718],[40.382646,39.1695518],[40.3600366,39.1709089],[40.3523615,39.1774963],[40.332239,39.1842805],[40.3293485,39.196534],[40.3631115,39.2363708],[40.3764248,39.2622889],[40.3952527,39.2731774],[40.4038727,39.2803769],[40.4195249,39.3047796],[40.4376723,39.3603998],[40.4642039,39.3894154],[40.4086364,39.4114191],[40.3653095,39.4139754],[40.3126821,39.4146764],[40.277129,39.4228373],[40.2371868,39.3677787],[40.2151001,39.3620192],[40.2019795,39.3569206],[40.2003173,39.35247],[40.1917477,39.3509303],[40.1828315,39.3564685],[40.1692378,39.3488958],[40.1558362,39.3467985],[40.1473126,39.3398527],[40.1476049,39.3322781],[40.1394195,39.3299039],[40.1169077,39.3047175],[40.1166127,39.3009404],[40.1253522,39.2989603],[40.1283781,39.2933013],[40.1259756,39.2923036],[40.1290977,39.2913819],[40.1343157,39.2859371],[40.1376915,39.2869477],[40.1415324,39.2821977],[40.1412765,39.2798495],[40.1447128,39.2799517],[40.1428199,39.2755704],[40.1453766,39.2734431],[40.1548791,39.271102],[40.1571536,39.2725306],[40.1590848,39.270587],[40.164747,39.2708392],[40.169127,39.2678128],[40.1728391,39.2679291],[40.1959722,39.2524888],[40.2160061,39.2227782],[40.2200439,39.2107461],[40.2280994,39.2005947],[40.231339,39.1914034],[40.2328397,39.1884093],[40.2438824,39.1830756],[40.2660681,39.1831596],[40.2733081,39.1809891],[40.283282,39.1659539],[40.3010279,39.1489636],[40.302096,39.131539],[40.3581928,39.130447],[40.4255683,39.1504202]]]}},{"type":"Feature","properties":{"code":"12-06","provinceCode":"12","name":"Solhan"},"geometry":{"type":"Polygon","coordinates":[[[40.8483346,38.8717431],[40.8483544,38.8632884],[40.853595,38.8554978],[40.8693167,38.8511693],[40.8802743,38.8435011],[40.881386,38.8332343],[40.8947256,38.821605],[40.9033011,38.8062614],[40.915688,38.7956179],[40.9274396,38.7901718],[40.9484019,38.7713547],[40.9623768,38.7535234],[40.9715875,38.7448538],[40.98588,38.7002507],[41.0003822,38.67062],[41.0870519,38.6994422],[41.1093848,38.7100312],[41.1391815,38.7145841],[41.1404204,38.7179325],[41.1526437,38.7220297],[41.1578971,38.7279305],[41.1595955,38.7387385],[41.1588377,38.7531611],[41.1597081,38.7547192],[41.1660776,38.7545495],[41.1732779,38.7572181],[41.1764627,38.7614446],[41.1769177,38.7659946],[41.1717086,38.7667288],[41.1644352,38.7712219],[41.155819,38.7718762],[41.151455,38.7772413],[41.138851,38.7821127],[41.1400379,38.7868619],[41.1328376,38.7929676],[41.1283275,38.7929676],[41.1247669,38.7960511],[41.1238965,38.8012926],[41.1155093,38.8113431],[41.1193864,38.8156588],[41.1185952,38.8250291],[41.1201777,38.827803],[41.1109201,38.8358158],[41.1167753,38.8419789],[41.1182787,38.8486345],[41.1154302,38.8544884],[41.1156676,38.8591095],[41.1182787,38.8635455],[41.1094168,38.888493],[41.1151929,38.901179],[41.1167753,38.9171872],[41.1203359,38.9249438],[41.1200986,38.9284524],[41.1299891,38.937931],[41.1332332,38.9446391],[41.1500467,38.9522676],[41.1521163,38.9567939],[41.1774931,38.9694068],[41.1767518,38.9860745],[41.1888024,39.0038379],[41.2275035,39.030111],[41.2491477,39.0287712],[41.25874,39.0349521],[41.2641215,39.0352805],[41.2155092,39.0521649],[41.1689963,39.0756733],[41.1121274,39.0870655],[41.0564815,39.0922863],[41.0148999,39.0989303],[40.9519161,39.0979812],[40.8814216,39.0860564],[40.8570427,39.0850335],[40.8311264,39.0806009],[40.8225085,39.0506571],[40.8144345,39.0420597],[40.8109205,39.0328477],[40.8168505,39.0185154],[40.8456219,38.9831842],[40.8524305,38.9358776],[40.8478182,38.911358],[40.8340198,38.8981005],[40.811967,38.8864964],[40.8132094,38.8806937],[40.8389895,38.881419],[40.848763,38.8778286],[40.8500808,38.8742379],[40.8483346,38.8717431]]]}},{"type":"Feature","properties":{"code":"12-07","provinceCode":"12","name":"Yayladere"},"geometry":{"type":"Polygon","coordinates":[[[40.0421818,39.32242],[40.0215408,39.3100962],[40.0335995,39.2774883],[40.0302655,39.2699964],[40.0177686,39.2558294],[40.0008254,39.2466408],[39.9924795,39.2388163],[39.9819373,39.2080202],[39.9535904,39.1886062],[39.9440852,39.1897676],[39.9467966,39.1768702],[39.9454788,39.1656323],[39.9470162,39.1525192],[39.9520677,39.1407665],[39.9522873,39.1216853],[39.9345527,39.1009972],[39.936345,39.0981144],[39.9452639,39.0981655],[39.9455657,39.0914922],[39.9513549,39.0891951],[39.9663927,39.0916688],[39.9681283,39.0929515],[39.9660403,39.0951889],[39.9683949,39.0959972],[39.9741279,39.0906729],[39.9764936,39.090204],[39.9808692,39.0963816],[39.9840638,39.0975418],[39.9862847,39.0970568],[39.98725,39.0942335],[39.9978309,39.0915231],[40.0031591,39.0942423],[40.0083086,39.093118],[40.0200831,39.1019348],[40.0211504,39.0971366],[40.024162,39.0953127],[40.0275553,39.0966626],[40.0299934,39.1013673],[40.0410248,39.1072452],[40.0431897,39.1139918],[40.0475901,39.1139986],[40.0496011,39.1169772],[40.0541279,39.1163139],[40.058925,39.118221],[40.0544705,39.1252009],[40.0656541,39.1221114],[40.0635239,39.127238],[40.0651547,39.1301791],[40.0753175,39.1275132],[40.0858676,39.1283435],[40.0927815,39.1393644],[40.1001169,39.1449416],[40.102323,39.1516901],[40.1138976,39.1519278],[40.1242796,39.1601703],[40.1408439,39.1615815],[40.1453693,39.16646],[40.15504,39.1637135],[40.1622652,39.169727],[40.1934132,39.1737715],[40.2195085,39.1856886],[40.223373,39.1912361],[40.231339,39.1914034],[40.2280994,39.2005947],[40.2200439,39.2107461],[40.2160061,39.2227782],[40.1959722,39.2524888],[40.1728391,39.2679291],[40.169127,39.2678128],[40.164747,39.2708392],[40.1590848,39.270587],[40.1571536,39.2725306],[40.1548791,39.271102],[40.1453766,39.2734431],[40.1428199,39.2755704],[40.1447128,39.2799517],[40.1412765,39.2798495],[40.1415324,39.2821977],[40.1376915,39.2869477],[40.1343157,39.2859371],[40.1290977,39.2913819],[40.1259756,39.2923036],[40.1283781,39.2933013],[40.1253522,39.2989603],[40.1166127,39.3009404],[40.1169077,39.3047175],[40.1152437,39.3016668],[40.1067775,39.3022147],[40.1055606,39.3039055],[40.0988673,39.3020007],[40.0991992,39.3034346],[40.095342,39.3057124],[40.0884697,39.3047583],[40.0868311,39.309108],[40.0886929,39.3109086],[40.0823097,39.312812],[40.0815118,39.31096],[40.0791182,39.3117317],[40.0799825,39.3155385],[40.0757936,39.3166702],[40.0730166,39.3143808],[40.0550281,39.3170961],[40.0421818,39.32242]]]}},{"type":"Feature","properties":{"code":"12-08","provinceCode":"12","name":"Yedisu"},"geometry":{"type":"Polygon","coordinates":[[[40.4038294,39.5650207],[40.3965631,39.5529655],[40.325291,39.5217572],[40.3026648,39.5102232],[40.2820723,39.494102],[40.281857,39.4834645],[40.2921397,39.4729568],[40.2902988,39.4451324],[40.277129,39.4228373],[40.3126821,39.4146764],[40.3653095,39.4139754],[40.4086364,39.4114191],[40.4642039,39.3894154],[40.4816542,39.3946035],[40.547804,39.3704681],[40.6040929,39.3466421],[40.6546296,39.3231258],[40.6920186,39.318358],[40.6928404,39.3450534],[40.6887317,39.3612564],[40.6809252,39.3752323],[40.6821578,39.395556],[40.6791917,39.4136246],[40.6624258,39.4222094],[40.6472175,39.4217199],[40.6322204,39.4421133],[40.6199693,39.4445601],[40.5918761,39.4442339],[40.5739218,39.4525524],[40.5832158,39.4611961],[40.59082,39.4642946],[40.5912424,39.4706541],[40.5876516,39.4843495],[40.5897638,39.4965752],[40.595467,39.4999981],[40.6028599,39.4995091],[40.6058171,39.4965752],[40.6096191,39.4983682],[40.6079293,39.5022798],[40.6195468,39.5092877],[40.6246162,39.5211832],[40.6340048,39.527561],[40.6115047,39.5229962],[40.5967484,39.5263495],[40.5609332,39.5258594],[40.5443677,39.5298676],[40.520039,39.5273231],[40.5157497,39.5169458],[40.4799728,39.5155921],[40.4719756,39.5178579],[40.4487198,39.5110894],[40.4355413,39.5196544],[40.4250888,39.523037],[40.4244319,39.5273634],[40.417334,39.5318538],[40.4168522,39.5436754],[40.4135185,39.5539577],[40.4038294,39.5650207]]]}}]}