{"type":"FeatureCollection","features":[{"type":"Feature","properties":{"code":"17-01","provinceCode":"17","name":"Ayvacik"},"geometry":{"type":"Polygon","coordinates":[[[26.652927,39.6625767],[26.6494744,39.6694894],[26.6327774,39.6786438],[26.6163092,39.6848048],[26.6025857,39.6860369],[26.5787983,39.6849808],[26.5545534,39.6767074],[26.5335107,39.6728344],[26.5085339,39.6730105],[26.4951763,39.6765314],[26.4730357,39.678503],[26.4476015,39.6765314],[26.4243988,39.6780208],[26.4026569,39.6677607],[26.3626987,39.6570937],[26.34129,39.6565302],[26.3344984,39.6578575],[26.3309518,39.6613648],[26.3308302,39.6686003],[26.3561114,39.6739963],[26.36032,39.676813],[26.3612349,39.6807562],[26.3579412,39.6859665],[26.3495241,39.6879379],[26.3374474,39.6852624],[26.3006385,39.6626743],[26.2663108,39.6500407],[26.2453998,39.647735],[26.2310701,39.6481248],[26.2118341,39.6514072],[26.196837,39.6511705],[26.1578166,39.6463732],[26.157084,39.6419486],[26.1502527,39.6305676],[26.1499395,39.6257056],[26.1381266,39.6070084],[26.1148705,39.591273],[26.1072331,39.5879524],[26.1042056,39.5844792],[26.1015546,39.5677436],[26.0969384,39.5648608],[26.0981397,39.5633765],[26.0949464,39.5631799],[26.096592,39.5660048],[26.0946051,39.563497],[26.0973783,39.5605911],[26.0913332,39.5471937],[26.0925062,39.5418216],[26.0887126,39.5326214],[26.08911,39.528971],[26.080751,39.521715],[26.0844607,39.5161421],[26.0840327,39.5117394],[26.0697368,39.5027116],[26.0693347,39.494678],[26.0656121,39.489715],[26.0633858,39.4798213],[26.063613,39.476896],[26.0665623,39.4738378],[26.0640624,39.4775748],[26.0660331,39.4778622],[26.070132,39.472582],[26.080465,39.467913],[26.106049,39.462207],[26.1182034,39.4549505],[26.1248337,39.4559021],[26.1317642,39.453282],[26.137343,39.4533563],[26.1428204,39.4544112],[26.1467523,39.4582074],[26.1502308,39.4589576],[26.158119,39.457459],[26.16306,39.459806],[26.1780479,39.4590936],[26.1845818,39.4614082],[26.204452,39.461381],[26.208416,39.4642035],[26.211313,39.469902],[26.2219368,39.4737723],[26.2299376,39.4746126],[26.2355391,39.4701503],[26.2353422,39.4663251],[26.2415489,39.4641823],[26.244958,39.468456],[26.248585,39.470021],[26.249204,39.474133],[26.2531871,39.4761244],[26.2561637,39.4799623],[26.2617912,39.4806421],[26.264846,39.483349],[26.276229,39.4829631],[26.2886949,39.4859831],[26.2934336,39.4845754],[26.3126532,39.4842615],[26.32409,39.4812557],[26.3289026,39.4817075],[26.345193,39.487797],[26.3544509,39.4876961],[26.3601045,39.4839919],[26.3634334,39.4839153],[26.3693018,39.4808606],[26.3695654,39.4880151],[26.3729946,39.4937892],[26.3770105,39.4965463],[26.3924593,39.4977365],[26.407515,39.502396],[26.4175142,39.5013737],[26.4232454,39.5074425],[26.4327635,39.510613],[26.4417248,39.5168871],[26.4469132,39.5182993],[26.4544599,39.5183462],[26.461067,39.52166],[26.470682,39.521704],[26.477284,39.525586],[26.4897443,39.5281577],[26.5063599,39.5265396],[26.5217539,39.5322913],[26.5369303,39.5333386],[26.5477281,39.5309524],[26.5573914,39.535591],[26.5794477,39.5402747],[26.586625,39.54015],[26.5943006,39.545094],[26.6008876,39.5460779],[26.6022119,39.5443508],[26.6051334,39.5438918],[26.6020511,39.5447898],[26.6030627,39.5458352],[26.6074608,39.5447958],[26.6073165,39.5435465],[26.6326938,39.555076],[26.645916,39.55524],[26.6586812,39.5522737],[26.6559922,39.553792],[26.6561435,39.5634081],[26.6519194,39.5684977],[26.6528812,39.5749866],[26.6493897,39.5780808],[26.652519,39.5805745],[26.6516355,39.5843872],[26.654118,39.5924816],[26.656287,39.5931138],[26.6562345,39.5950363],[26.6598921,39.5969355],[26.6630236,39.6011513],[26.6613769,39.6025365],[26.6622569,39.6059848],[26.6592026,39.6085465],[26.6554104,39.6087253],[26.6539152,39.6122366],[26.6569563,39.6114262],[26.6559799,39.6134934],[26.6598922,39.6168358],[26.6568386,39.6219583],[26.6590004,39.6534262],[26.652927,39.6625767]]]}},{"type":"Feature","properties":{"code":"17-02","provinceCode":"17","name":"Bayramiç"},"geometry":{"type":"Polygon","coordinates":[[[26.5057108,39.9315703],[26.4881425,39.899609],[26.464527,39.8428415],[26.4404659,39.7582871],[26.4618535,39.6955746],[26.4730357,39.678503],[26.4951763,39.6765314],[26.5085339,39.6730105],[26.5335107,39.6728344],[26.5545534,39.6767074],[26.5787983,39.6849808],[26.6025857,39.6860369],[26.6163092,39.6848048],[26.6327774,39.6786438],[26.6494744,39.6694894],[26.652927,39.6625767],[26.6724966,39.6799923],[26.6777724,39.7038884],[26.6922186,39.7108303],[26.7271019,39.7355033],[26.7519696,39.7465597],[26.7830193,39.7573496],[26.841106,39.7709147],[26.9233027,39.7789618],[26.948378,39.7866502],[26.9616289,39.7913649],[26.9919207,39.8099049],[26.9647313,39.837891],[26.9342074,39.8562903],[26.8958633,39.8835897],[26.8666007,39.9108783],[26.8292656,39.9323531],[26.8247249,39.9393165],[26.8232113,39.951694],[26.8189228,39.9613625],[26.7987417,39.990746],[26.79521,40.0017616],[26.7969711,40.0133624],[26.7791829,40.0146356],[26.7341307,40.0132351],[26.694897,40.0027935],[26.6732852,39.992223],[26.655497,39.9877651],[26.6348827,39.9801223],[26.6244093,39.9771923],[26.609946,39.9763005],[26.56639,39.9629228],[26.5614027,39.9597372],[26.5609039,39.9543851],[26.5707124,39.94916],[26.5723748,39.9466111],[26.5682187,39.9429149],[26.5181791,39.935777],[26.5057108,39.9315703]]]}},{"type":"Feature","properties":{"code":"17-03","provinceCode":"17","name":"Biga"},"geometry":{"type":"Polygon","coordinates":[[[27.2326131,40.0804996],[27.2657989,40.0959239],[27.2755111,40.1026835],[27.2853774,40.1071839],[27.3228287,40.1150874],[27.3397453,40.1142253],[27.3700219,40.1271821],[27.3794153,40.1332946],[27.3872189,40.1397497],[27.3994774,40.1567948],[27.3997555,40.1654007],[27.4028075,40.1723518],[27.4066984,40.1740217],[27.4132582,40.1841414],[27.4444648,40.2212736],[27.5073349,40.2632809],[27.518044,40.2957377],[27.5169518,40.3037124],[27.4860105,40.3093249],[27.4317351,40.3251006],[27.3534868,40.3574321],[27.3224581,40.3739599],[27.3099374,40.387239],[27.3113072,40.3888329],[27.3095199,40.3886553],[27.3076635,40.3910031],[27.3046238,40.4013858],[27.3066029,40.4012572],[27.3051098,40.4021922],[27.3082292,40.4034302],[27.309438,40.4012472],[27.3089804,40.4031935],[27.314474,40.4091519],[27.3235948,40.4086824],[27.3339129,40.4106209],[27.3277109,40.413068],[27.32556,40.415663],[27.3298162,40.4192303],[27.3321766,40.4235511],[27.3296392,40.4195979],[27.3269784,40.4223504],[27.3242241,40.4215015],[27.320392,40.423637],[27.318616,40.439048],[27.315455,40.445732],[27.310432,40.449597],[27.306736,40.449864],[27.30507,40.453077],[27.298693,40.45502],[27.298038,40.458873],[27.295684,40.45875],[27.29502,40.460678],[27.293338,40.460297],[27.292003,40.462611],[27.289818,40.462745],[27.29117,40.464539],[27.2855021,40.4704595],[27.2869817,40.4734971],[27.2859406,40.4750178],[27.274898,40.472282],[27.27068,40.46844],[27.269652,40.463564],[27.26275,40.460884],[27.2602378,40.4580844],[27.255011,40.458719],[27.248611,40.455138],[27.24357,40.455406],[27.231448,40.449269],[27.231444,40.447985],[27.227078,40.448764],[27.221017,40.445438],[27.2111603,40.4433663],[27.2079485,40.4408144],[27.2094485,40.4384371],[27.2056455,40.4345889],[27.1889247,40.433568],[27.1724774,40.4426947],[27.1712862,40.4418352],[27.1656302,40.4443198],[27.1552359,40.4519008],[27.1498094,40.4503296],[27.1513447,40.4502222],[27.1506035,40.4487584],[27.1472241,40.4483555],[27.1452123,40.4546402],[27.1425959,40.4560502],[27.1402927,40.4558756],[27.1447755,40.4546133],[27.1455177,40.4486122],[27.1432304,40.4496867],[27.1420399,40.4529212],[27.142479,40.4499979],[27.1369839,40.448379],[27.1367806,40.4510008],[27.1354985,40.4486449],[27.1248061,40.4510612],[27.1231383,40.4493959],[27.121594,40.4510948],[27.1215146,40.4486774],[27.1187714,40.4467042],[27.108091,40.442517],[27.102713,40.441752],[27.095994,40.443298],[27.094648,40.441759],[27.090279,40.442147],[27.0896801,40.4390941],[27.085569,40.437401],[27.085231,40.435861],[27.078509,40.435095],[27.078671,40.430217],[27.07346,40.426882],[27.0615497,40.4291108],[27.060357,40.427403],[27.066066,40.424576],[27.0667013,40.4216733],[27.0656206,40.4210053],[27.0651277,40.4223103],[27.0653525,40.4208508],[27.0662683,40.4205785],[27.062864,40.413794],[27.0553276,40.4104204],[27.0551793,40.4087931],[27.0452659,40.4132719],[27.0409989,40.4133412],[27.0392446,40.4119784],[27.0451791,40.4129307],[27.0539486,40.4088225],[27.0521986,40.4056026],[27.0434289,40.4006225],[27.040849,40.392877],[27.03346,40.389798],[27.024729,40.3907],[27.0232197,40.3897724],[27.019357,40.391855],[27.0166489,40.3885059],[27.0317658,40.3534846],[27.0337059,40.3439504],[27.0327833,40.3262685],[27.029093,40.3198376],[27.0043151,40.2919966],[26.9815142,40.2590149],[26.9411842,40.2157523],[26.9191741,40.1976342],[26.9171971,40.1907884],[26.9044209,40.1819319],[26.9044209,40.1677502],[26.9151075,40.1603759],[26.9165802,40.1557716],[26.9054725,40.1507745],[26.9013986,40.150626],[26.9017834,40.1487243],[26.9136045,40.1418859],[26.93922,40.1361027],[26.9537485,40.1435016],[26.9798761,40.1530912],[26.9954923,40.1565934],[27.0199588,40.1612286],[27.0368322,40.1612032],[27.0517729,40.1585173],[27.1024473,40.1449902],[27.1474541,40.1231866],[27.1631455,40.1202351],[27.1995368,40.1070359],[27.2199312,40.0934887],[27.2326131,40.0804996]]]}},{"type":"Feature","properties":{"code":"17-04","provinceCode":"17","name":"Bozcaada"},"geometry":{"type":"Polygon","coordinates":[[[25.9623599,39.8386543],[25.9636599,39.8350694],[25.967884,39.831992],[25.9700789,39.825539],[25.974862,39.821911],[25.9783013,39.8216266],[25.9842255,39.8181196],[25.990512,39.822048],[25.9955996,39.8208523],[26.0042455,39.8165501],[26.0053476,39.8142362],[26.0033462,39.8127033],[26.008632,39.812446],[26.015678,39.808655],[26.0212907,39.8081462],[26.024732,39.804109],[26.0456509,39.7966111],[26.0459729,39.7929101],[26.0490219,39.794036],[26.0494913,39.7896976],[26.0518074,39.7873441],[26.0582013,39.7898094],[26.0588347,39.7888694],[26.0604702,39.7913047],[26.0612213,39.7874442],[26.0630184,39.7895331],[26.0618755,39.7914955],[26.0667964,39.7900381],[26.067156,39.793545],[26.0684868,39.7922543],[26.0709019,39.7941031],[26.0732698,39.793253],[26.0830233,39.800997],[26.077968,39.802549],[26.0775081,39.8043597],[26.079748,39.8067159],[26.0735442,39.8131421],[26.0748484,39.8156308],[26.0767617,39.8158211],[26.0735892,39.8190502],[26.0740017,39.8210625],[26.0768808,39.8226854],[26.0800858,39.8215182],[26.079012,39.8246525],[26.076202,39.826486],[26.0776132,39.8285525],[26.0746134,39.8284762],[26.0757508,39.8301055],[26.073935,39.8313714],[26.0758318,39.8328829],[26.0748638,39.834259],[26.0719744,39.8343117],[26.0739341,39.8346166],[26.072643,39.8346985],[26.0744777,39.8361948],[26.0767596,39.8355927],[26.0738278,39.8368636],[26.070224,39.8369559],[26.0707457,39.8395146],[26.069185,39.840552],[26.05984,39.841889],[26.056111,39.84661],[26.0512447,39.8470768],[26.041486,39.844307],[26.0379657,39.841538],[26.023163,39.844411],[25.9984597,39.8447428],[25.9941364,39.8415478],[25.980903,39.8414361],[25.979313,39.8400204],[25.964128,39.8397545],[25.9623599,39.8386543]]]}},{"type":"Feature","properties":{"code":"17-05","provinceCode":"17","name":"Çan"},"geometry":{"type":"Polygon","coordinates":[[[26.7969711,40.0133624],[26.79521,40.0017616],[26.7987417,39.990746],[26.8189228,39.9613625],[26.8232113,39.951694],[26.8247249,39.9393165],[26.8292656,39.9323531],[26.8666007,39.9108783],[26.8958633,39.8835897],[26.9342074,39.8562903],[26.9647313,39.837891],[26.9919207,39.8099049],[27.0107778,39.8212855],[27.0219059,39.8330364],[27.0435617,39.8480307],[27.0460167,39.8736151],[27.0576084,39.8867802],[27.0881205,39.9153456],[27.1202038,39.9696267],[27.14246,39.9955623],[27.2257069,40.0494136],[27.2334838,40.0680652],[27.2326131,40.0804996],[27.2199312,40.0934887],[27.1995368,40.1070359],[27.1631455,40.1202351],[27.1474541,40.1231866],[27.1024473,40.1449902],[27.0517729,40.1585173],[27.0368322,40.1612032],[27.0199588,40.1612286],[26.9954923,40.1565934],[26.9798761,40.1530912],[26.9537485,40.1435016],[26.93922,40.1361027],[26.9136045,40.1418859],[26.9017834,40.1487243],[26.8968497,40.1472994],[26.8907518,40.1492352],[26.8862276,40.1459837],[26.8828835,40.1454762],[26.880646,40.1473182],[26.8628005,40.1463371],[26.826866,40.1391096],[26.8316941,40.1287595],[26.8398115,40.1182076],[26.83874,40.1013831],[26.8327136,40.0837372],[26.8044521,40.0406046],[26.7981348,40.0254573],[26.7969711,40.0133624]]]}},{"type":"Feature","properties":{"code":"17-06","provinceCode":"17","name":"Çanakkale merkez"},"geometry":{"type":"Polygon","coordinates":[[[26.542387,40.235995],[26.5404548,40.2329097],[26.5366471,40.232087],[26.5349754,40.2290781],[26.5300921,40.2265202],[26.524594,40.217179],[26.514883,40.216882],[26.513893,40.214824],[26.493182,40.207545],[26.4825584,40.2000183],[26.4730944,40.2022014],[26.465807,40.196509],[26.4545668,40.1990488],[26.44942,40.193994],[26.442727,40.193576],[26.434676,40.195334],[26.4295998,40.1944933],[26.4148866,40.2001929],[26.4012274,40.1963301],[26.4084157,40.1929075],[26.4081247,40.1885679],[26.405476,40.1875772],[26.407363,40.1834954],[26.4064738,40.1787124],[26.4050885,40.1765012],[26.4020307,40.1759571],[26.4045748,40.1669187],[26.4033906,40.1631308],[26.4077908,40.1596369],[26.4094209,40.1560813],[26.4058764,40.1524778],[26.4057623,40.1532521],[26.4044045,40.1519176],[26.4039291,40.1525896],[26.4052855,40.1541634],[26.4037413,40.1526982],[26.4039271,40.1521585],[26.4030607,40.1514961],[26.404312,40.1517188],[26.4002003,40.1508101],[26.4019047,40.1504969],[26.3987128,40.1487317],[26.3974851,40.1432656],[26.4074904,40.1293873],[26.4096053,40.1178834],[26.4007701,40.1102055],[26.3967817,40.1043025],[26.3869648,40.1019452],[26.3781577,40.1039342],[26.3765645,40.1032818],[26.3772739,40.1032213],[26.3773678,40.1016775],[26.3767456,40.1030305],[26.3710177,40.1045374],[26.3647936,40.0982501],[26.3618603,40.0924943],[26.3657924,40.0827132],[26.3582361,40.074916],[26.3586264,40.0706302],[26.3560625,40.0660961],[26.3562937,40.0571474],[26.3489769,40.050584],[26.3485796,40.0465013],[26.3381311,40.0427371],[26.337627,40.034723],[26.3343189,40.0284291],[26.3289687,40.0258316],[26.3267802,40.0219065],[26.3206,40.017035],[26.311584,40.016982],[26.2992063,40.013732],[26.286669,40.004249],[26.2799819,40.0048251],[26.2691629,40.0004588],[26.2649202,39.9999807],[26.2643062,40.0014619],[26.2645793,40.0002293],[26.2619708,40.0000423],[26.2637116,40.0010567],[26.2580189,40.0014235],[26.249337,39.998364],[26.242298,40.000886],[26.238141,39.9989345],[26.226572,40.003864],[26.198135,40.008678],[26.194844,40.004547],[26.186883,40.000126],[26.1832132,39.9940465],[26.1783419,39.9900771],[26.171406,39.968433],[26.166488,39.961208],[26.166866,39.957616],[26.197693,39.9398814],[26.2158868,39.9332734],[26.2312411,39.9240487],[26.2849381,39.9135935],[26.309376,39.9119359],[26.3454511,39.9125734],[26.3772038,39.9163987],[26.3933295,39.9216263],[26.4134451,39.9234112],[26.4726281,39.9220088],[26.4880888,39.9234112],[26.5057108,39.9315703],[26.5181791,39.935777],[26.5682187,39.9429149],[26.5723748,39.9466111],[26.5707124,39.94916],[26.5609039,39.9543851],[26.5614027,39.9597372],[26.56639,39.9629228],[26.609946,39.9763005],[26.6244093,39.9771923],[26.6348827,39.9801223],[26.655497,39.9877651],[26.6732852,39.992223],[26.694897,40.0027935],[26.7341307,40.0132351],[26.7791829,40.0146356],[26.7969711,40.0133624],[26.7981348,40.0254573],[26.8044521,40.0406046],[26.8327136,40.0837372],[26.83874,40.1013831],[26.8398115,40.1182076],[26.8316941,40.1287595],[26.826866,40.1391096],[26.8054672,40.1333423],[26.7781296,40.1333423],[26.7644608,40.130655],[26.7414191,40.1166196],[26.7218923,40.108854],[26.7019749,40.1082566],[26.6808859,40.1216965],[26.6480808,40.1333423],[26.6348025,40.1405079],[26.6273823,40.1527475],[26.6269918,40.1625972],[26.6363647,40.1799054],[26.6348025,40.1897512],[26.6281634,40.2016836],[26.6137135,40.2109297],[26.5965299,40.2148067],[26.5793463,40.2148067],[26.5668491,40.2174907],[26.542387,40.235995]]]}},{"type":"Feature","properties":{"code":"17-07","provinceCode":"17","name":"Eceabat"},"geometry":{"type":"Polygon","coordinates":[[[26.3599758,40.3839178],[26.3455621,40.3781728],[26.341365,40.374191],[26.337762,40.37305],[26.334399,40.365678],[26.3316452,40.3634974],[26.3225788,40.3629646],[26.3209491,40.3666729],[26.3228741,40.3679597],[26.3211665,40.3683356],[26.311732,40.366573],[26.3003092,40.3595326],[26.3008145,40.3581631],[26.2944802,40.3514235],[26.2838256,40.3482522],[26.2634408,40.3461711],[26.2570527,40.3428187],[26.2567279,40.3406499],[26.2535803,40.3404236],[26.2491157,40.3374362],[26.2485656,40.3349029],[26.2378937,40.3308728],[26.2339414,40.326855],[26.2203704,40.3201241],[26.21852,40.3169323],[26.2150352,40.3161273],[26.2227651,40.3179094],[26.2252527,40.3161827],[26.2358011,40.3170096],[26.235403,40.315232],[26.2386194,40.3158406],[26.245742,40.308903],[26.24747,40.304293],[26.2463885,40.2993419],[26.242176,40.297839],[26.240985,40.2935439],[26.237729,40.290749],[26.2284218,40.2891446],[26.241835,40.2833577],[26.2608107,40.2714281],[26.2691927,40.2646392],[26.278524,40.253908],[26.281984,40.243659],[26.2800321,40.2402694],[26.2766365,40.2390067],[26.27594,40.2322822],[26.2787831,40.2229558],[26.2786113,40.2161303],[26.272973,40.20894],[26.267969,40.207111],[26.2686726,40.2044005],[26.2655177,40.2038321],[26.2690258,40.204265],[26.2698718,40.2015971],[26.2706568,40.2023069],[26.2711896,40.2008566],[26.2688153,40.2001507],[26.2668364,40.2019306],[26.268015,40.1999678],[26.2711773,40.19917],[26.270794,40.19352],[26.2669827,40.1914162],[26.2585757,40.1775655],[26.252436,40.173118],[26.2497249,40.1655328],[26.2361476,40.1547174],[26.221995,40.127469],[26.2124435,40.1160929],[26.209619,40.1036874],[26.1868629,40.0807692],[26.1775775,40.0636494],[26.1662277,40.0534702],[26.1725697,40.0445607],[26.1752383,40.0430167],[26.1818743,40.0441025],[26.1881928,40.0409642],[26.1911179,40.0414531],[26.1894424,40.0419982],[26.1939617,40.0440776],[26.1995201,40.0509365],[26.2058201,40.0534261],[26.2127838,40.052634],[26.2167438,40.0488445],[26.2217738,40.0494674],[26.2273694,40.0524407],[26.231977,40.060226],[26.240625,40.061474],[26.2478235,40.0652299],[26.2498927,40.0685896],[26.284853,40.082297],[26.2954807,40.0848772],[26.308649,40.092585],[26.3124846,40.1003899],[26.32819,40.1062183],[26.3450665,40.1214658],[26.3470717,40.1265367],[26.3812197,40.1440607],[26.3805804,40.1486297],[26.3773532,40.1534062],[26.3795725,40.153167],[26.3773804,40.1540278],[26.3727589,40.1664533],[26.3604365,40.1826625],[26.3595622,40.185138],[26.3624146,40.1842451],[26.3605331,40.187062],[26.3597712,40.1854683],[26.3580232,40.1912029],[26.3614492,40.1959922],[26.3574872,40.2012313],[26.3594368,40.204305],[26.3634065,40.2051513],[26.3686231,40.2025402],[26.3750389,40.2037327],[26.3802386,40.2086323],[26.386103,40.2096242],[26.3904647,40.2135246],[26.3989899,40.2167364],[26.406048,40.2170245],[26.4231676,40.22093],[26.4261614,40.2242909],[26.4269331,40.2290551],[26.4316481,40.2315752],[26.4315257,40.2304061],[26.4351706,40.2291522],[26.4373642,40.2317228],[26.4508742,40.2364314],[26.4613827,40.2421693],[26.4659512,40.2469511],[26.4693787,40.2475613],[26.4731148,40.2522866],[26.4707,40.2532],[26.47,40.2559],[26.4686,40.255],[26.4583,40.257],[26.4511,40.2828],[26.4484,40.2836],[26.4492,40.2969],[26.4577,40.3032],[26.454,40.3125],[26.4475,40.3168],[26.446,40.3307],[26.4437,40.3318],[26.4443,40.3329],[26.4402,40.333],[26.428,40.3288],[26.4127,40.329],[26.4063,40.3307],[26.407,40.3343],[26.3984,40.3342],[26.3984,40.3361],[26.3938,40.3399],[26.3924,40.3373],[26.3907,40.339],[26.3867,40.3374],[26.3854,40.3388],[26.3799,40.3382],[26.3772,40.3423],[26.3784,40.3435],[26.3767,40.3436],[26.3729,40.3514],[26.3629,40.3577],[26.364,40.3622],[26.3599758,40.3839178]]]}},{"type":"Feature","properties":{"code":"17-08","provinceCode":"17","name":"Ezine"},"geometry":{"type":"Polygon","coordinates":[[[26.166866,39.957616],[26.164658,39.947072],[26.1632473,39.9456071],[26.1604145,39.9457635],[26.1641861,39.9449514],[26.161867,39.943457],[26.1619605,39.9412441],[26.1604041,39.9417422],[26.1606824,39.9446026],[26.160054,39.941647],[26.1627319,39.9406591],[26.1628574,39.9378092],[26.158584,39.925459],[26.1551517,39.9187729],[26.1500772,39.9150837],[26.150799,39.907684],[26.1582431,39.9003408],[26.1606798,39.8955781],[26.1587573,39.8897114],[26.1591816,39.8835525],[26.1558052,39.8800647],[26.1541949,39.8821773],[26.1549221,39.8797391],[26.1525327,39.8796993],[26.151563,39.8780981],[26.1548269,39.8794202],[26.1554416,39.8766298],[26.151866,39.8736665],[26.1522643,39.8716334],[26.1494679,39.8713942],[26.1511302,39.871135],[26.150106,39.869419],[26.147097,39.870168],[26.144969,39.867071],[26.143544,39.861154],[26.146894,39.859638],[26.147095,39.856815],[26.143177,39.850367],[26.1429172,39.8442911],[26.1376478,39.841558],[26.1341009,39.8421458],[26.1554494,39.8295507],[26.1632364,39.8215479],[26.1630672,39.8201345],[26.1598964,39.8189746],[26.1630628,39.8200512],[26.1632761,39.8106961],[26.1563889,39.8048711],[26.1570452,39.802176],[26.1541439,39.7948035],[26.1565856,39.7896126],[26.1568017,39.772615],[26.1501838,39.7646938],[26.1441181,39.7613309],[26.1424529,39.7620406],[26.1442303,39.7631084],[26.1422027,39.7620738],[26.141772,39.7597],[26.1390817,39.7583501],[26.1433196,39.7511907],[26.1421982,39.7492136],[26.1435608,39.7454703],[26.1517932,39.7353779],[26.152325,39.729489],[26.159107,39.7189467],[26.157184,39.712833],[26.1614758,39.6892984],[26.1646024,39.6814966],[26.1623853,39.6739419],[26.1633233,39.6594136],[26.1605851,39.6565396],[26.1578166,39.6463732],[26.196837,39.6511705],[26.2118341,39.6514072],[26.2310701,39.6481248],[26.2453998,39.647735],[26.2663108,39.6500407],[26.3006385,39.6626743],[26.3374474,39.6852624],[26.3495241,39.6879379],[26.3579412,39.6859665],[26.3612349,39.6807562],[26.36032,39.676813],[26.3561114,39.6739963],[26.3308302,39.6686003],[26.3309518,39.6613648],[26.3344984,39.6578575],[26.34129,39.6565302],[26.3626987,39.6570937],[26.4026569,39.6677607],[26.4243988,39.6780208],[26.4476015,39.6765314],[26.4730357,39.678503],[26.4618535,39.6955746],[26.4404659,39.7582871],[26.464527,39.8428415],[26.4881425,39.899609],[26.5057108,39.9315703],[26.4880888,39.9234112],[26.4726281,39.9220088],[26.4134451,39.9234112],[26.3933295,39.9216263],[26.3772038,39.9163987],[26.3454511,39.9125734],[26.309376,39.9119359],[26.2849381,39.9135935],[26.2312411,39.9240487],[26.2158868,39.9332734],[26.197693,39.9398814],[26.166866,39.957616]]]}},{"type":"Feature","properties":{"code":"17-09","provinceCode":"17","name":"Gelibolu"},"geometry":{"type":"Polygon","coordinates":[[[26.3599758,40.3839178],[26.364,40.3622],[26.3629,40.3577],[26.3729,40.3514],[26.3767,40.3436],[26.3784,40.3435],[26.3772,40.3423],[26.3799,40.3382],[26.3854,40.3388],[26.3867,40.3374],[26.3907,40.339],[26.3924,40.3373],[26.3938,40.3399],[26.3984,40.3361],[26.3984,40.3342],[26.407,40.3343],[26.4063,40.3307],[26.4127,40.329],[26.428,40.3288],[26.4402,40.333],[26.4443,40.3329],[26.4437,40.3318],[26.446,40.3307],[26.4475,40.3168],[26.454,40.3125],[26.4577,40.3032],[26.4492,40.2969],[26.4484,40.2836],[26.4511,40.2828],[26.4583,40.257],[26.4686,40.255],[26.47,40.2559],[26.4707,40.2532],[26.4731148,40.2522866],[26.479423,40.2549432],[26.4815786,40.2592167],[26.4900089,40.2645545],[26.4938612,40.2700674],[26.4929431,40.2776537],[26.5043905,40.2831258],[26.5125863,40.2903851],[26.518277,40.293101],[26.5235292,40.2927228],[26.5290899,40.2956876],[26.5345985,40.2958277],[26.5444697,40.2997306],[26.5481152,40.2996574],[26.5540378,40.3051381],[26.5609731,40.3048846],[26.56308,40.3073716],[26.5675184,40.3080049],[26.5738859,40.3198584],[26.5756192,40.3204737],[26.5767083,40.3183092],[26.5760784,40.3199997],[26.5782451,40.320586],[26.5865787,40.319315],[26.5934653,40.3239615],[26.5918317,40.325775],[26.5933542,40.3246591],[26.593663,40.3290318],[26.5999681,40.3325413],[26.6077314,40.3405712],[26.6196304,40.3488484],[26.6306078,40.3634181],[26.6328183,40.3643401],[26.628416,40.372132],[26.6260315,40.3841548],[26.6273984,40.3861623],[26.6304218,40.3864429],[26.6332975,40.390663],[26.6385545,40.3904003],[26.6405168,40.4022742],[26.6434354,40.404243],[26.6518971,40.4042166],[26.6546287,40.4070116],[26.6579032,40.4070901],[26.6570072,40.4096416],[26.658336,40.407538],[26.6620067,40.4069778],[26.6624932,40.4095785],[26.6621748,40.4072518],[26.6683961,40.4062724],[26.6696994,40.4047349],[26.6712066,40.4058522],[26.6705576,40.4050691],[26.6752234,40.4036836],[26.6826694,40.4097562],[26.6795974,40.4126435],[26.6810529,40.4175403],[26.685834,40.4167675],[26.6871059,40.419252],[26.7001126,40.4198562],[26.6960046,40.4276315],[26.692891,40.441903],[26.6926987,40.4476908],[26.6953154,40.4514427],[26.7059288,40.4562084],[26.7146871,40.45674],[26.7253894,40.4636392],[26.7323928,40.4729975],[26.740307,40.477323],[26.777264,40.485873],[26.792375,40.493091],[26.8199006,40.4992452],[26.8270065,40.5033006],[26.8539139,40.5109932],[26.88144,40.525697],[26.88816,40.5311932],[26.907088,40.5382581],[26.9068,40.5425],[26.9086,40.5452],[26.9076,40.5516],[26.9118,40.5614],[26.9096,40.5685],[26.9114,40.5749],[26.9033,40.5898],[26.9068,40.5953],[26.9074,40.5932],[26.9077,40.5947],[26.9089,40.5943],[26.9092,40.5975],[26.9152,40.6062],[26.9138,40.611],[26.9193,40.616],[26.918,40.6198],[26.9112604,40.6266117],[26.9194,40.6326],[26.9134728,40.6403744],[26.9147026,40.6454483],[26.9182615,40.6433654],[26.9217481,40.6460882],[26.9242512,40.6458043],[26.925102,40.6443321],[26.922632,40.6425316],[26.9239598,40.6389471],[26.926721,40.6408014],[26.9345603,40.6412071],[26.9372148,40.64398],[26.9359592,40.647271],[26.9409824,40.6460711],[26.9440768,40.6483158],[26.942598,40.6530036],[26.9488506,40.6546465],[26.948546,40.6587331],[26.9511886,40.6593152],[26.9519036,40.6618669],[26.9602372,40.6612933],[26.9678074,40.670665],[26.9778009,40.6738515],[26.9805842,40.6797585],[26.9825319,40.6803308],[26.989375,40.6763012],[26.9987,40.6826],[27.0058,40.6812],[27.0092,40.687],[27.0123,40.687],[27.0145,40.6839],[27.0241,40.6918],[27.0228,40.702],[27.0305,40.7002],[27.0295,40.7063],[27.0341,40.7129],[27.0329,40.7192],[27.0396,40.7228],[27.0394,40.7268],[27.0351,40.7284],[27.0355,40.7331],[27.0422,40.7332],[27.0418,40.74],[27.0499,40.7449],[27.048,40.7476],[27.0406,40.7454],[27.0343,40.7476],[27.0334,40.7492],[27.0252,40.7489],[27.0202,40.7528],[27.0102,40.7505],[26.9932,40.7523],[26.9804,40.7506],[26.9792,40.7526],[26.9737,40.754],[26.9677,40.7607],[26.9613,40.762],[26.9556,40.7581],[26.9344,40.7536],[26.9302,40.7509],[26.9229,40.7553],[26.9129,40.7519],[26.9072,40.754],[26.9035,40.7491],[26.8887,40.7499],[26.8753,40.7452],[26.86,40.7431],[26.8576,40.7422],[26.8549,40.7369],[26.8563,40.7292],[26.8414,40.7246],[26.8283,40.7255],[26.8239,40.723],[26.8176,40.7249],[26.812,40.7233],[26.8086,40.7281],[26.8049,40.7266],[26.7977,40.7241],[26.7936,40.7176],[26.7905,40.7168],[26.7924,40.7145],[26.7888,40.7106],[26.7797,40.7124],[26.7705,40.7089],[26.7671,40.711],[26.7623,40.7086],[26.7533,40.712],[26.7369,40.7071],[26.7286,40.7104],[26.7224,40.7011],[26.7176,40.7019],[26.7091,40.7062],[26.7127,40.7024],[26.7125,40.6961],[26.708,40.6898],[26.7079,40.6856],[26.7197,40.6887],[26.7357,40.6842],[26.7336,40.6789],[26.7205,40.6743],[26.7196,40.672],[26.7246,40.6681],[26.728,40.6619],[26.7322,40.6623],[26.7324,40.6607],[26.7351,40.6607],[26.7359,40.6594],[26.7252,40.6544],[26.7254,40.6466],[26.7268,40.6459],[26.7255428,40.6425322],[26.7313694,40.6452124],[26.743034,40.643706],[26.752782,40.650916],[26.7722368,40.6556127],[26.7957155,40.6568906],[26.8074269,40.653973],[26.8048438,40.6528882],[26.809422,40.648842],[26.813808,40.647436],[26.816266,40.6483909],[26.8166603,40.6466668],[26.818698,40.646289],[26.8181746,40.6446165],[26.825468,40.635259],[26.821584,40.638591],[26.83022,40.622172],[26.8361227,40.6041846],[26.8391351,40.5892956],[26.8360792,40.5819841],[26.8187758,40.5718404],[26.7981728,40.5562319],[26.7754359,40.5484879],[26.7713721,40.5459027],[26.7641748,40.5444257],[26.7493374,40.5464163],[26.7444426,40.5506675],[26.748247,40.556807],[26.7470566,40.5580661],[26.743041,40.553843],[26.7364755,40.5509244],[26.7339422,40.5449546],[26.7265952,40.5432421],[26.7188987,40.5375638],[26.710719,40.516152],[26.7081164,40.5124145],[26.7041805,40.510435],[26.6967039,40.5100625],[26.6966412,40.5082441],[26.6937961,40.5070245],[26.6896965,40.5089789],[26.681656,40.508373],[26.679982,40.506699],[26.6788767,40.5080403],[26.671356,40.5070287],[26.6664862,40.5085906],[26.6659197,40.5075212],[26.665196,40.5085145],[26.6642158,40.5073702],[26.6608136,40.5078613],[26.6591158,40.5062723],[26.6520705,40.5074504],[26.6442017,40.5065497],[26.6365947,40.5087224],[26.6361526,40.5101562],[26.6254259,40.5080912],[26.6161779,40.5037253],[26.6071363,40.5028931],[26.5892597,40.4965944],[26.5829147,40.4916686],[26.5754584,40.4897005],[26.5737416,40.487097],[26.5629092,40.4807146],[26.5583657,40.4814516],[26.5492272,40.4795611],[26.5462168,40.4758091],[26.5318383,40.4689472],[26.5274641,40.4638936],[26.5108862,40.4585576],[26.5106487,40.4559084],[26.5025645,40.4541102],[26.500433,40.45086],[26.492064,40.446903],[26.4560441,40.4409948],[26.4508179,40.4385188],[26.4363601,40.4311377],[26.4337219,40.4260666],[26.4295322,40.4249287],[26.423748,40.417895],[26.4153147,40.4152152],[26.4126603,40.4108035],[26.405673,40.410357],[26.4039431,40.4114431],[26.3972061,40.4093974],[26.3954698,40.4050715],[26.3908157,40.4014379],[26.3667452,40.3922273],[26.3636102,40.3898437],[26.3637673,40.3856188],[26.3599758,40.3839178]]]}},{"type":"Feature","properties":{"code":"17-10","provinceCode":"17","name":"Imbros"},"geometry":{"type":"Polygon","coordinates":[[[25.6654487,40.1249626],[25.6685944,40.123742],[25.6709812,40.1254517],[25.6727246,40.1244981],[25.6721309,40.1230848],[25.6742613,40.1239002],[25.697412,40.1188583],[25.7006414,40.117062],[25.6990688,40.1149272],[25.7022928,40.1177275],[25.7056961,40.1164268],[25.708153,40.1127534],[25.7121571,40.1105077],[25.7250195,40.1068752],[25.730643,40.093854],[25.7366107,40.09336],[25.7384842,40.0914057],[25.749751,40.0969128],[25.7578136,40.095549],[25.7567108,40.0968566],[25.7582302,40.0987921],[25.764173,40.1002824],[25.7726829,40.0992045],[25.7748885,40.0976533],[25.7816523,40.0996872],[25.7843725,40.0988249],[25.7846604,40.0968003],[25.7882941,40.0979931],[25.7926089,40.0963693],[25.7950696,40.1024999],[25.7994884,40.1046537],[25.8173609,40.103221],[25.8193151,40.1011249],[25.8319596,40.1018203],[25.8381641,40.0999949],[25.8491336,40.1043895],[25.8531459,40.1038942],[25.8587127,40.1091774],[25.8687657,40.1109409],[25.8717693,40.1102386],[25.8803456,40.1144946],[25.8934879,40.1158585],[25.8989312,40.1192341],[25.9051952,40.1205663],[25.9135247,40.1203538],[25.918497,40.123877],[25.9254516,40.1240759],[25.9347579,40.1274556],[25.944192,40.127709],[25.957637,40.123465],[25.9635204,40.1240342],[25.968965,40.126391],[25.972993,40.1254],[25.977933,40.130579],[25.995292,40.1331568],[25.9980232,40.1390538],[26.0140198,40.1474725],[26.014533,40.155675],[26.0125516,40.15732],[26.01276,40.162592],[26.0114447,40.1629245],[26.008436,40.160758],[26.006853,40.154582],[25.991979,40.153426],[25.9898804,40.1454727],[25.9874335,40.1438268],[25.977056,40.144437],[25.9675911,40.1480518],[25.9654421,40.1513858],[25.969379,40.154255],[25.9650921,40.158325],[25.9658752,40.1560182],[25.964314,40.157291],[25.965936,40.160643],[25.9643711,40.1642605],[25.973454,40.172521],[25.9732916,40.175383],[25.9680434,40.1808563],[25.9750151,40.1883595],[25.9760344,40.1976578],[25.9733419,40.2004523],[25.972984,40.2104105],[25.9763414,40.216438],[25.9746393,40.2164799],[25.9703176,40.2221749],[25.9620309,40.2218796],[25.9592401,40.2230901],[25.9600108,40.2241976],[25.9533454,40.2226403],[25.9504498,40.2257569],[25.9517173,40.227813],[25.9493432,40.2256334],[25.9482652,40.2262007],[25.9486872,40.2297906],[25.9456424,40.2301456],[25.945814,40.2338807],[25.9476198,40.2342626],[25.9490347,40.2316797],[25.9554272,40.2288028],[25.9490421,40.2320133],[25.948684,40.2367434],[25.9455763,40.2404396],[25.9426024,40.2398098],[25.9409294,40.2361867],[25.9389478,40.2356085],[25.9311242,40.2402199],[25.9263605,40.2392652],[25.9241586,40.2401646],[25.9197015,40.2391422],[25.9140661,40.2352434],[25.907992,40.236754],[25.9039836,40.2342952],[25.9026609,40.236532],[25.896636,40.23518],[25.892224,40.2332204],[25.8913099,40.2314337],[25.8938234,40.2334225],[25.8945527,40.2316662],[25.8912452,40.2295523],[25.8856114,40.2312467],[25.8735314,40.228079],[25.8661928,40.222234],[25.850019,40.217706],[25.845759,40.212143],[25.8423622,40.210714],[25.8242767,40.2141016],[25.811937,40.211929],[25.8074119,40.2132291],[25.804577,40.211469],[25.7983845,40.2109316],[25.7928515,40.2128155],[25.791865,40.210694],[25.7876188,40.2104975],[25.77024,40.202764],[25.7662935,40.1992531],[25.757015,40.1967518],[25.7496077,40.1911197],[25.725398,40.183278],[25.7159061,40.1766849],[25.6999187,40.1698498],[25.6990004,40.1670418],[25.6904683,40.1602217],[25.6820535,40.1569682],[25.6775464,40.1575233],[25.6777061,40.1557108],[25.6711484,40.1533394],[25.667811,40.1474654],[25.6699511,40.1417321],[25.6654487,40.1249626]]]}},{"type":"Feature","properties":{"code":"17-11","provinceCode":"17","name":"Lapseki"},"geometry":{"type":"Polygon","coordinates":[[[26.826866,40.1391096],[26.8628005,40.1463371],[26.880646,40.1473182],[26.8828835,40.1454762],[26.8862276,40.1459837],[26.8907518,40.1492352],[26.8968497,40.1472994],[26.9017834,40.1487243],[26.9013986,40.150626],[26.9054725,40.1507745],[26.9165802,40.1557716],[26.9151075,40.1603759],[26.9044209,40.1677502],[26.9044209,40.1819319],[26.9171971,40.1907884],[26.9191741,40.1976342],[26.9411842,40.2157523],[26.9815142,40.2590149],[27.0043151,40.2919966],[27.029093,40.3198376],[27.0327833,40.3262685],[27.0337059,40.3439504],[27.0317658,40.3534846],[27.0166489,40.3885059],[27.009618,40.389418],[26.999544,40.386594],[26.996522,40.387621],[26.995515,40.385823],[26.9935,40.387364],[26.991486,40.384026],[26.983091,40.384923],[26.981412,40.386336],[26.973017,40.38582],[26.968318,40.383508],[26.966638,40.385305],[26.962945,40.384919],[26.96026,40.382479],[26.9516911,40.3837841],[26.9444646,40.3876111],[26.9385432,40.3876235],[26.930183,40.3918603],[26.9129896,40.4059168],[26.9076717,40.4042274],[26.9050616,40.4051528],[26.894173,40.3999231],[26.8935613,40.3981591],[26.8844915,40.3959912],[26.8760253,40.3982771],[26.8749894,40.3970907],[26.8751852,40.3983516],[26.8676095,40.3963001],[26.8556849,40.3996317],[26.8446359,40.3991455],[26.8400241,40.4006121],[26.8338872,40.3985485],[26.8268564,40.3988479],[26.822898,40.395958],[26.8186083,40.395475],[26.7803227,40.405984],[26.7668577,40.4021769],[26.7577883,40.4038884],[26.7519663,40.4025109],[26.7321967,40.3924923],[26.7154899,40.3893247],[26.7057085,40.3845017],[26.7061885,40.3830897],[26.7090804,40.3836821],[26.7160266,40.3819381],[26.7120064,40.3868487],[26.7126358,40.3847339],[26.7069622,40.3848652],[26.715462,40.389068],[26.7229061,40.3896229],[26.7334237,40.3927878],[26.7364598,40.3907892],[26.7348138,40.3885747],[26.729235,40.387561],[26.725889,40.384728],[26.7225504,40.3851722],[26.7236731,40.3838735],[26.7203516,40.3833923],[26.7189914,40.3805327],[26.7157798,40.3814199],[26.7140215,40.3792413],[26.7128579,40.3800139],[26.7139558,40.3791305],[26.711626,40.3759058],[26.702283,40.369521],[26.6900238,40.3653594],[26.6890105,40.3623879],[26.6930813,40.3545165],[26.6904456,40.3533265],[26.692592,40.3531712],[26.69087,40.3506563],[26.6890715,40.3498217],[26.6882265,40.3515321],[26.6901198,40.3546443],[26.6880417,40.3519376],[26.6890222,40.349355],[26.6843513,40.3480034],[26.6837975,40.3495481],[26.6839892,40.3479549],[26.6795106,40.3466529],[26.6711546,40.3389293],[26.6639924,40.3365051],[26.6599233,40.3311251],[26.6516632,40.3279567],[26.6453548,40.3197859],[26.6385585,40.316504],[26.6344415,40.3065045],[26.6296189,40.3050029],[26.624974,40.296632],[26.61627,40.294036],[26.607107,40.2813991],[26.5866649,40.2838169],[26.5747828,40.2804111],[26.5687777,40.2769486],[26.5650411,40.2723365],[26.5620591,40.2654556],[26.5634962,40.2679435],[26.5650321,40.2677037],[26.5645291,40.2702874],[26.565616,40.2695952],[26.5700172,40.2717335],[26.5746879,40.2717472],[26.5799873,40.2692594],[26.5750651,40.2710481],[26.5703495,40.2707123],[26.5658495,40.2687385],[26.5632716,40.2650512],[26.5565441,40.2630293],[26.556589,40.260082],[26.5581968,40.2599518],[26.5559423,40.2586425],[26.5582147,40.2598626],[26.5586369,40.2567918],[26.5502835,40.2536043],[26.5448155,40.2423398],[26.5419067,40.240991],[26.542387,40.235995],[26.5668491,40.2174907],[26.5793463,40.2148067],[26.5965299,40.2148067],[26.6137135,40.2109297],[26.6281634,40.2016836],[26.6348025,40.1897512],[26.6363647,40.1799054],[26.6269918,40.1625972],[26.6273823,40.1527475],[26.6348025,40.1405079],[26.6480808,40.1333423],[26.6808859,40.1216965],[26.7019749,40.1082566],[26.7218923,40.108854],[26.7414191,40.1166196],[26.7644608,40.130655],[26.7781296,40.1333423],[26.8054672,40.1333423],[26.826866,40.1391096]]]}},{"type":"Feature","properties":{"code":"17-12","provinceCode":"17","name":"Yenice"},"geometry":{"type":"Polygon","coordinates":[[[26.9919207,39.8099049],[26.9616289,39.7913649],[26.948378,39.7866502],[26.9728103,39.7730414],[27.0284012,39.7613891],[27.0406,39.761176],[27.0610436,39.7608188],[27.0862672,39.7562563],[27.1122327,39.7471304],[27.1385691,39.7305867],[27.1815976,39.6946332],[27.20237,39.6840718],[27.2558954,39.6817681],[27.2970992,39.6869414],[27.3141634,39.678152],[27.3313313,39.6910828],[27.3472324,39.6989643],[27.3523346,39.7054865],[27.3725159,39.7111067],[27.3787136,39.7210886],[27.3834472,39.7455046],[27.4111084,39.7595561],[27.4535954,39.7516717],[27.4666524,39.7651766],[27.4764427,39.7846008],[27.4795806,39.7981399],[27.4760513,39.8127427],[27.4763064,39.8310549],[27.4834336,39.8513078],[27.490114,39.8641985],[27.4894745,39.8707906],[27.4967414,39.8814891],[27.5097312,39.8910009],[27.532644,39.8999392],[27.5455957,39.9113218],[27.5486965,39.9258991],[27.5369796,39.9408572],[27.5196349,39.9557044],[27.5169494,39.9658304],[27.5167641,39.9776625],[27.4885864,39.9727454],[27.4775854,39.9737646],[27.4533675,39.9817913],[27.4505863,39.9843014],[27.4478095,39.9912364],[27.4478095,39.9948454],[27.4575365,40.0106764],[27.4753094,40.0290175],[27.4792005,40.0354116],[27.4819814,40.0695675],[27.5028134,40.1140167],[27.5036414,40.1262466],[27.5003145,40.1281767],[27.4775334,40.1295738],[27.4544774,40.1395677],[27.4436475,40.1390108],[27.4250355,40.1351348],[27.4150335,40.1367908],[27.4114244,40.1387367],[27.3794153,40.1332946],[27.3700219,40.1271821],[27.3397453,40.1142253],[27.3228287,40.1150874],[27.2853774,40.1071839],[27.2755111,40.1026835],[27.2657989,40.0959239],[27.2326131,40.0804996],[27.2334838,40.0680652],[27.2257069,40.0494136],[27.14246,39.9955623],[27.1202038,39.9696267],[27.0881205,39.9153456],[27.0576084,39.8867802],[27.0460167,39.8736151],[27.0435617,39.8480307],[27.0219059,39.8330364],[27.0107778,39.8212855],[26.9919207,39.8099049]]]}}]}