{"type":"FeatureCollection","features":[{"type":"Feature","properties":{"code":"51-01","provinceCode":"51","name":"Altunhisar"},"geometry":{"type":"Polygon","coordinates":[[[34.0606973,38.061363],[34.0525591,38.0550298],[34.0585396,38.0483952],[34.0701932,38.0394581],[34.0607778,38.0274975],[34.0520972,38.02183],[34.0648428,38.0137036],[34.0776789,38.0109271],[34.1047844,38.0109378],[34.133895,38.0048859],[34.1515766,37.9983086],[34.1701785,37.9849725],[34.1964369,37.9746766],[34.2211191,37.9727719],[34.231541,37.9608095],[34.2334927,37.9489535],[34.2428466,37.9357953],[34.248663,37.9322819],[34.260908,37.9301842],[34.2676287,37.9313201],[34.2711091,37.935201],[34.2660756,37.9604191],[34.2700001,37.9652799],[34.2765324,37.9663699],[34.2897338,37.9635314],[34.3131362,37.9625852],[34.3422805,37.9651912],[34.3497508,37.961449],[34.359011,37.95392],[34.3737725,37.9331054],[34.378213,37.9294136],[34.3813942,37.9295028],[34.3871844,37.9328336],[34.3826033,37.9443369],[34.3832329,37.9496985],[34.3888716,37.9560306],[34.396935,37.9599831],[34.3983639,37.9630568],[34.4042238,37.9663832],[34.4113544,37.9767674],[34.4089551,37.9833316],[34.4001075,37.9919732],[34.3960584,37.9997362],[34.3953342,38.0101204],[34.4058046,38.0297708],[34.4206331,38.0415372],[34.4312153,38.047007],[34.4522084,38.0455961],[34.4665844,38.0374593],[34.473891,38.0363856],[34.5022371,38.0515379],[34.5243901,38.0690203],[34.5177032,38.0815264],[34.4979836,38.0906441],[34.4562605,38.1011588],[34.431394,38.1045588],[34.3310599,38.1103584],[34.3011023,38.1103584],[34.2749932,38.1134664],[34.2394867,38.1130556],[34.2064744,38.1186682],[34.1762755,38.125659],[34.1659788,38.126559],[34.1606874,38.1232965],[34.1576041,38.1180275],[34.1487325,38.0922476],[34.1397997,38.0849358],[34.1268937,38.0785698],[34.1121756,38.0797546],[34.1041797,38.075758],[34.1004159,38.0694809],[34.0899714,38.0635185],[34.0606973,38.061363]]]}},{"type":"Feature","properties":{"code":"51-02","provinceCode":"51","name":"Bor"},"geometry":{"type":"Polygon","coordinates":[[[33.9755405,37.9960763],[33.9810052,37.975613],[33.9943099,37.9628811],[34.020595,37.9606376],[34.082866,37.9708928],[34.1089653,37.9622604],[34.1232057,37.9551683],[34.140505,37.9267052],[34.1686967,37.9038886],[34.1988281,37.8739221],[34.2104225,37.869063],[34.2404271,37.8694412],[34.2568251,37.8656207],[34.2877574,37.8464649],[34.3062276,37.8199154],[34.3296732,37.7933873],[34.3507938,37.7649379],[34.3767197,37.7136469],[34.4103271,37.7242575],[34.4298242,37.727519],[34.4511202,37.7273364],[34.4621669,37.7176373],[34.4790607,37.7138211],[34.5085381,37.7197728],[34.5379023,37.7232094],[34.5630234,37.7220832],[34.5979363,37.6993406],[34.6489665,37.6802317],[34.7468264,37.688755],[34.7625727,37.694423],[34.781589,37.7192298],[34.7909339,37.7231899],[34.8033695,37.7227289],[34.8488183,37.6972069],[34.8665247,37.6958582],[34.8670828,37.7226319],[34.8754377,37.7338211],[34.8841988,37.7409965],[34.8878253,37.7562621],[34.8878426,37.7660233],[34.8842699,37.7872375],[34.8826737,37.8112966],[34.8778182,37.8253864],[34.8837107,37.8393449],[34.8782546,37.8499501],[34.8654173,37.8562323],[34.850966,37.8718062],[34.8388569,37.8759208],[34.8313404,37.8768304],[34.8042772,37.8707608],[34.7798061,37.8682442],[34.7633304,37.8836933],[34.7432767,37.8733231],[34.7404973,37.8691046],[34.7358196,37.8660402],[34.729474,37.8662639],[34.7153153,37.8747147],[34.7133482,37.866755],[34.6940011,37.8622024],[34.6907558,37.8590989],[34.6811268,37.8614994],[34.6584708,37.8615373],[34.6402188,37.8684059],[34.6112284,37.8730163],[34.6017693,37.8759019],[34.6055799,37.9114585],[34.6163613,37.9165609],[34.6139843,37.9195821],[34.6144072,37.9242387],[34.6122443,37.9253547],[34.6094473,37.9245722],[34.6098213,37.9260218],[34.5994964,37.9338359],[34.5823235,37.9436569],[34.5660624,37.9506851],[34.5616977,37.948903],[34.5274412,37.9669636],[34.5174323,37.9782868],[34.5131103,38.0025597],[34.5282211,38.0260474],[34.529214,38.0545063],[34.5243901,38.0690203],[34.5022371,38.0515379],[34.473891,38.0363856],[34.4665844,38.0374593],[34.4522084,38.0455961],[34.4312153,38.047007],[34.4206331,38.0415372],[34.4058046,38.0297708],[34.3953342,38.0101204],[34.3960584,37.9997362],[34.4001075,37.9919732],[34.4089551,37.9833316],[34.4113544,37.9767674],[34.4042238,37.9663832],[34.3983639,37.9630568],[34.396935,37.9599831],[34.3888716,37.9560306],[34.3832329,37.9496985],[34.3826033,37.9443369],[34.3871844,37.9328336],[34.3813942,37.9295028],[34.378213,37.9294136],[34.3737725,37.9331054],[34.359011,37.95392],[34.3497508,37.961449],[34.3422805,37.9651912],[34.3131362,37.9625852],[34.2897338,37.9635314],[34.2765324,37.9663699],[34.2700001,37.9652799],[34.2660756,37.9604191],[34.2711091,37.935201],[34.2676287,37.9313201],[34.260908,37.9301842],[34.248663,37.9322819],[34.2428466,37.9357953],[34.2334927,37.9489535],[34.231541,37.9608095],[34.2211191,37.9727719],[34.1964369,37.9746766],[34.1701785,37.9849725],[34.1515766,37.9983086],[34.133895,38.0048859],[34.1047844,38.0109378],[34.0776789,38.0109271],[34.0648428,38.0137036],[34.0520972,38.02183],[34.0135489,38.0183506],[33.9839531,38.0057919],[33.9755405,37.9960763]]]}},{"type":"Feature","properties":{"code":"51-03","provinceCode":"51","name":"Çamardı"},"geometry":{"type":"Polygon","coordinates":[[[35.05271,37.6500269],[35.0910019,37.6495881],[35.3111078,37.7175514],[35.305595,37.7324906],[35.3102522,37.7398725],[35.3046447,37.7532369],[35.2928239,37.7527175],[35.2602772,37.7593961],[35.2612039,37.762715],[35.2558983,37.7646694],[35.2343725,37.7574886],[35.2149006,37.7607328],[35.2006161,37.7701903],[35.1892911,37.7755264],[35.1849203,37.7758283],[35.1780764,37.7739353],[35.1738242,37.7782914],[35.1710039,37.7780003],[35.1610578,37.7840158],[35.1616958,37.7932769],[35.1498853,37.8050503],[35.1534456,37.8141194],[35.1703781,37.8230944],[35.1972033,37.8628728],[35.1990158,37.8700753],[35.1979067,37.8811728],[35.2094136,37.8936339],[35.2061325,37.9065631],[35.2100722,37.9231436],[35.2062506,37.9332758],[35.2068264,37.9487575],[35.2103514,37.9661839],[35.2007344,37.9806978],[35.2176961,37.9911044],[35.2280236,37.9870006],[35.232305,37.9895064],[35.2182925,38.0030053],[35.2292069,38.0488542],[35.1950437,38.0632695],[35.1806355,38.0673357],[35.1567328,38.0669438],[35.1446479,38.0648692],[35.1314214,38.0579812],[35.1282845,38.0481854],[35.1336243,38.0318981],[35.1241692,38.0264612],[35.1123767,38.0382574],[35.0910257,38.0452086],[35.0785381,38.036398],[35.0711963,38.0401724],[35.0581264,38.0422283],[35.0484332,38.0388984],[35.0498514,38.0274294],[35.0583848,38.0231701],[35.0585823,38.0071534],[35.0382198,37.9901043],[34.9977992,37.968454],[34.9840508,37.9671493],[34.9686176,37.9688027],[34.957523,37.974196],[34.946886,37.9832552],[34.9341596,37.9868057],[34.9208342,37.9869249],[34.90693,37.9850376],[34.900537,37.9810008],[34.8960191,37.9742633],[34.892799,37.9610989],[34.8884636,37.9566523],[34.8824013,37.9520175],[34.8516934,37.9383912],[34.8529109,37.9327529],[34.8744746,37.9051281],[34.8650241,37.8742217],[34.8654173,37.8562323],[34.8782546,37.8499501],[34.8837107,37.8393449],[34.8778182,37.8253864],[34.8826737,37.8112966],[34.8842699,37.7872375],[34.8878426,37.7660233],[34.8878253,37.7562621],[34.8841988,37.7409965],[34.8754377,37.7338211],[34.8670828,37.7226319],[34.8665247,37.6958582],[34.8795525,37.6819709],[34.8918344,37.6908597],[34.9055869,37.6948434],[34.9365085,37.6936459],[34.9568771,37.6848777],[34.9693458,37.6743271],[34.9896636,37.6702122],[35.05271,37.6500269]]]}},{"type":"Feature","properties":{"code":"51-04","provinceCode":"51","name":"Çiftlik"},"geometry":{"type":"Polygon","coordinates":[[[34.2749932,38.1134664],[34.3011023,38.1103584],[34.3310599,38.1103584],[34.431394,38.1045588],[34.4562605,38.1011588],[34.4979836,38.0906441],[34.5177032,38.0815264],[34.5243901,38.0690203],[34.5373955,38.0900678],[34.5438402,38.1062458],[34.549513,38.1108961],[34.5581385,38.1127881],[34.5738644,38.1087359],[34.5817655,38.1124184],[34.597,38.1324112],[34.6102975,38.1442583],[34.608965,38.1583293],[34.6039954,38.1681749],[34.5914973,38.2119527],[34.5958456,38.2182664],[34.5950546,38.2241454],[34.5845659,38.2290721],[34.5879056,38.243744],[34.5865742,38.2494204],[34.5758193,38.2511468],[34.5644289,38.2494682],[34.5528547,38.2450356],[34.5413983,38.2431027],[34.5334328,38.2374663],[34.5264014,38.2381086],[34.5202308,38.2570349],[34.5140096,38.2623852],[34.5035871,38.2667161],[34.465508,38.2750603],[34.4347281,38.2769653],[34.4374268,38.2624622],[34.4348345,38.2497598],[34.4369053,38.2338668],[34.427892,38.2246276],[34.3633016,38.2267172],[34.3439042,38.2160849],[34.329684,38.2045387],[34.3202206,38.1945853],[34.311804,38.1789962],[34.2953131,38.1555511],[34.2892422,38.1469182],[34.2749932,38.1134664]]]}},{"type":"Feature","properties":{"code":"51-05","provinceCode":"51","name":"Derinkuyu"},"geometry":{"type":"Polygon","coordinates":[[[34.80921,38.439547],[34.8052565,38.441102],[34.7937874,38.4326918],[34.7897204,38.4267658],[34.7840265,38.4238982],[34.7800408,38.4186088],[34.7761364,38.4222413],[34.774835,38.4207119],[34.7736962,38.42256],[34.7715,38.4217952],[34.7687344,38.4186725],[34.7616578,38.4228149],[34.7519327,38.4203168],[34.7516203,38.4223968],[34.7407401,38.4242729],[34.739751,38.4228047],[34.7288369,38.4255337],[34.7197086,38.4261082],[34.7144508,38.4299009],[34.7101299,38.4286367],[34.7099217,38.4309612],[34.7065379,38.4325108],[34.7064859,38.4343866],[34.7089326,38.4334487],[34.7112752,38.4356507],[34.7066833,38.4392677],[34.7082659,38.4497054],[34.7058088,38.4532278],[34.710723,38.4560652],[34.7079327,38.4607939],[34.704601,38.4596199],[34.6993535,38.462457],[34.7016441,38.4662723],[34.6989371,38.4682614],[34.7003114,38.4720437],[34.6986039,38.473837],[34.7007695,38.4759237],[34.6989371,38.4769996],[34.69977,38.4832265],[34.6951889,38.4893226],[34.6979376,38.4899745],[34.6972712,38.4920607],[34.6932315,38.4913436],[34.69294,38.4929734],[34.6965216,38.4952551],[34.696938,38.497439],[34.6944809,38.5020998],[34.6923153,38.5030775],[34.6998533,38.5102473],[34.696355,38.5105406],[34.6898581,38.5077705],[34.6811124,38.506858],[34.6790717,38.5044138],[34.6795298,38.5022953],[34.6753235,38.4996553],[34.6759482,38.4972434],[34.6742407,38.4944077],[34.6711172,38.4931364],[34.6689516,38.4885728],[34.6637458,38.4877905],[34.6650784,38.4859975],[34.6615801,38.4848566],[34.659123,38.4775212],[34.6550416,38.477293],[34.653584,38.474163],[34.6518348,38.475402],[34.6506687,38.4739348],[34.6490862,38.4755976],[34.6458794,38.47012],[34.6442552,38.4623266],[34.6421728,38.4609244],[34.6433806,38.4591307],[34.6409235,38.457174],[34.641798,38.4550868],[34.6389661,38.4546955],[34.6382581,38.4567827],[34.6354261,38.4544998],[34.6332188,38.4484986],[34.6011535,38.4472061],[34.590198,38.4488248],[34.5889919,38.4523486],[34.579513,38.453412],[34.5643323,38.4475243],[34.559134,38.4445183],[34.5544696,38.4391688],[34.5610081,38.4371789],[34.5580928,38.4322856],[34.5464734,38.4337209],[34.5500967,38.4304259],[34.5495553,38.4288274],[34.5409344,38.4303607],[34.5400599,38.4291536],[34.5437664,38.4268372],[34.5467233,38.419137],[34.5409761,38.4193981],[34.5443494,38.4144709],[34.5410594,38.4126109],[34.5424965,38.4112057],[34.5412601,38.4100839],[34.5378113,38.4106448],[34.5397634,38.4086563],[34.53664,38.4065146],[34.5410649,38.4060556],[34.54562,38.4093702],[34.5459454,38.4065146],[34.5491339,38.4065146],[34.5491339,38.4052908],[34.5452296,38.4046279],[34.5473119,38.402639],[34.5443887,38.4018542],[34.5483286,38.3971728],[34.5487099,38.3929892],[34.5253824,38.3891751],[34.51991,38.3894598],[34.5184774,38.3886765],[34.5211428,38.3871096],[34.5210095,38.3854904],[34.5113197,38.3826878],[34.5101571,38.3799665],[34.5116054,38.3766421],[34.5159743,38.3760194],[34.5194745,38.3562306],[34.5232709,38.3530558],[34.5279904,38.3548662],[34.5296295,38.3533444],[34.5339394,38.3546444],[34.5362602,38.3509525],[34.5599909,38.3435765],[34.5629871,38.3461063],[34.5661104,38.3439496],[34.5635982,38.3411804],[34.5700146,38.3393964],[34.5732758,38.3355086],[34.5763312,38.3369998],[34.5763312,38.3348961],[34.5734456,38.3341505],[34.5752788,38.3307151],[34.5794546,38.3306086],[34.5790811,38.3278122],[34.5833439,38.3294767],[34.5858901,38.3278955],[34.5790629,38.3212358],[34.580617,38.3193663],[34.5760584,38.3149768],[34.5762656,38.311156],[34.5784413,38.3090424],[34.5740899,38.305953],[34.5773016,38.3001805],[34.5835179,38.2974974],[34.5896306,38.298717],[34.6050094,38.2811968],[34.6133059,38.2902503],[34.6133059,38.2935411],[34.616673,38.2930329],[34.6244434,38.3008589],[34.627681,38.2988263],[34.6302711,38.3038062],[34.6370054,38.3084809],[34.6401136,38.3145779],[34.6468479,38.3125457],[34.6651082,38.3288023],[34.6692524,38.3294119],[34.6746916,38.3358119],[34.6745621,38.3396719],[34.6832851,38.346007],[34.6877717,38.3407893],[34.6910093,38.3397735],[34.6895848,38.3356087],[34.691574,38.3354137],[34.6936461,38.3380792],[34.7011885,38.3389243],[34.6961326,38.3333332],[34.7041723,38.3354137],[34.706664,38.3349708],[34.7071613,38.3333454],[34.7138749,38.3333454],[34.7169416,38.3390015],[34.7307832,38.3382864],[34.7436804,38.3410884],[34.74705,38.3307597],[34.770299,38.3371422],[34.772023,38.3335014],[34.7858811,38.3400027],[34.7953589,38.3275523],[34.7989851,38.3254391],[34.8076878,38.3247076],[34.8112104,38.322513],[34.8098635,38.320481],[34.8141113,38.3150348],[34.8144221,38.3075558],[34.8194988,38.302759],[34.8225033,38.3188553],[34.8199132,38.3206436],[34.8222961,38.3225943],[34.8222961,38.3293403],[34.832083,38.346691],[34.8305129,38.3513503],[34.8359023,38.3534802],[34.8488507,38.3513997],[34.8527462,38.3538696],[34.8555643,38.3520497],[34.8781236,38.3666333],[34.8760669,38.3683103],[34.8720881,38.3667558],[34.8736431,38.3688867],[34.8646031,38.3703208],[34.8649853,38.3745183],[34.8627939,38.3783736],[34.8658878,38.3820828],[34.8522797,38.3819361],[34.8535492,38.3877422],[34.8525231,38.3937372],[34.85752,38.3937578],[34.8527692,38.3985744],[34.8547339,38.4026139],[34.8503811,38.4036794],[34.8527875,38.4100833],[34.8508447,38.4118658],[34.8511258,38.4148914],[34.8527239,38.4149328],[34.8517536,38.4213731],[34.8469256,38.4244058],[34.8479154,38.4269702],[34.8426113,38.4271948],[34.8433281,38.4302269],[34.8368772,38.4291039],[34.8226852,38.440333],[34.8198182,38.4389856],[34.8196748,38.4341572],[34.816091,38.4341572],[34.8166644,38.4417926],[34.813654,38.4422417],[34.80921,38.439547]]]}},{"type":"Feature","properties":{"code":"51-06","provinceCode":"51","name":"Niğde (merkez)"},"geometry":{"type":"Polygon","coordinates":[[[34.5243901,38.0690203],[34.529214,38.0545063],[34.5282211,38.0260474],[34.5131103,38.0025597],[34.5174323,37.9782868],[34.5274412,37.9669636],[34.5616977,37.948903],[34.5660624,37.9506851],[34.5823235,37.9436569],[34.5994964,37.9338359],[34.6098213,37.9260218],[34.6094473,37.9245722],[34.6122443,37.9253547],[34.6144072,37.9242387],[34.6139843,37.9195821],[34.6163613,37.9165609],[34.6055799,37.9114585],[34.6017693,37.8759019],[34.6112284,37.8730163],[34.6402188,37.8684059],[34.6584708,37.8615373],[34.6811268,37.8614994],[34.6907558,37.8590989],[34.6940011,37.8622024],[34.7133482,37.866755],[34.7153153,37.8747147],[34.729474,37.8662639],[34.7358196,37.8660402],[34.7404973,37.8691046],[34.7432767,37.8733231],[34.7633304,37.8836933],[34.7798061,37.8682442],[34.8042772,37.8707608],[34.8313404,37.8768304],[34.8388569,37.8759208],[34.850966,37.8718062],[34.8654173,37.8562323],[34.8650241,37.8742217],[34.8744746,37.9051281],[34.8529109,37.9327529],[34.8516934,37.9383912],[34.8824013,37.9520175],[34.8884636,37.9566523],[34.892799,37.9610989],[34.8960191,37.9742633],[34.900537,37.9810008],[34.90693,37.9850376],[34.9208342,37.9869249],[34.9341596,37.9868057],[34.946886,37.9832552],[34.957523,37.974196],[34.9686176,37.9688027],[34.9840508,37.9671493],[34.9977992,37.968454],[35.0382198,37.9901043],[35.0585823,38.0071534],[35.0583848,38.0231701],[35.0498514,38.0274294],[35.0484332,38.0388984],[35.0581264,38.0422283],[35.0711963,38.0401724],[35.0785381,38.036398],[35.0910257,38.0452086],[35.1123767,38.0382574],[35.1241692,38.0264612],[35.1336243,38.0318981],[35.1282845,38.0481854],[35.1314214,38.0579812],[35.1446479,38.0648692],[35.1567328,38.0669438],[35.1806355,38.0673357],[35.1950437,38.0632695],[35.2292069,38.0488542],[35.2369008,38.0567506],[35.2316308,38.0607456],[35.2234775,38.0767536],[35.2256208,38.0870703],[35.2227081,38.0884875],[35.2212322,38.0916328],[35.2237289,38.0997697],[35.2308161,38.1086275],[35.2321903,38.1414375],[35.2216344,38.1353436],[35.2077142,38.1416686],[35.1977722,38.1534058],[35.1961119,38.1626761],[35.1944117,38.1640139],[35.1856944,38.1588544],[35.1750247,38.1675678],[35.1497281,38.1613275],[35.1476989,38.1651678],[35.1438714,38.1656681],[35.1416453,38.1678767],[35.1404908,38.1697578],[35.1426086,38.1724247],[35.1407603,38.1753064],[35.13601,38.1746133],[35.1364747,38.1763003],[35.1290792,38.1753239],[35.1323925,38.1798292],[35.1323617,38.1849478],[35.1313983,38.1876503],[35.1267983,38.1885692],[35.1165331,38.1859369],[35.1088119,38.1900614],[35.1063678,38.1896433],[35.1042714,38.18615],[35.1043222,38.17959],[35.1026042,38.1785983],[35.1043494,38.1739581],[35.0967389,38.1658578],[35.0926564,38.1646344],[35.0908742,38.1599408],[35.0819631,38.1591617],[35.0773983,38.1631389],[35.0714028,38.1619233],[35.0700583,38.1644519],[35.0682836,38.1646283],[35.0648097,38.1635594],[35.0642028,38.1611506],[35.0591158,38.1663789],[35.0562192,38.1636622],[35.0552194,38.16493],[35.0577044,38.1660442],[35.0566092,38.1675756],[35.0543689,38.1657331],[35.054095,38.168335],[35.0513219,38.1690111],[35.0502058,38.1663075],[35.0386786,38.1706797],[35.0402908,38.1720989],[35.0379281,38.1726169],[35.0389753,38.1752583],[35.0343086,38.1828944],[35.0374214,38.1868575],[35.0393639,38.186895],[35.0364975,38.1913292],[35.0387678,38.1971436],[35.0365153,38.2009986],[35.0382969,38.2041589],[35.0246331,38.2091925],[35.0245322,38.2157647],[35.0128008,38.2090517],[35.0139144,38.2152706],[35.0115017,38.2193697],[35.0128025,38.2230397],[35.0094997,38.2256544],[35.0104258,38.2277386],[35.0090353,38.2271392],[35.0081761,38.2285086],[35.0097475,38.2303461],[35.0101578,38.2375475],[35.0119789,38.2375089],[35.0133469,38.2401172],[35.0124428,38.2426431],[35.0150908,38.2470081],[35.0133097,38.2517817],[35.0162106,38.2563303],[35.0216761,38.2561564],[35.0234422,38.2581692],[35.0272286,38.2573661],[35.0290147,38.2631228],[35.0274339,38.2658181],[35.0356014,38.2713547],[35.0240328,38.2728953],[35.0157683,38.27807],[35.0129103,38.2827653],[35.0145356,38.2858225],[35.0117953,38.2893886],[35.0136986,38.2950881],[35.0082281,38.3008961],[35.0023897,38.3023247],[35.0021528,38.3011478],[34.9968858,38.3015614],[34.9935653,38.2989825],[34.9925264,38.3014675],[34.9887775,38.3033575],[34.9841592,38.30181],[34.9846492,38.3049186],[34.9750814,38.3017861],[34.9746028,38.3075058],[34.9705653,38.3117239],[34.9638911,38.3116264],[34.9596308,38.3160544],[34.9585631,38.31507],[34.9561653,38.3172997],[34.9549286,38.3165567],[34.9545361,38.3185164],[34.9514508,38.3166336],[34.9453008,38.3185911],[34.9441889,38.3250897],[34.9418144,38.3241267],[34.9425425,38.3218797],[34.9403694,38.3215747],[34.9380572,38.3274369],[34.9349528,38.328485],[34.9336136,38.3396481],[34.9225397,38.3415836],[34.9193817,38.3379033],[34.9195778,38.3398492],[34.9161331,38.3396564],[34.9181814,38.3407122],[34.9068631,38.34359],[34.9077761,38.3478361],[34.9050281,38.3532019],[34.8940239,38.3560942],[34.8918136,38.3591539],[34.8856636,38.3595075],[34.8852414,38.3610325],[34.8808517,38.36164],[34.8814528,38.3635028],[34.8781236,38.3666333],[34.8555643,38.3520497],[34.8527462,38.3538696],[34.8488507,38.3513997],[34.8359023,38.3534802],[34.8305129,38.3513503],[34.832083,38.346691],[34.8222961,38.3293403],[34.8222961,38.3225943],[34.8199132,38.3206436],[34.8225033,38.3188553],[34.8194988,38.302759],[34.8144221,38.3075558],[34.8141113,38.3150348],[34.8098635,38.320481],[34.8112104,38.322513],[34.8076878,38.3247076],[34.7989851,38.3254391],[34.7953589,38.3275523],[34.7858811,38.3400027],[34.772023,38.3335014],[34.770299,38.3371422],[34.74705,38.3307597],[34.7436804,38.3410884],[34.7307832,38.3382864],[34.7169416,38.3390015],[34.7138749,38.3333454],[34.7071613,38.3333454],[34.706664,38.3349708],[34.7041723,38.3354137],[34.6961326,38.3333332],[34.7011885,38.3389243],[34.6936461,38.3380792],[34.691574,38.3354137],[34.6895848,38.3356087],[34.6910093,38.3397735],[34.6877717,38.3407893],[34.6832851,38.346007],[34.6745621,38.3396719],[34.6746916,38.3358119],[34.6692524,38.3294119],[34.6651082,38.3288023],[34.6468479,38.3125457],[34.6401136,38.3145779],[34.6370054,38.3084809],[34.6302711,38.3038062],[34.627681,38.2988263],[34.6244434,38.3008589],[34.616673,38.2930329],[34.6133059,38.2935411],[34.6133059,38.2902503],[34.6050094,38.2811968],[34.5896306,38.298717],[34.5835179,38.2974974],[34.5773016,38.3001805],[34.5740899,38.305953],[34.5784413,38.3090424],[34.5762656,38.311156],[34.5760584,38.3149768],[34.580617,38.3193663],[34.5790629,38.3212358],[34.5858901,38.3278955],[34.5833439,38.3294767],[34.5790811,38.3278122],[34.5794546,38.3306086],[34.5752788,38.3307151],[34.5734456,38.3341505],[34.5763312,38.3348961],[34.5763312,38.3369998],[34.5732758,38.3355086],[34.5700146,38.3393964],[34.5635982,38.3411804],[34.5661104,38.3439496],[34.5629871,38.3461063],[34.5599909,38.3435765],[34.5362602,38.3509525],[34.5339394,38.3546444],[34.5296295,38.3533444],[34.5279904,38.3548662],[34.5232709,38.3530558],[34.5194745,38.3562306],[34.5159743,38.3760194],[34.5116054,38.3766421],[34.5101571,38.3799665],[34.5054214,38.3882854],[34.5029958,38.3886501],[34.5006132,38.3865979],[34.4852416,38.3736268],[34.4696407,38.3665637],[34.4693356,38.35153],[34.4475511,38.3432138],[34.446586,38.3410477],[34.4390289,38.3394743],[34.4387697,38.3331908],[34.4296138,38.3215352],[34.4215949,38.3131393],[34.4207351,38.298841],[34.4320856,38.293734],[34.4354325,38.2852292],[34.4347281,38.2769653],[34.465508,38.2750603],[34.5035871,38.2667161],[34.5140096,38.2623852],[34.5202308,38.2570349],[34.5264014,38.2381086],[34.5334328,38.2374663],[34.5413983,38.2431027],[34.5528547,38.2450356],[34.5644289,38.2494682],[34.5758193,38.2511468],[34.5865742,38.2494204],[34.5879056,38.243744],[34.5845659,38.2290721],[34.5950546,38.2241454],[34.5958456,38.2182664],[34.5914973,38.2119527],[34.6039954,38.1681749],[34.608965,38.1583293],[34.6102975,38.1442583],[34.597,38.1324112],[34.5817655,38.1124184],[34.5738644,38.1087359],[34.5581385,38.1127881],[34.549513,38.1108961],[34.5438402,38.1062458],[34.5373955,38.0900678],[34.5243901,38.0690203]]]}},{"type":"Feature","properties":{"code":"51-07","provinceCode":"51","name":"Ulukisla"},"geometry":{"type":"Polygon","coordinates":[[[34.8795525,37.6819709],[34.8665247,37.6958582],[34.8488183,37.6972069],[34.8033695,37.7227289],[34.7909339,37.7231899],[34.781589,37.7192298],[34.7625727,37.694423],[34.7468264,37.688755],[34.6489665,37.6802317],[34.5979363,37.6993406],[34.5630234,37.7220832],[34.5379023,37.7232094],[34.5085381,37.7197728],[34.4790607,37.7138211],[34.4621669,37.7176373],[34.4511202,37.7273364],[34.4298242,37.727519],[34.4103271,37.7242575],[34.3767197,37.7136469],[34.3800032,37.6980438],[34.3788259,37.6853562],[34.3761709,37.6734735],[34.36735,37.6594673],[34.3509228,37.6435572],[34.3135604,37.6132792],[34.297168,37.5976546],[34.2953865,37.5851833],[34.2971799,37.5753505],[34.3066138,37.5498607],[34.3093157,37.5363777],[34.3059804,37.5219461],[34.3064769,37.5058541],[34.3083009,37.4958304],[34.3138134,37.4872351],[34.3379776,37.4663755],[34.3608345,37.4542258],[34.3753025,37.4502165],[34.3951725,37.4360167],[34.4020083,37.4246519],[34.4020048,37.412542],[34.4061199,37.3994666],[34.4064139,37.3908263],[34.4106767,37.3826596],[34.4136879,37.3644725],[34.436517,37.3314242],[34.4505044,37.3324195],[34.4851131,37.3435889],[34.5429135,37.3514447],[34.566241,37.3748467],[34.6218765,37.4010007],[34.6687476,37.408371],[34.6855951,37.4256618],[34.7019781,37.432312],[34.7174675,37.4356009],[34.7641164,37.4262364],[34.7747918,37.4208587],[34.7882041,37.4239896],[34.797161,37.4315526],[34.7994913,37.446447],[34.796274,37.4558891],[34.8020667,37.4660784],[34.8226562,37.4734906],[34.8320547,37.4822985],[34.8499295,37.5147164],[34.8474673,37.5395568],[34.8695169,37.560826],[34.8689415,37.5734439],[34.8652974,37.5821079],[34.8548449,37.588472],[34.8585847,37.6012564],[34.8476525,37.6087017],[34.858036,37.6230284],[34.8552334,37.6339023],[34.8795525,37.6819709]]]}}]}