{"type":"FeatureCollection","features":[{"type":"Feature","properties":{"code":"74-01","provinceCode":"74","name":"Amasra"},"geometry":{"type":"MultiPolygon","coordinates":[[[[32.5824,41.7282],[32.5768,41.7339],[32.5717,41.7323],[32.5724,41.734],[32.5652,41.7374],[32.5631,41.7413],[32.5749,41.7465],[32.5747,41.7492],[32.5776,41.7501],[32.5765,41.7514],[32.5789,41.752],[32.583,41.7572],[32.5821595,41.7616452],[32.5752,41.7665],[32.5753,41.7782],[32.5691,41.7798],[32.5679,41.7818],[32.5695,41.7837],[32.5691,41.7887],[32.5599,41.7933],[32.5602,41.796],[32.5643,41.796],[32.5666,41.7981],[32.5668,41.8039],[32.5733299,41.8116043],[32.5613823,41.8101776],[32.5593749,41.8112828],[32.5500537,41.8109621],[32.5479187,41.8105255],[32.5444511,41.8060715],[32.5413778,41.8066373],[32.541146,41.808991],[32.537383,41.8100021],[32.5350076,41.8085047],[32.5323549,41.8092264],[32.5274486,41.8064558],[32.5244365,41.8074063],[32.5251027,41.8063518],[32.5229736,41.8055513],[32.5213771,41.8069992],[32.5189551,41.8053054],[32.51043,41.8056157],[32.5079039,41.801722],[32.5039079,41.801299],[32.5037084,41.798438],[32.5018045,41.8021079],[32.5000541,41.8020652],[32.500567,41.7937993],[32.486326,41.7859539],[32.4849007,41.7813102],[32.4810818,41.7801885],[32.4788611,41.7809961],[32.4789489,41.7792321],[32.4750357,41.779311],[32.4639875,41.7733829],[32.453936,41.775752],[32.4440271,41.7684742],[32.430396,41.762033],[32.429054,41.758689],[32.424278,41.756098],[32.419904,41.746835],[32.4206559,41.7453156],[32.416204,41.739115],[32.4043105,41.7384823],[32.4012326,41.7412759],[32.3964483,41.7423422],[32.3956621,41.7454415],[32.3958936,41.742637],[32.3902177,41.7426705],[32.3895615,41.7438021],[32.391801,41.7443072],[32.3882308,41.7450114],[32.3881493,41.7487084],[32.3914758,41.749334],[32.3982414,41.7478264],[32.3858659,41.7505969],[32.3839458,41.7495515],[32.3848504,41.7476939],[32.3782073,41.7476063],[32.373448,41.7435983],[32.3713582,41.7458701],[32.3650265,41.7441402],[32.3662304,41.7430332],[32.3635976,41.7420583],[32.3644175,41.7378484],[32.3622846,41.7358897],[32.3553718,41.7334595],[32.351461,41.735816],[32.3478125,41.7357704],[32.347036,41.732839],[32.3393895,41.7315036],[32.3432447,41.7257204],[32.3406247,41.722972],[32.338185,41.7236276],[32.3386407,41.7226523],[32.3354775,41.7214687],[32.3344916,41.7233994],[32.3385739,41.7252129],[32.3344457,41.7238224],[32.3340758,41.7216385],[32.3290904,41.7201532],[32.3271656,41.7206822],[32.3274773,41.7232669],[32.3214759,41.725091],[32.3204623,41.7235964],[32.3111114,41.7227455],[32.3040088,41.7255656],[32.3038253,41.7235303],[32.3018716,41.7238428],[32.3012818,41.7226217],[32.2956129,41.7230941],[32.2925622,41.720735],[32.284172,41.7200663],[32.2840934,41.7188745],[32.2796471,41.7175772],[32.2802385,41.7160836],[32.2808,41.7146],[32.2924,41.7098],[32.2923,41.6938],[32.2977,41.7009],[32.3201,41.6996],[32.3266,41.7016],[32.3276,41.7047],[32.3401,41.7085],[32.342,41.7109],[32.3465,41.7121],[32.3494,41.7107],[32.3524,41.7067],[32.3548,41.695],[32.3584,41.692],[32.3597,41.6757],[32.3647,41.6725],[32.3686,41.6744],[32.371,41.6784],[32.3767,41.6811],[32.38,41.6857],[32.3785,41.6982],[32.3817,41.7024],[32.3813,41.705],[32.3872,41.7062],[32.3922,41.7037],[32.3928,41.7059],[32.3969,41.7055],[32.3964,41.7098],[32.399,41.7105],[32.4002,41.7084],[32.4107,41.7064],[32.4134,41.7119],[32.4169,41.7106],[32.4174,41.7061],[32.4162,41.7041],[32.4126,41.7032],[32.4235,41.7026],[32.4198,41.6983],[32.4223,41.6959],[32.42,41.6934],[32.4243,41.6943],[32.4261,41.6927],[32.4294,41.6926],[32.4273,41.6878],[32.4291,41.6857],[32.4344,41.686],[32.44,41.69],[32.4499,41.6926],[32.4657,41.7052],[32.4635,41.692],[32.4723,41.6884],[32.4749,41.683],[32.4791,41.6815],[32.4801,41.6789],[32.491,41.6873],[32.4986,41.685],[32.4984,41.6816],[32.5056,41.6793],[32.5157,41.6797],[32.5475,41.6949],[32.5504,41.6946],[32.5549,41.697],[32.5558,41.7019],[32.5593,41.706],[32.5643,41.7085],[32.5767,41.7264],[32.5824,41.7282]]],[[[32.3801338,41.7511809],[32.3817053,41.749963],[32.3845132,41.7503995],[32.3853381,41.7533121],[32.38252,41.7534557],[32.3801338,41.7511809]]],[[[32.3875549,41.7535513],[32.388799,41.7520677],[32.389459,41.7547614],[32.3875549,41.7535513]]]]}},{"type":"Feature","properties":{"code":"74-02","provinceCode":"74","name":"Bartın merkez"},"geometry":{"type":"Polygon","coordinates":[[[32.7869685,41.745773],[32.7845697,41.7481885],[32.7875626,41.7724809],[32.7743,41.7773],[32.7478,41.7674],[32.7407,41.7661],[32.7369,41.763],[32.7225,41.7581],[32.6911,41.7534],[32.6805,41.7636],[32.661,41.7563],[32.6546,41.7559],[32.6517,41.7478],[32.6627,41.7385],[32.6764,41.7314],[32.6854,41.7238],[32.6713,41.7221],[32.6642,41.7244],[32.6577,41.723],[32.657,41.7212],[32.6258,41.7167],[32.6151,41.7175],[32.6071,41.715],[32.5824,41.7282],[32.5767,41.7264],[32.5643,41.7085],[32.5593,41.706],[32.5558,41.7019],[32.5549,41.697],[32.5504,41.6946],[32.5475,41.6949],[32.5157,41.6797],[32.5056,41.6793],[32.4984,41.6816],[32.4986,41.685],[32.491,41.6873],[32.4801,41.6789],[32.4791,41.6815],[32.4749,41.683],[32.4723,41.6884],[32.4635,41.692],[32.4657,41.7052],[32.4499,41.6926],[32.44,41.69],[32.4344,41.686],[32.4291,41.6857],[32.4273,41.6878],[32.4294,41.6926],[32.4261,41.6927],[32.4243,41.6943],[32.42,41.6934],[32.4223,41.6959],[32.4198,41.6983],[32.4235,41.7026],[32.4126,41.7032],[32.4162,41.7041],[32.4174,41.7061],[32.4169,41.7106],[32.4134,41.7119],[32.4107,41.7064],[32.4002,41.7084],[32.399,41.7105],[32.3964,41.7098],[32.3969,41.7055],[32.3928,41.7059],[32.3922,41.7037],[32.3872,41.7062],[32.3813,41.705],[32.3817,41.7024],[32.3785,41.6982],[32.38,41.6857],[32.3767,41.6811],[32.371,41.6784],[32.3686,41.6744],[32.3647,41.6725],[32.3597,41.6757],[32.3584,41.692],[32.3548,41.695],[32.3524,41.7067],[32.3494,41.7107],[32.3465,41.7121],[32.342,41.7109],[32.3401,41.7085],[32.3276,41.7047],[32.3266,41.7016],[32.3201,41.6996],[32.2977,41.7009],[32.2923,41.6938],[32.2924,41.7098],[32.2808,41.7146],[32.2802385,41.7160836],[32.2715707,41.7126396],[32.2682182,41.7083881],[32.2655741,41.7088503],[32.264419,41.705129],[32.2589592,41.7036381],[32.248118,41.692959],[32.242639,41.692923],[32.2351794,41.689288],[32.2275784,41.6890581],[32.2232449,41.6874911],[32.2316991,41.6888504],[32.2324861,41.6859836],[32.2378779,41.6841153],[32.2363229,41.6827241],[32.2261225,41.6864941],[32.2240188,41.6849532],[32.2262314,41.6818985],[32.2237446,41.6801888],[32.2288382,41.6776432],[32.230007,41.675127],[32.226648,41.669713],[32.2124593,41.6586524],[32.2084939,41.6581171],[32.2023255,41.654081],[32.1945676,41.6537837],[32.1922855,41.6519826],[32.1947042,41.6497199],[32.191508,41.64624],[32.1736331,41.640305],[32.1792828,41.6399748],[32.1814708,41.6373656],[32.17947,41.631344],[32.1767414,41.6300273],[32.1757918,41.6272071],[32.1713316,41.6259187],[32.1690393,41.6220599],[32.1601189,41.6203795],[32.1620202,41.6205588],[32.1609274,41.6179019],[32.1567604,41.6134648],[32.1538194,41.6129798],[32.1560407,41.6114254],[32.1535973,41.6086818],[32.1458852,41.6063035],[32.1390438,41.6007692],[32.115203,41.595236],[32.113176,41.593423],[32.105653,41.593365],[32.106009,41.592341],[32.101928,41.590769],[32.095106,41.58956],[32.1096209,41.5761883],[32.1190917,41.5626068],[32.1309672,41.5540462],[32.1504514,41.5494594],[32.1561947,41.5458771],[32.158863,41.5386148],[32.1575842,41.5294643],[32.158863,41.5231798],[32.1683702,41.5156697],[32.1745279,41.5157762],[32.179794,41.5225323],[32.1805604,41.5270961],[32.1901548,41.5346236],[32.2047173,41.5403537],[32.2151072,41.5420686],[32.2216212,41.5396389],[32.2255012,41.5290527],[32.2238455,41.5163196],[32.2343851,41.4986501],[32.2337874,41.4817275],[32.2363861,41.4723162],[32.2473256,41.4553059],[32.2597406,41.4476726],[32.2693487,41.4377777],[32.2884018,41.4253121],[32.2831759,41.4197666],[32.2767021,41.4164972],[32.2742198,41.4053011],[32.2798758,41.3931796],[32.294704,41.3842263],[32.2898388,41.368173],[32.2795927,41.3425825],[32.2811225,41.3392226],[32.2797197,41.3324035],[32.2841299,41.3203363],[32.2915781,41.3133488],[32.3024,41.3073911],[32.3173308,41.3085833],[32.3407921,41.3153476],[32.3640763,41.3112227],[32.3908244,41.3138714],[32.4198764,41.3133353],[32.432835,41.3029432],[32.4646044,41.3085478],[32.466025,41.339893],[32.4758134,41.3532157],[32.4786283,41.3601099],[32.4616302,41.3660551],[32.4423661,41.3765963],[32.4202082,41.382226],[32.4081362,41.3922117],[32.4086305,41.4001937],[32.3975932,41.4100295],[32.3978852,41.4199382],[32.4014181,41.4260441],[32.4036247,41.4387374],[32.3982467,41.4416696],[32.3980955,41.4471572],[32.3911156,41.4488483],[32.3933539,41.4549997],[32.3852912,41.4650381],[32.390402,41.4711549],[32.4024369,41.4702351],[32.4122201,41.4862944],[32.458712,41.51363],[32.4774521,41.5227382],[32.4894524,41.5346754],[32.4940552,41.5472255],[32.4786028,41.5763768],[32.479096,41.5868287],[32.4901099,41.6036711],[32.496521,41.6089565],[32.5277998,41.6006188],[32.5403207,41.6009578],[32.5933218,41.619944],[32.6087393,41.6322753],[32.6230294,41.6384239],[32.6280133,41.6512531],[32.636406,41.656053],[32.654368,41.6571638],[32.68034,41.6704079],[32.6946369,41.6716115],[32.7555577,41.6917143],[32.7869685,41.745773]]]}},{"type":"Feature","properties":{"code":"74-03","provinceCode":"74","name":"Çaycuma"},"geometry":{"type":"Polygon","coordinates":[[[31.9715975,41.4276515],[31.9689036,41.4160536],[31.9826725,41.3940785],[32.0272789,41.359071],[32.034711,41.3511222],[32.0606317,41.337487],[32.0744844,41.3340692],[32.0825353,41.3390151],[32.0953436,41.3533011],[32.1093442,41.3567256],[32.1432139,41.3427022],[32.1692764,41.3430559],[32.1821885,41.3506819],[32.1930784,41.3479599],[32.2040799,41.3495558],[32.224112,41.3692078],[32.26419,41.3745339],[32.2713208,41.3696118],[32.2898388,41.368173],[32.294704,41.3842263],[32.2798758,41.3931796],[32.2742198,41.4053011],[32.2767021,41.4164972],[32.2831759,41.4197666],[32.2884018,41.4253121],[32.2693487,41.4377777],[32.2597406,41.4476726],[32.2473256,41.4553059],[32.2363861,41.4723162],[32.2337874,41.4817275],[32.2343851,41.4986501],[32.2238455,41.5163196],[32.2255012,41.5290527],[32.2216212,41.5396389],[32.2151072,41.5420686],[32.2047173,41.5403537],[32.1901548,41.5346236],[32.1805604,41.5270961],[32.179794,41.5225323],[32.1745279,41.5157762],[32.1683702,41.5156697],[32.158863,41.5231798],[32.1575842,41.5294643],[32.158863,41.5386148],[32.1561947,41.5458771],[32.1504514,41.5494594],[32.1309672,41.5540462],[32.1190917,41.5626068],[32.1096209,41.5761883],[32.095106,41.58956],[32.0590218,41.5836904],[32.0290395,41.5743214],[32.0273968,41.5688025],[32.0236324,41.5657617],[32.0203769,41.5665441],[32.0173863,41.5636545],[32.0208161,41.5663094],[32.0227916,41.5639017],[32.021122,41.562954],[32.0194497,41.5641448],[32.0185837,41.5607532],[32.001357,41.548994],[32.01421,41.5453461],[32.029406,41.5305618],[32.0306899,41.5218728],[32.0231366,41.5167315],[32.0157246,41.5063638],[32.0132944,41.4966766],[32.0046411,41.4868181],[31.9924656,41.4821029],[31.9882294,41.4742258],[31.9842256,41.458092],[31.9723234,41.4407643],[31.9715975,41.4276515]]]}},{"type":"Feature","properties":{"code":"74-04","provinceCode":"74","name":"Kurucaşile"},"geometry":{"type":"Polygon","coordinates":[[[32.7743,41.7773],[32.7673,41.7926],[32.7771,41.8038],[32.7632,41.8051],[32.7609,41.8091],[32.7623,41.8121],[32.7583,41.8194],[32.7518,41.8237],[32.752,41.8271],[32.7467894,41.8299211],[32.7511494,41.8330649],[32.751617,41.8374171],[32.755194,41.8386176],[32.7555935,41.840487],[32.7522355,41.8441419],[32.7577593,41.8485979],[32.752007,41.847502],[32.7481939,41.8491302],[32.7348459,41.8487767],[32.7254928,41.8447257],[32.7252787,41.8467125],[32.7241994,41.845224],[32.7211756,41.8457423],[32.7229417,41.847563],[32.7265453,41.8479882],[32.7231558,41.8480081],[32.7205869,41.8469051],[32.7162608,41.8481078],[32.7085912,41.8380382],[32.7005251,41.8385822],[32.6846778,41.8368813],[32.6813203,41.8343365],[32.6809815,41.8316788],[32.6764872,41.8301174],[32.6733572,41.8303167],[32.6734107,41.8314994],[32.6717075,41.8299313],[32.6695228,41.8307619],[32.6725457,41.8321041],[32.6668743,41.8318582],[32.6649036,41.8288283],[32.656659,41.830187],[32.651516,41.829144],[32.644638,41.831562],[32.639498,41.830134],[32.625763,41.831245],[32.6217535,41.8305607],[32.6228355,41.8295358],[32.6206189,41.8280672],[32.6165661,41.8314448],[32.6101258,41.8298148],[32.5995059,41.8300906],[32.5964669,41.8280868],[32.5894602,41.8268324],[32.5822987,41.8274388],[32.5775721,41.8260701],[32.5789293,41.8247278],[32.5767846,41.8209333],[32.5781509,41.8165484],[32.5733299,41.8116043],[32.5668,41.8039],[32.5666,41.7981],[32.5643,41.796],[32.5602,41.796],[32.5599,41.7933],[32.5691,41.7887],[32.5695,41.7837],[32.5679,41.7818],[32.5691,41.7798],[32.5753,41.7782],[32.5752,41.7665],[32.5821595,41.7616452],[32.583,41.7572],[32.5789,41.752],[32.5765,41.7514],[32.5776,41.7501],[32.5747,41.7492],[32.5749,41.7465],[32.5631,41.7413],[32.5652,41.7374],[32.5724,41.734],[32.5717,41.7323],[32.5768,41.7339],[32.5824,41.7282],[32.6071,41.715],[32.6151,41.7175],[32.6258,41.7167],[32.657,41.7212],[32.6577,41.723],[32.6642,41.7244],[32.6713,41.7221],[32.6854,41.7238],[32.6764,41.7314],[32.6627,41.7385],[32.6517,41.7478],[32.6546,41.7559],[32.661,41.7563],[32.6805,41.7636],[32.6911,41.7534],[32.7225,41.7581],[32.7369,41.763],[32.7407,41.7661],[32.7478,41.7674],[32.7743,41.7773]]]}},{"type":"Feature","properties":{"code":"74-05","provinceCode":"74","name":"Ulus"},"geometry":{"type":"Polygon","coordinates":[[[32.7869685,41.745773],[32.7555577,41.6917143],[32.6946369,41.6716115],[32.68034,41.6704079],[32.654368,41.6571638],[32.636406,41.656053],[32.6280133,41.6512531],[32.6230294,41.6384239],[32.6087393,41.6322753],[32.5933218,41.619944],[32.5403207,41.6009578],[32.5277998,41.6006188],[32.496521,41.6089565],[32.4901099,41.6036711],[32.479096,41.5868287],[32.4786028,41.5763768],[32.4940552,41.5472255],[32.4894524,41.5346754],[32.4774521,41.5227382],[32.458712,41.51363],[32.4122201,41.4862944],[32.4024369,41.4702351],[32.390402,41.4711549],[32.3852912,41.4650381],[32.3933539,41.4549997],[32.3911156,41.4488483],[32.3980955,41.4471572],[32.3982467,41.4416696],[32.4036247,41.4387374],[32.4014181,41.4260441],[32.3978852,41.4199382],[32.3975932,41.4100295],[32.4086305,41.4001937],[32.4081362,41.3922117],[32.4202082,41.382226],[32.4423661,41.3765963],[32.4616302,41.3660551],[32.4786283,41.3601099],[32.5371838,41.3429741],[32.5671557,41.3307689],[32.5905627,41.3256651],[32.6157751,41.3302538],[32.6322356,41.3285861],[32.6474495,41.324073],[32.6806999,41.3266072],[32.6964576,41.3380215],[32.696525,41.3594072],[32.6935507,41.3729471],[32.6750383,41.3981301],[32.6652712,41.4222824],[32.6507966,41.4420556],[32.6448437,41.4548179],[32.6571877,41.469744],[32.6483434,41.4788553],[32.6423475,41.4892958],[32.6479547,41.4962348],[32.6641871,41.5063788],[32.6838922,41.5137173],[32.6964464,41.5295066],[32.7188994,41.5262748],[32.7232824,41.5238495],[32.7344237,41.5050655],[32.7615045,41.503269],[32.7743458,41.5045749],[32.8021249,41.5129918],[32.8057731,41.5163982],[32.803857,41.5205344],[32.7962648,41.5313819],[32.7878533,41.5382446],[32.7677905,41.5463047],[32.7681787,41.551408],[32.7711299,41.5542918],[32.7770984,41.5542918],[32.7937915,41.5497446],[32.8128105,41.5542615],[32.8320584,41.5557806],[32.847477,41.5611771],[32.8529897,41.5663539],[32.8748333,41.575564],[32.8769703,41.5787661],[32.8699055,41.5891701],[32.8721514,41.5984015],[32.9017455,41.6208586],[32.9066448,41.6281143],[32.9032474,41.6391966],[32.9028059,41.6525405],[32.9159695,41.6717558],[32.914235,41.6817141],[32.9204717,41.6899386],[32.9187622,41.6989211],[32.9303837,41.7030378],[32.9369801,41.7077428],[32.9389811,41.7149626],[32.9311438,41.728031],[32.9257648,41.7348806],[32.915301,41.7405117],[32.9034393,41.740574],[32.8423854,41.7247136],[32.8320436,41.7255419],[32.8032458,41.7412278],[32.7869685,41.745773]]]}}]}