{"type":"FeatureCollection","features":[{"type":"Feature","properties":{"code":"42-01","provinceCode":"42","name":"Ahırlı"},"geometry":{"type":"Polygon","coordinates":[[[32.2136367,37.3663815],[32.2206814,37.3755792],[32.240306,37.3899734],[32.2498667,37.3995679],[32.1814322,37.4299426],[32.1592916,37.4079622],[32.1589482,37.3793582],[32.1315207,37.3746449],[32.1076661,37.3670226],[32.1176435,37.3498829],[31.9959281,37.3204856],[32.0468999,37.3029928],[32.1053123,37.3210966],[32.0985746,37.3255672],[32.0947122,37.331505],[32.099036,37.333723],[32.1005165,37.3317012],[32.1015894,37.3339107],[32.1065891,37.3274185],[32.1133912,37.3287494],[32.1153867,37.3265142],[32.1206653,37.3268811],[32.1201217,37.3244734],[32.1275479,37.3297561],[32.1272528,37.3258104],[32.1302354,37.3249145],[32.1300048,37.3222313],[32.1343231,37.3202817],[32.1332663,37.31878],[32.1348542,37.3163525],[32.1367264,37.3169327],[32.1356481,37.3155803],[32.1378046,37.311877],[32.1338135,37.3067868],[32.1372627,37.3042864],[32.1352029,37.3033135],[32.135632,37.3009068],[32.1317911,37.3005143],[32.134059,37.2967567],[32.1217382,37.2929011],[32.1204936,37.2899308],[32.1218777,37.288437],[32.1197748,37.2872847],[32.1232939,37.2850739],[32.1236372,37.2819837],[32.11411,37.2714659],[32.1117711,37.2715769],[32.1125328,37.2699803],[32.1094322,37.2696218],[32.1059024,37.272388],[32.1018262,37.2723944],[32.0974481,37.2744285],[32.0966649,37.273404],[32.0969117,37.274676],[32.0900345,37.2761701],[32.0872986,37.2814544],[32.0817089,37.2813605],[32.081784,37.2828886],[32.0799494,37.2833325],[32.0778442,37.278479],[32.0737588,37.2794995],[32.0632124,37.2699718],[32.0524406,37.2694766],[32.0477843,37.2667444],[32.0544362,37.2620824],[32.0536208,37.2593841],[32.0474977,37.2581997],[32.049458,37.25245],[32.0473766,37.2499392],[32.0419907,37.2476675],[32.0424843,37.242731],[32.0366263,37.2400149],[32.0220566,37.2268259],[32.0176363,37.2245706],[32.0120787,37.2249978],[32.0019936,37.2299355],[31.9471585,37.2261122],[31.938593,37.2221899],[31.9233408,37.2018083],[31.9324131,37.1669446],[31.9476225,37.1361067],[31.9652333,37.1158957],[31.9841783,37.1024896],[32.0198071,37.0807799],[32.0268878,37.1038605],[32.0285274,37.1206407],[32.038912,37.1361102],[32.0525758,37.1489626],[32.0867353,37.1740078],[32.129913,37.1953441],[32.1389044,37.2162794],[32.1432369,37.2318519],[32.1714749,37.2420142],[32.183202,37.2484409],[32.1968658,37.2917175],[32.2066751,37.3068711],[32.2086047,37.3139731],[32.2086047,37.3235773],[32.2030696,37.3503828],[32.2055855,37.3587825],[32.2136367,37.3663815]]]}},{"type":"Feature","properties":{"code":"42-02","provinceCode":"42","name":"Akören"},"geometry":{"type":"Polygon","coordinates":[[[32.4349658,37.3253743],[32.4413637,37.3311387],[32.4359993,37.3423583],[32.4367158,37.3534663],[32.4284754,37.3773857],[32.427938,37.4112584],[32.4302668,37.4215026],[32.4376115,37.4335946],[32.4465685,37.439711],[32.4592875,37.4418445],[32.4696776,37.4425557],[32.4908161,37.4384309],[32.4974443,37.4399955],[32.5255693,37.460759],[32.5522612,37.472276],[32.5603225,37.4775362],[32.5665924,37.4869185],[32.5716083,37.500279],[32.5687421,37.5149161],[32.5601434,37.5183262],[32.5488575,37.5188946],[32.544379,37.5228728],[32.5356012,37.5375054],[32.4964789,37.5535373],[32.4872993,37.5417609],[32.4501677,37.510333],[32.4401827,37.5034023],[32.4301977,37.5009268],[32.4130361,37.5043924],[32.4049233,37.5090955],[32.3993157,37.5297724],[32.3902582,37.537753],[32.3791879,37.542541],[32.3349067,37.5445359],[32.312958,37.5413698],[32.2720422,37.5222344],[32.2322831,37.4783823],[32.2078077,37.4556843],[32.1814322,37.4299426],[32.2498667,37.3995679],[32.240306,37.3899734],[32.2206814,37.3755792],[32.2136367,37.3663815],[32.2322549,37.3615823],[32.2413124,37.3571827],[32.2482132,37.3454488],[32.253038,37.3418402],[32.2506851,37.3308743],[32.2474834,37.327837],[32.2427533,37.3268761],[32.2419247,37.3223734],[32.2238137,37.3083115],[32.2229437,37.3041739],[32.2259154,37.2996712],[32.2392079,37.2967525],[32.2482315,37.2998805],[32.2540043,37.2986563],[32.2630154,37.2910747],[32.2669163,37.2914024],[32.2692186,37.2898876],[32.2682283,37.281887],[32.27152,37.2769529],[32.2701757,37.2722627],[32.279824,37.2720764],[32.2926701,37.2757139],[32.2976822,37.2715435],[32.3051727,37.2710834],[32.3125622,37.2638847],[32.3202236,37.2650978],[32.3280126,37.2562964],[32.3320994,37.257564],[32.3321977,37.2602604],[32.3287728,37.2642588],[32.3300378,37.2657422],[32.3372553,37.2659078],[32.3392547,37.2619056],[32.3467186,37.2650527],[32.3483348,37.2662993],[32.3482084,37.2719634],[32.3537947,37.276436],[32.3580847,37.2768329],[32.3654015,37.2840623],[32.3797284,37.2880219],[32.3944724,37.2966857],[32.4164447,37.322886],[32.4225159,37.3243524],[32.4251288,37.322281],[32.4349658,37.3253743]]]}},{"type":"Feature","properties":{"code":"42-03","provinceCode":"42","name":"Akşehir"},"geometry":{"type":"Polygon","coordinates":[[[31.4808599,38.5682699],[31.4428698,38.5462666],[31.342185,38.5036397],[31.3221653,38.4876775],[31.3175159,38.4690884],[31.3096654,38.4636304],[31.3050646,38.4559529],[31.3019489,38.4394797],[31.2825324,38.4332597],[31.2759027,38.4281899],[31.2734959,38.4217624],[31.2741156,38.3991991],[31.2721151,38.3856627],[31.2671612,38.3785259],[31.2585563,38.3768823],[31.2740868,38.3534354],[31.290107,38.3390862],[31.3196977,38.3078673],[31.3251867,38.2822585],[31.327231,38.2405102],[31.3487202,38.2155168],[31.3727399,38.2039908],[31.3958788,38.1902145],[31.4048701,38.1891078],[31.4142635,38.1879515],[31.4455111,38.1913156],[31.4711035,38.1966634],[31.4924753,38.1953228],[31.5140363,38.188275],[31.5202656,38.1832985],[31.5484113,38.2057969],[31.5673922,38.2173966],[31.5876385,38.2270064],[31.609572,38.2412531],[31.6315055,38.2627834],[31.6416286,38.2700692],[31.6526539,38.2740865],[31.6597443,38.2905307],[31.671669,38.3052008],[31.6806931,38.3120289],[31.6971298,38.3191093],[31.7187232,38.3320039],[31.7090545,38.3454018],[31.6948738,38.3562699],[31.6745696,38.3666311],[31.6561991,38.3726954],[31.6297714,38.3762327],[31.6210696,38.3792646],[31.6152684,38.3840647],[31.61269,38.397453],[31.603666,38.4022519],[31.5807834,38.4065454],[31.571437,38.4115963],[31.5430756,38.4492143],[31.5430756,38.4572908],[31.5475876,38.4625905],[31.5595123,38.4683944],[31.5582232,38.4873172],[31.5640244,38.4933715],[31.5640244,38.5009385],[31.5462985,38.5168268],[31.4808599,38.5682699]]]}},{"type":"Feature","properties":{"code":"42-04","provinceCode":"42","name":"Altınekin"},"geometry":{"type":"Polygon","coordinates":[[[33.193919,38.2481088],[33.1826855,38.2554514],[33.1712387,38.2729255],[33.1718873,38.2840498],[33.1788165,38.2972606],[33.2032421,38.3124609],[33.2088652,38.319865],[33.2106305,38.3449817],[33.2248443,38.3745946],[33.2324301,38.3847829],[33.2400599,38.4249362],[33.2097459,38.4131658],[33.1765187,38.4086325],[33.1205218,38.4055169],[33.08746,38.4010036],[33.0311813,38.3992432],[33.0181998,38.3965585],[32.9992685,38.3885037],[32.9769115,38.3715432],[32.9682571,38.3684333],[32.9574392,38.3678678],[32.948244,38.3704122],[32.9422942,38.3803066],[32.9480637,38.4416208],[32.9392742,38.4452994],[32.9099077,38.4514075],[32.8655644,38.4545152],[32.8524153,38.4512701],[32.8419661,38.4423009],[32.8297542,38.4180907],[32.8193115,38.4072091],[32.8095239,38.4021783],[32.7858677,38.3975262],[32.7715618,38.3979574],[32.7506532,38.4033306],[32.7390984,38.4166962],[32.7242423,38.4485912],[32.7291943,38.4537621],[32.7473518,38.4537621],[32.771912,38.4602774],[32.7873184,38.466309],[32.7939211,38.47794],[32.7944713,38.4921531],[32.7834668,38.4925838],[32.7620079,38.4908612],[32.7321124,38.4819864],[32.7074126,38.4697854],[32.6847689,38.4488329],[32.6275173,38.4308189],[32.6143704,38.410062],[32.6023884,38.3712442],[32.5997923,38.3513577],[32.6009905,38.3416473],[32.6063824,38.3291159],[32.6333418,38.3054569],[32.6461226,38.2971509],[32.699342,38.2699854],[32.7748406,38.2198132],[32.7890956,38.2073684],[32.797543,38.1940917],[32.805693,38.1783223],[32.8117422,38.1603896],[32.8251499,38.1442343],[32.8413689,38.1370909],[32.8521816,38.1352199],[32.8906746,38.1376012],[32.9616057,38.1479759],[33.0236704,38.154098],[33.044647,38.1537579],[33.060866,38.1559685],[33.0734087,38.1612398],[33.08141,38.1670207],[33.0991428,38.1926894],[33.1080092,38.2146111],[33.1149209,38.2549972],[33.131931,38.2552894],[33.1421772,38.245698],[33.1834816,38.2295616],[33.1934292,38.2288821],[33.193919,38.2481088]]]}},{"type":"Feature","properties":{"code":"42-05","provinceCode":"42","name":"Beyşehir"},"geometry":{"type":"Polygon","coordinates":[[[31.3344876,37.5841537],[31.3326806,37.5679521],[31.3406515,37.5599477],[31.3403917,37.5506314],[31.3447867,37.5444542],[31.341783,37.5314054],[31.3441008,37.5031332],[31.3393388,37.4935247],[31.331925,37.4844276],[31.3972697,37.4884891],[31.4090728,37.4923312],[31.418152,37.4925713],[31.4281392,37.4839263],[31.4399422,37.4702363],[31.4771671,37.4555828],[31.495023,37.4519791],[31.5047643,37.4614836],[31.5184777,37.4697409],[31.5241523,37.4825004],[31.533137,37.4836261],[31.5402301,37.4787478],[31.5468504,37.465237],[31.5591452,37.4547269],[31.5799518,37.4505976],[31.5931924,37.4340778],[31.6017042,37.4310739],[31.6083245,37.4333269],[31.6168363,37.4445908],[31.6215651,37.4967584],[31.6300769,37.5095133],[31.6381158,37.5132643],[31.6628237,37.5193593],[31.6885553,37.5181432],[31.6854596,37.5247743],[31.6950574,37.5411125],[31.6974937,37.5496974],[31.7086526,37.5575149],[31.7240211,37.5636063],[31.7719,37.5654805],[31.8185967,37.5701657],[31.857018,37.5828143],[31.8771153,37.5949925],[31.8838115,37.6202235],[31.8795777,37.631964],[31.8866531,37.6386397],[31.917069,37.6596953],[31.9391626,37.6642471],[31.9551401,37.6736339],[31.9651888,37.6886038],[31.9722819,37.7054413],[31.9705087,37.7657444],[31.972873,37.7811628],[31.9811484,37.7984464],[31.9841039,37.8105891],[31.984695,37.8236637],[31.9776018,37.8442049],[31.9746463,37.8600736],[31.9793751,37.8810712],[31.9138963,37.9141245],[31.9031246,37.9328502],[31.8830437,37.9375955],[31.8729795,37.94359],[31.8703563,37.9482857],[31.8703378,37.9544531],[31.8539687,37.9710549],[31.8559112,37.9881056],[31.8539619,38.0058649],[31.8337373,38.0207841],[31.786806,38.0002935],[31.7528775,37.9909566],[31.7722652,37.980345],[31.7803434,37.9701564],[31.7787277,37.9412811],[31.7668797,37.9242903],[31.7695724,37.9149437],[31.7885473,37.9023592],[31.7898398,37.8921598],[31.7799305,37.8833192],[31.7312459,37.8734572],[31.698933,37.8595122],[31.6885929,37.8506677],[31.6735136,37.8299129],[31.6605884,37.8186824],[31.6520319,37.8136027],[31.638121,37.8274473],[31.605659,37.8536294],[31.5867534,37.8710496],[31.5819343,37.8661844],[31.5771118,37.8537288],[31.5719449,37.8501386],[31.5090007,37.8539187],[31.4390297,37.9145112],[31.4362325,37.8990607],[31.4366645,37.8830413],[31.4519386,37.8505473],[31.4569435,37.8324964],[31.4580535,37.8205413],[31.4569435,37.7980504],[31.4511106,37.7786023],[31.4436035,37.7658313],[31.4338835,37.7547153],[31.4227715,37.7452694],[31.4317311,37.7055802],[31.4259373,37.7010751],[31.4008933,37.7039506],[31.3791061,37.7020227],[31.3595114,37.6879852],[31.3494196,37.6747866],[31.3113356,37.6643875],[31.2929887,37.6550798],[31.276023,37.6388843],[31.2729488,37.6333739],[31.290146,37.6140651],[31.2979259,37.6105356],[31.3081511,37.6124423],[31.3129179,37.6101624],[31.3258157,37.5910824],[31.3344876,37.5841537]]]}},{"type":"Feature","properties":{"code":"42-06","provinceCode":"42","name":"Bozkır"},"geometry":{"type":"Polygon","coordinates":[[[32.6021171,37.1130758],[32.5954944,37.1175158],[32.5928546,37.127619],[32.5822954,37.1448756],[32.5817674,37.1566584],[32.5865191,37.1671771],[32.6065816,37.189472],[32.6113333,37.1970423],[32.6113333,37.207976],[32.6002461,37.2487528],[32.6008082,37.2614196],[32.5780574,37.2639859],[32.544379,37.2628454],[32.5248528,37.2644136],[32.5035351,37.2709715],[32.471469,37.2725396],[32.426684,37.2688331],[32.416473,37.272112],[32.4116362,37.2790968],[32.4116362,37.2869361],[32.4349658,37.3253743],[32.4251288,37.322281],[32.4225159,37.3243524],[32.4164447,37.322886],[32.3944724,37.2966857],[32.3797284,37.2880219],[32.3654015,37.2840623],[32.3580847,37.2768329],[32.3537947,37.276436],[32.3482084,37.2719634],[32.3483348,37.2662993],[32.3467186,37.2650527],[32.3392547,37.2619056],[32.3372553,37.2659078],[32.3300378,37.2657422],[32.3287728,37.2642588],[32.3321977,37.2602604],[32.3320994,37.257564],[32.3280126,37.2562964],[32.3202236,37.2650978],[32.3125622,37.2638847],[32.3051727,37.2710834],[32.2976822,37.2715435],[32.2926701,37.2757139],[32.279824,37.2720764],[32.2701757,37.2722627],[32.27152,37.2769529],[32.2682283,37.281887],[32.2692186,37.2898876],[32.2669163,37.2914024],[32.2630154,37.2910747],[32.2540043,37.2986563],[32.2482315,37.2998805],[32.2392079,37.2967525],[32.2259154,37.2996712],[32.2229437,37.3041739],[32.2238137,37.3083115],[32.2419247,37.3223734],[32.2427533,37.3268761],[32.2474834,37.327837],[32.2506851,37.3308743],[32.253038,37.3418402],[32.2482132,37.3454488],[32.2413124,37.3571827],[32.2322549,37.3615823],[32.2136367,37.3663815],[32.2055855,37.3587825],[32.2030696,37.3503828],[32.2086047,37.3235773],[32.2086047,37.3139731],[32.2066751,37.3068711],[32.1968658,37.2917175],[32.183202,37.2484409],[32.1714749,37.2420142],[32.1432369,37.2318519],[32.1389044,37.2162794],[32.129913,37.1953441],[32.0867353,37.1740078],[32.0525758,37.1489626],[32.038912,37.1361102],[32.0285274,37.1206407],[32.0268878,37.1038605],[32.0198071,37.0807799],[32.0372778,37.0622572],[32.0626268,37.0416006],[32.0983822,37.0256251],[32.1386737,37.0107116],[32.1832366,36.9857765],[32.196499,36.9967841],[32.2188163,37.0264852],[32.2229248,37.0519693],[32.2257366,37.0571449],[32.2318424,37.0588464],[32.2455096,37.0592606],[32.2598689,37.0573278],[32.2833972,37.0487674],[32.3111381,37.0430338],[32.3174493,37.0524011],[32.3244248,37.0766094],[32.3278571,37.0832344],[32.3409223,37.0951579],[32.3774604,37.1084041],[32.4206419,37.1167921],[32.465152,37.1160858],[32.4745633,37.114055],[32.483864,37.1099051],[32.4940504,37.1008099],[32.5136481,37.0899471],[32.523613,37.0878273],[32.5379466,37.0893038],[32.5865191,37.1027795],[32.6021171,37.1130758]]]}},{"type":"Feature","properties":{"code":"42-07","provinceCode":"42","name":"Cihanbeyli"},"geometry":{"type":"Polygon","coordinates":[[[33.3267122,38.746605],[33.1663449,38.8201145],[33.1311305,38.8229229],[33.1064526,38.8211947],[33.0609788,38.8136332],[33.0290917,38.8121208],[33.0019184,38.8129851],[32.984727,38.8160098],[32.9714176,38.8227069],[32.9569991,38.8335073],[32.9475716,38.8460338],[32.9256666,38.8948228],[32.9095844,38.9194204],[32.8965523,38.9351671],[32.8652197,38.9683746],[32.8341644,38.9916537],[32.8180822,39.0015666],[32.8075456,39.0060915],[32.7945135,39.0078153],[32.7748267,39.0069534],[32.7459896,38.9985498],[32.7251937,38.9972568],[32.7132707,38.9998427],[32.6655787,39.0211727],[32.635078,39.0280659],[32.599646,39.022028],[32.5967788,39.0204508],[32.5947188,39.021251],[32.58502,39.0197839],[32.5828742,39.0204508],[32.58296,39.0227846],[32.5698279,39.0215177],[32.5662231,39.0225846],[32.5645923,39.0256519],[32.5680255,39.0302526],[32.563219,39.0336529],[32.5577258,39.0338529],[32.5591849,39.0347196],[32.558155,39.035653],[32.5513743,39.0394531],[32.5431346,39.0391197],[32.5442504,39.040453],[32.5421905,39.0426529],[32.5412463,39.0397197],[32.5389289,39.0425863],[32.5364398,39.0391197],[32.5354098,39.040253],[32.5329208,39.0361197],[32.5284576,39.0388531],[32.5240802,39.0379864],[32.5204753,39.0403864],[32.5104331,39.0367864],[32.5136947,39.0310527],[32.5097465,39.0060456],[32.4934386,38.9919044],[32.4936961,38.9905034],[32.464342,38.9713545],[32.4510383,38.9698865],[32.4495792,38.9678845],[32.448635,38.968752],[32.4490642,38.9605435],[32.4406965,38.9546462],[32.4487336,38.9410485],[32.4316837,38.9223072],[32.3964721,38.892888],[32.3820167,38.8695169],[32.3760863,38.8519114],[32.3557006,38.8221742],[32.361631,38.8117777],[32.3749744,38.7996465],[32.390171,38.7935801],[32.4116687,38.7883799],[32.4509575,38.784624],[32.4783855,38.7776895],[32.4995126,38.7698874],[32.5299974,38.7554077],[32.556208,38.7402223],[32.5831674,38.7184121],[32.610626,38.689776],[32.6196125,38.6747716],[32.6253539,38.654111],[32.6248546,38.639879],[32.6121238,38.5776541],[32.61462,38.5600887],[32.6191133,38.5499379],[32.6345899,38.5350994],[32.6415794,38.5261168],[32.6463223,38.5110781],[32.6470712,38.495841],[32.630546,38.4504229],[32.6275173,38.4308189],[32.6847689,38.4488329],[32.7074126,38.4697854],[32.7321124,38.4819864],[32.7620079,38.4908612],[32.7834668,38.4925838],[32.7944713,38.4921531],[32.7939211,38.47794],[32.7873184,38.466309],[32.771912,38.4602774],[32.7473518,38.4537621],[32.7291943,38.4537621],[32.7242423,38.4485912],[32.7390984,38.4166962],[32.7506532,38.4033306],[32.7715618,38.3979574],[32.7858677,38.3975262],[32.8095239,38.4021783],[32.8193115,38.4072091],[32.8297542,38.4180907],[32.8419661,38.4423009],[32.8524153,38.4512701],[32.8655644,38.4545152],[32.9099077,38.4514075],[32.9392742,38.4452994],[32.9480637,38.4416208],[32.9422942,38.3803066],[32.948244,38.3704122],[32.9574392,38.3678678],[32.9682571,38.3684333],[32.9769115,38.3715432],[32.9992685,38.3885037],[33.0181998,38.3965585],[33.0311813,38.3992432],[33.08746,38.4010036],[33.1205218,38.4055169],[33.1765187,38.4086325],[33.2097459,38.4131658],[33.2400599,38.4249362],[33.2527623,38.4479984],[33.2762497,38.4690772],[33.3093352,38.5077525],[33.3172782,38.5329072],[33.3208119,38.5599648],[33.3240745,38.606017],[33.3236851,38.6618837],[33.3239671,38.706755],[33.3284068,38.7452721],[33.3267122,38.746605]]]}},{"type":"Feature","properties":{"code":"42-08","provinceCode":"42","name":"Çeltik"},"geometry":{"type":"Polygon","coordinates":[[[31.5924847,39.0433112],[31.5897166,39.0299108],[31.5925598,39.0202632],[31.5960145,39.0165162],[31.6067219,39.0161328],[31.606679,39.0131651],[31.6310817,39.0110935],[31.6382861,39.011948],[31.637696,39.0148157],[31.6396487,39.0150908],[31.6402763,39.01775],[31.6425937,39.016312],[31.6457748,39.0175666],[31.6467565,39.0154868],[31.6553128,39.016683],[31.6617823,39.0159369],[31.6687506,39.0214426],[31.6763949,39.0199339],[31.6973484,39.0022812],[31.6927671,39.0038153],[31.6944945,39.0017518],[31.7020476,39.0019435],[31.7037642,39.0037111],[31.7046332,39.0009055],[31.7091769,39.0007012],[31.7117732,39.0022562],[31.712932,38.9999258],[31.7164725,39.0003344],[31.7188221,38.9953315],[31.7261284,38.9936138],[31.725528,38.9922184],[31.7277646,38.9926131],[31.7319863,38.9847993],[31.7288696,38.9840321],[31.7299533,38.9803291],[31.7280125,38.9800459],[31.7292665,38.9713421],[31.7237896,38.9692441],[31.7253184,38.9674131],[31.7173362,38.9648876],[31.7164081,38.9665247],[31.7071009,38.9605434],[31.706028,38.9582909],[31.6990542,38.9621827],[31.6916621,38.9636134],[31.6812121,38.9693275],[31.6811371,38.9736941],[31.6778648,38.9742342],[31.6769206,38.9747618],[31.673482,38.9676988],[31.6748661,38.9631045],[31.6713417,38.9577194],[31.6726828,38.956737],[31.6673478,38.9526572],[31.6702393,38.9500581],[31.6661382,38.9507486],[31.6657734,38.9483205],[31.666503,38.9431554],[31.6734767,38.9380567],[31.6739804,38.9327662],[31.6782591,38.9271154],[31.6801742,38.9280126],[31.6811746,38.9266647],[31.6860294,38.9283798],[31.6881323,38.9310131],[31.6902539,38.9296714],[31.6987672,38.9327428],[31.7058188,38.9309213],[31.7058597,38.9329848],[31.7114729,38.9364378],[31.7220435,38.9393565],[31.7347169,38.9404351],[31.7371773,38.9354134],[31.7359239,38.9341469],[31.7434314,38.9370177],[31.7552089,38.9270653],[31.7596936,38.9123406],[31.7756259,38.8935965],[31.7837691,38.890774],[31.7844504,38.885517],[31.7887151,38.8774282],[31.7955923,38.8713934],[31.7920089,38.8551158],[31.801241,38.8561894],[31.8062889,38.8537957],[31.8147433,38.8558593],[31.8155479,38.8622004],[31.8173906,38.8620667],[31.821025,38.872187],[31.823498,38.8729262],[31.8228972,38.8762881],[31.8331432,38.8797418],[31.8317485,38.8828153],[31.8526697,38.8792741],[31.8823242,38.8804434],[31.8655443,38.8941726],[31.853292,38.916573],[31.8554377,38.9271154],[31.8540644,38.9366631],[31.8485215,38.9377449],[31.8448591,38.952701],[31.8614888,38.9590417],[31.8706942,38.9555878],[31.8804359,38.9489964],[31.9027519,38.9415866],[31.9188023,38.9393836],[31.9302177,38.9259636],[31.9491675,38.9364524],[31.9618356,38.9290935],[31.965301,38.9295608],[31.9725,38.9277163],[31.9750643,38.921331],[31.9810937,38.9217151],[31.9885182,38.9249661],[31.9899398,38.9226833],[31.9991827,38.9203211],[31.9997406,38.9247617],[32.008624,38.9242275],[32.0094823,38.9256297],[32.0382142,38.9218569],[32.0399952,38.9230255],[32.0458604,38.9188012],[32.0670318,38.9145612],[32.0738554,38.9102035],[32.0947766,38.9077156],[32.1028934,38.9082025],[32.1108913,38.9137431],[32.1290445,38.9109381],[32.1277141,38.9148534],[32.122221,38.9181257],[32.1114492,38.9335753],[32.1195066,38.9369051],[32.1167707,38.9402515],[32.1191311,38.9411193],[32.1185517,38.9428717],[32.1143889,38.946877],[32.1089601,38.9447243],[32.1092603,38.9472361],[32.0943257,38.9601016],[32.0743523,38.9575511],[32.0747563,38.9597178],[32.0681903,38.9591839],[32.0639087,38.9615734],[32.0426127,38.9665584],[32.0331284,38.9720221],[32.0139238,38.9739822],[31.9921496,38.986455],[31.9924125,38.9955861],[31.9901004,38.9949733],[31.9610628,39.0013185],[31.9483062,39.0076883],[31.9444867,39.0111314],[31.9435212,39.0103893],[31.9392725,39.0164249],[31.9321701,39.0219931],[31.9278571,39.0304612],[31.9393584,39.0472944],[31.938307,39.0528102],[31.9422981,39.059975],[31.9422767,39.0647234],[31.9384626,39.07439],[31.9226858,39.0715622],[31.9227716,39.0765014],[31.9287583,39.0786502],[31.9277069,39.0748356],[31.9294879,39.0748023],[31.9291284,39.0799078],[31.9232651,39.0841303],[31.9241664,39.0890102],[31.9125148,39.0894099],[31.9095537,39.0945227],[31.9098756,39.097437],[31.908116,39.0968542],[31.9047472,39.1033651],[31.9078156,39.1100254],[31.9050691,39.1111409],[31.9041249,39.1102585],[31.8884822,39.1192487],[31.8954667,39.1267065],[31.887345,39.1273723],[31.8651149,39.1390899],[31.8588063,39.1383909],[31.8611881,39.1402715],[31.8599221,39.1425267],[31.8463609,39.1400385],[31.8515751,39.1454306],[31.8490431,39.1467286],[31.8456742,39.1466288],[31.8435287,39.1422433],[31.839205,39.1341715],[31.8308848,39.1356236],[31.8168756,39.1329231],[31.8166691,39.1316269],[31.8145662,39.1327484],[31.809926,39.1307593],[31.8017292,39.1313918],[31.793232,39.1198561],[31.7897344,39.1186075],[31.7860007,39.1204221],[31.7682552,39.1133799],[31.7718172,39.1137129],[31.7731476,39.1119148],[31.7726326,39.11015],[31.770401,39.1102166],[31.7701864,39.1061872],[31.767869,39.1032233],[31.7643278,39.100276],[31.7536747,39.0973535],[31.7512714,39.0918329],[31.754158,39.091054],[31.7492652,39.0762429],[31.7433751,39.0654895],[31.7414868,39.066889],[31.7362726,39.0599831],[31.7313158,39.0599081],[31.727711,39.0550927],[31.7130661,39.0543096],[31.7108881,39.0526183],[31.708442,39.0542929],[31.7072939,39.0534598],[31.6902888,39.0577337],[31.685214,39.0604246],[31.678133,39.0514185],[31.6624582,39.0633986],[31.6596748,39.0574961],[31.6464829,39.0579836],[31.6440153,39.0571839],[31.6428995,39.054068],[31.6253471,39.0521267],[31.6204655,39.047869],[31.5924847,39.0433112]]]}},{"type":"Feature","properties":{"code":"42-09","provinceCode":"42","name":"Çumra"},"geometry":{"type":"Polygon","coordinates":[[[32.6114452,37.7286327],[32.6169094,37.6991834],[32.6072572,37.672189],[32.6144301,37.6551802],[32.6001695,37.6366989],[32.6008794,37.6301307],[32.599497,37.6266392],[32.596116,37.6236802],[32.5885692,37.621239],[32.558475,37.6220696],[32.5506656,37.6126649],[32.5445386,37.6089802],[32.5275511,37.6077906],[32.5163181,37.5840563],[32.4964789,37.5535373],[32.5356012,37.5375054],[32.544379,37.5228728],[32.5488575,37.5188946],[32.5601434,37.5183262],[32.5687421,37.5149161],[32.5716083,37.500279],[32.5665924,37.4869185],[32.5603225,37.4775362],[32.5522612,37.472276],[32.5255693,37.460759],[32.4974443,37.4399955],[32.4908161,37.4384309],[32.4696776,37.4425557],[32.4592875,37.4418445],[32.4465685,37.439711],[32.4376115,37.4335946],[32.4302668,37.4215026],[32.427938,37.4112584],[32.4284754,37.3773857],[32.4367158,37.3534663],[32.4359993,37.3423583],[32.4413637,37.3311387],[32.4349658,37.3253743],[32.4116362,37.2869361],[32.4116362,37.2790968],[32.416473,37.272112],[32.426684,37.2688331],[32.471469,37.2725396],[32.5035351,37.2709715],[32.5248528,37.2644136],[32.544379,37.2628454],[32.5780574,37.2639859],[32.6008082,37.2614196],[32.6099443,37.2711141],[32.6257087,37.2776714],[32.6352031,37.2870786],[32.6498926,37.3123015],[32.6558042,37.3302515],[32.6559833,37.3370885],[32.65043,37.3460611],[32.6520423,37.3546055],[32.6561625,37.357311],[32.6611784,37.3564566],[32.6794507,37.3436401],[32.7127708,37.3547479],[32.7242357,37.361725],[32.7489571,37.3706947],[32.760422,37.3668507],[32.7772612,37.3577382],[32.7876513,37.3608707],[32.7969666,37.3526119],[32.7985789,37.3415038],[32.8028782,37.3379431],[32.8132684,37.337231],[32.8265346,37.328043],[32.9231576,37.3927733],[32.969902,37.4143414],[32.9993334,37.4505836],[33.0146374,37.4640863],[33.1229647,37.5021559],[33.1643738,37.5352094],[33.1843386,37.538354],[33.2108326,37.536518],[33.2077349,37.5414827],[33.1382286,37.5867805],[33.1249722,37.5998393],[33.119598,37.6076451],[33.119598,37.6165853],[33.1308838,37.6296389],[33.1534555,37.6442505],[33.1613376,37.6519098],[33.1654579,37.6855163],[33.1126115,37.6802707],[33.0886067,37.6753084],[33.0687222,37.6632555],[33.0558241,37.6602774],[33.0450757,37.6599938],[32.9924085,37.6675097],[32.8940606,37.6968569],[32.8791919,37.7046525],[32.8623528,37.7107467],[32.8057445,37.7443265],[32.7693256,37.7607677],[32.7315805,37.7732185],[32.6973647,37.7767584],[32.6805255,37.7753425],[32.6688814,37.7719441],[32.6554459,37.7627394],[32.647922,37.7485761],[32.6373113,37.7414773],[32.6244178,37.7435227],[32.6199671,37.7349389],[32.6114452,37.7286327]]]}},{"type":"Feature","properties":{"code":"42-10","provinceCode":"42","name":"Derbent"},"geometry":{"type":"Polygon","coordinates":[[[32.0698331,38.0787791],[32.0347541,38.0558755],[31.9732842,38.0308102],[31.9214871,38.026386],[31.8946526,38.0285982],[31.8735121,38.0287214],[31.8337373,38.0207841],[31.8539619,38.0058649],[31.8559112,37.9881056],[31.8539687,37.9710549],[31.8703378,37.9544531],[31.8703563,37.9482857],[31.8729795,37.94359],[31.8830437,37.9375955],[31.9031246,37.9328502],[31.9138963,37.9141245],[31.9793751,37.8810712],[32.0130676,37.9076595],[32.0425129,37.9369387],[32.0710591,37.9496118],[32.0720422,37.9633166],[32.0857537,37.9641794],[32.0920085,37.9621493],[32.1048092,37.9790079],[32.1003341,37.9874368],[32.1042394,37.9904808],[32.1063208,38.0013369],[32.1091533,38.0048284],[32.1131605,38.00605],[32.113713,38.009199],[32.1189272,38.0101711],[32.1218455,38.0088016],[32.1232831,38.0117856],[32.1218777,38.0121998],[32.1225643,38.0167052],[32.1256864,38.0185225],[32.1288514,38.0266954],[32.1258151,38.0302279],[32.1260619,38.0336083],[32.1227245,38.0327706],[32.1185732,38.036042],[32.1142601,38.0340393],[32.1055537,38.0363378],[32.1020506,38.0330168],[32.0698331,38.0787791]]]}},{"type":"Feature","properties":{"code":"42-11","provinceCode":"42","name":"Derebucak"},"geometry":{"type":"Polygon","coordinates":[[[31.5531539,37.2792591],[31.5776447,37.285076],[31.587152,37.2839505],[31.604122,37.2880804],[31.6346546,37.2833107],[31.6498413,37.2850624],[31.6542335,37.2883981],[31.6442512,37.3006277],[31.6474455,37.3060271],[31.6595986,37.3138647],[31.6833821,37.3185714],[31.6893715,37.3242871],[31.6887726,37.3282561],[31.681186,37.3320343],[31.6794189,37.3372831],[31.6932022,37.3452714],[31.7016299,37.3437172],[31.7123096,37.3564372],[31.7193174,37.3593185],[31.7194865,37.3647528],[31.724322,37.3680394],[31.7273231,37.3726498],[31.7220674,37.4110572],[31.7033327,37.4355826],[31.7009684,37.4435612],[31.7033327,37.4646768],[31.7077627,37.4691097],[31.7120905,37.4806132],[31.7084665,37.4888111],[31.6985544,37.4945878],[31.6929908,37.5078095],[31.6894219,37.511009],[31.6885553,37.5181432],[31.6628237,37.5193593],[31.6381158,37.5132643],[31.6300769,37.5095133],[31.6215651,37.4967584],[31.6168363,37.4445908],[31.6083245,37.4333269],[31.6017042,37.4310739],[31.5931924,37.4340778],[31.5799518,37.4505976],[31.5591452,37.4547269],[31.5468504,37.465237],[31.5402301,37.4787478],[31.533137,37.4836261],[31.5241523,37.4825004],[31.5184777,37.4697409],[31.5047643,37.4614836],[31.495023,37.4519791],[31.4771671,37.4555828],[31.4399422,37.4702363],[31.4281392,37.4839263],[31.418152,37.4925713],[31.4090728,37.4923312],[31.3972697,37.4884891],[31.331925,37.4844276],[31.3298125,37.4623208],[31.3154902,37.4157522],[31.3736048,37.3680458],[31.4124492,37.3471048],[31.4507825,37.3307061],[31.4747973,37.3260382],[31.5315597,37.2965469],[31.5329181,37.2861884],[31.5531539,37.2792591]]]}},{"type":"Feature","properties":{"code":"42-12","provinceCode":"42","name":"Doğanhisar"},"geometry":{"type":"Polygon","coordinates":[[[31.5202656,38.1832985],[31.5313641,38.1597096],[31.5335861,38.1494668],[31.5352468,38.1334531],[31.522449,38.1038064],[31.5377605,38.0578499],[31.5394458,38.0309729],[31.5918518,38.0215094],[31.6155479,38.0130238],[31.6306272,38.0041128],[31.6527077,37.9977472],[31.6774808,37.9952008],[31.6994914,38.0016806],[31.7108708,38.027873],[31.7270272,38.0427192],[31.7518004,38.0745223],[31.7722652,38.1058878],[31.7841132,38.1291913],[31.7884216,38.1469817],[31.7873445,38.1571457],[31.7824976,38.1706955],[31.7744194,38.1838195],[31.745391,38.2061284],[31.7382204,38.2210419],[31.734846,38.2458909],[31.7293626,38.2548345],[31.7167087,38.2614587],[31.7002586,38.2670887],[31.6526539,38.2740865],[31.6416286,38.2700692],[31.6315055,38.2627834],[31.609572,38.2412531],[31.5876385,38.2270064],[31.5673922,38.2173966],[31.5484113,38.2057969],[31.5202656,38.1832985]]]}},{"type":"Feature","properties":{"code":"42-13","provinceCode":"42","name":"Emirgazi"},"geometry":{"type":"Polygon","coordinates":[[[33.6014099,38.0874872],[33.5699644,38.0753525],[33.5527396,38.0635],[33.5467613,38.0552062],[33.5568099,38.0320166],[33.5747139,38.0162122],[33.580033,38.0044685],[33.5835619,38.0056986],[33.6003595,38.0012866],[33.6124912,37.9934423],[33.6404872,37.954699],[33.6454643,37.9282044],[33.6498192,37.920107],[33.6566627,37.9149536],[33.7058114,37.8935999],[33.7123438,37.8894267],[33.717943,37.8830435],[33.7249966,37.8674215],[33.7431773,37.8564097],[33.753346,37.8431927],[33.7469599,37.822095],[33.7554587,37.8101209],[33.7648002,37.7992413],[33.7818325,37.7921093],[33.7949602,37.784108],[33.7999423,37.77401],[33.83259,37.7990591],[33.8376,37.8172223],[33.8582929,37.820485],[33.8721721,37.8201826],[33.8785043,37.82317],[33.8816267,37.8368821],[33.8943804,37.8437605],[33.8990464,37.8513751],[33.8996686,37.8673387],[33.89718,37.8744598],[33.8900255,37.8820713],[33.8744721,37.8926278],[33.8670065,37.9076008],[33.8651401,37.9225706],[33.8670065,37.9368015],[33.8828709,37.9630477],[33.8825599,37.972857],[33.8760275,38.0074241],[33.8775828,38.0142866],[33.8816267,38.0177176],[33.8900255,38.0182077],[33.9422848,37.9986],[33.9693477,37.9946779],[33.9755405,37.9960763],[33.9839531,38.0057919],[34.0135489,38.0183506],[34.0520972,38.02183],[34.0607778,38.0274975],[34.0701932,38.0394581],[34.0585396,38.0483952],[34.0525591,38.0550298],[34.0606973,38.061363],[34.0387221,38.0689855],[34.0180285,38.0728028],[33.997523,38.081548],[33.9881136,38.1041401],[33.9811336,38.1144907],[33.9698582,38.1216718],[33.9521396,38.1252621],[33.8699901,38.1201934],[33.8493185,38.1151243],[33.8418016,38.1075201],[33.8337477,38.091464],[33.8157607,38.0794196],[33.7940152,38.073291],[33.7789813,38.0707549],[33.7628736,38.0762497],[33.7435443,38.0868155],[33.7290473,38.0984361],[33.7024695,38.1035064],[33.6826033,38.1018163],[33.6014099,38.0874872]]]}},{"type":"Feature","properties":{"code":"42-14","provinceCode":"42","name":"Ereğli"},"geometry":{"type":"Polygon","coordinates":[[[34.1239222,37.3523256],[34.13207,37.3779254],[34.143249,37.3953039],[34.1442211,37.4312066],[34.1466513,37.4404691],[34.1704137,37.4625506],[34.1749396,37.4902522],[34.1924621,37.5058178],[34.2317088,37.5253213],[34.2484621,37.5268373],[34.2564534,37.5217636],[34.2570812,37.5159324],[34.2676351,37.5033202],[34.2788549,37.4971765],[34.2934362,37.500647],[34.3064769,37.5058541],[34.3059804,37.5219461],[34.3093157,37.5363777],[34.3066138,37.5498607],[34.2971799,37.5753505],[34.2953865,37.5851833],[34.297168,37.5976546],[34.3135604,37.6132792],[34.3509228,37.6435572],[34.36735,37.6594673],[34.3761709,37.6734735],[34.3788259,37.6853562],[34.3800032,37.6980438],[34.3767197,37.7136469],[34.3507938,37.7649379],[34.3296732,37.7933873],[34.3062276,37.8199154],[34.2877574,37.8464649],[34.2568251,37.8656207],[34.2404271,37.8694412],[34.2104225,37.869063],[34.1988281,37.8739221],[34.1686967,37.9038886],[34.140505,37.9267052],[34.1232057,37.9551683],[34.1089653,37.9622604],[34.082866,37.9708928],[34.020595,37.9606376],[33.9943099,37.9628811],[33.9810052,37.975613],[33.9755405,37.9960763],[33.9693477,37.9946779],[33.9422848,37.9986],[33.8900255,38.0182077],[33.8816267,38.0177176],[33.8775828,38.0142866],[33.8760275,38.0074241],[33.8825599,37.972857],[33.8828709,37.9630477],[33.8670065,37.9368015],[33.8651401,37.9225706],[33.8670065,37.9076008],[33.8744721,37.8926278],[33.8900255,37.8820713],[33.89718,37.8744598],[33.8996686,37.8673387],[33.8990464,37.8513751],[33.8943804,37.8437605],[33.8816267,37.8368821],[33.8785043,37.82317],[33.8721721,37.8201826],[33.8582929,37.820485],[33.8376,37.8172223],[33.83259,37.7990591],[33.7999423,37.77401],[33.8208441,37.7638136],[33.8329882,37.7527959],[33.8596928,37.7403574],[33.8771904,37.7283644],[33.8857447,37.7157543],[33.8981874,37.7016039],[33.9141296,37.6874507],[33.9359043,37.6763724],[33.9444587,37.668986],[33.9467917,37.6606754],[33.9734929,37.6434706],[33.9595058,37.6348057],[33.9158549,37.6135596],[33.9091561,37.6122957],[33.9019623,37.6137982],[33.8825802,37.61266],[33.8817161,37.6088174],[33.8133086,37.5724986],[33.7774564,37.5789689],[33.7586193,37.5617333],[33.7527862,37.5436367],[33.7495743,37.4903378],[33.7521854,37.4873161],[33.7583162,37.4877322],[33.7705029,37.4858438],[33.7842087,37.4817935],[33.7913517,37.4770829],[33.8022805,37.4738277],[33.8014264,37.4752958],[33.8141479,37.4732158],[33.8206145,37.4738236],[33.8229702,37.4762303],[33.8258004,37.4738017],[33.8421411,37.4731013],[33.8796247,37.4663088],[33.8831249,37.468146],[33.8854995,37.4651685],[33.8900889,37.4661164],[33.8960407,37.4649205],[33.9039725,37.4656639],[33.9045552,37.4667846],[33.9078011,37.4636964],[33.9104739,37.4649457],[33.911712,37.4607604],[33.8972254,37.4578686],[33.8862592,37.4577072],[33.8859333,37.4561948],[33.8882804,37.4538161],[33.9055449,37.4474268],[33.9045759,37.436866],[33.9244262,37.4171732],[33.9341182,37.4116532],[33.9342788,37.4005016],[33.9422291,37.3995513],[33.9469467,37.402981],[33.946761,37.4166426],[33.9495548,37.4183936],[33.9503482,37.4217797],[33.9490525,37.4295614],[33.9663282,37.4270858],[33.9906698,37.4189866],[33.9999824,37.4189508],[34.0089916,37.4218678],[34.0176815,37.4275077],[34.0176357,37.4226186],[33.9992146,37.3870139],[34.0296987,37.353427],[34.0636469,37.3490211],[34.1239222,37.3523256]]]}},{"type":"Feature","properties":{"code":"42-15","provinceCode":"42","name":"Halkapınar"},"geometry":{"type":"Polygon","coordinates":[[[34.2591903,37.2467141],[34.2980816,37.281363],[34.316191,37.3033579],[34.3450099,37.326523],[34.3643329,37.3277298],[34.3837546,37.3315742],[34.4310654,37.3070989],[34.436517,37.3314242],[34.4136879,37.3644725],[34.4106767,37.3826596],[34.4064139,37.3908263],[34.4061199,37.3994666],[34.4020048,37.412542],[34.4020083,37.4246519],[34.3951725,37.4360167],[34.3753025,37.4502165],[34.3608345,37.4542258],[34.3379776,37.4663755],[34.3138134,37.4872351],[34.3083009,37.4958304],[34.3064769,37.5058541],[34.2934362,37.500647],[34.2788549,37.4971765],[34.2676351,37.5033202],[34.2570812,37.5159324],[34.2564534,37.5217636],[34.2484621,37.5268373],[34.2317088,37.5253213],[34.1924621,37.5058178],[34.1749396,37.4902522],[34.1704137,37.4625506],[34.1466513,37.4404691],[34.1442211,37.4312066],[34.143249,37.3953039],[34.13207,37.3779254],[34.1239222,37.3523256],[34.1724195,37.3335982],[34.2122139,37.2923025],[34.2591903,37.2467141]]]}},{"type":"Feature","properties":{"code":"42-16","provinceCode":"42","name":"Hüyük"},"geometry":{"type":"Polygon","coordinates":[[[31.5394458,38.0309729],[31.5167283,38.0167149],[31.5087808,38.0034792],[31.5052553,37.9900594],[31.5087627,37.9755705],[31.5024259,37.9663196],[31.4390297,37.9145112],[31.5090007,37.8539187],[31.5719449,37.8501386],[31.5771118,37.8537288],[31.5819343,37.8661844],[31.5867534,37.8710496],[31.605659,37.8536294],[31.638121,37.8274473],[31.6520319,37.8136027],[31.6605884,37.8186824],[31.6735136,37.8299129],[31.6885929,37.8506677],[31.698933,37.8595122],[31.7312459,37.8734572],[31.7799305,37.8833192],[31.7898398,37.8921598],[31.7885473,37.9023592],[31.7695724,37.9149437],[31.7668797,37.9242903],[31.7787277,37.9412811],[31.7803434,37.9701564],[31.7722652,37.980345],[31.7528775,37.9909566],[31.6994914,38.0016806],[31.6774808,37.9952008],[31.6527077,37.9977472],[31.6306272,38.0041128],[31.6155479,38.0130238],[31.5918518,38.0215094],[31.5394458,38.0309729]]]}},{"type":"Feature","properties":{"code":"42-17","provinceCode":"42","name":"Ilgın"},"geometry":{"type":"Polygon","coordinates":[[[31.7187232,38.3320039],[31.6971298,38.3191093],[31.6806931,38.3120289],[31.671669,38.3052008],[31.6597443,38.2905307],[31.6526539,38.2740865],[31.7002586,38.2670887],[31.7167087,38.2614587],[31.7293626,38.2548345],[31.734846,38.2458909],[31.7382204,38.2210419],[31.745391,38.2061284],[31.7744194,38.1838195],[31.7824976,38.1706955],[31.7873445,38.1571457],[31.7884216,38.1469817],[31.7841132,38.1291913],[31.7722652,38.1058878],[31.7518004,38.0745223],[31.7270272,38.0427192],[31.7108708,38.027873],[31.6994914,38.0016806],[31.7528775,37.9909566],[31.786806,38.0002935],[31.8337373,38.0207841],[31.8735121,38.0287214],[31.8946526,38.0285982],[31.9214871,38.026386],[31.9732842,38.0308102],[32.0347541,38.0558755],[32.0698331,38.0787791],[32.0913632,38.0895856],[32.1147654,38.0969527],[32.1275587,38.104319],[32.1353594,38.1124212],[32.1246188,38.1111361],[32.1158819,38.1138367],[32.1102654,38.119483],[32.106521,38.1293016],[32.1055849,38.1413276],[32.0982379,38.1544018],[32.0976139,38.1813869],[32.088019,38.2315281],[32.0809983,38.2459265],[32.0790481,38.262466],[32.0856787,38.2826757],[32.1040105,38.3065527],[32.1168817,38.32828],[32.129363,38.370492],[32.1250725,38.3784422],[32.0981599,38.3866973],[32.0891891,38.3937287],[32.0845086,38.4053442],[32.1012802,38.4462893],[32.1016703,38.4615614],[32.0993301,38.4740821],[32.0868488,38.4954539],[32.0817784,38.5076635],[32.0813883,38.5305509],[32.0837285,38.5491607],[32.109081,38.5985599],[32.1177669,38.621286],[32.0876517,38.61296],[32.0468803,38.5955808],[31.9917462,38.5575492],[31.9291991,38.5238473],[31.8837946,38.5086219],[31.8444131,38.5031834],[31.8215159,38.4955713],[31.8124193,38.4887073],[31.8092014,38.4814256],[31.8068848,38.4603868],[31.8110546,38.4375274],[31.8183105,38.4176569],[31.819922,38.4078082],[31.8189551,38.4007365],[31.809931,38.3863384],[31.7938165,38.370674],[31.7693226,38.3560172],[31.7187232,38.3320039]]]}},{"type":"Feature","properties":{"code":"42-18","provinceCode":"42","name":"Kadınhanı"},"geometry":{"type":"Polygon","coordinates":[[[32.3178246,38.1272646],[32.3187997,38.1403032],[32.3227,38.1548731],[32.3212374,38.1721232],[32.3148993,38.2000979],[32.3168495,38.2284449],[32.3136227,38.2531509],[32.3230938,38.2905845],[32.3283052,38.2991657],[32.3328014,38.3014913],[32.3409731,38.3117289],[32.3446397,38.3742186],[32.3397642,38.3963842],[32.3246502,38.4361123],[32.3251378,38.4490956],[32.3295257,38.467421],[32.3417144,38.5002424],[32.3441521,38.5128327],[32.3417144,38.5715582],[32.3305008,38.6241417],[32.3246502,38.6622216],[32.3313536,38.6968999],[32.3406198,38.7222073],[32.3503494,38.7634031],[32.3517393,38.8107126],[32.3557006,38.8221742],[32.3160643,38.8287615],[32.245641,38.8341752],[32.2275718,38.8341752],[32.2076494,38.8284005],[32.1965299,38.8229863],[32.1534419,38.7872423],[32.0941381,38.7326892],[32.080702,38.7175081],[32.074679,38.7055778],[32.074679,38.6940071],[32.0788488,38.6864128],[32.1085007,38.6676045],[32.116377,38.6563895],[32.1214734,38.6422778],[32.1177669,38.621286],[32.109081,38.5985599],[32.0837285,38.5491607],[32.0813883,38.5305509],[32.0817784,38.5076635],[32.0868488,38.4954539],[32.0993301,38.4740821],[32.1016703,38.4615614],[32.1012802,38.4462893],[32.0845086,38.4053442],[32.0891891,38.3937287],[32.0981599,38.3866973],[32.1250725,38.3784422],[32.129363,38.370492],[32.1168817,38.32828],[32.1040105,38.3065527],[32.0856787,38.2826757],[32.0790481,38.262466],[32.0809983,38.2459265],[32.088019,38.2315281],[32.0976139,38.1813869],[32.0982379,38.1544018],[32.1055849,38.1413276],[32.106521,38.1293016],[32.1102654,38.119483],[32.1158819,38.1138367],[32.1246188,38.1111361],[32.1353594,38.1124212],[32.1414684,38.1207104],[32.1498932,38.1246379],[32.1555098,38.1248834],[32.1614383,38.1226742],[32.1695511,38.1167826],[32.1898331,38.1079444],[32.2091789,38.1069623],[32.2266526,38.108681],[32.2412797,38.1130728],[32.270045,38.1030985],[32.2822336,38.1027149],[32.29686,38.1046331],[32.3070985,38.1103875],[32.3134366,38.1180594],[32.3178246,38.1272646]]]}},{"type":"Feature","properties":{"code":"42-19","provinceCode":"42","name":"Karapınar"},"geometry":{"type":"Polygon","coordinates":[[[33.1654579,37.6855163],[33.1613376,37.6519098],[33.1534555,37.6442505],[33.1308838,37.6296389],[33.119598,37.6165853],[33.119598,37.6076451],[33.1249722,37.5998393],[33.1382286,37.5867805],[33.2077349,37.5414827],[33.2108326,37.536518],[33.2581976,37.5038494],[33.286996,37.4953803],[33.3126303,37.4728398],[33.3323674,37.46191],[33.4333156,37.4768947],[33.5349497,37.5006687],[33.5751501,37.5153067],[33.6260414,37.5291151],[33.6695818,37.5430644],[33.6992901,37.545111],[33.7586193,37.5617333],[33.7774564,37.5789689],[33.8133086,37.5724986],[33.8817161,37.6088174],[33.8825802,37.61266],[33.9019623,37.6137982],[33.9091561,37.6122957],[33.9158549,37.6135596],[33.9595058,37.6348057],[33.9734929,37.6434706],[33.9467917,37.6606754],[33.9444587,37.668986],[33.9359043,37.6763724],[33.9141296,37.6874507],[33.8981874,37.7016039],[33.8857447,37.7157543],[33.8771904,37.7283644],[33.8596928,37.7403574],[33.8329882,37.7527959],[33.8208441,37.7638136],[33.7999423,37.77401],[33.7949602,37.784108],[33.7818325,37.7921093],[33.7648002,37.7992413],[33.7554587,37.8101209],[33.7469599,37.822095],[33.753346,37.8431927],[33.7431773,37.8564097],[33.7249966,37.8674215],[33.717943,37.8830435],[33.7123438,37.8894267],[33.7058114,37.8935999],[33.6566627,37.9149536],[33.6498192,37.920107],[33.6454643,37.9282044],[33.6404872,37.954699],[33.6124912,37.9934423],[33.6003595,38.0012866],[33.5835619,38.0056986],[33.580033,38.0044685],[33.5728676,37.9933025],[33.5007035,37.9811765],[33.4518433,37.9799068],[33.4314402,37.9845622],[33.4226531,37.9827739],[33.4102464,37.9941332],[33.3460449,37.9673614],[33.3376651,37.961181],[33.3311775,37.9522292],[33.3065787,37.8931627],[33.2930629,37.8690533],[33.2784658,37.847711],[33.2617062,37.8310597],[33.2098054,37.7986002],[33.1979114,37.7885606],[33.1762861,37.7428306],[33.1673657,37.7047721],[33.1654579,37.6855163]]]}},{"type":"Feature","properties":{"code":"42-20","provinceCode":"42","name":"Karatay"},"geometry":{"type":"Polygon","coordinates":[[[33.0236704,38.154098],[33.0264817,38.143384],[33.0236704,38.1324983],[32.9983688,38.1086802],[32.9636228,38.0832693],[32.9091372,38.0483534],[32.8833726,38.035713],[32.8559186,38.0250668],[32.8280422,38.0197431],[32.7908736,38.0204086],[32.7629973,38.0240686],[32.740478,38.0652435],[32.7255143,38.0511452],[32.7309973,38.0475219],[32.7345424,38.0488537],[32.736006,38.0470864],[32.7376972,38.0476627],[32.7386079,38.0453704],[32.7403317,38.0458186],[32.7415025,38.0443074],[32.7304607,38.04035],[32.73129,38.0352781],[32.7295663,38.0326523],[32.7311437,38.0327292],[32.7321031,38.0237497],[32.7345587,38.0240187],[32.735388,38.0210082],[32.7332903,38.020611],[32.7342822,38.0167933],[32.7322983,38.0163449],[32.7330626,38.0142694],[32.7357295,38.0148715],[32.7364451,38.01204],[32.7215329,38.0108997],[32.7232729,38.0054926],[32.7222395,38.0029697],[32.7269951,37.9939006],[32.7155405,37.9960733],[32.7154976,37.9950418],[32.7069897,37.9936129],[32.7062494,37.9955575],[32.6998121,37.9948304],[32.6991898,37.9973838],[32.6945549,37.9970456],[32.6955634,37.9952362],[32.6897699,37.9934607],[32.6864654,37.9956082],[32.6723892,37.9925137],[32.655394,37.9852055],[32.6568967,37.9800326],[32.6478201,37.9746201],[32.6485497,37.9730808],[32.6404816,37.9726579],[32.6366284,37.9624083],[32.5521745,37.9494421],[32.5203222,37.9176606],[32.4973009,37.8844138],[32.4933633,37.8753722],[32.4942969,37.8725558],[32.500712,37.8716021],[32.5007879,37.8626149],[32.5153669,37.8329661],[32.5253241,37.7894374],[32.5457828,37.7439875],[32.5606013,37.7467299],[32.5640384,37.7457402],[32.5691029,37.7475554],[32.5730343,37.7468148],[32.5800738,37.7434467],[32.5795159,37.7417393],[32.5841389,37.7409641],[32.5846186,37.742668],[32.599521,37.7350316],[32.606705,37.7278244],[32.6114452,37.7286327],[32.6199671,37.7349389],[32.6244178,37.7435227],[32.6373113,37.7414773],[32.647922,37.7485761],[32.6554459,37.7627394],[32.6688814,37.7719441],[32.6805255,37.7753425],[32.6973647,37.7767584],[32.7315805,37.7732185],[32.7693256,37.7607677],[32.8057445,37.7443265],[32.8623528,37.7107467],[32.8791919,37.7046525],[32.8940606,37.6968569],[32.9924085,37.6675097],[33.0450757,37.6599938],[33.0558241,37.6602774],[33.0687222,37.6632555],[33.0886067,37.6753084],[33.1126115,37.6802707],[33.1654579,37.6855163],[33.1673657,37.7047721],[33.1762861,37.7428306],[33.1979114,37.7885606],[33.2098054,37.7986002],[33.2617062,37.8310597],[33.2784658,37.847711],[33.2930629,37.8690533],[33.3065787,37.8931627],[33.3311775,37.9522292],[33.3376651,37.961181],[33.3460449,37.9673614],[33.4102464,37.9941332],[33.397363,38.0292347],[33.3697834,38.0433089],[33.3364264,38.0491185],[33.3217286,38.0386574],[33.315554,38.0238551],[33.3050839,38.0105305],[33.2962247,38.0092613],[33.2892446,38.0202598],[33.2892446,38.0329483],[33.3096478,38.0621234],[33.3160909,38.0788199],[33.3142728,38.0939994],[33.305145,38.1030839],[33.2880815,38.125909],[33.2870805,38.138436],[33.2914648,38.1721418],[33.2868896,38.1885915],[33.2716143,38.20809],[33.2676991,38.2219007],[33.2688304,38.2437468],[33.2628408,38.2527241],[33.2466338,38.2556091],[33.202069,38.2437468],[33.193919,38.2481088],[33.1934292,38.2288821],[33.1834816,38.2295616],[33.1421772,38.245698],[33.131931,38.2552894],[33.1149209,38.2549972],[33.1080092,38.2146111],[33.0991428,38.1926894],[33.08141,38.1670207],[33.0734087,38.1612398],[33.060866,38.1559685],[33.044647,38.1537579],[33.0236704,38.154098]]]}},{"type":"Feature","properties":{"code":"42-21","provinceCode":"42","name":"Kulu"},"geometry":{"type":"Polygon","coordinates":[[[33.2014785,39.2606343],[33.1921863,39.2680786],[33.1920146,39.2731951],[33.1878089,39.2825631],[33.1876372,39.2888078],[33.184719,39.2938563],[33.1825732,39.2947198],[33.1849765,39.2967125],[33.1823157,39.2990373],[33.1797408,39.2971775],[33.1793975,39.293657],[33.1727027,39.2940556],[33.1717586,39.296779],[33.1648921,39.2976424],[33.1621455,39.3001],[33.1617164,39.3014948],[33.1643771,39.3012955],[33.1637763,39.304882],[33.1593989,39.3046164],[33.1601714,39.300897],[33.1565665,39.2968454],[33.1584548,39.2959819],[33.1606864,39.2901364],[33.1570815,39.2815666],[33.1503867,39.2797063],[33.1471252,39.2822974],[33.1369113,39.2825631],[33.131504,39.276783],[33.1308173,39.2700721],[33.1246375,39.2632277],[33.1178569,39.2587086],[33.1205176,39.2559173],[33.1166553,39.2513314],[33.1163978,39.248008],[33.1096171,39.2462133],[33.1034373,39.241095],[33.1012057,39.2460804],[33.0976867,39.2424244],[33.1006908,39.242358],[33.0976867,39.2398319],[33.0957984,39.2419591],[33.0921935,39.2416932],[33.0836104,39.234846],[33.0836963,39.2327851],[33.0798339,39.2319208],[33.0794047,39.2305911],[33.0784606,39.2319208],[33.0755424,39.2275327],[33.0745982,39.2280646],[33.0742549,39.2226789],[33.071165,39.2233439],[33.071165,39.225671],[33.0659293,39.221881],[33.07065,39.222546],[33.0712508,39.2210831],[33.0685042,39.2212161],[33.0728816,39.2182903],[33.0715083,39.2167608],[33.0678176,39.2168938],[33.0678176,39.2129704],[33.0636977,39.2083816],[33.0618953,39.2101107],[33.0599212,39.2083151],[33.0570888,39.2093127],[33.0515098,39.2071845],[33.0497073,39.2085146],[33.0492782,39.207118],[33.0422401,39.2057213],[33.0318545,39.2000013],[33.0303954,39.2006665],[33.023014,39.1959438],[33.0181216,39.1997353],[33.0107402,39.2015311],[33.0082511,39.2075835],[32.9994105,39.2123053],[33.0065345,39.2166279],[33.0091094,39.2166944],[33.0088519,39.2187558],[33.005247,39.2189553],[33.0032729,39.2228784],[33.0041312,39.2279316],[33.0018138,39.2325856],[33.0044746,39.2328516],[33.0054187,39.234846],[33.0035304,39.2394995],[33.0090236,39.2437539],[33.0091094,39.2460139],[33.023529,39.2474763],[33.0224132,39.2542558],[33.0252456,39.2551198],[33.0243873,39.2566484],[33.0264472,39.2569142],[33.0278205,39.2600378],[33.0253314,39.261965],[33.0267905,39.2626296],[33.028078,39.261234],[33.0283355,39.2652213],[33.0343436,39.2713346],[33.0315112,39.2728629],[33.0303096,39.2777796],[33.0115127,39.2777132],[33.0074786,39.2753213],[33.000698,39.2749226],[33.0019855,39.2763843],[32.9880809,39.2812344],[32.9806995,39.2860842],[32.9796695,39.288675],[32.9748629,39.2915979],[32.9719447,39.2897378],[32.9683398,39.289605],[32.9622459,39.2840912],[32.9556369,39.2845562],[32.9482555,39.2815666],[32.9491996,39.2744575],[32.9425906,39.2692083],[32.9357242,39.2593732],[32.9278277,39.2540564],[32.9255962,39.2450169],[32.9184722,39.2444186],[32.9175281,39.2428233],[32.9173564,39.2407626],[32.9305743,39.2394331],[32.9244804,39.2365745],[32.9152106,39.2387683],[32.9144382,39.2367739],[32.9163264,39.2352449],[32.9122924,39.2331175],[32.9081725,39.2333834],[32.9072284,39.2306576],[32.9086875,39.2290619],[32.9059409,39.2268678],[32.8992461,39.2317878],[32.8986453,39.2515972],[32.9010486,39.258908],[32.8982162,39.2702714],[32.8892898,39.272132],[32.8688621,39.2543222],[32.8661155,39.2545216],[32.8624248,39.2579776],[32.8387864,39.260383],[32.8331565,39.251996],[32.7902412,39.2452828],[32.7991675,39.2429562],[32.7916144,39.2418926],[32.7868079,39.2351784],[32.7827739,39.2335829],[32.7830314,39.2258705],[32.7868079,39.2245407],[32.7962493,39.2277322],[32.7978801,39.2170268],[32.7947044,39.2107758],[32.7890395,39.2091131],[32.7789115,39.2094457],[32.7807998,39.2070514],[32.7831172,39.2070514],[32.7841472,39.2055218],[32.7916144,39.2065194],[32.7949618,39.2091797],[32.799425,39.2102437],[32.7977084,39.2062534],[32.8038882,39.2067189],[32.8053474,39.1981389],[32.8074073,39.1989371],[32.8110122,39.1938152],[32.8194236,39.1903561],[32.8319549,39.1882939],[32.8393363,39.1904892],[32.8422546,39.1860985],[32.8387355,39.1839696],[32.8357314,39.1783809],[32.8280067,39.1770502],[32.8175353,39.1680673],[32.8103255,39.169864],[32.8107547,39.1648066],[32.8167628,39.1654055],[32.815647,39.160614],[32.8116988,39.1587505],[32.7993392,39.1583512],[32.7907561,39.1548903],[32.7909278,39.1538254],[32.7939319,39.1549569],[32.795906,39.1538254],[32.7990817,39.1487003],[32.8038024,39.1455052],[32.8036307,39.1431088],[32.7989959,39.1393809],[32.7958202,39.1338553],[32.7966785,39.1329232],[32.7947902,39.1328566],[32.7920436,39.1240678],[32.7910136,39.1264649],[32.784233,39.1261986],[32.7853488,39.1226029],[32.7793407,39.1223366],[32.7775382,39.1199394],[32.7765941,39.1206719],[32.773075,39.1183412],[32.7713584,39.1200726],[32.7699851,39.118208],[32.7683543,39.1195399],[32.7658652,39.1186076],[32.7645778,39.1202058],[32.7621745,39.1166098],[32.7576255,39.1157441],[32.754364,39.115844],[32.7539348,39.1184078],[32.7527331,39.118208],[32.7520465,39.114945],[32.7329063,39.1190071],[32.7154826,39.1116152],[32.6911925,39.1112156],[32.6894759,39.1102166],[32.6887035,39.1045555],[32.6529979,39.1025573],[32.6505088,39.1042225],[32.648878,39.1092176],[32.63978,39.1008255],[32.638235,39.1004259],[32.6370334,39.1037562],[32.6201247,39.0980946],[32.6245021,39.0869698],[32.6167773,39.0881023],[32.6253604,39.074977],[32.6183223,39.070779],[32.6138591,39.0583169],[32.6121425,39.0580504],[32.6102542,39.0539847],[32.610855,39.0514519],[32.6172065,39.052385],[32.6165198,39.0479858],[32.6099967,39.0478524],[32.6024436,39.035253],[32.6019286,39.0335196],[32.6040744,39.0315194],[32.5966071,39.0277189],[32.5962638,39.0258519],[32.5997829,39.0243183],[32.599646,39.022028],[32.635078,39.0280659],[32.6655787,39.0211727],[32.7132707,38.9998427],[32.7251937,38.9972568],[32.7459896,38.9985498],[32.7748267,39.0069534],[32.7945135,39.0078153],[32.8075456,39.0060915],[32.8180822,39.0015666],[32.8341644,38.9916537],[32.8652197,38.9683746],[32.8965523,38.9351671],[32.9095844,38.9194204],[32.9256666,38.8948228],[32.9475716,38.8460338],[32.9569991,38.8335073],[32.9714176,38.8227069],[32.984727,38.8160098],[33.0019184,38.8129851],[33.0290917,38.8121208],[33.0609788,38.8136332],[33.1064526,38.8211947],[33.1311305,38.8229229],[33.1663449,38.8201145],[33.3267122,38.746605],[33.344329,38.8650091],[33.3741606,38.9052654],[33.3877978,38.9406814],[33.3937765,38.9690941],[33.3925515,39.0119262],[33.3896662,39.0312234],[33.3722174,39.0596591],[33.3409801,39.0941328],[33.2995738,39.1052392],[33.3067702,39.1004925],[33.3156966,39.1000929],[33.3229063,39.0952969],[33.3229063,39.0901009],[33.3247946,39.0891683],[33.3253096,39.0870364],[33.322048,39.0811736],[33.3084868,39.0745106],[33.3055685,39.0742441],[33.2944105,39.0789082],[33.2918356,39.0741108],[33.2853125,39.0747771],[33.2839392,39.0765096],[33.2813643,39.0741108],[33.2712362,39.0726449],[33.269863,39.0738443],[33.2717512,39.0751769],[33.2690047,39.0773091],[33.2645415,39.0754435],[33.256645,39.0773091],[33.2554434,39.0814401],[33.2387922,39.0823728],[33.2382773,39.0847713],[33.2336424,39.0825061],[33.2200812,39.0982279],[33.2139013,39.1098171],[33.2121847,39.1170094],[33.1855772,39.1208717],[33.1732176,39.1285956],[33.171501,39.1276634],[33.1620596,39.1373838],[33.1594847,39.1368512],[33.1464384,39.1473691],[33.1455801,39.1529602],[33.1431769,39.152694],[33.1413745,39.1608802],[33.1389712,39.1608136],[33.1361388,39.1672688],[33.1366538,39.1696644],[33.1289291,39.1701302],[33.1310748,39.1745218],[33.1227492,39.1750541],[33.1230926,39.1839031],[33.1394862,39.1827055],[33.1390571,39.1852337],[33.1412028,39.1853667],[33.1414603,39.1868303],[33.1406879,39.1908883],[33.1430911,39.1888261],[33.1478118,39.1966755],[33.1534766,39.2014646],[33.1531333,39.2049232],[33.1551074,39.2056548],[33.1555366,39.2081156],[33.1592273,39.2111083],[33.1614589,39.2097117],[33.1614589,39.2150319],[33.1605147,39.2130369],[33.1563949,39.2172928],[33.1617164,39.2181573],[33.1585406,39.2345136],[33.1627463,39.2341147],[33.1612014,39.2352449],[33.1666087,39.2396325],[33.1667804,39.2379041],[33.173046,39.2404302],[33.1755351,39.2379041],[33.1763076,39.2394331],[33.1811141,39.2402972],[33.186264,39.2391007],[33.1872938,39.236907],[33.1884955,39.239699],[33.1903837,39.2377047],[33.1950186,39.2370399],[33.1960486,39.239832],[33.1914137,39.2543223],[33.194274,39.2594964],[33.2014785,39.2606343]]]}},{"type":"Feature","properties":{"code":"42-22","provinceCode":"42","name":"Meram"},"geometry":{"type":"Polygon","coordinates":[[[32.4942969,37.8725558],[32.4918727,37.8706795],[32.4773025,37.8702485],[32.4778614,37.8744404],[32.4736913,37.8766754],[32.4280232,37.8826953],[32.4188706,37.8823452],[32.4105274,37.8795337],[32.404577,37.8796155],[32.3941271,37.8772105],[32.3800938,37.8765499],[32.3762743,37.8791752],[32.3510401,37.8826302],[32.3428003,37.8861866],[32.3270593,37.8832279],[32.2989766,37.874146],[32.2843502,37.8733763],[32.2541223,37.8822274],[32.2429087,37.8872298],[32.2156061,37.9145442],[32.2107306,37.9264671],[32.2004454,37.9281772],[32.1838947,37.9235146],[32.1608419,37.9193179],[32.1470508,37.9232252],[32.1082343,37.9253796],[32.0845904,37.9328395],[32.0710591,37.9496118],[32.0425129,37.9369387],[32.0130676,37.9076595],[31.9793751,37.8810712],[31.9746463,37.8600736],[31.9776018,37.8442049],[31.984695,37.8236637],[31.9841039,37.8105891],[31.9811484,37.7984464],[31.972873,37.7811628],[31.9705087,37.7657444],[31.9722819,37.7054413],[32.00893,37.7068443],[32.0390759,37.7054413],[32.0544445,37.7017],[32.0816349,37.6872005],[32.0875459,37.6773767],[32.0887281,37.6305787],[32.1591145,37.5480691],[32.1606603,37.5345864],[32.1542194,37.5125186],[32.1567957,37.4937149],[32.1619485,37.485129],[32.2078077,37.4556843],[32.2322831,37.4783823],[32.2720422,37.5222344],[32.312958,37.5413698],[32.3349067,37.5445359],[32.3791879,37.542541],[32.3902582,37.537753],[32.3993157,37.5297724],[32.4049233,37.5090955],[32.4130361,37.5043924],[32.4301977,37.5009268],[32.4401827,37.5034023],[32.4501677,37.510333],[32.4872993,37.5417609],[32.4964789,37.5535373],[32.5163181,37.5840563],[32.5275511,37.6077906],[32.5445386,37.6089802],[32.5506656,37.6126649],[32.558475,37.6220696],[32.5885692,37.621239],[32.596116,37.6236802],[32.599497,37.6266392],[32.6008794,37.6301307],[32.6001695,37.6366989],[32.6144301,37.6551802],[32.6072572,37.672189],[32.6169094,37.6991834],[32.6114452,37.7286327],[32.606705,37.7278244],[32.599521,37.7350316],[32.5846186,37.742668],[32.5841389,37.7409641],[32.5795159,37.7417393],[32.5800738,37.7434467],[32.5730343,37.7468148],[32.5691029,37.7475554],[32.5640384,37.7457402],[32.5606013,37.7467299],[32.5457828,37.7439875],[32.5253241,37.7894374],[32.5153669,37.8329661],[32.5007879,37.8626149],[32.500712,37.8716021],[32.4942969,37.8725558]]]}},{"type":"Feature","properties":{"code":"42-23","provinceCode":"42","name":"Sarayönü"},"geometry":{"type":"Polygon","coordinates":[[[32.3557006,38.8221742],[32.3517393,38.8107126],[32.3503494,38.7634031],[32.3406198,38.7222073],[32.3313536,38.6968999],[32.3246502,38.6622216],[32.3305008,38.6241417],[32.3417144,38.5715582],[32.3441521,38.5128327],[32.3417144,38.5002424],[32.3295257,38.467421],[32.3251378,38.4490956],[32.3246502,38.4361123],[32.3397642,38.3963842],[32.3446397,38.3742186],[32.3409731,38.3117289],[32.3328014,38.3014913],[32.3283052,38.2991657],[32.3230938,38.2905845],[32.3136227,38.2531509],[32.3168495,38.2284449],[32.3148993,38.2000979],[32.3212374,38.1721232],[32.3227,38.1548731],[32.3187997,38.1403032],[32.3178246,38.1272646],[32.3412268,38.1284151],[32.3734049,38.1276481],[32.3870563,38.126114],[32.4065581,38.1207444],[32.4343331,38.1206485],[32.4513972,38.1254428],[32.4641954,38.1321543],[32.467852,38.1412619],[32.4684614,38.1556399],[32.4776029,38.1958832],[32.4995425,38.2270086],[32.5379369,38.2643415],[32.5702369,38.3040465],[32.5818194,38.3157989],[32.5924035,38.3226927],[32.6063824,38.3291159],[32.6009905,38.3416473],[32.5997923,38.3513577],[32.6023884,38.3712442],[32.6143704,38.410062],[32.6275173,38.4308189],[32.630546,38.4504229],[32.6470712,38.495841],[32.6463223,38.5110781],[32.6415794,38.5261168],[32.6345899,38.5350994],[32.6191133,38.5499379],[32.61462,38.5600887],[32.6121238,38.5776541],[32.6248546,38.639879],[32.6253539,38.654111],[32.6196125,38.6747716],[32.610626,38.689776],[32.5831674,38.7184121],[32.556208,38.7402223],[32.5299974,38.7554077],[32.4995126,38.7698874],[32.4783855,38.7776895],[32.4509575,38.784624],[32.4116687,38.7883799],[32.390171,38.7935801],[32.3749744,38.7996465],[32.361631,38.8117777],[32.3557006,38.8221742]]]}},{"type":"Feature","properties":{"code":"42-24","provinceCode":"42","name":"Selçuklu"},"geometry":{"type":"Polygon","coordinates":[[[33.0236704,38.154098],[32.9616057,38.1479759],[32.8906746,38.1376012],[32.8521816,38.1352199],[32.8413689,38.1370909],[32.8251499,38.1442343],[32.8117422,38.1603896],[32.805693,38.1783223],[32.797543,38.1940917],[32.7890956,38.2073684],[32.7748406,38.2198132],[32.699342,38.2699854],[32.6461226,38.2971509],[32.6333418,38.3054569],[32.6063824,38.3291159],[32.5924035,38.3226927],[32.5818194,38.3157989],[32.5702369,38.3040465],[32.5379369,38.2643415],[32.4995425,38.2270086],[32.4776029,38.1958832],[32.4684614,38.1556399],[32.467852,38.1412619],[32.4641954,38.1321543],[32.4513972,38.1254428],[32.4343331,38.1206485],[32.4065581,38.1207444],[32.3870563,38.126114],[32.3734049,38.1276481],[32.3412268,38.1284151],[32.3178246,38.1272646],[32.3134366,38.1180594],[32.3070985,38.1103875],[32.29686,38.1046331],[32.2822336,38.1027149],[32.270045,38.1030985],[32.2412797,38.1130728],[32.2266526,38.108681],[32.2091789,38.1069623],[32.1898331,38.1079444],[32.1695511,38.1167826],[32.1614383,38.1226742],[32.1555098,38.1248834],[32.1498932,38.1246379],[32.1414684,38.1207104],[32.1353594,38.1124212],[32.1275587,38.104319],[32.1147654,38.0969527],[32.0913632,38.0895856],[32.0698331,38.0787791],[32.1020506,38.0330168],[32.1055537,38.0363378],[32.1142601,38.0340393],[32.1185732,38.036042],[32.1227245,38.0327706],[32.1260619,38.0336083],[32.1258151,38.0302279],[32.1288514,38.0266954],[32.1256864,38.0185225],[32.1225643,38.0167052],[32.1218777,38.0121998],[32.1232831,38.0117856],[32.1218455,38.0088016],[32.1189272,38.0101711],[32.113713,38.009199],[32.1131605,38.00605],[32.1091533,38.0048284],[32.1063208,38.0013369],[32.1042394,37.9904808],[32.1003341,37.9874368],[32.1048092,37.9790079],[32.0920085,37.9621493],[32.0857537,37.9641794],[32.0720422,37.9633166],[32.0710591,37.9496118],[32.0845904,37.9328395],[32.1082343,37.9253796],[32.1470508,37.9232252],[32.1608419,37.9193179],[32.1838947,37.9235146],[32.2004454,37.9281772],[32.2107306,37.9264671],[32.2156061,37.9145442],[32.2429087,37.8872298],[32.2541223,37.8822274],[32.2843502,37.8733763],[32.2989766,37.874146],[32.3270593,37.8832279],[32.3428003,37.8861866],[32.3510401,37.8826302],[32.3762743,37.8791752],[32.3800938,37.8765499],[32.3941271,37.8772105],[32.404577,37.8796155],[32.4105274,37.8795337],[32.4188706,37.8823452],[32.4280232,37.8826953],[32.4736913,37.8766754],[32.4778614,37.8744404],[32.4773025,37.8702485],[32.4918727,37.8706795],[32.4942969,37.8725558],[32.4933633,37.8753722],[32.4973009,37.8844138],[32.5203222,37.9176606],[32.5521745,37.9494421],[32.6366284,37.9624083],[32.6404816,37.9726579],[32.6485497,37.9730808],[32.6478201,37.9746201],[32.6568967,37.9800326],[32.655394,37.9852055],[32.6723892,37.9925137],[32.6864654,37.9956082],[32.6897699,37.9934607],[32.6955634,37.9952362],[32.6945549,37.9970456],[32.6991898,37.9973838],[32.6998121,37.9948304],[32.7062494,37.9955575],[32.7069897,37.9936129],[32.7154976,37.9950418],[32.7155405,37.9960733],[32.7269951,37.9939006],[32.7222395,38.0029697],[32.7232729,38.0054926],[32.7215329,38.0108997],[32.7364451,38.01204],[32.7357295,38.0148715],[32.7330626,38.0142694],[32.7322983,38.0163449],[32.7342822,38.0167933],[32.7332903,38.020611],[32.735388,38.0210082],[32.7345587,38.0240187],[32.7321031,38.0237497],[32.7311437,38.0327292],[32.7295663,38.0326523],[32.73129,38.0352781],[32.7304607,38.04035],[32.7415025,38.0443074],[32.7403317,38.0458186],[32.7386079,38.0453704],[32.7376972,38.0476627],[32.736006,38.0470864],[32.7345424,38.0488537],[32.7309973,38.0475219],[32.7255143,38.0511452],[32.740478,38.0652435],[32.7629973,38.0240686],[32.7908736,38.0204086],[32.8280422,38.0197431],[32.8559186,38.0250668],[32.8833726,38.035713],[32.9091372,38.0483534],[32.9636228,38.0832693],[32.9983688,38.1086802],[33.0236704,38.1324983],[33.0264817,38.143384],[33.0236704,38.154098]]]}},{"type":"Feature","properties":{"code":"42-25","provinceCode":"42","name":"Seydişehir"},"geometry":{"type":"Polygon","coordinates":[[[31.6885553,37.5181432],[31.6894219,37.511009],[31.6929908,37.5078095],[31.6985544,37.4945878],[31.7084665,37.4888111],[31.7120905,37.4806132],[31.7077627,37.4691097],[31.7033327,37.4646768],[31.7009684,37.4435612],[31.7033327,37.4355826],[31.7220674,37.4110572],[31.7273231,37.3726498],[31.7346049,37.372887],[31.7398025,37.3696161],[31.7689792,37.3699984],[31.7699892,37.3640309],[31.7663157,37.3581912],[31.7733433,37.3519703],[31.7699892,37.3458758],[31.7718675,37.3368055],[31.7829264,37.3289863],[31.8142437,37.3111855],[31.842045,37.3016516],[31.8419516,37.2904378],[31.8630416,37.2816685],[31.8894057,37.2522047],[31.9104579,37.2479046],[31.9260479,37.2353798],[31.938593,37.2221899],[31.9471585,37.2261122],[32.0019936,37.2299355],[32.0107745,37.2377948],[32.0130292,37.2473124],[32.0206618,37.2511348],[32.0179796,37.2641829],[32.0128727,37.268879],[32.0119929,37.2718331],[31.9946764,37.2836873],[31.9855571,37.2940278],[31.9819428,37.3015039],[31.9959281,37.3204856],[32.1176435,37.3498829],[32.1076661,37.3670226],[32.1315207,37.3746449],[32.1589482,37.3793582],[32.1592916,37.4079622],[32.1814322,37.4299426],[32.2078077,37.4556843],[32.1619485,37.485129],[32.1567957,37.4937149],[32.1542194,37.5125186],[32.1606603,37.5345864],[32.1591145,37.5480691],[32.0887281,37.6305787],[32.0875459,37.6773767],[32.0816349,37.6872005],[32.0544445,37.7017],[32.0390759,37.7054413],[32.00893,37.7068443],[31.9722819,37.7054413],[31.9651888,37.6886038],[31.9551401,37.6736339],[31.9391626,37.6642471],[31.917069,37.6596953],[31.8866531,37.6386397],[31.8795777,37.631964],[31.8838115,37.6202235],[31.8771153,37.5949925],[31.857018,37.5828143],[31.8185967,37.5701657],[31.7719,37.5654805],[31.7240211,37.5636063],[31.7086526,37.5575149],[31.6974937,37.5496974],[31.6950574,37.5411125],[31.6854596,37.5247743],[31.6885553,37.5181432]]]}},{"type":"Feature","properties":{"code":"42-26","provinceCode":"42","name":"Taşkent"},"geometry":{"type":"Polygon","coordinates":[[[32.4371699,36.7769213],[32.4697526,36.7531936],[32.48669,36.7562308],[32.5083893,36.7514187],[32.5341571,36.7709758],[32.5521753,36.7892866],[32.5533377,36.797975],[32.5444255,36.8044906],[32.5165265,36.8195365],[32.5109079,36.8308577],[32.5143953,36.8457433],[32.5126516,36.8677563],[32.5283448,36.874576],[32.5717433,36.8469837],[32.5853054,36.8465185],[32.5971237,36.8569056],[32.6042922,36.859696],[32.6197917,36.8573707],[32.6292851,36.8474488],[32.6475212,36.8423686],[32.6747663,36.8463054],[32.6936866,36.8466082],[32.7402304,36.8275284],[32.7528815,36.8161752],[32.7829901,36.8344946],[32.7837469,36.8590226],[32.791315,36.8750676],[32.7639789,36.8823985],[32.7493281,36.8924889],[32.7363052,36.9087609],[32.7281659,36.9142926],[32.7086316,36.9191732],[32.6650864,36.917221],[32.6398546,36.9185225],[32.6325292,36.9240535],[32.653807,36.9373987],[32.6544142,36.9426206],[32.6420331,36.9460848],[32.6241803,36.9669351],[32.6060486,36.965975],[32.6004267,36.9601114],[32.5837326,36.9507492],[32.5783253,36.9497546],[32.5751495,36.9461877],[32.5726175,36.9460162],[32.5696135,36.9477311],[32.5648069,36.9471137],[32.5592494,36.9507149],[32.5519243,36.9504448],[32.5542068,36.9524297],[32.5502586,36.9543845],[32.5481558,36.9591169],[32.5412035,36.9641577],[32.534337,36.9663179],[32.5304317,36.9660779],[32.5265694,36.9621003],[32.5206041,36.9594256],[32.5213766,36.9615688],[32.5036955,36.9619974],[32.4847054,36.9652893],[32.4759614,36.9628633],[32.4687195,36.9636434],[32.4649322,36.9616374],[32.4680489,36.9594384],[32.4664664,36.9566136],[32.4699855,36.9548389],[32.4357643,36.9532871],[32.3999614,36.9239861],[32.3931797,36.9202241],[32.3883356,36.9130316],[32.3881972,36.8947707],[32.3917956,36.8908966],[32.4204189,36.8856317],[32.4483156,36.8614124],[32.4591283,36.8550104],[32.4645346,36.846012],[32.4651833,36.8313007],[32.460642,36.8176254],[32.4498294,36.7930383],[32.4371699,36.7769213]]]}},{"type":"Feature","properties":{"code":"42-27","provinceCode":"42","name":"Tuzlukçu"},"geometry":{"type":"Polygon","coordinates":[[[31.4808599,38.5682699],[31.5462985,38.5168268],[31.5640244,38.5009385],[31.5640244,38.4933715],[31.5582232,38.4873172],[31.5595123,38.4683944],[31.5475876,38.4625905],[31.5430756,38.4572908],[31.5430756,38.4492143],[31.571437,38.4115963],[31.5807834,38.4065454],[31.603666,38.4022519],[31.61269,38.397453],[31.6152684,38.3840647],[31.6210696,38.3792646],[31.6297714,38.3762327],[31.6561991,38.3726954],[31.6745696,38.3666311],[31.6948738,38.3562699],[31.7090545,38.3454018],[31.7187232,38.3320039],[31.7693226,38.3560172],[31.7938165,38.370674],[31.809931,38.3863384],[31.8189551,38.4007365],[31.819922,38.4078082],[31.8183105,38.4176569],[31.8110546,38.4375274],[31.8068848,38.4603868],[31.8092014,38.4814256],[31.8124193,38.4887073],[31.8215159,38.4955713],[31.8194149,38.5044882],[31.8111848,38.5146849],[31.7972071,38.5146467],[31.7800128,38.5271095],[31.7466543,38.5789218],[31.7156125,38.6390208],[31.7040297,38.646982],[31.689667,38.6513241],[31.6734511,38.653495],[31.6336063,38.6477057],[31.5778072,38.6421726],[31.5555694,38.6163251],[31.5333325,38.6047133],[31.4808599,38.5682699]]]}},{"type":"Feature","properties":{"code":"42-28","provinceCode":"42","name":"Yalıhüyük"},"geometry":{"type":"Polygon","coordinates":[[[32.0019936,37.2299355],[32.0120787,37.2249978],[32.0176363,37.2245706],[32.0220566,37.2268259],[32.0366263,37.2400149],[32.0424843,37.242731],[32.0419907,37.2476675],[32.0473766,37.2499392],[32.049458,37.25245],[32.0474977,37.2581997],[32.0536208,37.2593841],[32.0544362,37.2620824],[32.0477843,37.2667444],[32.0524406,37.2694766],[32.0632124,37.2699718],[32.0737588,37.2794995],[32.0778442,37.278479],[32.0799494,37.2833325],[32.081784,37.2828886],[32.0817089,37.2813605],[32.0872986,37.2814544],[32.0900345,37.2761701],[32.0969117,37.274676],[32.0966649,37.273404],[32.0974481,37.2744285],[32.1018262,37.2723944],[32.1059024,37.272388],[32.1094322,37.2696218],[32.1125328,37.2699803],[32.1117711,37.2715769],[32.11411,37.2714659],[32.1236372,37.2819837],[32.1232939,37.2850739],[32.1197748,37.2872847],[32.1218777,37.288437],[32.1204936,37.2899308],[32.1217382,37.2929011],[32.134059,37.2967567],[32.1317911,37.3005143],[32.135632,37.3009068],[32.1352029,37.3033135],[32.1372627,37.3042864],[32.1338135,37.3067868],[32.1378046,37.311877],[32.1356481,37.3155803],[32.1367264,37.3169327],[32.1348542,37.3163525],[32.1332663,37.31878],[32.1343231,37.3202817],[32.1300048,37.3222313],[32.1302354,37.3249145],[32.1272528,37.3258104],[32.1275479,37.3297561],[32.1201217,37.3244734],[32.1206653,37.3268811],[32.1153867,37.3265142],[32.1133912,37.3287494],[32.1065891,37.3274185],[32.1015894,37.3339107],[32.1005165,37.3317012],[32.099036,37.333723],[32.0947122,37.331505],[32.0985746,37.3255672],[32.1053123,37.3210966],[32.0468999,37.3029928],[31.9959281,37.3204856],[31.9819428,37.3015039],[31.9855571,37.2940278],[31.9946764,37.2836873],[32.0119929,37.2718331],[32.0128727,37.268879],[32.0179796,37.2641829],[32.0206618,37.2511348],[32.0130292,37.2473124],[32.0107745,37.2377948],[32.0019936,37.2299355]]]}},{"type":"Feature","properties":{"code":"42-29","provinceCode":"42","name":"Yunak"},"geometry":{"type":"Polygon","coordinates":[[[31.8215159,38.4955713],[31.8444131,38.5031834],[31.8837946,38.5086219],[31.9291991,38.5238473],[31.9917462,38.5575492],[32.0468803,38.5955808],[32.0876517,38.61296],[32.1177669,38.621286],[32.1214734,38.6422778],[32.116377,38.6563895],[32.1085007,38.6676045],[32.0788488,38.6864128],[32.074679,38.6940071],[32.074679,38.7055778],[32.080702,38.7175081],[32.0941381,38.7326892],[32.1534419,38.7872423],[32.1965299,38.8229863],[32.2076494,38.8284005],[32.2275718,38.8341752],[32.245641,38.8341752],[32.3160643,38.8287615],[32.3557006,38.8221742],[32.3760863,38.8519114],[32.3820167,38.8695169],[32.3964721,38.892888],[32.4316837,38.9223072],[32.4487336,38.9410485],[32.4406965,38.9546462],[32.4381637,38.9541361],[32.434473,38.9561385],[32.4195384,38.9672839],[32.3973941,38.9728226],[32.4000548,38.9756918],[32.382717,38.998375],[32.3801421,39.0009764],[32.3729323,38.9997091],[32.3687266,39.0047117],[32.3687266,39.0097139],[32.3666667,39.0096472],[32.3660659,39.0141822],[32.3678683,39.0143156],[32.3669242,39.0267187],[32.3295879,39.0216511],[32.3266696,39.0221178],[32.3228071,39.0257186],[32.3200054,39.0314949],[32.3101043,39.01785],[32.3114776,39.0179167],[32.3122501,39.014649],[32.3104476,39.0121148],[32.3062419,39.0145157],[32.3003196,39.0108477],[32.2937965,39.0102474],[32.2937965,39.0072462],[32.2906207,39.0071795],[32.287445,39.0044449],[32.2738837,38.9989754],[32.2685622,38.9947062],[32.252941,38.9939057],[32.2548293,38.9889023],[32.2520827,38.9874346],[32.2453879,38.9869676],[32.2393798,38.9883019],[32.236719,38.9871678],[32.2376632,38.9897029],[32.2320842,38.9906369],[32.228136,38.9853664],[32.2266769,38.9869676],[32.2229003,38.9868342],[32.223587,38.9901032],[32.2199821,38.9902366],[32.2162913,39.0108477],[32.2101974,39.010781],[32.2102832,39.0126483],[32.1813583,39.0163162],[32.1819591,39.014449],[32.1772384,39.0141155],[32.1774959,39.0123816],[32.1697711,39.012715],[32.1710586,39.0163829],[32.1694278,39.0163162],[32.1691703,39.0225179],[32.1743201,39.0222512],[32.1749209,39.028319],[32.1734618,39.0303193],[32.167797,39.0309193],[32.144966,39.0284523],[32.1478843,39.0133152],[32.130289,39.0102474],[32.1296882,39.0141155],[32.1263408,39.0173832],[32.1255683,39.0239182],[32.1184444,39.0230514],[32.12471,39.0025106],[32.1290015,39.0023772],[32.1289157,38.9915041],[32.1352672,38.9907703],[32.1318339,38.9550705],[32.1097306,38.9555366],[32.1092603,38.9472361],[32.1089601,38.9447243],[32.1143889,38.946877],[32.1185517,38.9428717],[32.1191311,38.9411193],[32.1167707,38.9402515],[32.1195066,38.9369051],[32.1114492,38.9335753],[32.122221,38.9181257],[32.1277141,38.9148534],[32.1290445,38.9109381],[32.1108913,38.9137431],[32.1028934,38.9082025],[32.0947766,38.9077156],[32.0738554,38.9102035],[32.0670318,38.9145612],[32.0458604,38.9188012],[32.0399952,38.9230255],[32.0382142,38.9218569],[32.0094823,38.9256297],[32.008624,38.9242275],[31.9997406,38.9247617],[31.9991827,38.9203211],[31.9899398,38.9226833],[31.9885182,38.9249661],[31.9810937,38.9217151],[31.9750643,38.921331],[31.9725,38.9277163],[31.965301,38.9295608],[31.9618356,38.9290935],[31.9491675,38.9364524],[31.9302177,38.9259636],[31.9188023,38.9393836],[31.9027519,38.9415866],[31.8804359,38.9489964],[31.8706942,38.9555878],[31.8614888,38.9590417],[31.8448591,38.952701],[31.8485215,38.9377449],[31.8540644,38.9366631],[31.8554377,38.9271154],[31.853292,38.916573],[31.8655443,38.8941726],[31.8823242,38.8804434],[31.8526697,38.8792741],[31.8317485,38.8828153],[31.8331432,38.8797418],[31.8228972,38.8762881],[31.823498,38.8729262],[31.821025,38.872187],[31.8173906,38.8620667],[31.8155479,38.8622004],[31.8147433,38.8558593],[31.8062889,38.8537957],[31.801241,38.8561894],[31.7920089,38.8551158],[31.7955923,38.8713934],[31.7887151,38.8774282],[31.7844504,38.885517],[31.7837691,38.890774],[31.7756259,38.8935965],[31.7596936,38.9123406],[31.7552089,38.9270653],[31.7434314,38.9370177],[31.7359239,38.9341469],[31.7371773,38.9354134],[31.7347169,38.9404351],[31.7220435,38.9393565],[31.7114729,38.9364378],[31.7058597,38.9329848],[31.7058188,38.9309213],[31.6987672,38.9327428],[31.6902539,38.9296714],[31.6881323,38.9310131],[31.6860294,38.9283798],[31.6811746,38.9266647],[31.6801742,38.9280126],[31.6782591,38.9271154],[31.6739804,38.9327662],[31.6734767,38.9380567],[31.666503,38.9431554],[31.6657734,38.9483205],[31.6661382,38.9507486],[31.6702393,38.9500581],[31.6673478,38.9526572],[31.6726828,38.956737],[31.6713417,38.9577194],[31.6748661,38.9631045],[31.673482,38.9676988],[31.6769206,38.9747618],[31.6778648,38.9742342],[31.6799998,38.9768094],[31.6822851,38.9762673],[31.686877,38.9795701],[31.6737556,38.9838068],[31.6627479,38.9696278],[31.6582954,38.9700616],[31.6582739,38.9727725],[31.6566968,38.9727975],[31.6566539,38.9700616],[31.6474164,38.9701199],[31.6473305,38.9686268],[31.639713,38.9683682],[31.6394341,38.9702451],[31.637975,38.9694193],[31.6287482,38.971955],[31.626007,38.9743406],[31.6243011,38.9737817],[31.6235447,38.9690105],[31.6077304,38.9736566],[31.6098762,38.9709708],[31.6071403,38.9687102],[31.6081488,38.9659491],[31.6067111,38.964823],[31.6093397,38.9616863],[31.6083634,38.9600679],[31.6170216,38.9524757],[31.6171825,38.948963],[31.6201866,38.9477448],[31.6180944,38.9455837],[31.6202188,38.9416617],[31.6191459,38.934076],[31.6199613,38.9242692],[31.6219568,38.9232676],[31.6210449,38.9201875],[31.6152674,38.9105207],[31.6095704,38.912278],[31.6088033,38.9046432],[31.6022372,38.9054948],[31.5994155,38.9041756],[31.6000914,38.9030485],[31.5973556,38.9014203],[31.5986431,38.897187],[31.5868735,38.887609],[31.570555,38.8640967],[31.5643644,38.8586832],[31.5820885,38.8611812],[31.5869808,38.8544139],[31.5877748,38.8558844],[31.5997803,38.8568619],[31.6034067,38.8606883],[31.6162062,38.8500358],[31.6208578,38.8364616],[31.6185833,38.8191668],[31.6096637,38.7919562],[31.5911841,38.7760504],[31.5786664,38.7613717],[31.5720333,38.7458374],[31.5591939,38.7346891],[31.5436231,38.7273315],[31.5405787,38.721063],[31.5407828,38.6876203],[31.5479201,38.6801014],[31.5692906,38.6706843],[31.5748071,38.6624765],[31.5791069,38.6502499],[31.5778072,38.6421726],[31.6336063,38.6477057],[31.6734511,38.653495],[31.689667,38.6513241],[31.7040297,38.646982],[31.7156125,38.6390208],[31.7466543,38.5789218],[31.7800128,38.5271095],[31.7972071,38.5146467],[31.8111848,38.5146849],[31.8194149,38.5044882],[31.8215159,38.4955713]]]}}]}