{"type":"FeatureCollection","features":[{"type":"Feature","properties":{"code":"26-01","provinceCode":"26","name":"Alpu"},"geometry":{"type":"Polygon","coordinates":[[[31.129207,39.647829],[31.118927,39.6677113],[31.1121284,39.6948002],[31.114131,39.7067502],[31.1309375,39.7297186],[31.1412803,39.754541],[31.1428473,39.7714055],[31.1368924,39.8291953],[31.1497425,39.8542225],[31.1588315,39.8655299],[31.1622791,39.8903033],[31.1632193,39.9227598],[31.1619657,39.9374203],[31.1588236,39.9430887],[31.1566376,39.947032],[31.1397132,39.9600057],[31.1227887,39.978501],[31.1158936,39.9938698],[31.1103659,40.0221971],[31.1084938,40.0448161],[31.1103179,40.0570012],[31.1054923,40.0580709],[31.1010141,40.0540292],[31.0974025,40.0536689],[31.092596,40.0590559],[31.0906218,40.0591216],[31.0810946,40.0514351],[31.076374,40.0505153],[31.0539721,40.0540631],[31.0485648,40.0537346],[31.0377501,40.0508438],[31.0191249,40.043025],[31.005907,40.0317221],[31.0004996,40.0302762],[30.9867667,40.0297505],[30.9831618,40.0313278],[30.9715747,40.0323136],[30.9684848,40.0309992],[30.9676265,40.0323136],[30.9548377,40.0342194],[30.9381007,40.0294218],[30.9289168,40.0361909],[30.911579,40.0378338],[30.9027385,40.0454561],[30.8996486,40.0520265],[30.8970736,40.0526178],[30.8888339,40.0475587],[30.8849715,40.0472959],[30.8707501,40.0602268],[30.8453753,40.0470785],[30.8383295,40.0412215],[30.8188995,40.0114529],[30.8376935,40.0061609],[30.9144176,40.0057768],[30.9267035,40.000207],[30.9322196,39.991179],[30.9312167,39.9665862],[30.9367328,39.9517878],[30.9417475,39.9437146],[30.9608031,39.9312185],[30.9673222,39.9231428],[30.9649094,39.89852],[30.9720861,39.8727448],[30.9181786,39.8708205],[30.8993737,39.8688961],[30.8790644,39.8637],[30.8667785,39.8558089],[30.8582536,39.8471469],[30.8547433,39.8359809],[30.864544,39.8079404],[30.8641829,39.7888112],[30.8671917,39.7739744],[30.8606726,39.7585561],[30.8498912,39.7454479],[30.8486375,39.7360007],[30.8508941,39.7279021],[30.8774717,39.6987778],[30.8789761,39.6893243],[30.8744629,39.6729222],[30.8754659,39.6603767],[30.8852444,39.6379823],[30.901542,39.6433885],[30.9145801,39.6433885],[30.9346387,39.639527],[30.9539451,39.6406855],[30.9923071,39.6516901],[31.0035901,39.6524623],[31.0344302,39.6489874],[31.0585005,39.6443539],[31.097364,39.6443539],[31.129207,39.647829]]]}},{"type":"Feature","properties":{"code":"26-02","provinceCode":"26","name":"Beylikova"},"geometry":{"type":"Polygon","coordinates":[[[31.1712997,39.5888785],[31.1968518,39.5589069],[31.225102,39.5331767],[31.2383437,39.5280701],[31.2513402,39.5261787],[31.2785593,39.5276918],[31.2927819,39.5309072],[31.3288288,39.5562461],[31.366347,39.5961268],[31.3713038,39.6199635],[31.3984432,39.659952],[31.4022369,39.6724824],[31.4050913,39.7045012],[31.3952826,39.7307196],[31.3683088,39.7688034],[31.3569368,39.7808083],[31.3670827,39.8046056],[31.3611975,39.8134591],[31.3315262,39.8272079],[31.2981767,39.8251364],[31.2881228,39.8300327],[31.277088,39.8388829],[31.2616394,39.8556386],[31.2470489,39.875272],[31.236995,39.9251241],[31.2271864,39.9416708],[31.2195846,39.9480628],[31.211002,39.9521984],[31.1911395,39.9516345],[31.1734838,39.9490027],[31.1588236,39.9430887],[31.1619657,39.9374203],[31.1632193,39.9227598],[31.1622791,39.8903033],[31.1588315,39.8655299],[31.1497425,39.8542225],[31.1368924,39.8291953],[31.1428473,39.7714055],[31.1412803,39.754541],[31.1309375,39.7297186],[31.114131,39.7067502],[31.1121284,39.6948002],[31.118927,39.6677113],[31.129207,39.647829],[31.1354753,39.6333481],[31.1712997,39.5888785]]]}},{"type":"Feature","properties":{"code":"26-03","provinceCode":"26","name":"Çifteler"},"geometry":{"type":"Polygon","coordinates":[[[30.8338699,39.3513044],[30.8335453,39.3387558],[30.8251767,39.3165626],[30.8731378,39.2747231],[30.8884274,39.2561174],[30.9080923,39.2252035],[30.9090449,39.2146078],[30.9272868,39.2181737],[30.9392557,39.2170491],[30.9532121,39.2136084],[30.9923546,39.1965092],[31.0248695,39.1847264],[31.0348098,39.1917803],[31.0545439,39.2019731],[31.0895833,39.1983879],[31.1030576,39.2043989],[31.1055227,39.2189081],[31.0749276,39.2331414],[31.0708129,39.238773],[31.0719467,39.2422241],[31.1104413,39.2598934],[31.1211192,39.2612629],[31.1650543,39.2504284],[31.2371507,39.2440323],[31.248611,39.2358759],[31.2584931,39.2356579],[31.2821217,39.2400165],[31.2933275,39.2452367],[31.3039392,39.2610881],[31.3002064,39.2726481],[31.2971846,39.2985134],[31.3000287,39.3089669],[31.313538,39.3394931],[31.3086941,39.35643],[31.3049514,39.3556376],[31.2914965,39.368357],[31.1968705,39.4089797],[31.1871496,39.4156854],[31.1809005,39.4239995],[31.1798589,39.4588545],[31.1774287,39.4693076],[31.1697908,39.4794911],[31.156251,39.4880656],[31.1402809,39.4781512],[31.1135484,39.4658234],[31.0847328,39.4575142],[31.0548757,39.4513487],[31.0141867,39.4489789],[30.9930784,39.4455473],[30.9547155,39.432608],[30.9182472,39.4120076],[30.8338699,39.3513044]]]}},{"type":"Feature","properties":{"code":"26-04","provinceCode":"26","name":"Günyüzü"},"geometry":{"type":"Polygon","coordinates":[[[31.8017292,39.1313918],[31.809926,39.1307593],[31.8145662,39.1327484],[31.8166691,39.1316269],[31.8168756,39.1329231],[31.8308848,39.1356236],[31.839205,39.1341715],[31.8435287,39.1422433],[31.8195819,39.1595492],[31.8284011,39.1644738],[31.8274569,39.1765345],[31.829946,39.1782811],[31.8338728,39.1783643],[31.8382072,39.1763848],[31.8394518,39.1737233],[31.8423915,39.1731245],[31.8481421,39.1748877],[31.8487215,39.1806597],[31.8516826,39.1824227],[31.8557381,39.1817574],[31.8647504,39.1766842],[31.8735695,39.1857159],[31.8764233,39.1856494],[31.8835473,39.1818406],[31.8871307,39.182639],[31.8929243,39.193466],[31.9033098,39.1983883],[31.9136953,39.207068],[31.9215488,39.2080656],[31.9254541,39.2118564],[31.9283938,39.2208337],[31.9251323,39.2251723],[31.9256043,39.2279316],[31.9308185,39.2302919],[31.9358825,39.2294608],[31.9387579,39.2315551],[31.9437789,39.2304913],[31.9533919,39.2326521],[31.9594859,39.2400978],[31.9610309,39.244618],[31.969099,39.2467118],[31.978197,39.2367739],[31.9822311,39.2297268],[31.9942474,39.2225459],[32.0042894,39.2198198],[32.0087527,39.2261365],[32.0011137,39.2282641],[31.9889257,39.2354444],[31.9773386,39.2526608],[31.9490146,39.2689092],[31.9475126,39.2757199],[31.954422,39.2797063],[31.9600868,39.2876785],[31.9644641,39.2904685],[31.9684982,39.2894721],[31.9695711,39.2946202],[31.9748926,39.2976092],[31.9730901,39.2992033],[31.9790124,39.306808],[31.9812011,39.3073393],[31.9824886,39.3122204],[31.9867372,39.3160719],[32.0016717,39.3259654],[32.0060062,39.3232764],[32.0093536,39.3231768],[32.0115423,39.3251687],[32.0037317,39.3336668],[32.0015645,39.3432923],[31.9956636,39.3437237],[31.9882178,39.34837],[31.9837975,39.3471919],[31.97927,39.3489176],[31.9725752,39.3560855],[31.9785404,39.3661724],[31.9869733,39.3684782],[31.9921446,39.3753787],[31.9840121,39.3840531],[31.9708156,39.3944179],[31.9715237,39.3991437],[31.975944,39.4020288],[31.9747209,39.4048143],[31.977489,39.4133524],[31.9913935,39.4235968],[31.9931102,39.4278234],[31.991179,39.4324144],[31.9962215,39.4416949],[31.9927668,39.4449593],[31.9930887,39.4474614],[31.9976592,39.4552819],[31.992917,39.4646255],[31.9934535,39.4703073],[31.9884538,39.4747464],[31.9862222,39.4792018],[31.9874882,39.4834251],[31.9908142,39.4851805],[31.993432,39.4933114],[31.9974232,39.4944374],[31.9979596,39.4970205],[31.9910931,39.5031301],[31.9726526,39.5074488],[31.9690008,39.509822],[31.9311486,39.5011403],[31.8973346,39.4977517],[31.7568088,39.4747051],[31.7471709,39.4720656],[31.7391736,39.4676068],[31.7143485,39.4313369],[31.708474,39.4090573],[31.6959803,39.3937587],[31.6906564,39.3840325],[31.7031099,39.3679884],[31.7155883,39.3648844],[31.7143287,39.3507258],[31.7226791,39.339586],[31.7268443,39.330458],[31.7278857,39.3186435],[31.7233733,39.3070956],[31.7271915,39.2592723],[31.7310096,39.2482522],[31.7466295,39.2184087],[31.7466295,39.1920497],[31.7497534,39.1820953],[31.7573898,39.1702558],[31.7556543,39.1454513],[31.7593508,39.1401585],[31.7674548,39.1358577],[31.7953985,39.1367173],[31.8028657,39.1327541],[31.8017292,39.1313918]]]}},{"type":"Feature","properties":{"code":"26-05","provinceCode":"26","name":"Han"},"geometry":{"type":"Polygon","coordinates":[[[30.7420138,39.0523158],[30.7505647,39.0632341],[30.7690532,39.0661173],[30.7845816,39.071423],[30.7853146,39.0923915],[30.7971496,39.1160589],[30.8197438,39.1231145],[30.8544044,39.1223951],[30.8915777,39.1165996],[30.9072753,39.1167487],[30.9180198,39.1202926],[30.9210956,39.131017],[30.9207548,39.1387157],[30.9049104,39.149626],[30.8844093,39.1676825],[30.8779009,39.1791603],[30.8773099,39.1943807],[30.8811773,39.2042889],[30.8914744,39.2133812],[30.9090449,39.2146078],[30.9080923,39.2252035],[30.8884274,39.2561174],[30.8731378,39.2747231],[30.8251767,39.3165626],[30.8123172,39.3152609],[30.7965787,39.3186635],[30.7833329,39.3168676],[30.7739003,39.3110792],[30.7708278,39.3046263],[30.7638385,39.3005086],[30.7536423,39.2843319],[30.7452737,39.2752234],[30.7285243,39.2428918],[30.7124964,39.224209],[30.6962578,39.195678],[30.7065376,39.1750514],[30.7043832,39.1633427],[30.6927002,39.1416999],[30.6875077,39.126848],[30.6923756,39.089075],[30.6933577,39.0554082],[30.7064864,39.0497797],[30.7348286,39.0476168],[30.7420138,39.0523158]]]}},{"type":"Feature","properties":{"code":"26-06","provinceCode":"26","name":"İnönü"},"geometry":{"type":"Polygon","coordinates":[[[30.2206832,39.8625755],[30.2108347,39.8608449],[30.1850409,39.8625708],[30.1554762,39.8583611],[30.1238998,39.8502253],[30.0984579,39.840305],[30.0692184,39.8201888],[30.0486054,39.801616],[30.0162426,39.7801441],[29.9977737,39.7547007],[29.9962051,39.740952],[29.9889163,39.7271922],[29.9883672,39.7160232],[29.9920331,39.7006874],[30.0017675,39.6908819],[30.0149308,39.6833458],[30.0315834,39.6647903],[30.0382473,39.6597535],[30.048821,39.6555909],[30.0603232,39.6554102],[30.092717,39.6684211],[30.1185382,39.6751063],[30.1467068,39.674203],[30.1755795,39.680707],[30.223508,39.6839836],[30.2362853,39.7018594],[30.2613382,39.7199138],[30.2648617,39.7271989],[30.2219181,39.7223188],[30.2153356,39.7540415],[30.2269311,39.7615842],[30.2461628,39.769042],[30.251114,39.7745064],[30.2677833,39.7826073],[30.2770842,39.7832619],[30.2778537,39.8200971],[30.2799616,39.8270184],[30.2754205,39.8326483],[30.2756454,39.8409789],[30.2723646,39.8488123],[30.260063,39.8511483],[30.2344483,39.8604377],[30.2206832,39.8625755]]]}},{"type":"Feature","properties":{"code":"26-07","provinceCode":"26","name":"Mahmudiye"},"geometry":{"type":"Polygon","coordinates":[[[30.7656911,39.6164092],[30.7626996,39.6048861],[30.7638214,39.5965307],[30.7735438,39.5890387],[30.8105634,39.5679993],[30.8497717,39.5392623],[30.859183,39.5310028],[30.8624283,39.523994],[30.8624283,39.5102246],[30.8582095,39.4999584],[30.8397114,39.4706538],[30.8338699,39.4566233],[30.8341944,39.4473516],[30.841334,39.437828],[30.8410095,39.421284],[30.8354925,39.4059898],[30.8290019,39.3671124],[30.8338699,39.3513044],[30.9182472,39.4120076],[30.9547155,39.432608],[30.9930784,39.4455473],[31.0141867,39.4489789],[31.0548757,39.4513487],[31.0847328,39.4575142],[31.1135484,39.4658234],[31.1402809,39.4781512],[31.156251,39.4880656],[31.1396338,39.5058735],[31.1363009,39.5159445],[31.1346344,39.5313697],[31.1530521,39.5697972],[31.1604296,39.5805012],[31.1712997,39.5888785],[31.1354753,39.6333481],[31.129207,39.647829],[31.097364,39.6443539],[31.0585005,39.6443539],[31.0344302,39.6489874],[31.0035901,39.6524623],[30.9923071,39.6516901],[30.9539451,39.6406855],[30.9346387,39.639527],[30.9145801,39.6433885],[30.901542,39.6433885],[30.8852444,39.6379823],[30.8508941,39.6198298],[30.8280774,39.6128765],[30.812433,39.6115122],[30.7911187,39.6123764],[30.7784049,39.6132406],[30.7656911,39.6164092]]]}},{"type":"Feature","properties":{"code":"26-08","provinceCode":"26","name":"Mihalgazi"},"geometry":{"type":"Polygon","coordinates":[[[30.6587105,39.9426498],[30.6680209,39.9601869],[30.6622476,39.9752309],[30.6544536,39.9876176],[30.6348243,40.0064146],[30.632515,40.0137108],[30.6241436,40.0263116],[30.610865,40.0351529],[30.602205,40.0605651],[30.5975864,40.0830967],[30.5805551,40.0906056],[30.5594824,40.1080495],[30.553445,40.1260758],[30.5448988,40.120475],[30.53368,40.1219358],[30.5367853,40.1020285],[30.5181458,40.0842458],[30.5167538,40.0756671],[30.5059187,40.0645201],[30.4851833,40.0362326],[30.4495417,40.0110818],[30.431295,40.0071296],[30.4115905,40.012141],[30.4116051,40.0087443],[30.4145712,40.0076957],[30.4139855,40.0037115],[30.4175843,40.0029702],[30.4109439,40.0000564],[30.4106701,39.996351],[30.4124954,39.9950225],[30.4108526,39.9857229],[30.4131342,39.9861424],[30.4133781,39.9826154],[30.4119521,39.978791],[30.4187256,39.9794739],[30.4235384,39.9817959],[30.4299554,39.9819325],[30.4365507,39.96677],[30.4463545,39.9715513],[30.451702,39.9626714],[30.4625753,39.9598023],[30.4666751,39.9548835],[30.4768354,39.9537904],[30.4800439,39.9591191],[30.4796874,39.9675896],[30.4846784,39.9707317],[30.5108812,39.9655404],[30.5139115,39.9716879],[30.5331626,39.9815227],[30.5379754,39.9812496],[30.5426099,39.9763323],[30.5527702,39.9768787],[30.5590089,39.9823422],[30.5623957,39.9529705],[30.5413621,39.9416283],[30.5333408,39.9183914],[30.5595437,39.924133],[30.5841423,39.9349314],[30.6180099,39.9293274],[30.631557,39.9468213],[30.6417173,39.9466847],[30.6478424,39.9436647],[30.6587105,39.9426498]]]}},{"type":"Feature","properties":{"code":"26-09","provinceCode":"26","name":"Mihalıççık"},"geometry":{"type":"Polygon","coordinates":[[[31.7646519,39.7310222],[31.7663669,39.7456062],[31.7758082,39.7541849],[31.7826747,39.7706135],[31.7882537,39.775825],[31.788082,39.7799807],[31.7899703,39.7818276],[31.7887687,39.7832127],[31.7970943,39.7835425],[31.7986392,39.7853234],[31.8028449,39.7853234],[31.814947,39.7925122],[31.8297958,39.7845319],[31.8394088,39.8013489],[31.8461894,39.8356297],[31.8515967,39.841693],[31.8574332,39.8385296],[31.8583774,39.8358274],[31.859579,39.8370137],[31.8608665,39.8327956],[31.8733977,39.8314114],[31.8800925,39.8321035],[31.8847274,39.8393864],[31.8907785,39.8432416],[31.8953489,39.8504244],[31.8994045,39.8525165],[31.9001079,39.8559234],[31.8954241,39.8564617],[31.8905425,39.859163],[31.8885362,39.8553828],[31.8842018,39.8552016],[31.8837726,39.8589819],[31.8814444,39.8540897],[31.8801784,39.8560581],[31.8823779,39.8588501],[31.8813801,39.8604396],[31.8765843,39.8582489],[31.8763912,39.854658],[31.8732905,39.8552839],[31.8735909,39.8568982],[31.8710804,39.8582077],[31.8691063,39.8566593],[31.868484,39.8526153],[31.8660915,39.8528707],[31.8654799,39.8549215],[31.8629587,39.8538755],[31.8645143,39.849749],[31.8609202,39.8493454],[31.8624651,39.8508362],[31.8602228,39.8531013],[31.8579268,39.8497737],[31.853807,39.8494525],[31.8524122,39.8508692],[31.8506634,39.8494937],[31.8451059,39.8550368],[31.8469512,39.8569888],[31.8453312,39.85773],[31.8480885,39.8591136],[31.847316,39.861049],[31.8517148,39.8595913],[31.8519938,39.8621278],[31.8569183,39.8621937],[31.8562639,39.8651007],[31.8575406,39.8659654],[31.8590855,39.8649607],[31.8595791,39.8681805],[31.8618858,39.8665748],[31.8671751,39.8703874],[31.8686449,39.869004],[31.8725181,39.870865],[31.8725824,39.8734916],[31.8703508,39.8713672],[31.8655443,39.8762829],[31.8618214,39.874208],[31.8608665,39.8770816],[31.8569505,39.8788435],[31.8597937,39.8824414],[31.8551373,39.8840139],[31.8455565,39.8826884],[31.8282294,39.875583],[31.8242061,39.8786871],[31.8213844,39.876464],[31.8172216,39.8782589],[31.8149257,39.876497],[31.8114602,39.8775426],[31.8059671,39.8759947],[31.8008172,39.8806713],[31.7931676,39.8805807],[31.7900777,39.8821368],[31.7811298,39.8944439],[31.7777824,39.8939171],[31.7744993,39.8978846],[31.7703152,39.8993333],[31.7703151,39.902],[31.7662811,39.9051934],[31.7682552,39.9080409],[31.766603,39.9131761],[31.7585134,39.9204668],[31.7553806,39.9210264],[31.7542218,39.9252885],[31.750853,39.9256012],[31.7489647,39.928958],[31.7397379,39.9338942],[31.7378925,39.9409359],[31.7402743,39.9442262],[31.7385363,39.9504279],[31.7411542,39.9528459],[31.7413794,39.9635122],[31.7355644,39.9717348],[31.7330967,39.972886],[31.73226,39.9682403],[31.7207694,39.9656173],[31.7191171,39.9670233],[31.7175185,39.966456],[31.7146968,39.9693915],[31.7047405,39.971891],[31.7030453,39.9760267],[31.6990327,39.9775477],[31.6947412,39.9915556],[31.6990327,39.9980325],[31.7061841,40.0023658],[31.7086543,40.00914],[31.7133295,40.0127713],[31.7142996,40.0178399],[31.7125563,40.0214882],[31.7024097,40.0216106],[31.6873035,40.0130653],[31.6716823,40.0068857],[31.6591511,40.0087265],[31.6569195,40.0122764],[31.6579494,40.0156947],[31.6663855,40.0294414],[31.6691666,40.0416563],[31.6752623,40.0477111],[31.6690935,40.0521317],[31.6595192,40.0481687],[31.6562328,40.041458],[31.6400966,40.0294977],[31.6219005,40.0235825],[31.6130486,40.0222163],[31.5966606,40.0216603],[31.5763815,40.0297093],[31.5563259,40.0355438],[31.5346966,40.0369895],[31.5247154,40.0338743],[31.5115223,40.0206904],[31.5049935,40.0205533],[31.4960728,40.023451],[31.4823398,40.0352809],[31.4734135,40.0385667],[31.4701519,40.0442178],[31.4631138,40.0450062],[31.4589939,40.0397495],[31.4583073,40.0312064],[31.4459476,40.0281832],[31.4383945,40.022005],[31.4231167,40.0201646],[31.4188251,40.023451],[31.4116154,40.0233196],[31.4014873,40.0168779],[31.3961658,40.0288405],[31.3886127,40.0321265],[31.3882694,40.0350181],[31.3994407,40.0436492],[31.4033031,40.0475258],[31.404333,40.0511395],[31.4028739,40.0546872],[31.3918876,40.0617165],[31.3799571,40.0615851],[31.3730907,40.0575122],[31.3478564,40.0508767],[31.3418483,40.0459489],[31.3346385,40.0483143],[31.3255405,40.0554099],[31.2985896,40.0621763],[31.2896632,40.0591545],[31.282196,40.0592859],[31.2771319,40.0595487],[31.2676047,40.0631617],[31.252756,40.0606654],[31.2355899,40.0611253],[31.2085532,40.055607],[31.2025451,40.0470002],[31.1780833,40.0475258],[31.1596297,40.0511395],[31.1502742,40.0640156],[31.1391162,40.0661833],[31.1232375,40.0650009],[31.1204909,40.0657235],[31.1207484,40.0684166],[31.117916,40.0716351],[31.1154269,40.0716351],[31.1054923,40.0580709],[31.1103179,40.0570012],[31.1084938,40.0448161],[31.1103659,40.0221971],[31.1158936,39.9938698],[31.1227887,39.978501],[31.1397132,39.9600057],[31.1566376,39.947032],[31.1588236,39.9430887],[31.1734838,39.9490027],[31.1911395,39.9516345],[31.211002,39.9521984],[31.2195846,39.9480628],[31.2271864,39.9416708],[31.236995,39.9251241],[31.2470489,39.875272],[31.2616394,39.8556386],[31.277088,39.8388829],[31.2881228,39.8300327],[31.2981767,39.8251364],[31.3315262,39.8272079],[31.3611975,39.8134591],[31.3670827,39.8046056],[31.3569368,39.7808083],[31.3683088,39.7688034],[31.3952826,39.7307196],[31.4050913,39.7045012],[31.4022369,39.6724824],[31.3984432,39.659952],[31.3713038,39.6199635],[31.3998401,39.6203517],[31.4182496,39.6321176],[31.4219706,39.6425242],[31.4311765,39.6490237],[31.4473657,39.648062],[31.4647962,39.6349491],[31.4722094,39.6259872],[31.498929,39.6243185],[31.533145,39.6306783],[31.5368254,39.6326012],[31.5399918,39.63757],[31.5742737,39.6480471],[31.6173622,39.6684323],[31.6373418,39.6791784],[31.6484148,39.6871443],[31.6642493,39.6936017],[31.6672437,39.699077],[31.6722601,39.7014537],[31.683269,39.7022024],[31.6871923,39.7004402],[31.6936636,39.7000186],[31.6973338,39.697873],[31.7030885,39.7009303],[31.706196,39.6958695],[31.7157411,39.6961266],[31.7270996,39.7059338],[31.7322099,39.7152648],[31.7433022,39.7247447],[31.7511755,39.7285804],[31.7646519,39.7310222]]]}},{"type":"Feature","properties":{"code":"26-10","provinceCode":"26","name":"Odunpazarı"},"geometry":{"type":"Polygon","coordinates":[[[30.8852444,39.6379823],[30.8754659,39.6603767],[30.8744629,39.6729222],[30.8789761,39.6893243],[30.8774717,39.6987778],[30.8508941,39.7279021],[30.8486375,39.7360007],[30.8498912,39.7454479],[30.8606726,39.7585561],[30.8671917,39.7739744],[30.8641829,39.7888112],[30.864544,39.8079404],[30.8586231,39.8074624],[30.8573615,39.8039237],[30.8548707,39.8028667],[30.8476181,39.8056682],[30.843306,39.801646],[30.83853,39.7999447],[30.8380025,39.8025785],[30.8346348,39.8053125],[30.8163803,39.8104582],[30.8103121,39.8159881],[30.805178,39.8137678],[30.8024138,39.8155244],[30.7982314,39.8140824],[30.7982314,39.8126113],[30.7948951,39.8141463],[30.7900276,39.8114599],[30.7866859,39.8118438],[30.7706588,39.8227986],[30.7655567,39.821275],[30.7631827,39.8220387],[30.7520582,39.8161348],[30.7377965,39.8167523],[30.7337197,39.8133427],[30.7253941,39.810565],[30.7129559,39.8136179],[30.7112372,39.8160004],[30.7064049,39.8137756],[30.6985531,39.8148357],[30.6946383,39.81275],[30.6755446,39.8138967],[30.6738162,39.81193],[30.6677795,39.8121507],[30.6628128,39.8095933],[30.6639966,39.8080449],[30.6604995,39.8055264],[30.6585644,39.8064679],[30.656976,39.8000388],[30.6517904,39.7994704],[30.6509758,39.7881422],[30.6339517,39.7838222],[30.6267363,39.7844837],[30.6227066,39.7822518],[30.6155925,39.7827872],[30.6120593,39.7752105],[30.6037641,39.7725503],[30.5750636,39.7727504],[30.5713343,39.7712514],[30.5605635,39.7732192],[30.5586377,39.7708501],[30.5530259,39.7725349],[30.5427316,39.7719679],[30.5253133,39.7755402],[30.5207786,39.7737062],[30.5146531,39.7780349],[30.5065273,39.7766442],[30.5039682,39.7743955],[30.4988929,39.777364],[30.4957359,39.7774098],[30.4814221,39.7690375],[30.4763266,39.7585341],[30.4592562,39.7598219],[30.444401,39.7586639],[30.4424278,39.7516072],[30.4467326,39.7456106],[30.4315415,39.7454395],[30.4219658,39.7399383],[30.4223322,39.7307362],[30.4253695,39.7285932],[30.4238737,39.7247485],[30.4279152,39.7195878],[30.4301284,39.7198463],[30.4330472,39.7170188],[30.4341427,39.714421],[30.4304952,39.7121065],[30.4230903,39.7154725],[30.4128138,39.7108199],[30.4090182,39.7122582],[30.4060393,39.7084488],[30.4098114,39.7036283],[30.4143586,39.705167],[30.4229565,39.6992568],[30.4294171,39.6899685],[30.426455,39.6857001],[30.4189171,39.6824132],[30.4201422,39.676499],[30.4177094,39.6741881],[30.4126863,39.6768171],[30.4070251,39.6764368],[30.4049754,39.6726919],[30.4055764,39.6654474],[30.4032976,39.6588624],[30.4078575,39.6544491],[30.4021587,39.6488067],[30.397582,39.6473766],[30.3910829,39.6524292],[30.3823918,39.6522635],[30.3802501,39.653392],[30.3646876,39.6477439],[30.363681,39.6540211],[30.3610372,39.6570211],[30.3552801,39.6497801],[30.3490517,39.6479442],[30.3455806,39.6540596],[30.3475373,39.6569621],[30.3442309,39.6589879],[30.3383808,39.6586671],[30.3328039,39.6521689],[30.3282428,39.6514697],[30.3242409,39.6541645],[30.3206057,39.6533687],[30.3199226,39.6511949],[30.3236578,39.6494908],[30.3216013,39.6455785],[30.3150769,39.6448495],[30.3128115,39.6472324],[30.3080866,39.6441521],[30.3106993,39.6477463],[30.3093871,39.6496226],[30.3039629,39.6457984],[30.2990276,39.6484259],[30.2891973,39.6460271],[30.2802349,39.6357523],[30.2724113,39.6356704],[30.2722171,39.6315019],[30.2744896,39.6304432],[30.273466,39.6290913],[30.2695964,39.6310835],[30.2686754,39.6345867],[30.2640127,39.6356525],[30.264074,39.6389258],[30.2608852,39.6356919],[30.2613099,39.6381275],[30.2556864,39.6362736],[30.2614885,39.6417441],[30.2600515,39.6436241],[30.2574299,39.6398789],[30.2556384,39.6410024],[30.2532636,39.6369004],[30.2521202,39.6403992],[30.2475262,39.6390828],[30.2447563,39.6402967],[30.2453361,39.6424141],[30.2424772,39.6409453],[30.2397057,39.6420653],[30.2396557,39.6435033],[30.2364215,39.6425753],[30.2357031,39.6443993],[30.2347075,39.6424337],[30.2290914,39.6423495],[30.2253731,39.6455693],[30.2241106,39.649099],[30.2243033,39.6445461],[30.2275688,39.6413759],[30.2222349,39.6388904],[30.2187474,39.6406615],[30.2192695,39.6461244],[30.2129356,39.64758],[30.2121069,39.6486402],[30.213941,39.650141],[30.2114096,39.6499495],[30.2342641,39.5937559],[30.2467052,39.5774743],[30.2617284,39.5648082],[30.329333,39.539107],[30.3401309,39.5289688],[30.3398962,39.512672],[30.3314456,39.4566906],[30.3350058,39.4415049],[30.3752696,39.4578146],[30.4104196,39.479176],[30.4493088,39.479176],[30.4683795,39.4811964],[30.4867024,39.4863912],[30.5169911,39.5008195],[30.5674724,39.5120714],[30.5775687,39.5181294],[30.5842995,39.5322626],[30.5846734,39.5605204],[30.5902825,39.5755097],[30.5996309,39.5902075],[30.6250585,39.6080713],[30.6451575,39.6141929],[30.6785642,39.6204419],[30.7245582,39.6250503],[30.7398896,39.6238982],[30.7544731,39.6207299],[30.7656911,39.6164092],[30.7784049,39.6132406],[30.7911187,39.6123764],[30.812433,39.6115122],[30.8280774,39.6128765],[30.8508941,39.6198298],[30.8852444,39.6379823]]]}},{"type":"Feature","properties":{"code":"26-11","provinceCode":"26","name":"Sarıcakaya"},"geometry":{"type":"Polygon","coordinates":[[[30.8707501,40.0602268],[30.8546733,40.0612566],[30.8456611,40.0732114],[30.8493518,40.0724889],[30.8515834,40.0801731],[30.8445024,40.0877906],[30.8437006,40.0914889],[30.8376802,40.0945734],[30.8361038,40.0978711],[30.826041,40.1341712],[30.819019,40.1419411],[30.801098,40.1450011],[30.7738531,40.1533654],[30.7497195,40.1564159],[30.7398656,40.152945],[30.7319422,40.1535475],[30.7283911,40.1558684],[30.7155739,40.1562078],[30.6888217,40.1744385],[30.6866123,40.1855445],[30.6804337,40.1873426],[30.6638008,40.1775389],[30.6624453,40.1677112],[30.661898,40.1639631],[30.6370246,40.1554934],[30.5884081,40.1356619],[30.5684867,40.1328368],[30.5670415,40.1243474],[30.553445,40.1260758],[30.5594824,40.1080495],[30.5805551,40.0906056],[30.5975864,40.0830967],[30.602205,40.0605651],[30.610865,40.0351529],[30.6241436,40.0263116],[30.632515,40.0137108],[30.6348243,40.0064146],[30.6544536,39.9876176],[30.6622476,39.9752309],[30.6680209,39.9601869],[30.6587105,39.9426498],[30.7435071,39.9627313],[30.7723737,39.9735165],[30.7914978,39.9865117],[30.8127869,40.0042034],[30.8188995,40.0114529],[30.8383295,40.0412215],[30.8453753,40.0470785],[30.8707501,40.0602268]]]}},{"type":"Feature","properties":{"code":"26-12","provinceCode":"26","name":"Seyitgazi"},"geometry":{"type":"Polygon","coordinates":[[[30.7656911,39.6164092],[30.7544731,39.6207299],[30.7398896,39.6238982],[30.7245582,39.6250503],[30.6785642,39.6204419],[30.6451575,39.6141929],[30.6250585,39.6080713],[30.5996309,39.5902075],[30.5902825,39.5755097],[30.5846734,39.5605204],[30.5842995,39.5322626],[30.5775687,39.5181294],[30.5674724,39.5120714],[30.5169911,39.5008195],[30.4867024,39.4863912],[30.4683795,39.4811964],[30.4493088,39.479176],[30.4104196,39.479176],[30.3752696,39.4578146],[30.3350058,39.4415049],[30.3363751,39.4356633],[30.3542152,39.4240593],[30.3769848,39.419526],[30.3905996,39.4139042],[30.3882522,39.4111839],[30.3528068,39.3975805],[30.3443562,39.3886915],[30.343652,39.3745393],[30.368769,39.3407803],[30.3934165,39.316086],[30.3971723,39.2993761],[30.3936512,39.2710327],[30.4025712,39.2586743],[30.4461877,39.2204708],[30.4790021,39.2287755],[30.4962392,39.2276103],[30.5082413,39.2159248],[30.525261,39.1806784],[30.5321051,39.157873],[30.54466,39.1439941],[30.5481324,39.1146031],[30.561203,39.1077979],[30.5723129,39.1048386],[30.5797134,39.096684],[30.5902867,39.0925669],[30.6097714,39.0935689],[30.6327042,39.0882363],[30.6613693,39.091407],[30.6688014,39.0896008],[30.6712955,39.0769804],[30.6933577,39.0554082],[30.6923756,39.089075],[30.6875077,39.126848],[30.6927002,39.1416999],[30.7043832,39.1633427],[30.7065376,39.1750514],[30.6962578,39.195678],[30.7124964,39.224209],[30.7285243,39.2428918],[30.7452737,39.2752234],[30.7536423,39.2843319],[30.7638385,39.3005086],[30.7708278,39.3046263],[30.7739003,39.3110792],[30.7833329,39.3168676],[30.7965787,39.3186635],[30.8123172,39.3152609],[30.8251767,39.3165626],[30.8335453,39.3387558],[30.8338699,39.3513044],[30.8290019,39.3671124],[30.8354925,39.4059898],[30.8410095,39.421284],[30.841334,39.437828],[30.8341944,39.4473516],[30.8338699,39.4566233],[30.8397114,39.4706538],[30.8582095,39.4999584],[30.8624283,39.5102246],[30.8624283,39.523994],[30.859183,39.5310028],[30.8497717,39.5392623],[30.8105634,39.5679993],[30.7735438,39.5890387],[30.7638214,39.5965307],[30.7626996,39.6048861],[30.7656911,39.6164092]]]}},{"type":"Feature","properties":{"code":"26-13","provinceCode":"26","name":"Sivrihisar"},"geometry":{"type":"Polygon","coordinates":[[[31.156251,39.4880656],[31.1697908,39.4794911],[31.1774287,39.4693076],[31.1798589,39.4588545],[31.1809005,39.4239995],[31.1871496,39.4156854],[31.1968705,39.4089797],[31.2914965,39.368357],[31.3049514,39.3556376],[31.3086941,39.35643],[31.313538,39.3394931],[31.3000287,39.3089669],[31.2971846,39.2985134],[31.3002064,39.2726481],[31.3039392,39.2610881],[31.3134227,39.2667059],[31.3219929,39.2670225],[31.3304717,39.2613957],[31.3295875,39.2517034],[31.3185281,39.235217],[31.317577,39.2207249],[31.328693,39.2012508],[31.3363221,39.1929696],[31.3458365,39.1887467],[31.3657122,39.1846219],[31.3867168,39.1838676],[31.4044624,39.1682105],[31.4119047,39.1657405],[31.4521775,39.1654255],[31.4592699,39.1476456],[31.4427383,39.1210765],[31.4474983,39.1131991],[31.4708527,39.0987609],[31.4904678,39.0890546],[31.5082113,39.0850924],[31.5297004,39.08309],[31.5410532,39.076385],[31.5456603,39.067185],[31.5445518,39.044144],[31.5553722,39.0402632],[31.5924847,39.0433112],[31.6204655,39.047869],[31.6253471,39.0521267],[31.6428995,39.054068],[31.6440153,39.0571839],[31.6464829,39.0579836],[31.6596748,39.0574961],[31.6624582,39.0633986],[31.678133,39.0514185],[31.685214,39.0604246],[31.6902888,39.0577337],[31.7072939,39.0534598],[31.708442,39.0542929],[31.7108881,39.0526183],[31.7130661,39.0543096],[31.727711,39.0550927],[31.7313158,39.0599081],[31.7362726,39.0599831],[31.7414868,39.066889],[31.7433751,39.0654895],[31.7492652,39.0762429],[31.754158,39.091054],[31.7512714,39.0918329],[31.7536747,39.0973535],[31.7643278,39.100276],[31.767869,39.1032233],[31.7701864,39.1061872],[31.770401,39.1102166],[31.7726326,39.11015],[31.7731476,39.1119148],[31.7718172,39.1137129],[31.7682552,39.1133799],[31.7860007,39.1204221],[31.7897344,39.1186075],[31.793232,39.1198561],[31.8017292,39.1313918],[31.8028657,39.1327541],[31.7953985,39.1367173],[31.7674548,39.1358577],[31.7593508,39.1401585],[31.7556543,39.1454513],[31.7573898,39.1702558],[31.7497534,39.1820953],[31.7466295,39.1920497],[31.7466295,39.2184087],[31.7310096,39.2482522],[31.7271915,39.2592723],[31.7233733,39.3070956],[31.7278857,39.3186435],[31.7268443,39.330458],[31.7226791,39.339586],[31.7143287,39.3507258],[31.7155883,39.3648844],[31.7031099,39.3679884],[31.6906564,39.3840325],[31.6959803,39.3937587],[31.708474,39.4090573],[31.7143485,39.4313369],[31.7391736,39.4676068],[31.7471709,39.4720656],[31.7568088,39.4747051],[31.8973346,39.4977517],[31.9311486,39.5011403],[31.9690008,39.509822],[31.9646573,39.5173342],[31.9651294,39.5222337],[31.9700002,39.5259909],[31.9733047,39.5323132],[31.9718885,39.5356892],[31.9548511,39.5498535],[31.9478559,39.5629231],[31.942234,39.5648751],[31.9382857,39.56289],[31.9436072,39.5513757],[31.9460105,39.5513095],[31.9477271,39.5493902],[31.9464397,39.5476033],[31.9442939,39.547868],[31.945753,39.5438969],[31.9486713,39.5431027],[31.9468688,39.5396608],[31.9304751,39.5380722],[31.9267844,39.5406537],[31.8983745,39.5436984],[31.8918513,39.5748656],[31.8956279,39.5769165],[31.9013785,39.5775119],[31.9060992,39.5803565],[31.9018935,39.5882943],[31.8913364,39.5882943],[31.8932246,39.5894188],[31.8876456,39.5944455],[31.8907355,39.5973556],[31.8898772,39.5982153],[31.8876456,39.5964297],[31.8854999,39.5986122],[31.8889331,39.5989428],[31.8891048,39.6020511],[31.8941688,39.6024479],[31.8964862,39.6064157],[31.8941688,39.6114412],[31.8954562,39.6135571],[31.9327926,39.6237389],[31.9346809,39.6272427],[31.9436072,39.6345142],[31.9258403,39.65976],[31.9185447,39.6660039],[31.914854,39.6655414],[31.9095754,39.6683164],[31.8998765,39.6701993],[31.8964648,39.6686302],[31.8873668,39.66939],[31.8789124,39.6734365],[31.8735266,39.6662352],[31.869235,39.6647321],[31.8627763,39.6657562],[31.8592357,39.6684155],[31.850481,39.6702984],[31.8473267,39.6723464],[31.839087,39.6719665],[31.8283582,39.6809012],[31.819582,39.6819416],[31.8169427,39.6845012],[31.8112349,39.6846003],[31.8078231,39.6908751],[31.8042182,39.6904788],[31.7797565,39.7011116],[31.775181,39.7048124],[31.7647332,39.7225605],[31.7646519,39.7310222],[31.7511755,39.7285804],[31.7433022,39.7247447],[31.7322099,39.7152648],[31.7270996,39.7059338],[31.7157411,39.6961266],[31.706196,39.6958695],[31.7030885,39.7009303],[31.6973338,39.697873],[31.6936636,39.7000186],[31.6871923,39.7004402],[31.683269,39.7022024],[31.6722601,39.7014537],[31.6672437,39.699077],[31.6642493,39.6936017],[31.6484148,39.6871443],[31.6373418,39.6791784],[31.6173622,39.6684323],[31.5742737,39.6480471],[31.5399918,39.63757],[31.5368254,39.6326012],[31.533145,39.6306783],[31.498929,39.6243185],[31.4722094,39.6259872],[31.4647962,39.6349491],[31.4473657,39.648062],[31.4311765,39.6490237],[31.4219706,39.6425242],[31.4182496,39.6321176],[31.3998401,39.6203517],[31.3713038,39.6199635],[31.366347,39.5961268],[31.3288288,39.5562461],[31.2927819,39.5309072],[31.2785593,39.5276918],[31.2513402,39.5261787],[31.2383437,39.5280701],[31.225102,39.5331767],[31.1968518,39.5589069],[31.1712997,39.5888785],[31.1604296,39.5805012],[31.1530521,39.5697972],[31.1346344,39.5313697],[31.1363009,39.5159445],[31.1396338,39.5058735],[31.156251,39.4880656]]]}},{"type":"Feature","properties":{"code":"26-14","provinceCode":"26","name":"Tepebaşı"},"geometry":{"type":"Polygon","coordinates":[[[30.223508,39.6839836],[30.2084429,39.6767324],[30.2096166,39.6541451],[30.2114096,39.6499495],[30.213941,39.650141],[30.2121069,39.6486402],[30.2129356,39.64758],[30.2192695,39.6461244],[30.2187474,39.6406615],[30.2222349,39.6388904],[30.2275688,39.6413759],[30.2243033,39.6445461],[30.2241106,39.649099],[30.2253731,39.6455693],[30.2290914,39.6423495],[30.2347075,39.6424337],[30.2357031,39.6443993],[30.2364215,39.6425753],[30.2396557,39.6435033],[30.2397057,39.6420653],[30.2424772,39.6409453],[30.2453361,39.6424141],[30.2447563,39.6402967],[30.2475262,39.6390828],[30.2521202,39.6403992],[30.2532636,39.6369004],[30.2556384,39.6410024],[30.2574299,39.6398789],[30.2600515,39.6436241],[30.2614885,39.6417441],[30.2556864,39.6362736],[30.2613099,39.6381275],[30.2608852,39.6356919],[30.264074,39.6389258],[30.2640127,39.6356525],[30.2686754,39.6345867],[30.2695964,39.6310835],[30.273466,39.6290913],[30.2744896,39.6304432],[30.2722171,39.6315019],[30.2724113,39.6356704],[30.2802349,39.6357523],[30.2891973,39.6460271],[30.2990276,39.6484259],[30.3039629,39.6457984],[30.3093871,39.6496226],[30.3106993,39.6477463],[30.3080866,39.6441521],[30.3128115,39.6472324],[30.3150769,39.6448495],[30.3216013,39.6455785],[30.3236578,39.6494908],[30.3199226,39.6511949],[30.3206057,39.6533687],[30.3242409,39.6541645],[30.3282428,39.6514697],[30.3328039,39.6521689],[30.3383808,39.6586671],[30.3442309,39.6589879],[30.3475373,39.6569621],[30.3455806,39.6540596],[30.3490517,39.6479442],[30.3552801,39.6497801],[30.3610372,39.6570211],[30.363681,39.6540211],[30.3646876,39.6477439],[30.3802501,39.653392],[30.3823918,39.6522635],[30.3910829,39.6524292],[30.397582,39.6473766],[30.4021587,39.6488067],[30.4078575,39.6544491],[30.4032976,39.6588624],[30.4055764,39.6654474],[30.4049754,39.6726919],[30.4070251,39.6764368],[30.4126863,39.6768171],[30.4177094,39.6741881],[30.4201422,39.676499],[30.4189171,39.6824132],[30.426455,39.6857001],[30.4294171,39.6899685],[30.4229565,39.6992568],[30.4143586,39.705167],[30.4098114,39.7036283],[30.4060393,39.7084488],[30.4090182,39.7122582],[30.4128138,39.7108199],[30.4230903,39.7154725],[30.4304952,39.7121065],[30.4341427,39.714421],[30.4330472,39.7170188],[30.4301284,39.7198463],[30.4279152,39.7195878],[30.4238737,39.7247485],[30.4253695,39.7285932],[30.4223322,39.7307362],[30.4219658,39.7399383],[30.4315415,39.7454395],[30.4467326,39.7456106],[30.4424278,39.7516072],[30.444401,39.7586639],[30.4592562,39.7598219],[30.4763266,39.7585341],[30.4814221,39.7690375],[30.4957359,39.7774098],[30.4988929,39.777364],[30.5039682,39.7743955],[30.5065273,39.7766442],[30.5146531,39.7780349],[30.5207786,39.7737062],[30.5253133,39.7755402],[30.5427316,39.7719679],[30.5530259,39.7725349],[30.5586377,39.7708501],[30.5605635,39.7732192],[30.5713343,39.7712514],[30.5750636,39.7727504],[30.6037641,39.7725503],[30.6120593,39.7752105],[30.6155925,39.7827872],[30.6227066,39.7822518],[30.6267363,39.7844837],[30.6339517,39.7838222],[30.6509758,39.7881422],[30.6517904,39.7994704],[30.656976,39.8000388],[30.6585644,39.8064679],[30.6604995,39.8055264],[30.6639966,39.8080449],[30.6628128,39.8095933],[30.6677795,39.8121507],[30.6738162,39.81193],[30.6755446,39.8138967],[30.6946383,39.81275],[30.6985531,39.8148357],[30.7064049,39.8137756],[30.7112372,39.8160004],[30.7129559,39.8136179],[30.7253941,39.810565],[30.7337197,39.8133427],[30.7377965,39.8167523],[30.7520582,39.8161348],[30.7631827,39.8220387],[30.7655567,39.821275],[30.7706588,39.8227986],[30.7866859,39.8118438],[30.7900276,39.8114599],[30.7948951,39.8141463],[30.7982314,39.8126113],[30.7982314,39.8140824],[30.8024138,39.8155244],[30.805178,39.8137678],[30.8103121,39.8159881],[30.8163803,39.8104582],[30.8346348,39.8053125],[30.8380025,39.8025785],[30.83853,39.7999447],[30.843306,39.801646],[30.8476181,39.8056682],[30.8548707,39.8028667],[30.8573615,39.8039237],[30.8586231,39.8074624],[30.864544,39.8079404],[30.8547433,39.8359809],[30.8582536,39.8471469],[30.8667785,39.8558089],[30.8790644,39.8637],[30.8993737,39.8688961],[30.9181786,39.8708205],[30.9720861,39.8727448],[30.9649094,39.89852],[30.9673222,39.9231428],[30.9608031,39.9312185],[30.9417475,39.9437146],[30.9367328,39.9517878],[30.9312167,39.9665862],[30.9322196,39.991179],[30.9267035,40.000207],[30.9144176,40.0057768],[30.8376935,40.0061609],[30.8188995,40.0114529],[30.8127869,40.0042034],[30.7914978,39.9865117],[30.7723737,39.9735165],[30.7435071,39.9627313],[30.6587105,39.9426498],[30.6478424,39.9436647],[30.6417173,39.9466847],[30.631557,39.9468213],[30.6180099,39.9293274],[30.5841423,39.9349314],[30.5595437,39.924133],[30.5333408,39.9183914],[30.5413621,39.9416283],[30.5623957,39.9529705],[30.5590089,39.9823422],[30.5527702,39.9768787],[30.5426099,39.9763323],[30.5379754,39.9812496],[30.5331626,39.9815227],[30.5139115,39.9716879],[30.5108812,39.9655404],[30.4846784,39.9707317],[30.4796874,39.9675896],[30.4800439,39.9591191],[30.4768354,39.9537904],[30.4666751,39.9548835],[30.4625753,39.9598023],[30.451702,39.9626714],[30.4463545,39.9715513],[30.4365507,39.96677],[30.4299554,39.9819325],[30.4235384,39.9817959],[30.4187256,39.9794739],[30.4119521,39.978791],[30.4133781,39.9826154],[30.4131342,39.9861424],[30.4108526,39.9857229],[30.4124954,39.9950225],[30.4106701,39.996351],[30.4109439,40.0000564],[30.4175843,40.0029702],[30.4139855,40.0037115],[30.4145712,40.0076957],[30.4116051,40.0087443],[30.4115905,40.012141],[30.4060349,40.0090571],[30.4033841,40.0104722],[30.380744,40.0125887],[30.3831418,40.0158861],[30.3831418,40.0247443],[30.3788845,40.0204999],[30.3790452,40.0187159],[30.3763944,40.0174856],[30.3744666,40.0117642],[30.3752699,40.0084418],[30.362016,40.0039503],[30.3625783,40.001366],[30.3652291,40.0008122],[30.3694407,39.993978],[30.3637832,39.9904739],[30.3608909,39.9904123],[30.3612727,39.9839284],[30.349967,39.978349],[30.3432999,39.9799494],[30.341265,39.9780688],[30.3471556,39.9760099],[30.3544653,39.9703466],[30.3567948,39.963833],[30.3634079,39.9628225],[30.3642948,39.9612916],[30.3654732,39.9534719],[30.3641853,39.9515338],[30.3576461,39.9534056],[30.3564981,39.9455623],[30.3523965,39.9397019],[30.3379325,39.9372528],[30.3295159,39.941151],[30.3180182,39.9374016],[30.3060529,39.9456506],[30.2976187,39.9467283],[30.2968154,39.9500383],[30.2992252,39.9529632],[30.2953294,39.9559034],[30.2906905,39.9531941],[30.2894856,39.9381064],[30.2868811,39.9302628],[30.2964676,39.9163985],[30.2911668,39.9027247],[30.303599,39.8730433],[30.3170295,39.8703801],[30.3194072,39.8670262],[30.3122099,39.8675688],[30.303862,39.8646586],[30.2950316,39.8568805],[30.2946024,39.8405349],[30.2777017,39.8481824],[30.2723646,39.8488123],[30.2756454,39.8409789],[30.2754205,39.8326483],[30.2799616,39.8270184],[30.2778537,39.8200971],[30.2770842,39.7832619],[30.2677833,39.7826073],[30.251114,39.7745064],[30.2461628,39.769042],[30.2269311,39.7615842],[30.2153356,39.7540415],[30.2219181,39.7223188],[30.2648617,39.7271989],[30.2613382,39.7199138],[30.2362853,39.7018594],[30.223508,39.6839836]]]}}]}