{"type":"FeatureCollection","features":[{"type":"Feature","properties":{"code":"68-01","provinceCode":"68","name":"Aksaray merkez"},"geometry":{"type":"Polygon","coordinates":[[[33.3236851,38.6618837],[33.6243273,38.4334583],[33.6257688,38.3698173],[33.6166389,38.3262908],[33.6055869,38.3166775],[33.5999483,38.2723171],[33.5849876,38.2373458],[33.5700268,38.2236806],[33.5481076,38.2214939],[33.5166902,38.2250048],[33.5111642,38.2161332],[33.5178765,38.2023163],[33.5432166,38.1650621],[33.5568251,38.1381239],[33.5671488,38.1126526],[33.5779418,38.099729],[33.6014099,38.0874872],[33.6826033,38.1018163],[33.7024695,38.1035064],[33.7290473,38.0984361],[33.7435443,38.0868155],[33.7628736,38.0762497],[33.7789813,38.0707549],[33.7940152,38.073291],[33.8157607,38.0794196],[33.8337477,38.091464],[33.8418016,38.1075201],[33.8493185,38.1151243],[33.8699901,38.1201934],[33.9521396,38.1252621],[33.9698582,38.1216718],[33.9811336,38.1144907],[33.9881136,38.1041401],[33.997523,38.081548],[34.0180285,38.0728028],[34.0387221,38.0689855],[34.0606973,38.061363],[34.0899714,38.0635185],[34.1004159,38.0694809],[34.1041797,38.075758],[34.1121756,38.0797546],[34.1268937,38.0785698],[34.1397997,38.0849358],[34.1487325,38.0922476],[34.1576041,38.1180275],[34.1606874,38.1232965],[34.1659788,38.126559],[34.1762755,38.125659],[34.2064744,38.1186682],[34.2394867,38.1130556],[34.2749932,38.1134664],[34.2892422,38.1469182],[34.2953131,38.1555511],[34.2735619,38.1725565],[34.2688392,38.1848539],[34.2673634,38.198309],[34.250539,38.2157042],[34.2496535,38.2261393],[34.2537858,38.2347181],[34.2478825,38.2472368],[34.2357807,38.2551178],[34.2151191,38.2650838],[34.1776331,38.2741215],[34.1708443,38.2796826],[34.1590376,38.2843165],[34.1475262,38.2854749],[34.1428035,38.2898768],[34.1422132,38.2982165],[34.1484117,38.3077133],[34.1587425,38.3128086],[34.1724745,38.3146968],[34.1760697,38.3244918],[34.2073338,38.3476034],[34.2238663,38.3652989],[34.240749,38.3702491],[34.242211,38.3758487],[34.2349887,38.3824638],[34.2214741,38.3873283],[34.2059755,38.3872899],[34.2030629,38.3931702],[34.1976814,38.3985099],[34.1791931,38.4076008],[34.1785317,38.4104769],[34.1820118,38.4178848],[34.1924813,38.4630005],[34.202962,38.469843],[34.2195437,38.4727699],[34.2386885,38.4815218],[34.2843139,38.4984131],[34.3037361,38.5095026],[34.3511502,38.5159228],[34.3668124,38.5210969],[34.3870199,38.5252813],[34.4223637,38.5286388],[34.4204313,38.5313195],[34.4247782,38.535265],[34.4248967,38.5385657],[34.4285844,38.5374044],[34.4284576,38.5422173],[34.4249203,38.5418033],[34.4182145,38.5497756],[34.3899911,38.5724016],[34.3569034,38.5936058],[34.3505644,38.5947185],[34.3453725,38.5914722],[34.3436043,38.5936684],[34.3205568,38.593905],[34.3119122,38.5979921],[34.2977529,38.599227],[34.2950064,38.6119264],[34.2860165,38.6164917],[34.2790567,38.6157825],[34.2742698,38.6210064],[34.2552125,38.6233767],[34.2508158,38.6267861],[34.2501482,38.6219857],[34.240312,38.6262637],[34.2407176,38.6325218],[34.2444412,38.6366249],[34.2414145,38.6366476],[34.2398182,38.6393478],[34.2476131,38.6447196],[34.247106,38.6466995],[34.2440639,38.6459075],[34.2440774,38.6513374],[34.1932133,38.6444957],[34.1577181,38.6417453],[34.1176368,38.6468871],[34.089499,38.6525201],[34.0518909,38.6506501],[34.0086487,38.6456998],[33.9778017,38.6375586],[33.9452644,38.6331575],[33.9290661,38.6356882],[33.90991,38.6530701],[33.9024447,38.6628593],[33.8930075,38.6683583],[33.8907642,38.6745813],[33.9023029,38.6868767],[33.9008029,38.6990349],[33.8936045,38.7184168],[33.8878827,38.7169897],[33.8776464,38.6958945],[33.8561731,38.6998489],[33.8325283,38.7145346],[33.8033342,38.7179232],[33.7903054,38.7152876],[33.7712448,38.6940114],[33.7439809,38.6738591],[33.7048946,38.6408874],[33.670875,38.6374952],[33.6436035,38.6887577],[33.6238785,38.6947093],[33.6169356,38.6908184],[33.5551667,38.6757357],[33.4421647,38.6658551],[33.3236851,38.6618837]]]}},{"type":"Feature","properties":{"code":"68-02","provinceCode":"68","name":"Eskil"},"geometry":{"type":"Polygon","coordinates":[[[33.4102464,37.9941332],[33.4226531,37.9827739],[33.4314402,37.9845622],[33.4518433,37.9799068],[33.5007035,37.9811765],[33.5728676,37.9933025],[33.580033,38.0044685],[33.5747139,38.0162122],[33.5568099,38.0320166],[33.5467613,38.0552062],[33.5527396,38.0635],[33.5699644,38.0753525],[33.6014099,38.0874872],[33.5779418,38.099729],[33.5671488,38.1126526],[33.5568251,38.1381239],[33.5432166,38.1650621],[33.5178765,38.2023163],[33.5111642,38.2161332],[33.5166902,38.2250048],[33.5116447,38.2312331],[33.5070798,38.2408577],[33.5094824,38.2651966],[33.5058785,38.2895273],[33.5145279,38.3008411],[33.569788,38.3091368],[33.6055869,38.3166775],[33.6166389,38.3262908],[33.6257688,38.3698173],[33.6243273,38.4334583],[33.3236851,38.6618837],[33.3240745,38.606017],[33.3208119,38.5599648],[33.3172782,38.5329072],[33.3093352,38.5077525],[33.2762497,38.4690772],[33.2527623,38.4479984],[33.2400599,38.4249362],[33.2324301,38.3847829],[33.2248443,38.3745946],[33.2106305,38.3449817],[33.2088652,38.319865],[33.2032421,38.3124609],[33.1788165,38.2972606],[33.1718873,38.2840498],[33.1712387,38.2729255],[33.1826855,38.2554514],[33.193919,38.2481088],[33.202069,38.2437468],[33.2466338,38.2556091],[33.2628408,38.2527241],[33.2688304,38.2437468],[33.2676991,38.2219007],[33.2716143,38.20809],[33.2868896,38.1885915],[33.2914648,38.1721418],[33.2870805,38.138436],[33.2880815,38.125909],[33.305145,38.1030839],[33.3142728,38.0939994],[33.3160909,38.0788199],[33.3096478,38.0621234],[33.2892446,38.0329483],[33.2892446,38.0202598],[33.2962247,38.0092613],[33.3050839,38.0105305],[33.315554,38.0238551],[33.3217286,38.0386574],[33.3364264,38.0491185],[33.3697834,38.0433089],[33.397363,38.0292347],[33.4102464,37.9941332]]]}},{"type":"Feature","properties":{"code":"68-03","provinceCode":"68","name":"Gülağaç"},"geometry":{"type":"Polygon","coordinates":[[[34.1724745,38.3146968],[34.1781524,38.3103747],[34.2059321,38.3060448],[34.2135834,38.3064058],[34.2386285,38.320942],[34.2549213,38.3274933],[34.2876806,38.3229404],[34.2957908,38.3263141],[34.305422,38.3442948],[34.3151898,38.3467877],[34.3367868,38.3411999],[34.3393231,38.3493971],[34.3775813,38.360216],[34.3922909,38.3670714],[34.3987466,38.3651814],[34.4088366,38.3491112],[34.4119001,38.335372],[34.4296138,38.3215352],[34.4387697,38.3331908],[34.4390289,38.3394743],[34.446586,38.3410477],[34.4475511,38.3432138],[34.4693356,38.35153],[34.4696407,38.3665637],[34.4852416,38.3736268],[34.5006132,38.3865979],[34.4891336,38.3969496],[34.4843986,38.3962334],[34.4815207,38.40441],[34.4787794,38.4032383],[34.4782394,38.4046704],[34.474169,38.4038893],[34.472387,38.4051044],[34.4742521,38.4077624],[34.4715255,38.4083765],[34.4717414,38.413002],[34.4644538,38.4164564],[34.4653172,38.4203076],[34.4605773,38.4247669],[34.4576568,38.4251228],[34.4575919,38.4271564],[34.4621997,38.4284275],[34.459474,38.4338672],[34.4618103,38.435799],[34.4603826,38.438544],[34.456188,38.4403244],[34.4469882,38.4407919],[34.4465988,38.4437909],[34.4487405,38.445265],[34.4411474,38.4457732],[34.4410141,38.4468184],[34.4391528,38.4457307],[34.4352642,38.4492278],[34.4389725,38.4487622],[34.439077,38.4507526],[34.4425445,38.4494128],[34.443126,38.4514945],[34.4390207,38.4538424],[34.4415928,38.4550281],[34.435832,38.4633306],[34.4317072,38.4651198],[34.4314514,38.4677132],[34.4349397,38.4677132],[34.4299912,38.4705079],[34.433155,38.4727308],[34.4325871,38.4760334],[34.4355068,38.4763732],[34.4344375,38.4786238],[34.4402938,38.4811773],[34.4381866,38.4891181],[34.4263194,38.4923318],[34.4237082,38.5083118],[34.4167423,38.5172144],[34.4222589,38.520639],[34.4196239,38.5227195],[34.4223637,38.5286388],[34.3870199,38.5252813],[34.3668124,38.5210969],[34.3511502,38.5159228],[34.3037361,38.5095026],[34.2843139,38.4984131],[34.2386885,38.4815218],[34.2195437,38.4727699],[34.202962,38.469843],[34.1924813,38.4630005],[34.1820118,38.4178848],[34.1785317,38.4104769],[34.1791931,38.4076008],[34.1976814,38.3985099],[34.2030629,38.3931702],[34.2059755,38.3872899],[34.2214741,38.3873283],[34.2349887,38.3824638],[34.242211,38.3758487],[34.240749,38.3702491],[34.2238663,38.3652989],[34.2073338,38.3476034],[34.1760697,38.3244918],[34.1724745,38.3146968]]]}},{"type":"Feature","properties":{"code":"68-04","provinceCode":"68","name":"Güzelyurt"},"geometry":{"type":"Polygon","coordinates":[[[34.2953131,38.1555511],[34.311804,38.1789962],[34.3202206,38.1945853],[34.329684,38.2045387],[34.3439042,38.2160849],[34.3633016,38.2267172],[34.427892,38.2246276],[34.4369053,38.2338668],[34.4348345,38.2497598],[34.4374268,38.2624622],[34.4347281,38.2769653],[34.4354325,38.2852292],[34.4320856,38.293734],[34.4207351,38.298841],[34.4215949,38.3131393],[34.4296138,38.3215352],[34.4119001,38.335372],[34.4088366,38.3491112],[34.3987466,38.3651814],[34.3922909,38.3670714],[34.3775813,38.360216],[34.3393231,38.3493971],[34.3367868,38.3411999],[34.3151898,38.3467877],[34.305422,38.3442948],[34.2957908,38.3263141],[34.2876806,38.3229404],[34.2549213,38.3274933],[34.2386285,38.320942],[34.2135834,38.3064058],[34.2059321,38.3060448],[34.1781524,38.3103747],[34.1724745,38.3146968],[34.1587425,38.3128086],[34.1484117,38.3077133],[34.1422132,38.2982165],[34.1428035,38.2898768],[34.1475262,38.2854749],[34.1590376,38.2843165],[34.1708443,38.2796826],[34.1776331,38.2741215],[34.2151191,38.2650838],[34.2357807,38.2551178],[34.2478825,38.2472368],[34.2537858,38.2347181],[34.2496535,38.2261393],[34.250539,38.2157042],[34.2673634,38.198309],[34.2688392,38.1848539],[34.2735619,38.1725565],[34.2953131,38.1555511]]]}},{"type":"Feature","properties":{"code":"68-05","provinceCode":"68","name":"Ortaköy"},"geometry":{"type":"Polygon","coordinates":[[[33.9249649,38.9484454],[33.9301618,38.9324032],[33.9419689,38.9113278],[33.9558259,38.903111],[33.9891132,38.8768198],[34.0000961,38.8320668],[34.0139406,38.8230125],[34.0222791,38.8081383],[34.0181098,38.7992691],[33.9917636,38.7769254],[33.9693804,38.7736386],[33.9660213,38.7702593],[33.9614301,38.7602667],[33.9424073,38.7473579],[33.930103,38.7352596],[33.923407,38.7342044],[33.9104491,38.7292151],[33.8936045,38.7184168],[33.9008029,38.6990349],[33.9023029,38.6868767],[33.8907642,38.6745813],[33.8930075,38.6683583],[33.9024447,38.6628593],[33.90991,38.6530701],[33.9290661,38.6356882],[33.9452644,38.6331575],[33.9778017,38.6375586],[34.0086487,38.6456998],[34.0518909,38.6506501],[34.089499,38.6525201],[34.1176368,38.6468871],[34.1577181,38.6417453],[34.1932133,38.6444957],[34.2440774,38.6513374],[34.2449725,38.6523058],[34.2468935,38.6509678],[34.2527603,38.6544953],[34.2510596,38.6570678],[34.2611999,38.6671633],[34.2666504,38.6653818],[34.2819701,38.6764518],[34.2885914,38.6993792],[34.2896179,38.7125362],[34.2868323,38.7159033],[34.277509,38.7426201],[34.2807786,38.7469871],[34.2665167,38.7489113],[34.2645675,38.7520095],[34.2709814,38.7694234],[34.2772222,38.7737737],[34.2795018,38.7809585],[34.2903268,38.7862899],[34.2921011,38.790704],[34.2889445,38.7946212],[34.292855,38.7989604],[34.2895308,38.801848],[34.292436,38.8069645],[34.2920304,38.8099356],[34.2946263,38.8120216],[34.2932472,38.8142972],[34.2827483,38.8127036],[34.2658835,38.819219],[34.2631506,38.8165095],[34.2577154,38.8184058],[34.2537404,38.8246628],[34.2474801,38.8208335],[34.2412149,38.8324939],[34.224299,38.8250252],[34.1990105,38.8214833],[34.1791206,38.8199336],[34.1674709,38.8230329],[34.1526956,38.8312231],[34.1179167,38.8573735],[34.0804013,38.8755869],[34.0745744,38.8816211],[34.0706489,38.9029925],[34.0572126,38.9352643],[34.0513835,38.9459625],[34.0355016,38.9608706],[34.0069367,38.9680073],[33.9877604,38.9669971],[33.969205,38.9744824],[33.9249649,38.9484454]]]}},{"type":"Feature","properties":{"code":"68-06","provinceCode":"68","name":"Sultanhanı"},"geometry":{"type":"Polygon","coordinates":[[[33.6055869,38.3166775],[33.569788,38.3091368],[33.5145279,38.3008411],[33.5058785,38.2895273],[33.5094824,38.2651966],[33.5070798,38.2408577],[33.5116447,38.2312331],[33.5166902,38.2250048],[33.5481076,38.2214939],[33.5700268,38.2236806],[33.5849876,38.2373458],[33.5999483,38.2723171],[33.6055869,38.3166775]]]}}]}