{"type":"FeatureCollection","features":[{"type":"Feature","properties":{"code":"40-01","provinceCode":"40","name":"Akçakent"},"geometry":{"type":"Polygon","coordinates":[[[33.9769425,39.7238174],[33.9758784,39.7175482],[33.9623686,39.7122928],[33.9578617,39.7053661],[33.962493,39.681905],[33.9602992,39.6761937],[33.9543916,39.673605],[34.0007743,39.6629794],[34.0129898,39.653944],[34.0132293,39.634025],[34.0079599,39.6111479],[34.0118394,39.6021255],[34.010801,39.5939644],[34.0144462,39.5746842],[34.0223666,39.5563293],[34.0297107,39.5475552],[34.0551016,39.5421353],[34.0995637,39.5421113],[34.1376768,39.5235071],[34.1587359,39.5188794],[34.1918313,39.5194319],[34.1859302,39.5291165],[34.1873073,39.5395455],[34.1902946,39.5438968],[34.2021108,39.5509607],[34.2074215,39.5608388],[34.2025091,39.5762929],[34.2088819,39.5917947],[34.2126657,39.6083158],[34.2128649,39.6167028],[34.2089483,39.6294347],[34.2038368,39.6357742],[34.1703132,39.6534093],[34.1433616,39.6812074],[34.1112321,39.702968],[34.0937069,39.735647],[34.0635689,39.7540221],[34.044145,39.7712774],[34.0401372,39.7671514],[34.0264307,39.7618113],[34.0211734,39.7564708],[33.9984544,39.7421792],[33.9892541,39.7296175],[33.9769425,39.7238174]]]}},{"type":"Feature","properties":{"code":"40-02","provinceCode":"40","name":"Akpınar"},"geometry":{"type":"Polygon","coordinates":[[[34.1587359,39.5188794],[34.1376768,39.5235071],[34.0995637,39.5421113],[34.0551016,39.5421353],[34.0297107,39.5475552],[34.0223666,39.5563293],[34.0144462,39.5746842],[34.010801,39.5939644],[34.0118394,39.6021255],[34.0079599,39.6111479],[34.0132293,39.634025],[34.0129898,39.653944],[34.0007743,39.6629794],[33.9543916,39.673605],[33.9538838,39.6714203],[33.9386962,39.6627474],[33.920744,39.6619041],[33.9124921,39.6606332],[33.9067131,39.6579464],[33.8820323,39.6307801],[33.8629991,39.6052898],[33.841287,39.5958047],[33.8430609,39.5892254],[33.8551363,39.5782139],[33.8458535,39.5716794],[33.8328035,39.5687825],[33.8282195,39.565599],[33.8265263,39.5621925],[33.8140957,39.560314],[33.8143693,39.5568115],[33.80691,39.55436],[33.8011559,39.5492803],[33.7944794,39.5505071],[33.7908452,39.5465584],[33.7889043,39.5465584],[33.786825,39.5424527],[33.7816772,39.543342],[33.773046,39.5393293],[33.7720669,39.5363682],[33.7596657,39.5347112],[33.7536645,39.5357189],[33.7455073,39.5293071],[33.7439597,39.5306584],[33.7431284,39.5276595],[33.7381497,39.5291371],[33.7361674,39.5274489],[33.7320751,39.5281782],[33.7298956,39.513854],[33.7349941,39.5121056],[33.7563539,39.5114274],[33.7747286,39.5067605],[33.8208412,39.5084974],[33.8378808,39.4999903],[33.8465008,39.4899351],[33.8677502,39.458213],[33.8647432,39.4526408],[33.8561232,39.4486161],[33.8559409,39.4428411],[33.8595143,39.4390007],[33.8724048,39.4389983],[33.8898709,39.4368114],[33.945191,39.4226308],[33.954021,39.4174037],[33.9654868,39.3968108],[33.9917333,39.3379274],[34.0275065,39.3031386],[34.0432409,39.3160897],[34.0508373,39.3276601],[34.0575188,39.3532215],[34.0573382,39.3808337],[34.0619954,39.3946041],[34.0753358,39.4035364],[34.0834053,39.4159804],[34.0911169,39.4349098],[34.081006,39.4684068],[34.0878108,39.4837175],[34.1095704,39.4973084],[34.155235,39.5151729],[34.1587359,39.5188794]]]}},{"type":"Feature","properties":{"code":"40-03","provinceCode":"40","name":"Boztepe"},"geometry":{"type":"Polygon","coordinates":[[[34.5965,39.3404],[34.5874,39.348],[34.5887,39.3494],[34.5729,39.3583],[34.568,39.3638],[34.5695,39.366],[34.5666,39.374],[34.5649,39.3748],[34.5661,39.3766],[34.5544,39.3843],[34.5499,39.4028],[34.5518,39.4037],[34.5515,39.407],[34.5484,39.4065],[34.5462,39.4078],[34.5484,39.4036],[34.5438,39.3985],[34.5384,39.3967],[34.5388,39.3985],[34.5364,39.3985],[34.5326,39.396],[34.5285,39.3972],[34.5266,39.3934],[34.5281,39.3926],[34.5275,39.3895],[34.5238,39.39],[34.5244,39.3943],[34.5209,39.3946],[34.5144,39.3862],[34.5101,39.3867],[34.5063,39.3821],[34.4986,39.3862],[34.4993,39.388],[34.4926,39.391],[34.4931,39.3947],[34.4917,39.3953],[34.4905,39.3919],[34.4799,39.3946],[34.4736,39.3947],[34.4674,39.389],[34.4409,39.3946],[34.4384,39.3997],[34.4399,39.4018],[34.4396,39.4121],[34.4341,39.4138],[34.4303,39.4231],[34.4272,39.4241],[34.4281,39.4261],[34.4222,39.4292],[34.4279,39.4327],[34.4293,39.4314],[34.4303,39.4326],[34.4248,39.4373],[34.4329,39.4396],[34.4315,39.4424],[34.4361,39.4439],[34.442,39.442],[34.4425,39.4437],[34.4444,39.4431],[34.4519,39.4477],[34.4514,39.4595],[34.4533,39.4605],[34.4572,39.4559],[34.4615,39.4546],[34.465,39.4589],[34.4699,39.4608],[34.4732,39.4594],[34.4808,39.4725],[34.477,39.4779],[34.459,39.4859],[34.4444,39.474],[34.4406,39.477],[34.4358,39.4722],[34.4312,39.4717],[34.4291,39.4754],[34.4236,39.4773],[34.4205,39.4762],[34.4212,39.4782],[34.4138,39.4805],[34.414,39.483],[34.4099,39.4815],[34.4016,39.4834],[34.3972,39.4823],[34.3891,39.4885],[34.3884,39.4864],[34.3822,39.4866],[34.3817,39.485],[34.3702,39.4828],[34.3623,39.4707],[34.3642,39.462],[34.3532,39.4648],[34.3481,39.4614],[34.3275,39.4619],[34.3223,39.4632],[34.3228,39.4647],[34.3213,39.4646],[34.3153,39.4707],[34.3108,39.4659],[34.313,39.4605],[34.316,39.4598],[34.3167,39.4545],[34.3136,39.4501],[34.3143,39.4485],[34.31,39.4479],[34.3086,39.444],[34.311,39.442],[34.3118,39.4323],[34.3134,39.4318],[34.3127,39.4285],[34.3088,39.4296],[34.3096,39.424],[34.3081,39.4208],[34.31,39.4204],[34.3077,39.4195],[34.3072,39.4168],[34.3045,39.4163],[34.3048,39.4147],[34.3003,39.4144],[34.2997,39.4122],[34.2924,39.411],[34.2924,39.4129],[34.288,39.4129],[34.284,39.4164],[34.2818,39.416],[34.2792,39.4212],[34.2777,39.4203],[34.2696,39.4225],[34.27,39.4239],[34.2645,39.4272],[34.2626,39.4262],[34.2558,39.4297],[34.2374,39.4148],[34.2388,39.4112],[34.2426,39.4089],[34.2413,39.4058],[34.2395,39.406],[34.2369,39.4034],[34.2391,39.4005],[34.233,39.4009],[34.2349,39.3987],[34.2409,39.3975],[34.2397,39.3949],[34.2422,39.3924],[34.241,39.3859],[34.2466,39.3836],[34.2442,39.3815],[34.2483,39.3808],[34.2488,39.3784],[34.2459,39.3782],[34.2476,39.3756],[34.2468,39.3735],[34.2442,39.3717],[34.2458,39.3695],[34.2416,39.3687],[34.2415,39.3671],[34.2396,39.3674],[34.2394,39.3692],[34.2317,39.3691],[34.23,39.3715],[34.2064,39.3654],[34.1838,39.3634],[34.1987,39.3559],[34.2059,39.3465],[34.2085,39.3416],[34.2059,39.3355],[34.2068,39.3342],[34.2084,39.3347],[34.205,39.3293],[34.2116,39.3254],[34.2101,39.3231],[34.2055,39.3241],[34.2046,39.3173],[34.2068,39.3152],[34.2,39.3126],[34.1916,39.3153],[34.1917,39.3127],[34.1876,39.3094],[34.1791,39.3079],[34.18,39.304],[34.1827,39.3039],[34.1822,39.3019],[34.1877,39.2944],[34.1884,39.2849],[34.1918,39.2842],[34.1956,39.2784],[34.1952,39.2747],[34.2025,39.2715],[34.2087,39.262],[34.2074,39.2584],[34.2116,39.2578],[34.2093,39.2565],[34.2113,39.2543],[34.2094,39.2521],[34.2108,39.2505],[34.2091,39.2501],[34.2104,39.2495],[34.2123,39.2331],[34.2165,39.2267],[34.2161,39.2243],[34.2195,39.2224],[34.2185,39.2214],[34.2264,39.2175],[34.2198,39.2089],[34.2174,39.2026],[34.2187,39.1999],[34.2391953,39.1940724],[34.2458,39.1823],[34.2498,39.1841],[34.2682,39.1945],[34.2728,39.1943],[34.2758,39.1963],[34.2797,39.1945],[34.2861,39.1967],[34.296,39.2068],[34.2988,39.2036],[34.3089,39.2071],[34.3111,39.2106],[34.3082,39.2136],[34.3106,39.2161],[34.3132,39.217],[34.3162,39.2151],[34.3179,39.2162],[34.3204,39.2144],[34.3198,39.2133],[34.3246,39.2145],[34.3259,39.2157],[34.324,39.2176],[34.3304,39.2217],[34.3334,39.2309],[34.3367,39.2297],[34.3385,39.2372],[34.3491,39.2361],[34.3719,39.2475],[34.3807,39.2473],[34.3877,39.2445],[34.4039,39.2284],[34.409,39.2199],[34.4363,39.2021],[34.4711,39.2334],[34.5281,39.2703],[34.5331,39.2647],[34.5359,39.2655],[34.535,39.2673],[34.5517,39.2764],[34.5549,39.2737],[34.5693,39.2828],[34.5683,39.2842],[34.5707,39.2854],[34.5537,39.3083],[34.5572,39.3113],[34.559,39.3107],[34.5808,39.3294],[34.5867,39.332],[34.5894,39.3312],[34.591,39.3326],[34.5884,39.3342],[34.5903,39.3372],[34.5941,39.3392],[34.5951,39.3384],[34.5965,39.3404]]]}},{"type":"Feature","properties":{"code":"40-04","provinceCode":"40","name":"Çiçekdağı"},"geometry":{"type":"Polygon","coordinates":[[[34.5628657,39.4400733],[34.4977325,39.4673504],[34.4942619,39.4962544],[34.4967346,39.5138629],[34.494111,39.5370505],[34.4981065,39.5428171],[34.499561,39.5530811],[34.4979375,39.5686963],[34.4953935,39.5696826],[34.4832614,39.5677306],[34.4770141,39.573789],[34.4792309,39.5772064],[34.4775328,39.5805144],[34.477296,39.6010878],[34.4663845,39.6044384],[34.4536055,39.6174924],[34.426904,39.63767],[34.4260851,39.6451737],[34.4478382,39.6472705],[34.4662207,39.6539633],[34.4689282,39.6565964],[34.4663632,39.6604361],[34.4682157,39.6651531],[34.4683247,39.6754858],[34.4639182,39.6784723],[34.4606371,39.6785328],[34.4556206,39.674452],[34.4556409,39.6783125],[34.4505652,39.6797939],[34.4468634,39.6784295],[34.4460304,39.67457],[34.4433762,39.6734503],[34.4402913,39.677831],[34.4421777,39.6806048],[34.4410377,39.6812629],[34.4386226,39.6801809],[34.4308088,39.6826231],[34.4245129,39.6823065],[34.4225125,39.6856202],[34.4139419,39.6875897],[34.4130375,39.6907358],[34.4072112,39.6875919],[34.4061851,39.6930011],[34.3953669,39.6923022],[34.3910468,39.6898779],[34.3900587,39.6977772],[34.388613,39.6988329],[34.3833803,39.6977348],[34.3813715,39.7010509],[34.3768103,39.7028367],[34.3746405,39.6979883],[34.3641189,39.6975892],[34.3595223,39.6947897],[34.3566401,39.6984636],[34.3443479,39.6976756],[34.3426594,39.6997242],[34.338833,39.6980218],[34.338067,39.6953166],[34.3320309,39.6964834],[34.3257371,39.6949309],[34.3211732,39.6975409],[34.312248,39.6962397],[34.3148215,39.7018482],[34.3170844,39.7023622],[34.3163104,39.7044055],[34.3109879,39.7018433],[34.3099789,39.6998074],[34.3049712,39.7009826],[34.3022972,39.6976322],[34.2980548,39.6990517],[34.2923666,39.6951738],[34.2852143,39.7043388],[34.2809018,39.7048225],[34.2822736,39.7087593],[34.280132,39.7096449],[34.2780243,39.7077252],[34.2766024,39.7082605],[34.2773185,39.7113937],[34.274408,39.7107146],[34.2688847,39.7131486],[34.2644721,39.7119786],[34.260259,39.7132999],[34.2588626,39.7121137],[34.2569613,39.7152187],[34.2486327,39.7173879],[34.2494052,39.7215737],[34.2449398,39.7225614],[34.2450567,39.7259449],[34.2391204,39.7287776],[34.2408953,39.7321895],[34.2376562,39.7357643],[34.2361413,39.7348464],[34.2373786,39.7334408],[34.2353569,39.7324557],[34.2288247,39.7383714],[34.2295529,39.7419672],[34.2261192,39.7465749],[34.2285827,39.7497036],[34.2275484,39.7515479],[34.2243586,39.7520147],[34.2227941,39.7507325],[34.2205825,39.7526396],[34.2186239,39.7511418],[34.2172679,39.7517982],[34.2188184,39.7534234],[34.2159885,39.7543946],[34.2149332,39.7524748],[34.2112759,39.7505928],[34.2097827,39.7511955],[34.2079834,39.7550264],[34.2102147,39.7565951],[34.2058914,39.7555257],[34.2069885,39.7629978],[34.2039509,39.7630148],[34.1990146,39.7686266],[34.2056879,39.7728597],[34.1968309,39.7761991],[34.1971866,39.7776333],[34.2010747,39.7776811],[34.1999851,39.7803619],[34.1978779,39.7801637],[34.1834238,39.7885546],[34.1854287,39.7922487],[34.1833706,39.795931],[34.1840178,39.7983763],[34.176154,39.7964669],[34.1700905,39.7975037],[34.1695646,39.7935928],[34.1677749,39.7929555],[34.165577,39.7958222],[34.1578834,39.7987628],[34.1558983,39.7977257],[34.1559353,39.7920321],[34.1438725,39.790031],[34.1325869,39.7917469],[34.1275253,39.7947813],[34.125232,39.7933447],[34.1243802,39.7897126],[34.1192928,39.7928142],[34.114437,39.7923777],[34.1033638,39.7923468],[34.0950084,39.7898058],[34.0627407,39.7881246],[34.0553768,39.7735175],[34.044145,39.7712774],[34.0635689,39.7540221],[34.0937069,39.735647],[34.1112321,39.702968],[34.1433616,39.6812074],[34.1703132,39.6534093],[34.2038368,39.6357742],[34.2089483,39.6294347],[34.2128649,39.6167028],[34.2126657,39.6083158],[34.2088819,39.5917947],[34.2025091,39.5762929],[34.2074215,39.5608388],[34.2021108,39.5509607],[34.1902946,39.5438968],[34.1873073,39.5395455],[34.1859302,39.5291165],[34.1918313,39.5194319],[34.2135866,39.5132264],[34.2220631,39.5014873],[34.2369176,39.4915323],[34.3108,39.4659],[34.3153,39.4707],[34.3213,39.4646],[34.3228,39.4647],[34.3223,39.4632],[34.3275,39.4619],[34.3481,39.4614],[34.3532,39.4648],[34.3642,39.462],[34.3623,39.4707],[34.3702,39.4828],[34.3817,39.485],[34.3822,39.4866],[34.3884,39.4864],[34.3891,39.4885],[34.3972,39.4823],[34.4016,39.4834],[34.4099,39.4815],[34.414,39.483],[34.4138,39.4805],[34.4212,39.4782],[34.4205,39.4762],[34.4236,39.4773],[34.4291,39.4754],[34.4312,39.4717],[34.4358,39.4722],[34.4406,39.477],[34.4444,39.474],[34.459,39.4859],[34.477,39.4779],[34.4808,39.4725],[34.4732,39.4594],[34.4699,39.4608],[34.465,39.4589],[34.4615,39.4546],[34.4572,39.4559],[34.4533,39.4605],[34.4514,39.4595],[34.4519,39.4477],[34.4444,39.4431],[34.4425,39.4437],[34.442,39.442],[34.4361,39.4439],[34.4315,39.4424],[34.4329,39.4396],[34.4248,39.4373],[34.4303,39.4326],[34.4293,39.4314],[34.4279,39.4327],[34.4222,39.4292],[34.4281,39.4261],[34.4272,39.4241],[34.4303,39.4231],[34.4341,39.4138],[34.4396,39.4121],[34.4399,39.4018],[34.4384,39.3997],[34.4409,39.3946],[34.4674,39.389],[34.4736,39.3947],[34.4799,39.3946],[34.4905,39.3919],[34.4917,39.3953],[34.4931,39.3947],[34.4926,39.391],[34.4993,39.388],[34.4986,39.3862],[34.5063,39.3821],[34.5101,39.3867],[34.5144,39.3862],[34.5209,39.3946],[34.5244,39.3943],[34.5238,39.39],[34.5275,39.3895],[34.5281,39.3926],[34.5266,39.3934],[34.5285,39.3972],[34.5326,39.396],[34.5364,39.3985],[34.5388,39.3985],[34.5384,39.3967],[34.5438,39.3985],[34.5484,39.4036],[34.5462,39.4078],[34.5484,39.4065],[34.5515,39.407],[34.5518,39.4037],[34.5499,39.4028],[34.5544,39.3843],[34.5661,39.3766],[34.5649,39.3748],[34.5666,39.374],[34.5695,39.366],[34.568,39.3638],[34.5729,39.3583],[34.5887,39.3494],[34.5874,39.348],[34.5965,39.3404],[34.621005,39.3543398],[34.6272016,39.3557479],[34.6281104,39.3595155],[34.6365901,39.3637233],[34.6536274,39.3690858],[34.6548262,39.3729118],[34.6591149,39.3725218],[34.6596195,39.3765196],[34.6714979,39.3836464],[34.6710024,39.3879628],[34.6625518,39.3914994],[34.6622943,39.4036372],[34.636687,39.4145704],[34.6066858,39.4080558],[34.5980929,39.4182925],[34.5968605,39.4271837],[34.5628657,39.4400733]]]}},{"type":"Feature","properties":{"code":"40-05","provinceCode":"40","name":"Kaman"},"geometry":{"type":"Polygon","coordinates":[[[33.6561373,39.158611],[33.6799925,39.1422193],[33.6816376,39.1431606],[33.7242256,39.1531616],[33.7940506,39.1660426],[33.8143984,39.1606794],[33.8456404,39.1717996],[33.8634049,39.1957326],[33.8726765,39.2047144],[33.8832398,39.2256976],[33.9090851,39.2452121],[33.9294233,39.2560738],[33.9468223,39.2726784],[33.9965455,39.2857918],[34.0275065,39.3031386],[33.9917333,39.3379274],[33.9654868,39.3968108],[33.954021,39.4174037],[33.945191,39.4226308],[33.8898709,39.4368114],[33.8724048,39.4389983],[33.8595143,39.4390007],[33.8559409,39.4428411],[33.8561232,39.4486161],[33.8647432,39.4526408],[33.8677502,39.458213],[33.8465008,39.4899351],[33.8378808,39.4999903],[33.8208412,39.5084974],[33.7747286,39.5067605],[33.7596992,39.4859126],[33.7563441,39.4781902],[33.7452927,39.47128],[33.7311421,39.4658653],[33.7242936,39.4687799],[33.7030151,39.4888103],[33.6875123,39.5114646],[33.6796923,39.510512],[33.6714607,39.5036317],[33.6661102,39.4946334],[33.6608453,39.4913576],[33.6465014,39.4849184],[33.6217577,39.4798842],[33.6054697,39.4732317],[33.586475,39.4621792],[33.5738753,39.4458736],[33.5591813,39.4361677],[33.5368959,39.4254627],[33.5155279,39.4180923],[33.5065754,39.4174912],[33.4867373,39.4264621],[33.4659701,39.4301457],[33.4477671,39.4307633],[33.4217834,39.3965405],[33.4200667,39.378497],[33.4082221,39.3772365],[33.4063338,39.3652268],[33.4132003,39.3648287],[33.411312,39.3611126],[33.4130286,39.3601835],[33.4178351,39.3617762],[33.4210109,39.3647623],[33.4267615,39.3650941],[33.4279632,39.3671512],[33.4300231,39.3648287],[33.4203242,39.3612453],[33.4218692,39.3548743],[33.4257316,39.354808],[33.4250449,39.3520205],[33.4351729,39.3548743],[33.4388637,39.3491002],[33.4475326,39.3546752],[33.4481334,39.3519541],[33.4509658,39.3540779],[33.4542274,39.3536797],[33.4517383,39.3497639],[33.4539699,39.3449186],[33.4562873,39.3428609],[33.4659003,39.3406703],[33.4659862,39.3395418],[33.4596347,39.3382142],[33.4532832,39.334895],[33.4505366,39.3283888],[33.4481334,39.3288536],[33.4443568,39.323874],[33.443241,39.3186285],[33.4489917,39.3180309],[33.4509658,39.3138474],[33.4579181,39.3115232],[33.4596347,39.3084019],[33.4595489,39.3020925],[33.4630679,39.3002328],[33.4736251,39.2989044],[33.4762,39.2955169],[33.4832381,39.2937235],[33.4877013,39.2933249],[33.4879588,39.2953177],[33.4947394,39.2957826],[33.5020351,39.2913985],[33.5060691,39.2911328],[33.5100173,39.2842905],[33.5149955,39.28057],[33.5190935,39.2746083],[33.5216255,39.2667724],[33.5451742,39.2243847],[33.5584567,39.2083192],[33.6561373,39.158611]]]}},{"type":"Feature","properties":{"code":"40-06","provinceCode":"40","name":"Kırşehir merkez"},"geometry":{"type":"Polygon","coordinates":[[[33.969205,38.9744824],[33.9877604,38.9669971],[34.0069367,38.9680073],[34.0355016,38.9608706],[34.0513835,38.9459625],[34.0572126,38.9352643],[34.0706489,38.9029925],[34.0745744,38.8816211],[34.0804013,38.8755869],[34.1179167,38.8573735],[34.1526956,38.8312231],[34.1674709,38.8230329],[34.1791206,38.8199336],[34.1990105,38.8214833],[34.224299,38.8250252],[34.2412149,38.8324939],[34.2439281,38.8331843],[34.2442526,38.8391873],[34.2388048,38.8492535],[34.2470596,38.8582116],[34.249392,38.8534352],[34.251678,38.8536008],[34.2506074,38.8592134],[34.2548828,38.8617205],[34.2537151,38.8690325],[34.2583085,38.8735436],[34.2514488,38.8757957],[34.2539887,38.8786486],[34.2472542,38.880226],[34.249796,38.8834564],[34.25417,38.8831698],[34.2527909,38.8872112],[34.2576583,38.8909366],[34.2656859,38.8929729],[34.2700992,38.8992618],[34.2450729,38.9190518],[34.235184,38.9307178],[34.2267542,38.937086],[34.2254573,38.93986],[34.2222961,38.9410579],[34.2203913,38.9468893],[34.2234388,38.959085],[34.2364254,38.983413],[34.2578604,39.0082375],[34.257967,39.0117892],[34.2493131,39.030342],[34.2521825,39.0450427],[34.2562393,39.0549551],[34.2581811,39.0802112],[34.2384712,39.0931751],[34.2313471,39.1007926],[34.2344342,39.1072423],[34.2341176,39.1175606],[34.2411625,39.1381311],[34.2498202,39.1493542],[34.2600858,39.1732331],[34.2498,39.1841],[34.2458,39.1823],[34.2391953,39.1940724],[34.2187,39.1999],[34.2174,39.2026],[34.2198,39.2089],[34.2264,39.2175],[34.2185,39.2214],[34.2195,39.2224],[34.2161,39.2243],[34.2165,39.2267],[34.2123,39.2331],[34.2104,39.2495],[34.2091,39.2501],[34.2108,39.2505],[34.2094,39.2521],[34.2113,39.2543],[34.2093,39.2565],[34.2116,39.2578],[34.2074,39.2584],[34.2087,39.262],[34.2025,39.2715],[34.1952,39.2747],[34.1956,39.2784],[34.1918,39.2842],[34.1884,39.2849],[34.1877,39.2944],[34.1822,39.3019],[34.1827,39.3039],[34.18,39.304],[34.1791,39.3079],[34.1876,39.3094],[34.1917,39.3127],[34.1916,39.3153],[34.2,39.3126],[34.2068,39.3152],[34.2046,39.3173],[34.2055,39.3241],[34.2101,39.3231],[34.2116,39.3254],[34.205,39.3293],[34.2084,39.3347],[34.2068,39.3342],[34.2059,39.3355],[34.2085,39.3416],[34.2059,39.3465],[34.1987,39.3559],[34.1838,39.3634],[34.2064,39.3654],[34.23,39.3715],[34.2317,39.3691],[34.2394,39.3692],[34.2396,39.3674],[34.2415,39.3671],[34.2416,39.3687],[34.2458,39.3695],[34.2442,39.3717],[34.2468,39.3735],[34.2476,39.3756],[34.2459,39.3782],[34.2488,39.3784],[34.2483,39.3808],[34.2442,39.3815],[34.2466,39.3836],[34.241,39.3859],[34.2422,39.3924],[34.2397,39.3949],[34.2409,39.3975],[34.2349,39.3987],[34.233,39.4009],[34.2391,39.4005],[34.2369,39.4034],[34.2395,39.406],[34.2413,39.4058],[34.2426,39.4089],[34.2388,39.4112],[34.2374,39.4148],[34.2558,39.4297],[34.2626,39.4262],[34.2645,39.4272],[34.27,39.4239],[34.2696,39.4225],[34.2777,39.4203],[34.2792,39.4212],[34.2818,39.416],[34.284,39.4164],[34.288,39.4129],[34.2924,39.4129],[34.2924,39.411],[34.2997,39.4122],[34.3003,39.4144],[34.3048,39.4147],[34.3045,39.4163],[34.3072,39.4168],[34.3077,39.4195],[34.31,39.4204],[34.3081,39.4208],[34.3096,39.424],[34.3088,39.4296],[34.3127,39.4285],[34.3134,39.4318],[34.3118,39.4323],[34.311,39.442],[34.3086,39.444],[34.31,39.4479],[34.3143,39.4485],[34.3136,39.4501],[34.3167,39.4545],[34.316,39.4598],[34.313,39.4605],[34.3108,39.4659],[34.2369176,39.4915323],[34.2220631,39.5014873],[34.2135866,39.5132264],[34.1918313,39.5194319],[34.1587359,39.5188794],[34.155235,39.5151729],[34.1095704,39.4973084],[34.0878108,39.4837175],[34.081006,39.4684068],[34.0911169,39.4349098],[34.0834053,39.4159804],[34.0753358,39.4035364],[34.0619954,39.3946041],[34.0573382,39.3808337],[34.0575188,39.3532215],[34.0508373,39.3276601],[34.0432409,39.3160897],[34.0275065,39.3031386],[33.9965455,39.2857918],[33.9468223,39.2726784],[33.9294233,39.2560738],[33.9090851,39.2452121],[33.8832398,39.2256976],[33.8726765,39.2047144],[33.8634049,39.1957326],[33.8456404,39.1717996],[33.8143984,39.1606794],[33.7940506,39.1660426],[33.7242256,39.1531616],[33.6816376,39.1431606],[33.7075812,39.1203209],[33.7323853,39.1096008],[33.7455901,39.1015468],[33.7579396,39.0764487],[33.7781844,39.0745417],[33.8149945,39.0769344],[33.8372116,39.0744324],[33.8463744,39.0719373],[33.8641585,39.0624843],[33.8852273,39.0278782],[33.8979541,39.0382087],[33.9478741,39.0509266],[33.9605392,39.0467074],[33.9597576,39.0340571],[33.9697959,39.0313692],[34.008177,39.0392148],[34.0048863,39.0274378],[33.9778799,38.9976213],[33.981018,38.9895441],[33.969205,38.9744824]]]}},{"type":"Feature","properties":{"code":"40-07","provinceCode":"40","name":"Mucur"},"geometry":{"type":"Polygon","coordinates":[[[34.5808,39.3294],[34.559,39.3107],[34.5572,39.3113],[34.5537,39.3083],[34.5707,39.2854],[34.5683,39.2842],[34.5693,39.2828],[34.5549,39.2737],[34.5517,39.2764],[34.535,39.2673],[34.5359,39.2655],[34.5331,39.2647],[34.5281,39.2703],[34.4711,39.2334],[34.4363,39.2021],[34.409,39.2199],[34.4039,39.2284],[34.3877,39.2445],[34.3807,39.2473],[34.3719,39.2475],[34.3491,39.2361],[34.3385,39.2372],[34.3367,39.2297],[34.3334,39.2309],[34.3304,39.2217],[34.324,39.2176],[34.3259,39.2157],[34.3246,39.2145],[34.3198,39.2133],[34.3204,39.2144],[34.3179,39.2162],[34.3162,39.2151],[34.3132,39.217],[34.3106,39.2161],[34.3082,39.2136],[34.3111,39.2106],[34.3089,39.2071],[34.2988,39.2036],[34.296,39.2068],[34.2861,39.1967],[34.2797,39.1945],[34.2758,39.1963],[34.2728,39.1943],[34.2682,39.1945],[34.2498,39.1841],[34.2600858,39.1732331],[34.2498202,39.1493542],[34.2411625,39.1381311],[34.2341176,39.1175606],[34.2344342,39.1072423],[34.2313471,39.1007926],[34.2384712,39.0931751],[34.2581811,39.0802112],[34.2562393,39.0549551],[34.2521825,39.0450427],[34.2493131,39.030342],[34.257967,39.0117892],[34.2578604,39.0082375],[34.2364254,38.983413],[34.2234388,38.959085],[34.2203913,38.9468893],[34.2222961,38.9410579],[34.2254573,38.93986],[34.2267542,38.937086],[34.235184,38.9307178],[34.2450729,38.9190518],[34.2700992,38.8992618],[34.2735874,38.8985747],[34.280948,38.9005191],[34.3048644,38.8926881],[34.308045,38.8830919],[34.3214593,38.8762429],[34.3241937,38.8723221],[34.3377709,38.8625541],[34.3487548,38.8608303],[34.3498531,38.8594422],[34.3478652,38.8543019],[34.3501895,38.8480446],[34.3546355,38.8492218],[34.3637436,38.8580815],[34.3706361,38.8595741],[34.3836347,38.8732174],[34.3906018,38.8822554],[34.4022833,38.9064486],[34.4122652,38.9172978],[34.4122652,38.9233381],[34.4151172,38.9303639],[34.4219302,38.9336918],[34.4337285,38.934562],[34.4342429,38.9414986],[34.4375861,38.9465726],[34.4340563,38.9543462],[34.4376598,38.9648598],[34.4370903,38.9687342],[34.4400801,38.9716121],[34.4392972,38.9739144],[34.4435689,38.9740639],[34.4434765,38.9763244],[34.4405488,38.9788178],[34.443946,38.9829461],[34.4379235,38.9865986],[34.4467688,38.9850296],[34.4612946,38.9778721],[34.4677002,38.9778104],[34.4686968,38.9790278],[34.473772,38.9775128],[34.47638,38.9810317],[34.487009,38.9786607],[34.4902439,38.9833308],[34.482665,38.99267],[34.4737921,38.9977702],[34.4736073,38.9995659],[34.4844211,38.9994223],[34.5014274,39.006533],[34.5005956,39.0081848],[34.5062335,39.0092621],[34.5117791,39.0163],[34.5141821,39.0169463],[34.522408,39.0253477],[34.5189883,39.0295839],[34.5192656,39.0320968],[34.5333143,39.0391325],[34.5400613,39.0500435],[34.5435735,39.0509048],[34.5451448,39.055929],[34.5396916,39.055929],[34.5422796,39.0625316],[34.5624284,39.060594],[34.565386,39.0484643],[34.5696451,39.0468167],[34.5713412,39.0429215],[34.5674161,39.0394025],[34.5726738,39.0392519],[34.5722253,39.0346581],[34.5700545,39.0329191],[34.5712498,39.0309171],[34.5681993,39.0318662],[34.5678593,39.0238129],[34.6004117,39.0144996],[34.6007814,39.0176949],[34.611133,39.0288246],[34.6279545,39.0362195],[34.629704,39.040475],[34.627734,39.0403794],[34.62666,39.0469616],[34.6295567,39.0467976],[34.6304766,39.0498596],[34.6250252,39.0546274],[34.625459,39.0609587],[34.6054027,39.0645715],[34.6094694,39.0727519],[34.6034617,39.0749763],[34.6009283,39.0720373],[34.5987325,39.0730071],[34.6009283,39.0750057],[34.5971046,39.0772686],[34.5955525,39.0738301],[34.5913503,39.0767984],[34.5834759,39.0776801],[34.5740115,39.0723899],[34.5733608,39.0654644],[34.5488853,39.0720829],[34.521153,39.0764405],[34.5155119,39.0802615],[34.5175331,39.0839898],[34.5230963,39.0867108],[34.5227855,39.0926024],[34.5209518,39.0949896],[34.528405,39.1023346],[34.5342611,39.0996262],[34.529588,39.0955405],[34.5369821,39.0959537],[34.5402946,39.1001771],[34.5444353,39.0960914],[34.5465056,39.097285],[34.5521251,39.0958619],[34.5474521,39.0938419],[34.5478458,39.0891172],[34.5500567,39.0876127],[34.5601204,39.0987846],[34.5596583,39.1028192],[34.5535351,39.1030882],[34.5504687,39.106731],[34.5556551,39.1074947],[34.5677499,39.1149184],[34.5654578,39.1270796],[34.5772143,39.1275958],[34.565162,39.1340197],[34.5650881,39.139124],[34.5593207,39.1410165],[34.5610953,39.1426222],[34.5594686,39.1442279],[34.5605037,39.1450308],[34.5751866,39.1403298],[34.5727031,39.1369472],[34.5767009,39.1352088],[34.5895961,39.1329606],[34.5929086,39.1381452],[34.61078,39.1480856],[34.61078,39.1506055],[34.6235968,39.1556449],[34.6308926,39.1667387],[34.6305308,39.1690951],[34.6224624,39.1701164],[34.615482,39.1761841],[34.6080816,39.1788033],[34.5868359,39.1798991],[34.5909198,39.1857432],[34.5912339,39.1987689],[34.5942183,39.1998643],[34.5940612,39.2069239],[34.6280405,39.2217931],[34.6289829,39.2287287],[34.6377217,39.2322362],[34.6422753,39.2365512],[34.6481001,39.236242],[34.6516096,39.2386029],[34.6536279,39.2366489],[34.6693953,39.2382121],[34.681757,39.2447576],[34.6863593,39.2441954],[34.6904431,39.2366531],[34.694527,39.2367747],[34.6946841,39.2399377],[34.6916997,39.2417625],[34.6891865,39.2468716],[34.6915141,39.2539964],[34.7032326,39.2586218],[34.7019639,39.2617948],[34.7048405,39.2662458],[34.6967284,39.273749],[34.6895625,39.2750884],[34.6800193,39.2800495],[34.675976,39.2859055],[34.6752217,39.305507],[34.6729272,39.3062745],[34.6741886,39.3114473],[34.6649786,39.3097297],[34.666297,39.3146165],[34.6596826,39.3171076],[34.6553137,39.3134619],[34.6500496,39.3132356],[34.6375743,39.3036529],[34.6234117,39.3099637],[34.622093,39.3085194],[34.6176781,39.3116425],[34.610513,39.3102895],[34.6060386,39.312661],[34.6075869,39.3176932],[34.6021629,39.3176932],[34.5944511,39.3223513],[34.5897389,39.3180984],[34.5808,39.3294]]]}},{"type":"Feature","properties":{"code":"40-08","provinceCode":"40","name":"Yerköy"},"geometry":{"type":"Polygon","coordinates":[[[34.7262551,39.6373078],[34.7044781,39.6458844],[34.6886857,39.654588],[34.6885195,39.6584275],[34.6920104,39.6625227],[34.706473,39.6663618],[34.7157822,39.6708404],[34.7230999,39.6772161],[34.7229304,39.686833],[34.720603,39.6943802],[34.7066392,39.7177842],[34.6958339,39.7253281],[34.6452709,39.7431627],[34.6358227,39.7378567],[34.6301706,39.7373454],[34.623355,39.7328711],[34.6205289,39.7289079],[34.6128821,39.7272459],[34.5967572,39.7267345],[34.5832921,39.7283965],[34.5731517,39.7336382],[34.569827,39.7397742],[34.5694945,39.760607],[34.5864506,39.7811781],[34.5939312,39.7990609],[34.5931,39.8051911],[34.5879467,39.8136193],[34.5684971,39.8252382],[34.5580242,39.8266425],[34.5463877,39.8251105],[34.5402369,39.8208973],[34.5317589,39.8058297],[34.5207873,39.8042972],[34.5159665,39.8101715],[34.5139716,39.8263872],[34.5069897,39.8415779],[34.4983455,39.8544683],[34.4855453,39.8621248],[34.4675918,39.8663355],[34.4424901,39.8659527],[34.4203808,39.8732252],[34.4132326,39.8793487],[34.4133988,39.8960582],[34.4100741,39.9090659],[34.3956116,39.9339265],[34.3872998,39.9377504],[34.3631359,39.9364134],[34.3587587,39.9432569],[34.3207339,39.9394362],[34.2860826,39.9449378],[34.2789985,39.942076],[34.2498033,39.9451581],[34.2369075,39.9583187],[34.2178194,39.973247],[34.208147,39.9775884],[34.1970905,39.973033],[34.1899889,39.9656668],[34.184726,39.9512394],[34.1668467,39.9378722],[34.1186787,39.9204013],[34.0951588,39.908757],[34.1004675,39.9016841],[34.0947723,39.8859776],[34.0945653,39.8763984],[34.0858546,39.8675334],[34.0641555,39.8585964],[34.0692619,39.8564844],[34.0707698,39.8458485],[34.0642019,39.8455367],[34.0606553,39.8351561],[34.0908275,39.8127744],[34.0972818,39.8069499],[34.0974892,39.8038157],[34.1033006,39.8030254],[34.1046584,39.7965321],[34.1108486,39.7975548],[34.114437,39.7923777],[34.1192928,39.7928142],[34.1243802,39.7897126],[34.125232,39.7933447],[34.1275253,39.7947813],[34.1325869,39.7917469],[34.1438725,39.790031],[34.1559353,39.7920321],[34.1558983,39.7977257],[34.1578834,39.7987628],[34.165577,39.7958222],[34.1677749,39.7929555],[34.1695646,39.7935928],[34.1700905,39.7975037],[34.176154,39.7964669],[34.1840178,39.7983763],[34.1833706,39.795931],[34.1854287,39.7922487],[34.1834238,39.7885546],[34.1978779,39.7801637],[34.1999851,39.7803619],[34.2010747,39.7776811],[34.1971866,39.7776333],[34.1968309,39.7761991],[34.2056879,39.7728597],[34.1990146,39.7686266],[34.2039509,39.7630148],[34.2069885,39.7629978],[34.2058914,39.7555257],[34.2102147,39.7565951],[34.2079834,39.7550264],[34.2097827,39.7511955],[34.2112759,39.7505928],[34.2149332,39.7524748],[34.2159885,39.7543946],[34.2188184,39.7534234],[34.2172679,39.7517982],[34.2186239,39.7511418],[34.2205825,39.7526396],[34.2227941,39.7507325],[34.2243586,39.7520147],[34.2275484,39.7515479],[34.2285827,39.7497036],[34.2261192,39.7465749],[34.2295529,39.7419672],[34.2288247,39.7383714],[34.2353569,39.7324557],[34.2373786,39.7334408],[34.2361413,39.7348464],[34.2376562,39.7357643],[34.2408953,39.7321895],[34.2391204,39.7287776],[34.2450567,39.7259449],[34.2449398,39.7225614],[34.2494052,39.7215737],[34.2486327,39.7173879],[34.2569613,39.7152187],[34.2588626,39.7121137],[34.260259,39.7132999],[34.2644721,39.7119786],[34.2688847,39.7131486],[34.274408,39.7107146],[34.2773185,39.7113937],[34.2766024,39.7082605],[34.2780243,39.7077252],[34.280132,39.7096449],[34.2822736,39.7087593],[34.2809018,39.7048225],[34.2852143,39.7043388],[34.2923666,39.6951738],[34.2980548,39.6990517],[34.3022972,39.6976322],[34.3049712,39.7009826],[34.3099789,39.6998074],[34.3109879,39.7018433],[34.3163104,39.7044055],[34.3170844,39.7023622],[34.3148215,39.7018482],[34.312248,39.6962397],[34.3211732,39.6975409],[34.3257371,39.6949309],[34.3320309,39.6964834],[34.338067,39.6953166],[34.338833,39.6980218],[34.3426594,39.6997242],[34.3443479,39.6976756],[34.3566401,39.6984636],[34.3595223,39.6947897],[34.3641189,39.6975892],[34.3746405,39.6979883],[34.3768103,39.7028367],[34.3813715,39.7010509],[34.3833803,39.6977348],[34.388613,39.6988329],[34.3900587,39.6977772],[34.3910468,39.6898779],[34.3953669,39.6923022],[34.4061851,39.6930011],[34.4072112,39.6875919],[34.4130375,39.6907358],[34.4139419,39.6875897],[34.4225125,39.6856202],[34.4245129,39.6823065],[34.4308088,39.6826231],[34.4386226,39.6801809],[34.4410377,39.6812629],[34.4421777,39.6806048],[34.4402913,39.677831],[34.4433762,39.6734503],[34.4460304,39.67457],[34.4468634,39.6784295],[34.4505652,39.6797939],[34.4556409,39.6783125],[34.4556206,39.674452],[34.4606371,39.6785328],[34.4639182,39.6784723],[34.4683247,39.6754858],[34.4682157,39.6651531],[34.4663632,39.6604361],[34.4689282,39.6565964],[34.4662207,39.6539633],[34.4478382,39.6472705],[34.4260851,39.6451737],[34.426904,39.63767],[34.4536055,39.6174924],[34.4663845,39.6044384],[34.477296,39.6010878],[34.4775328,39.5805144],[34.4792309,39.5772064],[34.4770141,39.573789],[34.4832614,39.5677306],[34.4953935,39.5696826],[34.4979375,39.5686963],[34.499561,39.5530811],[34.4981065,39.5428171],[34.494111,39.5370505],[34.4967346,39.5138629],[34.4942619,39.4962544],[34.4977325,39.4673504],[34.5628657,39.4400733],[34.5702789,39.4981405],[34.5628113,39.5119187],[34.5628113,39.5201843],[34.5751491,39.5286993],[34.6196302,39.5519852],[34.6335915,39.5632497],[34.6420331,39.5667539],[34.6719037,39.5647515],[34.684131,39.5742694],[34.6861677,39.5833228],[34.6960218,39.6005668],[34.7079606,39.610192],[34.7129132,39.6196923],[34.7262551,39.6373078]]]}}]}