{"type":"FeatureCollection","features":[{"type":"Feature","properties":{"code":"05-01","provinceCode":"05","name":"Amasya merkez"},"geometry":{"type":"Polygon","coordinates":[[[35.4065967,40.6401877],[35.4203433,40.6295062],[35.4264893,40.6285345],[35.4312268,40.625036],[35.45641,40.6219798],[35.4678825,40.6144746],[35.4855054,40.5970552],[35.4838664,40.5924263],[35.486913,40.5885206],[35.4850251,40.5840565],[35.4869241,40.5694022],[35.5151086,40.5633526],[35.5214365,40.5654854],[35.5309346,40.5486637],[35.5304532,40.5371581],[35.5135394,40.5208309],[35.5297923,40.5181765],[35.554342,40.5096354],[35.5726503,40.5080536],[35.5996966,40.5115335],[35.6026093,40.5048899],[35.5980322,40.4966635],[35.5981116,40.4873497],[35.6250785,40.4931828],[35.6433868,40.4887526],[35.6546214,40.4912842],[35.6745941,40.5010932],[35.6904057,40.5029916],[35.7070496,40.4998276],[35.7107945,40.4893855],[35.7053852,40.4767262],[35.7053852,40.4662805],[35.7261901,40.4520337],[35.7266062,40.43335],[35.7388242,40.4261143],[35.756221,40.4274591],[35.7705687,40.4247017],[35.7795065,40.4189028],[35.7976406,40.4214539],[35.8057686,40.4245388],[35.8246007,40.445868],[35.832782,40.4697193],[35.8301864,40.4815718],[35.8234499,40.4956632],[35.8250989,40.4968063],[35.8266149,40.4972796],[35.8296975,40.4932891],[35.8401035,40.495691],[35.8440211,40.4952688],[35.84704,40.4928225],[35.8554219,40.4963463],[35.8607268,40.491303],[35.8628248,40.4923666],[35.8700179,40.4916069],[35.874677,40.4970806],[35.8775107,40.4940381],[35.8979909,40.4953296],[35.9003886,40.49419],[35.9044847,40.4954816],[35.9047844,40.4982925],[35.9085807,40.4999638],[35.9141804,40.4980159],[35.9135759,40.4954816],[35.9252469,40.4978658],[35.9324578,40.4941141],[35.9376528,40.4957855],[35.9416489,40.4946459],[35.94703,40.4993827],[35.9524527,40.5006036],[35.9554356,40.4977607],[35.9676527,40.4986305],[35.9704212,40.4957095],[35.9736032,40.4966716],[35.9776553,40.5014782],[35.9806114,40.4976848],[35.9887036,40.4954816],[35.9957968,40.494342],[36.000213,40.4954735],[36.0026285,40.4913341],[36.0114677,40.488548],[36.017269,40.484542],[36.0196738,40.4818811],[36.0172761,40.4794495],[36.0113818,40.4802094],[36.009084,40.4758778],[36.0144078,40.4712659],[36.0139618,40.4679814],[36.0264229,40.4632635],[36.0321079,40.4635377],[36.0337413,40.4617747],[36.0387222,40.4629686],[36.0471967,40.4590566],[36.0622462,40.457755],[36.0701561,40.4591055],[36.0718014,40.4559481],[36.0781471,40.4524853],[36.0828443,40.4527707],[36.0909307,40.4477916],[36.0965478,40.4478685],[36.1005705,40.4433207],[36.1068423,40.4413691],[36.1087974,40.4436776],[36.1104017,40.456228],[36.138061,40.4730751],[36.1467038,40.4736632],[36.1595585,40.4771877],[36.1593495,40.4785392],[36.1631119,40.480871],[36.1672338,40.4796775],[36.1838049,40.4851105],[36.1955547,40.4852858],[36.2099674,40.4931648],[36.2135556,40.4931118],[36.2162728,40.4952312],[36.2207668,40.4960259],[36.2235537,40.4953372],[36.2293063,40.5003653],[36.2336215,40.5001585],[36.2417037,40.5038405],[36.241922,40.5082918],[36.2453493,40.5146312],[36.2682053,40.5238869],[36.2719476,40.5300297],[36.2928296,40.5454163],[36.2849545,40.5628586],[36.2976594,40.5803931],[36.3096237,40.5929216],[36.3205036,40.6021425],[36.3016793,40.6098169],[36.2339977,40.6251072],[36.1711505,40.6648454],[36.1510072,40.6691235],[36.1228065,40.6697347],[36.0873543,40.6828727],[36.0615708,40.6990625],[36.0523049,40.7097518],[36.045859,40.7292934],[36.0450533,40.739062],[36.0539164,40.765003],[36.0559307,40.7958139],[36.051902,40.8156351],[36.0462329,40.8324432],[36.0373479,40.8323972],[36.0265909,40.826975],[36.0231822,40.8220848],[36.0186727,40.8219504],[36.0119972,40.8243687],[36.0095827,40.8284796],[36.0058899,40.8299304],[35.9553979,40.8439535],[35.9243642,40.847526],[35.9163342,40.851583],[35.8860476,40.8241496],[35.8742151,40.8156084],[35.8661547,40.8037802],[35.8540629,40.7952172],[35.8318297,40.7845859],[35.7897035,40.7715897],[35.7768317,40.7642043],[35.7494608,40.7293134],[35.7218796,40.7008819],[35.6954016,40.6841518],[35.6634075,40.6711831],[35.6413425,40.6665807],[35.5529878,40.6774504],[35.5157307,40.6727721],[35.483064,40.6756232],[35.475785,40.6721523],[35.4628171,40.6692047],[35.4298987,40.6552552],[35.4145815,40.6472868],[35.4065967,40.6401877]]]}},{"type":"Feature","properties":{"code":"05-02","provinceCode":"05","name":"Göynücek"},"geometry":{"type":"Polygon","coordinates":[[[35.5135394,40.5208309],[35.5020407,40.5129769],[35.4839249,40.5039019],[35.4617958,40.4953346],[35.4348721,40.4877477],[35.4114365,40.4631941],[35.3957545,40.4057096],[35.3538956,40.3857219],[35.3615129,40.3596443],[35.3799114,40.3319623],[35.406084,40.3347318],[35.4104431,40.3321189],[35.4086393,40.3232669],[35.3904922,40.2923004],[35.385138,40.286226],[35.3559036,40.2761586],[35.3513967,40.2672864],[35.3372765,40.2583453],[35.3399519,40.2550786],[35.3472284,40.2365534],[35.3623573,40.2330084],[35.3693811,40.2340699],[35.3754228,40.2398645],[35.3915339,40.2423478],[35.4053212,40.2406923],[35.4087294,40.2374994],[35.4325569,40.2427259],[35.4412705,40.2480634],[35.4404737,40.2549045],[35.4446793,40.2599435],[35.4739371,40.2794504],[35.5112796,40.2991068],[35.5217415,40.3105135],[35.5594425,40.3220017],[35.6260642,40.3395949],[35.6606217,40.3551078],[35.686546,40.3610429],[35.7084469,40.3641556],[35.7088316,40.3740186],[35.7139828,40.3885201],[35.7262745,40.4047791],[35.7388242,40.4261143],[35.7266062,40.43335],[35.7261901,40.4520337],[35.7053852,40.4662805],[35.7053852,40.4767262],[35.7107945,40.4893855],[35.7070496,40.4998276],[35.6904057,40.5029916],[35.6745941,40.5010932],[35.6546214,40.4912842],[35.6433868,40.4887526],[35.6250785,40.4931828],[35.5981116,40.4873497],[35.5980322,40.4966635],[35.6026093,40.5048899],[35.5996966,40.5115335],[35.5726503,40.5080536],[35.554342,40.5096354],[35.5297923,40.5181765],[35.5135394,40.5208309]]]}},{"type":"Feature","properties":{"code":"05-03","provinceCode":"05","name":"Gümüşhacıköy"},"geometry":{"type":"Polygon","coordinates":[[[35.2676012,41.0332085],[35.2624984,41.0388097],[35.2559371,41.038716],[35.2459267,41.0410549],[35.2408069,41.0449913],[35.230617,41.0693543],[35.2134682,41.0739261],[35.2106349,41.0759495],[35.183843,41.0744507],[35.174349,41.0775233],[35.1674895,41.0774484],[35.1635627,41.0742259],[35.1586914,41.0775982],[35.1550628,41.074713],[35.1512851,41.076624],[35.1392064,41.0736638],[35.1197213,41.0755374],[35.0814304,41.0759523],[35.0919108,41.0683129],[35.0938414,41.062324],[35.1012557,41.0620917],[35.1010569,41.051222],[35.0995584,41.0459689],[35.0952946,41.043088],[35.0951428,41.0398778],[35.083184,41.0268258],[35.075697,41.0219999],[35.0733049,41.0226742],[35.0710566,41.0210264],[35.0463474,41.017344],[35.0447314,41.0146281],[35.0378232,41.0112993],[35.035362,41.0118139],[35.0263488,41.0058822],[35.0198957,40.9974523],[35.0140057,40.9940729],[35.0171764,40.9929373],[35.0197767,40.9944766],[35.0244134,40.9923971],[35.0346432,40.9695892],[35.0462045,40.9607713],[35.0537546,40.951331],[35.0644753,40.9463451],[35.0593393,40.9377589],[35.059825,40.9253765],[35.0654142,40.9106577],[35.0310607,40.8821879],[35.0668764,40.8785438],[35.1016269,40.8627973],[35.1217078,40.8457302],[35.1409419,40.8213252],[35.1656023,40.8050035],[35.1776437,40.792623],[35.1779999,40.7834781],[35.1841122,40.7726808],[35.1423815,40.7629993],[35.1306845,40.7560163],[35.1408229,40.7327153],[35.1483655,40.7255493],[35.1540263,40.7235053],[35.1583766,40.7178676],[35.1607274,40.7089134],[35.1738325,40.7073607],[35.1753549,40.699167],[35.2035141,40.7096191],[35.2215025,40.7118316],[35.2348698,40.7058386],[35.2346077,40.7076832],[35.2425462,40.7108861],[35.2525522,40.7431955],[35.2500776,40.7551466],[35.2364674,40.7663927],[35.2308996,40.7731863],[35.2256411,40.7853662],[35.238014,40.7994172],[35.2806891,40.8113267],[35.3206219,40.8182953],[35.3348091,40.8267765],[35.3477378,40.852968],[35.3622981,40.8591746],[35.3614886,40.8727396],[35.3518121,40.8813398],[35.3402415,40.8990076],[35.3287434,40.909351],[35.3108994,40.9350972],[35.2850758,40.9629569],[35.3043175,40.9862233],[35.2896961,40.9956064],[35.2885026,41.0131518],[35.2834545,41.0197037],[35.2676012,41.0332085]]]}},{"type":"Feature","properties":{"code":"05-04","provinceCode":"05","name":"Hamamözü"},"geometry":{"type":"Polygon","coordinates":[[[35.0310607,40.8821879],[35.0216314,40.8728485],[35.0082036,40.8638525],[35.0061199,40.8542446],[35.0074565,40.826102],[35.001997,40.8147515],[34.9863201,40.8079399],[34.9800058,40.8004684],[34.9788445,40.7920618],[34.9824785,40.7850473],[34.9903322,40.7768109],[35.0153202,40.767872],[35.0189155,40.7622867],[35.0125239,40.75695],[35.0258258,40.7436712],[35.0300784,40.7289023],[35.0428364,40.7180249],[35.0698042,40.7117049],[35.1109029,40.7134096],[35.1607274,40.7089134],[35.1583766,40.7178676],[35.1540263,40.7235053],[35.1483655,40.7255493],[35.1408229,40.7327153],[35.1306845,40.7560163],[35.1423815,40.7629993],[35.1841122,40.7726808],[35.1779999,40.7834781],[35.1776437,40.792623],[35.1656023,40.8050035],[35.1409419,40.8213252],[35.1217078,40.8457302],[35.1016269,40.8627973],[35.0668764,40.8785438],[35.0310607,40.8821879]]]}},{"type":"Feature","properties":{"code":"05-05","provinceCode":"05","name":"Merzifon"},"geometry":{"type":"Polygon","coordinates":[[[35.2676012,41.0332085],[35.2834545,41.0197037],[35.2885026,41.0131518],[35.2896961,40.9956064],[35.3043175,40.9862233],[35.2850758,40.9629569],[35.3108994,40.9350972],[35.3287434,40.909351],[35.3402415,40.8990076],[35.3518121,40.8813398],[35.3614886,40.8727396],[35.3622981,40.8591746],[35.3477378,40.852968],[35.3348091,40.8267765],[35.3206219,40.8182953],[35.2806891,40.8113267],[35.238014,40.7994172],[35.2256411,40.7853662],[35.2308996,40.7731863],[35.2364674,40.7663927],[35.2500776,40.7551466],[35.2525522,40.7431955],[35.2425462,40.7108861],[35.2346077,40.7076832],[35.2348698,40.7058386],[35.2538138,40.7093332],[35.2616243,40.7030241],[35.2795999,40.7023582],[35.2832632,40.6983647],[35.2936726,40.6983895],[35.3037497,40.6926371],[35.3142755,40.6903264],[35.3292289,40.6839267],[35.3306033,40.6743444],[35.3254652,40.6665195],[35.3237097,40.6488352],[35.3336598,40.6434979],[35.3537622,40.6409718],[35.3651967,40.6422801],[35.3713056,40.6381571],[35.3893575,40.6399031],[35.3986529,40.6363763],[35.4065967,40.6401877],[35.4145815,40.6472868],[35.4298987,40.6552552],[35.4628171,40.6692047],[35.475785,40.6721523],[35.483064,40.6756232],[35.5157307,40.6727721],[35.5529878,40.6774504],[35.5472541,40.6824455],[35.546696,40.6911773],[35.5563664,40.7143927],[35.5602107,40.717354],[35.5680831,40.7334214],[35.5644867,40.7390185],[35.5572961,40.7431516],[35.5496096,40.7436212],[35.5357306,40.7551523],[35.5402483,40.7621223],[35.5380414,40.7661083],[35.5406537,40.7729663],[35.5404568,40.7882596],[35.5545083,40.8171328],[35.5632576,40.8237625],[35.5675662,40.8330788],[35.6042486,40.8613139],[35.6327128,40.8781563],[35.6333986,40.8851451],[35.6363048,40.8891206],[35.6330136,40.8907009],[35.638149,40.8930125],[35.6344384,40.8969457],[35.6372258,40.9007823],[35.6395396,40.9013857],[35.6381876,40.9029059],[35.6408347,40.9032425],[35.6373634,40.9066017],[35.6402516,40.9071554],[35.643938,40.9148638],[35.6266992,40.9366369],[35.616533,40.9387268],[35.600693,40.9374625],[35.5970468,40.9403071],[35.5920258,40.9400362],[35.5892734,40.9380233],[35.5839563,40.9394492],[35.5825217,40.9386365],[35.5789353,40.9407587],[35.573735,40.9401265],[35.5723004,40.9422035],[35.5699693,40.9414811],[35.5624378,40.945364],[35.5485703,40.9482084],[35.540441,40.9481632],[35.5288342,40.9510575],[35.521433,40.9576435],[35.5016308,40.9595511],[35.4972246,40.9649108],[35.4852101,40.973847],[35.4773797,40.973847],[35.4754643,40.9789511],[35.4763038,40.9831882],[35.472538,40.9852188],[35.4715219,40.9897308],[35.4659628,40.9913574],[35.4597513,41.0038737],[35.4541221,41.007168],[35.4523835,41.0101168],[35.450145,41.0163218],[35.4461684,41.0203347],[35.4407007,41.0163968],[35.4402533,41.0143715],[35.425391,41.0096831],[35.422856,41.0097956],[35.4164438,41.0149716],[35.4095843,41.0161718],[35.4003885,41.0141465],[35.3983009,41.0148216],[35.3971079,41.0123837],[35.3895525,41.011671],[35.3854765,41.0164718],[35.376579,41.0130588],[35.3724534,41.0080702],[35.3643015,41.0049568],[35.3582869,41.0053319],[35.3577402,41.0133213],[35.3533163,41.017897],[35.3542607,41.0270098],[35.3519245,41.0299721],[35.3475503,41.0287722],[35.3466556,41.0261098],[35.345065,41.0291847],[35.3421323,41.0303471],[35.3396469,41.0360839],[35.3287612,41.0401705],[35.3117118,41.0389333],[35.3010248,41.0423075],[35.2828322,41.0411453],[35.2821363,41.0387084],[35.2806451,41.0396457],[35.2794521,41.0379585],[35.2831304,41.0373211],[35.2783586,41.0345841],[35.2744317,41.0354465],[35.2738352,41.0336467],[35.2676012,41.0332085]]]}},{"type":"Feature","properties":{"code":"05-06","provinceCode":"05","name":"Suluova"},"geometry":{"type":"Polygon","coordinates":[[[35.5529878,40.6774504],[35.6413425,40.6665807],[35.6634075,40.6711831],[35.6954016,40.6841518],[35.7218796,40.7008819],[35.7494608,40.7293134],[35.7768317,40.7642043],[35.7897035,40.7715897],[35.8318297,40.7845859],[35.8540629,40.7952172],[35.8661547,40.8037802],[35.8742151,40.8156084],[35.8860476,40.8241496],[35.9163342,40.851583],[35.9093738,40.8583117],[35.8912649,40.8605675],[35.8753574,40.8645956],[35.864421,40.869966],[35.806024,40.871797],[35.8025563,40.87307],[35.7983206,40.8778751],[35.7945195,40.8789764],[35.7944662,40.8815817],[35.7889422,40.8863221],[35.7776987,40.8765589],[35.7706649,40.8745846],[35.7665618,40.8682853],[35.7625218,40.8736506],[35.7508664,40.8749612],[35.7481786,40.8768985],[35.746169,40.8761578],[35.7337599,40.8798234],[35.7312982,40.8792536],[35.729287,40.8757527],[35.726199,40.8761198],[35.7229837,40.8711053],[35.7203712,40.8716372],[35.7142324,40.8665154],[35.6946066,40.8637095],[35.6908483,40.8669126],[35.6883181,40.8742205],[35.6845996,40.8769513],[35.6787725,40.8690427],[35.6745966,40.8693133],[35.6735825,40.8718846],[35.6704804,40.8734183],[35.6718525,40.8752677],[35.6687504,40.8782673],[35.6674753,40.8867442],[35.6643095,40.8902954],[35.6652938,40.894602],[35.6635936,40.8947824],[35.6638322,40.8966087],[35.6549701,40.8948414],[35.6532401,40.8966451],[35.6551947,40.8983119],[35.6523453,40.8996212],[35.6465713,40.8934478],[35.6401161,40.8947061],[35.638149,40.8930125],[35.6330136,40.8907009],[35.6363048,40.8891206],[35.6333986,40.8851451],[35.6327128,40.8781563],[35.6042486,40.8613139],[35.5675662,40.8330788],[35.5632576,40.8237625],[35.5545083,40.8171328],[35.5404568,40.7882596],[35.5406537,40.7729663],[35.5380414,40.7661083],[35.5402483,40.7621223],[35.5357306,40.7551523],[35.5496096,40.7436212],[35.5572961,40.7431516],[35.5644867,40.7390185],[35.5680831,40.7334214],[35.5602107,40.717354],[35.5563664,40.7143927],[35.546696,40.6911773],[35.5472541,40.6824455],[35.5529878,40.6774504]]]}},{"type":"Feature","properties":{"code":"05-07","provinceCode":"05","name":"Taşova"},"geometry":{"type":"Polygon","coordinates":[[[36.0462329,40.8324432],[36.051902,40.8156351],[36.0559307,40.7958139],[36.0539164,40.765003],[36.0450533,40.739062],[36.045859,40.7292934],[36.0523049,40.7097518],[36.0615708,40.6990625],[36.0873543,40.6828727],[36.1228065,40.6697347],[36.1510072,40.6691235],[36.1711505,40.6648454],[36.2339977,40.6251072],[36.3016793,40.6098169],[36.3205036,40.6021425],[36.3698399,40.6455649],[36.3827442,40.6533913],[36.3986773,40.6757843],[36.3969527,40.7328425],[36.4215448,40.7382792],[36.433695,40.7467985],[36.4404534,40.7570254],[36.4466007,40.7605619],[36.4539151,40.7615049],[36.4672708,40.7578091],[36.4759665,40.7579637],[36.485232,40.7621866],[36.5054177,40.7645275],[36.5105924,40.7672633],[36.5122462,40.7704818],[36.5041656,40.7744373],[36.5036377,40.7785948],[36.4975457,40.775773],[36.4897869,40.7780056],[36.4822529,40.7745552],[36.4782959,40.7776802],[36.4805272,40.782189],[36.4733276,40.7863843],[36.4638772,40.788042],[36.4418258,40.7955669],[36.4258198,40.805137],[36.4257468,40.8112302],[36.4153869,40.8126561],[36.4111095,40.8191523],[36.4129818,40.8228476],[36.4131011,40.8309431],[36.4110293,40.8384207],[36.4155837,40.8396396],[36.4191666,40.8427654],[36.4143344,40.85052],[36.4151125,40.8553924],[36.4192124,40.8574903],[36.4266585,40.8574312],[36.4288007,40.8593053],[36.4269888,40.8653593],[36.4236241,40.865477],[36.4172311,40.8625723],[36.4102651,40.863973],[36.4086223,40.8657531],[36.4041666,40.864903],[36.4017896,40.862526],[36.3960154,40.8647624],[36.3990966,40.8670659],[36.3984353,40.8724067],[36.4104244,40.8937289],[36.4027103,40.9037952],[36.3964788,40.9200009],[36.3897949,40.9258486],[36.386076,40.9322273],[36.3794006,40.9363583],[36.3788942,40.9410967],[36.3739777,40.9393561],[36.3635879,40.9409701],[36.3559846,40.9396786],[36.3508496,40.9408194],[36.3496589,40.9521694],[36.3440786,40.9562559],[36.3415166,40.9750485],[36.3334616,40.9794207],[36.3256002,40.9797005],[36.3179064,40.9761675],[36.3163618,40.9770035],[36.3126271,40.9751061],[36.3064143,40.9745167],[36.3015384,40.9787924],[36.2708345,40.9837849],[36.2674756,40.980195],[36.2602672,40.9808028],[36.2357189,40.9764862],[36.2295468,40.979305],[36.225369,40.9859234],[36.2155307,40.9805375],[36.2178201,40.9808936],[36.2162255,40.9782927],[36.2178177,40.9757073],[36.2163056,40.9770235],[36.2157096,40.9744716],[36.2134147,40.9743709],[36.2111732,40.9773526],[36.1998239,40.9811381],[36.1980928,40.9758173],[36.1971152,40.9701567],[36.1947894,40.9676039],[36.1962096,40.962381],[36.1955809,40.9609755],[36.1925554,40.9617539],[36.1892324,40.95867],[36.185098,40.9412663],[36.1831522,40.9403554],[36.1839086,40.9369662],[36.1777159,40.9311386],[36.1747317,40.9245679],[36.1693432,40.9200518],[36.1685427,40.9063173],[36.1628378,40.8968248],[36.1618638,40.8907672],[36.150301,40.8894059],[36.1479378,40.8897385],[36.1460449,40.8934065],[36.1426007,40.8947748],[36.135511,40.8930834],[36.1341785,40.895459],[36.1316645,40.895402],[36.1294773,40.902319],[36.1195719,40.9008749],[36.0999873,40.8921902],[36.0974733,40.8865455],[36.0934005,40.8833524],[36.0946072,40.8746084],[36.0994594,40.8714146],[36.0931337,40.8683281],[36.0931086,40.8638602],[36.0962515,40.8583004],[36.0915029,40.8525747],[36.0855949,40.8515859],[36.0828294,40.8446445],[36.0751112,40.8404222],[36.0638231,40.8406314],[36.0550993,40.8350584],[36.0462329,40.8324432]]]}}]}