{"type":"FeatureCollection","features":[{"type":"Feature","properties":{"code":"21-01","provinceCode":"21","name":"Alacakaya"},"geometry":{"type":"Polygon","coordinates":[[[39.8606478,38.3621853],[39.8770946,38.4054227],[39.8885194,38.41848],[39.9009807,38.425218],[39.9087254,38.4523056],[39.9198622,38.4624915],[39.9374491,38.4733411],[39.9525376,38.4769779],[39.9802913,38.4744267],[39.9834584,38.5028441],[39.9852688,38.5042267],[39.9823363,38.5079386],[39.9822322,38.5181826],[39.9956416,38.522839],[40.012019,38.5445518],[39.9938176,38.5568858],[39.9949232,38.5648301],[39.9906817,38.5796603],[39.9757862,38.5868739],[39.9473749,38.5833987],[39.9395542,38.578086],[39.9200236,38.5749315],[39.9047649,38.569279],[39.895628,38.5621918],[39.8884367,38.5660704],[39.8780383,38.5635822],[39.8687125,38.5570781],[39.8692915,38.5472337],[39.872896,38.5382499],[39.8568661,38.5326964],[39.8562674,38.5282874],[39.8444704,38.5194162],[39.8335149,38.5143263],[39.7747748,38.5105775],[39.7411489,38.5084572],[39.7165917,38.4995061],[39.721207,38.4823688],[39.7259937,38.4747806],[39.7206326,38.4599899],[39.7404434,38.446635],[39.7433461,38.4346016],[39.7756211,38.4231414],[39.7854398,38.4146403],[39.7954186,38.3975533],[39.8088134,38.3863822],[39.8082181,38.3818221],[39.8211742,38.3721901],[39.8278451,38.3739825],[39.8348604,38.3700785],[39.8507202,38.3718709],[39.8599004,38.3674205],[39.8606478,38.3621853]]]}},{"type":"Feature","properties":{"code":"21-02","provinceCode":"21","name":"Bağlar"},"geometry":{"type":"Polygon","coordinates":[[[39.8292254,37.7593106],[39.8319667,37.7590311],[39.835493,37.7666824],[39.848595,37.7666557],[39.8799693,37.7544869],[39.894419,37.7600325],[39.9013766,37.7690212],[39.9311361,37.7721144],[39.9347587,37.7769254],[39.9438535,37.780497],[39.9595432,37.7840242],[39.9742341,37.7763628],[39.97573,37.7815871],[39.9911749,37.7852039],[40.0244969,37.8050389],[40.0540033,37.8181758],[40.0688996,37.8213137],[40.098361,37.8192218],[40.1320314,37.8123076],[40.1365693,37.8046392],[40.142998,37.7997589],[40.1489224,37.8006553],[40.1605306,37.8060992],[40.1666996,37.8005069],[40.1794059,37.7958732],[40.1799265,37.7902682],[40.1749611,37.784252],[40.1810659,37.7798358],[40.187256,37.7829594],[40.1936258,37.7886066],[40.1944276,37.7860051],[40.2065639,37.7749632],[40.2061303,37.7721561],[40.2171266,37.7677727],[40.226218,37.7736228],[40.2329301,37.7756633],[40.2384159,37.7669396],[40.2390959,37.7698728],[40.2552098,37.7724569],[40.2531231,37.7898484],[40.2492679,37.8064525],[40.2539897,37.8075189],[40.2528451,37.8135213],[40.2504047,37.8156165],[40.2462904,37.813577],[40.2356414,37.8168911],[40.2365288,37.8228178],[40.2314464,37.826896],[40.2250732,37.828043],[40.2240833,37.8387883],[40.2211201,37.8444811],[40.2217124,37.8479511],[40.2157118,37.8553728],[40.2152727,37.8602903],[40.2178421,37.8670432],[40.2215119,37.8699395],[40.2185122,37.8900674],[40.2159715,37.8913736],[40.2166935,37.8973002],[40.2123616,37.9004002],[40.2142444,37.9017183],[40.2129632,37.9031537],[40.2173937,37.9234656],[40.2057828,37.9362293],[40.1198086,37.9140243],[40.1078045,37.9129761],[40.1090043,37.9097497],[40.1122548,37.9087654],[40.1142663,37.9055118],[40.1114502,37.8940835],[40.1087849,37.892258],[40.1054659,37.8741591],[40.09395,37.8789224],[40.0897258,37.8771759],[40.0889714,37.8812246],[40.0916367,37.8824947],[40.089072,37.8833679],[40.0840935,37.8834076],[40.0815288,37.8789224],[40.0773046,37.8776919],[40.0689819,37.8907723],[40.0625388,37.8909583],[40.0595988,37.9043626],[40.0528401,37.8981407],[40.0487768,37.8981724],[40.0342813,37.8936961],[40.0336527,37.889033],[40.029504,37.8848161],[40.0267381,37.8848657],[40.0280582,37.8700798],[40.0130346,37.8641249],[40.0004626,37.8659114],[40.0014684,37.870179],[39.9915365,37.8698317],[39.9772673,37.8725112],[39.9756958,37.8707249],[39.9701641,37.8693851],[39.9723642,37.8779197],[39.9701012,37.8820874],[39.9770158,37.8931008],[39.969284,37.8915134],[39.9621808,37.8925551],[39.9580949,37.8978629],[39.9469687,37.9007894],[39.9478488,37.8981109],[39.94326,37.8956803],[39.9360939,37.8954819],[39.9358425,37.892952],[39.9310651,37.8882888],[39.9164187,37.8882392],[39.9187446,37.8824346],[39.8805257,37.8827323],[39.856136,37.8796562],[39.8514843,37.8713203],[39.8351094,37.8693024],[39.8078691,37.8485295],[39.8106279,37.8318945],[39.8122933,37.8020111],[39.8292254,37.7593106]]]}},{"type":"Feature","properties":{"code":"21-03","provinceCode":"21","name":"Bismil"},"geometry":{"type":"Polygon","coordinates":[[[40.6751951,37.735029],[40.6754549,37.7299322],[40.6740502,37.7297831],[40.6728245,37.7247198],[40.6826743,37.7054679],[40.7109988,37.6808894],[40.7320331,37.6774547],[40.764933,37.6568453],[40.8009372,37.6513834],[40.8472957,37.6488694],[40.857956,37.6409801],[40.8694903,37.6374514],[40.8852398,37.6476124],[40.8910935,37.655382],[40.8966389,37.6579836],[40.9149282,37.655657],[40.9574579,37.6748126],[40.9906407,37.7041992],[41.013565,37.7194149],[41.0431902,37.7363747],[41.0451669,37.7450313],[41.0590358,37.7589665],[41.0633146,37.7685812],[41.0518335,37.7731469],[41.0504034,37.7814332],[41.0475002,37.7822064],[41.0382288,37.7818268],[41.027959,37.7735444],[41.0179885,37.775858],[41.0181004,37.7792715],[41.0281409,37.7855007],[41.0302946,37.7888053],[41.0309219,37.7919844],[41.0280588,37.7964832],[41.0203125,37.7971316],[41.0180458,37.7904902],[41.0127539,37.7878132],[40.9864447,37.8058397],[40.9867313,37.8081945],[40.9920046,37.8126324],[40.9986535,37.8219148],[40.9957322,37.8254011],[40.9965032,37.8280533],[41.0023792,37.8317846],[41.0020353,37.8360399],[40.997448,37.8380405],[40.997448,37.8406338],[40.998258,37.8437845],[41.0028176,37.8453351],[41.0055318,37.8490308],[41.0040988,37.8542356],[41.011276,37.8636038],[41.0183138,37.8693048],[41.0233579,37.869531],[41.0300437,37.8767745],[41.0205468,37.8806894],[41.0170492,37.8852033],[41.029394,37.9046565],[41.0406483,37.916748],[41.0449361,37.9294603],[41.036377,37.9291843],[41.0307326,37.9310299],[41.0335007,37.9343993],[41.0315634,37.9433272],[41.0138424,37.9538933],[41.0147451,37.9625397],[41.0103279,37.9673546],[41.0103272,37.9790043],[40.9784664,37.9780371],[40.970853,37.9799198],[40.9649913,37.9876483],[40.9523421,37.9867442],[40.9157682,37.9929797],[40.9054678,37.9973325],[40.8996458,38.0030967],[40.8950181,38.0114479],[40.8799407,38.026031],[40.872178,38.0289708],[40.8599369,38.0317929],[40.8327536,38.0273079],[40.8261993,38.0242671],[40.818586,38.0146235],[40.8011201,38.0116832],[40.7844005,38.0053316],[40.7818628,38.0016851],[40.7812656,37.9886267],[40.7860426,37.9754483],[40.7904279,37.9521056],[40.7898284,37.9477512],[40.7850576,37.9449595],[40.7845511,37.9395415],[40.778908,37.9375173],[40.7766378,37.9415438],[40.7727552,37.9414011],[40.7718225,37.9443061],[40.768438,37.9431014],[40.7653546,37.943856],[40.7659253,37.9461063],[40.7613597,37.9504566],[40.7556527,37.9514317],[40.7564136,37.9563067],[40.7519087,37.956945],[40.7498888,37.959671],[40.7524252,37.9614411],[40.7463624,37.9631522],[40.7463881,37.9674161],[40.7421295,37.9682859],[40.7385791,37.9715163],[40.7384248,37.9760185],[40.7328359,37.9759766],[40.7260094,37.9833073],[40.7199838,37.9842006],[40.7154182,37.989823],[40.7098431,37.9896335],[40.7107949,37.9925956],[40.7044424,37.9948128],[40.703971,37.9976121],[40.7025775,37.9983684],[40.7019304,37.9969744],[40.6989467,37.9966425],[40.697297,37.9999895],[40.6934006,38.0008193],[40.6938812,38.0047628],[40.6883459,38.0051066],[40.6883813,38.009008],[40.683221,38.0106105],[40.6804109,38.014981],[40.6758496,38.0175797],[40.6764112,38.0219489],[40.6732872,38.024161],[40.6756763,38.0263451],[40.6724096,38.0293041],[40.6720372,38.0337122],[40.6687239,38.0356356],[40.6695734,38.0402099],[40.6660985,38.043924],[40.6519408,38.0457017],[40.6467631,38.0450787],[40.6406425,38.0540129],[40.6404932,38.0622409],[40.636399,38.0723806],[40.6229737,38.0665264],[40.6163484,38.0657387],[40.5984147,38.0707032],[40.5755749,38.0684131],[40.5773744,38.0636345],[40.5751368,38.0601251],[40.5752906,38.0517477],[40.5710424,38.0462669],[40.5614197,38.0458737],[40.547861,38.0387994],[40.5395564,38.041469],[40.5319518,38.0475593],[40.5229871,38.0489134],[40.4789882,38.0215825],[40.4629633,38.0192394],[40.4596554,38.01487],[40.4610874,37.9988122],[40.4662188,37.9934117],[40.4709848,37.9817238],[40.4782477,37.9755239],[40.4940096,37.9516058],[40.5001056,37.949334],[40.5000462,37.9399761],[40.5117784,37.9376258],[40.5095897,37.9318466],[40.516825,37.9196748],[40.5167149,37.9123514],[40.5121035,37.9119997],[40.500737,37.9063347],[40.4841524,37.8945185],[40.4757054,37.8912657],[40.4844914,37.886627],[40.4852651,37.8820287],[40.4783919,37.8781045],[40.4626162,37.8472956],[40.4622549,37.839306],[40.4675846,37.8328425],[40.5101317,37.8034848],[40.5395805,37.7676463],[40.5496978,37.7593624],[40.5579471,37.7562303],[40.5764032,37.741794],[40.5841429,37.7298662],[40.5986299,37.7262561],[40.5958515,37.7229598],[40.5881119,37.7204482],[40.5775939,37.7193493],[40.5720373,37.7147968],[40.5722357,37.7053769],[40.5807692,37.7053769],[40.5900964,37.707575],[40.6027974,37.7143258],[40.6069649,37.7250004],[40.6224442,37.743991],[40.6335575,37.7497971],[40.6442739,37.7518369],[40.6541966,37.7497971],[40.6722794,37.7487501],[40.6751951,37.735029]]]}},{"type":"Feature","properties":{"code":"21-04","provinceCode":"21","name":"Çermik"},"geometry":{"type":"Polygon","coordinates":[[[39.5678471,37.8559185],[39.5632263,37.8810473],[39.5721571,37.8973022],[39.5837144,37.9014794],[39.5995903,37.910475],[39.6030141,37.9217296],[39.5992705,37.935331],[39.5922937,37.9510273],[39.5807469,37.9910526],[39.5902199,37.998455],[39.5988009,37.997799],[39.6071619,37.9950155],[39.610437,37.9858474],[39.6086957,37.9763958],[39.613996,37.973488],[39.6206653,37.9745917],[39.6250249,37.9846192],[39.6245782,37.9958363],[39.6307318,38.0047646],[39.6317241,38.0114883],[39.6245798,38.0149281],[39.6188247,38.0143027],[39.6079968,38.0090524],[39.5976136,38.0071181],[39.5966616,38.0148439],[39.6051642,38.0216984],[39.6188247,38.0235269],[39.6253736,38.0221199],[39.6297396,38.0239959],[39.6248558,38.0574896],[39.6132277,38.0605415],[39.5844973,38.0548389],[39.5717543,38.0590155],[39.5872583,38.0684758],[39.6043128,38.0690861],[39.627569,38.0739683],[39.6492974,38.065914],[39.65161,38.0727003],[39.6469491,38.0840367],[39.6469099,38.095507],[39.6403599,38.1203328],[39.6408024,38.1379391],[39.623947,38.1513575],[39.6194293,38.1633157],[39.6051108,38.1630552],[39.6045572,38.168242],[39.5988864,38.1776377],[39.5810567,38.2001815],[39.5565498,38.210851],[39.5682658,38.2218048],[39.5394564,38.2399853],[39.5366695,38.2502846],[39.5388504,38.2537606],[39.5135485,38.2743781],[39.4820682,38.2594251],[39.4836737,38.2376752],[39.4902256,38.2157154],[39.4267753,38.1818548],[39.3938813,38.1799324],[39.3883012,38.1767557],[39.3538914,38.1851851],[39.3354392,38.1704972],[39.3072061,38.1549186],[39.3010855,38.1410426],[39.3103797,38.1253376],[39.3113401,38.1170326],[39.3038939,38.1127088],[39.2867463,38.1099316],[39.278885,38.1047439],[39.2694667,38.1087928],[39.2660165,38.1128006],[39.2565632,38.1149256],[39.2361298,38.1148866],[39.2350935,38.1061438],[39.2223263,38.0717695],[39.201536,38.0629104],[39.1966009,38.0487134],[39.1830144,38.0417499],[39.1766961,38.0293465],[39.1594209,38.0180994],[39.1505094,38.0156171],[39.1375295,38.0179549],[39.1315154,38.0100855],[39.1332706,38.0021332],[39.1455627,37.9969035],[39.1553642,37.9958804],[39.1787943,38.0060165],[39.1911003,38.0017107],[39.2234424,37.9972289],[39.2511345,37.9865104],[39.2696561,37.9703489],[39.3038682,37.960275],[39.3212038,37.9586012],[39.3514498,37.9601781],[39.3751753,37.9491197],[39.3856692,37.932771],[39.4027275,37.9338141],[39.4690683,37.9170581],[39.4777325,37.9116525],[39.4891095,37.9096529],[39.4935028,37.9028937],[39.508676,37.8972506],[39.516075,37.8891502],[39.521843,37.8874615],[39.5256302,37.8821988],[39.5221382,37.8755035],[39.5324652,37.8683802],[39.5402553,37.8593021],[39.5429063,37.8515275],[39.5508594,37.8498828],[39.5678471,37.8559185]]]}},{"type":"Feature","properties":{"code":"21-05","provinceCode":"21","name":"Çınar"},"geometry":{"type":"Polygon","coordinates":[[[39.8558939,37.5625958],[39.8616921,37.5480423],[39.8621776,37.5341829],[39.8663046,37.5295625],[39.8939797,37.5210911],[39.8954362,37.5176252],[39.8952659,37.5064402],[39.9220156,37.5269653],[39.9463905,37.5371285],[39.9951303,37.5128299],[40.0189499,37.518531],[40.0805414,37.5372528],[40.1019724,37.5553075],[40.1226432,37.5624414],[40.1453815,37.5611677],[40.1576037,37.5486211],[40.2160496,37.5233073],[40.2329359,37.5187796],[40.2672943,37.5175731],[40.3208668,37.5217962],[40.3569159,37.5325572],[40.3911182,37.5494521],[40.4073275,37.5464176],[40.4435827,37.5549843],[40.4518152,37.5658575],[40.4517521,37.5738571],[40.4398045,37.581737],[40.4346722,37.5891907],[40.4351313,37.599469],[40.4393525,37.6026541],[40.4468276,37.603916],[40.4984705,37.5933207],[40.5223701,37.5927797],[40.5432752,37.585174],[40.5624147,37.5651833],[40.5887134,37.5571468],[40.6238419,37.5502306],[40.6489568,37.5382082],[40.6614195,37.5342234],[40.6741784,37.5336622],[40.6733064,37.5505531],[40.6841379,37.5834841],[40.6780604,37.5941436],[40.6821494,37.6060271],[40.6725379,37.6256953],[40.6486013,37.6557038],[40.6597225,37.6843515],[40.6599583,37.7136955],[40.6645833,37.7307092],[40.6751951,37.735029],[40.6722794,37.7487501],[40.6541966,37.7497971],[40.6442739,37.7518369],[40.6335575,37.7497971],[40.6224442,37.743991],[40.6069649,37.7250004],[40.6027974,37.7143258],[40.5900964,37.707575],[40.5807692,37.7053769],[40.5722357,37.7053769],[40.5720373,37.7147968],[40.5775939,37.7193493],[40.5881119,37.7204482],[40.5958515,37.7229598],[40.5986299,37.7262561],[40.5841429,37.7298662],[40.5764032,37.741794],[40.5579471,37.7562303],[40.5496978,37.7593624],[40.5395805,37.7676463],[40.5101317,37.8034848],[40.4675846,37.8328425],[40.4658108,37.8329987],[40.4645588,37.830538],[40.4579746,37.830354],[40.4475332,37.8221247],[40.4441718,37.8233704],[40.4394178,37.8205276],[40.4355969,37.8131921],[40.4319981,37.8117881],[40.4258668,37.8118999],[40.4218681,37.8158816],[40.4056512,37.8129859],[40.3969874,37.8177681],[40.382159,37.8163642],[40.3796598,37.8171978],[40.3716868,37.8259224],[40.3678686,37.8273277],[40.3607864,37.8276059],[40.3517275,37.82507],[40.3476137,37.8310415],[40.3347845,37.8332083],[40.3274053,37.8318723],[40.3144859,37.821926],[40.3045921,37.8248039],[40.2974691,37.8149326],[40.2913379,37.8107007],[40.2877711,37.8010989],[40.2772684,37.7969325],[40.2735897,37.7994824],[40.2735252,37.7951476],[40.2531231,37.7898484],[40.2552098,37.7724569],[40.2390959,37.7698728],[40.2384159,37.7669396],[40.2329301,37.7756633],[40.226218,37.7736228],[40.2171266,37.7677727],[40.2061303,37.7721561],[40.2065639,37.7749632],[40.1944276,37.7860051],[40.1936258,37.7886066],[40.187256,37.7829594],[40.1810659,37.7798358],[40.1749611,37.784252],[40.1799265,37.7902682],[40.1794059,37.7958732],[40.1666996,37.8005069],[40.1605306,37.8060992],[40.1489224,37.8006553],[40.142998,37.7997589],[40.1365693,37.8046392],[40.1320314,37.8123076],[40.098361,37.8192218],[40.0688996,37.8213137],[40.0540033,37.8181758],[40.0244969,37.8050389],[39.9911749,37.7852039],[39.97573,37.7815871],[39.9742341,37.7763628],[39.9595432,37.7840242],[39.9438535,37.780497],[39.9347587,37.7769254],[39.9311361,37.7721144],[39.9013766,37.7690212],[39.894419,37.7600325],[39.8799693,37.7544869],[39.848595,37.7666557],[39.835493,37.7666824],[39.8319667,37.7590311],[39.8292254,37.7593106],[39.8418687,37.741524],[39.8444885,37.7309706],[39.8286969,37.713606],[39.8310306,37.6623314],[39.8370386,37.6337177],[39.8332353,37.6170247],[39.8353712,37.5806071],[39.8558939,37.5625958]]]}},{"type":"Feature","properties":{"code":"21-06","provinceCode":"21","name":"Çüngüş"},"geometry":{"type":"Polygon","coordinates":[[[39.119683,38.210644],[39.110813,38.2084594],[39.10654,38.2038182],[39.1117475,38.1955929],[39.1219983,38.18831],[39.1267178,38.1867371],[39.134346,38.1893405],[39.1376261,38.1891188],[39.1520042,38.1831986],[39.1624614,38.1835256],[39.1952249,38.2068301],[39.203274,38.2058704],[39.2069683,38.207617],[39.2200999,38.2077979],[39.2264891,38.2059231],[39.2319327,38.2006845],[39.2334622,38.191613],[39.2436477,38.1892529],[39.2530368,38.1829582],[39.2567722,38.1778617],[39.2583912,38.1659157],[39.2632665,38.1527769],[39.2629315,38.1461335],[39.2535532,38.1330204],[39.2465567,38.1254383],[39.2378483,38.1214274],[39.2361298,38.1148866],[39.2565632,38.1149256],[39.2660165,38.1128006],[39.2694667,38.1087928],[39.278885,38.1047439],[39.2867463,38.1099316],[39.3038939,38.1127088],[39.3113401,38.1170326],[39.3103797,38.1253376],[39.3010855,38.1410426],[39.3072061,38.1549186],[39.3354392,38.1704972],[39.3538914,38.1851851],[39.3883012,38.1767557],[39.3938813,38.1799324],[39.4267753,38.1818548],[39.4902256,38.2157154],[39.4836737,38.2376752],[39.4820682,38.2594251],[39.5135485,38.2743781],[39.4684006,38.3129],[39.4151527,38.3311069],[39.3575095,38.3275399],[39.3492814,38.333568],[39.3433451,38.3427481],[39.3197095,38.3502653],[39.3125362,38.3556865],[39.3048711,38.3554334],[39.2800003,38.3409412],[39.2584304,38.3165521],[39.2327292,38.3028405],[39.2255639,38.3076051],[39.2119573,38.3082818],[39.2092743,38.3045974],[39.2005546,38.3058757],[39.1933689,38.3089058],[39.1904934,38.3068532],[39.1825127,38.3090641],[39.1827806,38.3074879],[39.1805473,38.3066089],[39.177754,38.3073148],[39.1750552,38.3061631],[39.1752446,38.3036366],[39.1735402,38.3031908],[39.1720251,38.3050485],[39.1643078,38.3038224],[39.1514252,38.2992522],[39.1511612,38.2914326],[39.1413765,38.25572],[39.1388564,38.2310565],[39.1286328,38.2186527],[39.119683,38.210644]]]}},{"type":"Feature","properties":{"code":"21-07","provinceCode":"21","name":"Dicle"},"geometry":{"type":"Polygon","coordinates":[[[39.9583588,38.2928436],[39.9717918,38.2885427],[39.9775046,38.291445],[39.9922503,38.2929647],[40.0026766,38.2958872],[40.0324659,38.2979913],[40.0799799,38.3066408],[40.1078329,38.3076928],[40.123424,38.3048648],[40.1665179,38.3024331],[40.1727224,38.3007285],[40.1690531,38.29662],[40.1697308,38.2945193],[40.1748798,38.2915723],[40.1754906,38.2877648],[40.1805389,38.2814086],[40.1784238,38.2790364],[40.1724607,38.2796481],[40.1675333,38.2760442],[40.1731953,38.2630973],[40.18293,38.2570639],[40.1807071,38.2493916],[40.1884014,38.2523297],[40.1915391,38.2596965],[40.2056534,38.2603935],[40.2182024,38.2678266],[40.2224791,38.2679689],[40.2283308,38.2629149],[40.2330018,38.2448662],[40.2407762,38.2446102],[40.2536723,38.2490756],[40.2600564,38.2425628],[40.2736106,38.2342566],[40.2916749,38.2329874],[40.3057702,38.2372862],[40.316716,38.2485594],[40.3224987,38.2503029],[40.3244607,38.2532627],[40.3351484,38.2540736],[40.3387626,38.252168],[40.344442,38.2534655],[40.3490372,38.2481539],[40.3564721,38.2480728],[40.3571797,38.2533506],[40.3678826,38.2576074],[40.3650408,38.262667],[40.3693365,38.2636529],[40.3667921,38.2657285],[40.3677834,38.2678299],[40.3696339,38.2674667],[40.3716496,38.2640161],[40.3706583,38.2600724],[40.3728392,38.2593199],[40.37274,38.2617848],[40.375747,38.259268],[40.3804163,38.2629461],[40.3851685,38.2637084],[40.3975495,38.2633934],[40.4023871,38.2586194],[40.4047927,38.2587439],[40.4056915,38.2637463],[40.409551,38.2662785],[40.4153929,38.2657415],[40.4016653,38.2779558],[40.37707,38.2851397],[40.3517593,38.2904293],[40.3495307,38.2986261],[40.339738,38.3095805],[40.3381996,38.319961],[40.3234311,38.3329949],[40.3209697,38.3436134],[40.3084542,38.3626244],[40.3027342,38.3775731],[40.3020986,38.3838009],[40.3062298,38.3992433],[40.2995564,38.4139355],[40.2901647,38.4185649],[40.2789164,38.4142192],[40.2703035,38.407176],[40.2511721,38.4023414],[40.2147662,38.4014929],[40.2042357,38.4043405],[40.2045652,38.4101994],[40.2112608,38.4162015],[40.2126475,38.4200207],[40.227351,38.4302592],[40.2479866,38.4538034],[40.2444801,38.4611447],[40.2323433,38.4609289],[40.2255234,38.4646586],[40.2217235,38.464507],[40.2183438,38.4615783],[40.2143997,38.4612339],[40.2096952,38.4654082],[40.2051906,38.4663823],[40.1952505,38.4630859],[40.1854275,38.4623066],[40.1832397,38.4590772],[40.1837798,38.45537],[40.1624299,38.4598646],[40.1352854,38.455757],[40.1188034,38.4620392],[40.0809575,38.4666184],[40.052164,38.462742],[40.0177614,38.4609126],[39.9978047,38.4660178],[39.9802913,38.4744267],[39.9525376,38.4769779],[39.9374491,38.4733411],[39.9198622,38.4624915],[39.9087254,38.4523056],[39.9009807,38.425218],[39.8885194,38.41848],[39.8770946,38.4054227],[39.8606478,38.3621853],[39.8691285,38.3562588],[39.9096641,38.3519051],[39.9290969,38.3435652],[39.9406232,38.3294312],[39.9583588,38.2928436]]]}},{"type":"Feature","properties":{"code":"21-08","provinceCode":"21","name":"Eğil"},"geometry":{"type":"Polygon","coordinates":[[[39.9450556,38.1651886],[39.9580386,38.170133],[39.961602,38.1759184],[39.9698907,38.1628245],[39.9775597,38.1600227],[39.9755766,38.1567872],[39.9869194,38.1548648],[39.9987267,38.1565234],[40.004081,38.1550888],[40.0004321,38.1430493],[40.0017806,38.1374344],[39.9920793,38.1282437],[39.99345,38.1255281],[39.9909033,38.1195997],[39.9986368,38.1239059],[40.0084849,38.1247971],[40.0146046,38.1235174],[40.013675,38.1163261],[40.0230482,38.1065132],[40.0341256,38.1052331],[40.0345904,38.1096218],[40.0389284,38.1098046],[40.0443509,38.105416],[40.0497734,38.1098046],[40.0565903,38.1087684],[40.061703,38.1033435],[40.084432,38.1035233],[40.0918005,38.0967959],[40.1011643,38.0924893],[40.1226635,38.0939715],[40.1356329,38.1048331],[40.1482057,38.1092022],[40.1559794,38.1023987],[40.1576975,38.1079317],[40.1551084,38.1119462],[40.1467826,38.1163199],[40.1437112,38.1166993],[40.1378983,38.1142229],[40.1354361,38.1149419],[40.1347701,38.1200823],[40.143301,38.1256829],[40.1496367,38.1346632],[40.1598841,38.1364307],[40.1693941,38.1410182],[40.1786898,38.1398972],[40.1814166,38.1367289],[40.197839,38.1316595],[40.1878616,38.121422],[40.1881095,38.1133285],[40.2014334,38.1101591],[40.2072374,38.1141658],[40.2193412,38.1120707],[40.2188571,38.1204507],[40.2210358,38.1237834],[40.2397967,38.1274016],[40.2481483,38.1314957],[40.2557737,38.1314957],[40.263036,38.128925],[40.2713001,38.1213857],[40.2697668,38.1257321],[40.2786404,38.1285151],[40.2779996,38.130072],[40.2819856,38.132193],[40.2828497,38.1309852],[40.2880471,38.1318369],[40.2900422,38.1365308],[40.2768309,38.141812],[40.273874,38.1449614],[40.2717162,38.1533469],[40.2679245,38.1539178],[40.2597764,38.1700293],[40.2531612,38.1730102],[40.2681665,38.1752299],[40.2619546,38.194507],[40.2688119,38.196092],[40.2755885,38.1949508],[40.2767179,38.1972332],[40.2738137,38.1986914],[40.2746204,38.2007202],[40.2879574,38.209258],[40.2834139,38.2140451],[40.2849112,38.2184668],[40.2876476,38.2200082],[40.2883188,38.2241456],[40.29152,38.2265386],[40.2916749,38.2329874],[40.2736106,38.2342566],[40.2600564,38.2425628],[40.2536723,38.2490756],[40.2407762,38.2446102],[40.2330018,38.2448662],[40.2283308,38.2629149],[40.2224791,38.2679689],[40.2182024,38.2678266],[40.2056534,38.2603935],[40.1915391,38.2596965],[40.1884014,38.2523297],[40.1807071,38.2493916],[40.18293,38.2570639],[40.1731953,38.2630973],[40.1675333,38.2760442],[40.1724607,38.2796481],[40.1784238,38.2790364],[40.1805389,38.2814086],[40.1754906,38.2877648],[40.1748798,38.2915723],[40.1697308,38.2945193],[40.1690531,38.29662],[40.1727224,38.3007285],[40.1665179,38.3024331],[40.123424,38.3048648],[40.1078329,38.3076928],[40.0799799,38.3066408],[40.0324659,38.2979913],[40.0026766,38.2958872],[39.9922503,38.2929647],[39.9775046,38.291445],[39.9717918,38.2885427],[39.9583588,38.2928436],[39.9447363,38.2721533],[39.9432469,38.2660725],[39.951549,38.2082276],[39.9488659,38.180066],[39.9450556,38.1651886]]]}},{"type":"Feature","properties":{"code":"21-09","provinceCode":"21","name":"Ergani"},"geometry":{"type":"Polygon","coordinates":[[[39.8078691,37.8485295],[39.8207962,37.8718602],[39.8278452,37.892191],[39.8243788,37.902285],[39.8190386,37.9080425],[39.8146519,37.9182155],[39.8060118,37.9304437],[39.8031799,37.9492167],[39.8209311,37.9613359],[39.8457537,37.954898],[39.8498927,37.9637148],[39.8546839,37.9662568],[39.855175,37.9705155],[39.8516192,37.9705204],[39.8467785,37.9853943],[39.8476248,37.9917503],[39.8719972,38.0091478],[39.8771446,38.0259549],[39.8846499,38.0659571],[39.8899335,38.0810588],[39.8979351,38.092255],[39.9124142,38.1017505],[39.924673,38.1126201],[39.9321007,38.1306291],[39.9378161,38.1510072],[39.9450556,38.1651886],[39.9488659,38.180066],[39.951549,38.2082276],[39.9432469,38.2660725],[39.9447363,38.2721533],[39.9583588,38.2928436],[39.9406232,38.3294312],[39.9290969,38.3435652],[39.9096641,38.3519051],[39.8691285,38.3562588],[39.8606478,38.3621853],[39.8599004,38.3674205],[39.8507202,38.3718709],[39.8348604,38.3700785],[39.8278451,38.3739825],[39.8211742,38.3721901],[39.8082181,38.3818221],[39.8045109,38.3819471],[39.7832489,38.3724459],[39.7777042,38.3750383],[39.7745723,38.3680896],[39.7694674,38.3656341],[39.7736954,38.3621471],[39.7698119,38.3605017],[39.7645191,38.3635713],[39.7610114,38.3636941],[39.7600092,38.3556146],[39.754873,38.359151],[39.7510521,38.3587581],[39.7535889,38.3550989],[39.7530252,38.3526675],[39.7467615,38.3549761],[39.7444386,38.3525143],[39.7416852,38.3543027],[39.7339835,38.35392],[39.7286043,38.3478559],[39.7124389,38.346878],[39.7070181,38.3446797],[39.7048533,38.3400587],[39.6988522,38.3406024],[39.7013873,38.3435539],[39.6991792,38.3448315],[39.6973668,38.3422801],[39.6952348,38.3427815],[39.6923453,38.3471132],[39.6870082,38.3467991],[39.6861444,38.3506644],[39.6821641,38.3494291],[39.6811987,38.3443947],[39.6735203,38.3381189],[39.6702683,38.337747],[39.6677159,38.3355729],[39.6656657,38.3318136],[39.6658955,38.3264699],[39.6588187,38.3222815],[39.6594121,38.3179036],[39.6548761,38.3177562],[39.6454772,38.3143288],[39.6405459,38.310159],[39.6351663,38.3106207],[39.6197977,38.3051373],[39.6071759,38.3053127],[39.598447,38.2961593],[39.5848654,38.2916736],[39.5793227,38.2808539],[39.5806523,38.2734842],[39.5613051,38.2511758],[39.5512333,38.2501732],[39.5519211,38.2432225],[39.5460792,38.2428575],[39.5394564,38.2399853],[39.5682658,38.2218048],[39.5565498,38.210851],[39.5810567,38.2001815],[39.5988864,38.1776377],[39.6045572,38.168242],[39.6051108,38.1630552],[39.6194293,38.1633157],[39.623947,38.1513575],[39.6408024,38.1379391],[39.6403599,38.1203328],[39.6469099,38.095507],[39.6469491,38.0840367],[39.65161,38.0727003],[39.6492974,38.065914],[39.627569,38.0739683],[39.6043128,38.0690861],[39.5872583,38.0684758],[39.5717543,38.0590155],[39.5844973,38.0548389],[39.6132277,38.0605415],[39.6248558,38.0574896],[39.6297396,38.0239959],[39.6253736,38.0221199],[39.6188247,38.0235269],[39.6051642,38.0216984],[39.5966616,38.0148439],[39.5976136,38.0071181],[39.6079968,38.0090524],[39.6188247,38.0143027],[39.6245798,38.0149281],[39.6317241,38.0114883],[39.6307318,38.0047646],[39.6245782,37.9958363],[39.6250249,37.9846192],[39.6206653,37.9745917],[39.613996,37.973488],[39.6086957,37.9763958],[39.610437,37.9858474],[39.6071619,37.9950155],[39.5988009,37.997799],[39.5902199,37.998455],[39.5807469,37.9910526],[39.5922937,37.9510273],[39.5992705,37.935331],[39.6030141,37.9217296],[39.5995903,37.910475],[39.5837144,37.9014794],[39.5721571,37.8973022],[39.5632263,37.8810473],[39.5678471,37.8559185],[39.5867344,37.8565372],[39.6035297,37.8455877],[39.6260857,37.8021106],[39.6440646,37.7964233],[39.6629039,37.7943011],[39.6753893,37.7959223],[39.68677,37.8052844],[39.6956157,37.829349],[39.7019394,37.8367497],[39.7094473,37.8413953],[39.7448511,37.8566912],[39.7739051,37.8650527],[39.7990138,37.8589128],[39.8078691,37.8485295]]]}},{"type":"Feature","properties":{"code":"21-10","provinceCode":"21","name":"Hani"},"geometry":{"type":"Polygon","coordinates":[[[40.2935596,38.4767007],[40.2892833,38.4737336],[40.274613,38.4684159],[40.2673872,38.4674543],[40.2658035,38.4633151],[40.2606368,38.4614365],[40.2444801,38.4611447],[40.2479866,38.4538034],[40.227351,38.4302592],[40.2126475,38.4200207],[40.2112608,38.4162015],[40.2045652,38.4101994],[40.2042357,38.4043405],[40.2147662,38.4014929],[40.2511721,38.4023414],[40.2703035,38.407176],[40.2789164,38.4142192],[40.2901647,38.4185649],[40.2995564,38.4139355],[40.3062298,38.3992433],[40.3020986,38.3838009],[40.3027342,38.3775731],[40.3084542,38.3626244],[40.3209697,38.3436134],[40.3234311,38.3329949],[40.3381996,38.319961],[40.339738,38.3095805],[40.3495307,38.2986261],[40.3517593,38.2904293],[40.37707,38.2851397],[40.4012992,38.2962282],[40.4492697,38.299381],[40.4523417,38.3043879],[40.456359,38.3195922],[40.4554704,38.3245904],[40.4594463,38.332505],[40.4713748,38.3435996],[40.4775184,38.3539543],[40.4925306,38.3598808],[40.5155535,38.3539406],[40.5300455,38.3540741],[40.5357754,38.3559851],[40.5417468,38.3648603],[40.5422231,38.3682212],[40.5256185,38.4008218],[40.5156585,38.4117322],[40.4980944,38.4182732],[40.4847513,38.4334169],[40.4903079,38.4459764],[40.4953883,38.4668628],[40.5044954,38.4738825],[40.5018976,38.4868732],[40.4956239,38.4928014],[40.4858103,38.4972105],[40.4687283,38.5011917],[40.4612894,38.5001302],[40.4617366,38.4966193],[40.4560858,38.49542],[40.4547449,38.4906973],[40.4378426,38.5088216],[40.4326449,38.5250888],[40.4314219,38.5437437],[40.4430403,38.5702827],[40.4433296,38.5811645],[40.400589,38.5649688],[40.3659921,38.5449394],[40.3543737,38.5325035],[40.3593744,38.5057575],[40.3664183,38.5008432],[40.3615246,38.4950009],[40.357044,38.4930768],[40.3549105,38.4891945],[40.3441849,38.487247],[40.3396193,38.4900943],[40.3361446,38.4851317],[40.3273101,38.4878709],[40.324816,38.4857574],[40.3191329,38.4848741],[40.308306,38.4893873],[40.3040214,38.4893828],[40.3021734,38.4815174],[40.2935596,38.4767007]]]}},{"type":"Feature","properties":{"code":"21-11","provinceCode":"21","name":"Hazro"},"geometry":{"type":"Polygon","coordinates":[[[40.8498045,38.329267],[40.8444462,38.3273989],[40.8299592,38.3284886],[40.8204335,38.3272432],[40.8113047,38.3186802],[40.784974,38.3116484],[40.7674467,38.3130436],[40.7339162,38.3317765],[40.7196911,38.331378],[40.716385,38.3266281],[40.7109275,38.3258981],[40.7057201,38.3214142],[40.6925111,38.3188732],[40.6872719,38.3158837],[40.6682205,38.3138906],[40.6585774,38.3060042],[40.6369296,38.3130606],[40.6313838,38.2950717],[40.6175006,38.2800146],[40.602131,38.2774531],[40.613447,38.2689024],[40.6137424,38.2527829],[40.6109362,38.2494193],[40.6110839,38.2466356],[40.6254101,38.2392118],[40.6329616,38.2299946],[40.6316347,38.2237498],[40.6296383,38.2221721],[40.6305072,38.2167369],[40.6244199,38.2129685],[40.6204742,38.2124462],[40.6169569,38.2085116],[40.6112147,38.2069364],[40.6118496,38.2040246],[40.6089407,38.2018725],[40.6098558,38.2004969],[40.6069838,38.198924],[40.6061797,38.1997238],[40.6037339,38.1948632],[40.6023782,38.1953272],[40.6018244,38.192794],[40.6001029,38.192737],[40.6006789,38.1914887],[40.5977534,38.1910964],[40.5985998,38.1897788],[40.6006511,38.1864111],[40.6053118,38.1844129],[40.618023,38.185412],[40.6284038,38.181582],[40.626709,38.1774186],[40.6306648,38.1799406],[40.6418677,38.1832429],[40.6424279,38.1788398],[40.6456487,38.1791701],[40.6504099,38.1761979],[40.6536308,38.1768584],[40.6553112,38.175097],[40.6553112,38.1706934],[40.6536308,38.1684915],[40.6537708,38.1619956],[40.65069,38.160454],[40.6512502,38.1532967],[40.6476092,38.1531865],[40.6463489,38.1498829],[40.6432681,38.1505436],[40.6400472,38.142394],[40.6523705,38.1369972],[40.6537708,38.1338029],[40.6635734,38.125982],[40.6701551,38.1257617],[40.6859594,38.1283009],[40.6994515,38.1389134],[40.7027334,38.1515316],[40.7243456,38.1529367],[40.7352851,38.1442859],[40.7545933,38.141401],[40.7705583,38.1543991],[40.7807685,38.1578399],[40.7935313,38.1572665],[40.8055647,38.1529654],[40.8168689,38.1535389],[40.830361,38.1601337],[40.8420298,38.1724616],[40.8547925,38.1910929],[40.8733897,38.2100059],[40.8799311,38.221319],[40.8840888,38.2215924],[40.889589,38.2257013],[40.9076668,38.231492],[40.9182417,38.2432351],[40.915355,38.251657],[40.9111728,38.2564574],[40.9134673,38.2617566],[40.9077217,38.2769546],[40.8680601,38.2899815],[40.8553204,38.2968807],[40.851038,38.309362],[40.8541643,38.3223339],[40.8498045,38.329267]]]}},{"type":"Feature","properties":{"code":"21-12","provinceCode":"21","name":"Kayapınar"},"geometry":{"type":"Polygon","coordinates":[[[39.8078691,37.8485295],[39.8351094,37.8693024],[39.8514843,37.8713203],[39.856136,37.8796562],[39.8805257,37.8827323],[39.9187446,37.8824346],[39.9164187,37.8882392],[39.9310651,37.8882888],[39.9358425,37.892952],[39.9360939,37.8954819],[39.94326,37.8956803],[39.9478488,37.8981109],[39.9469687,37.9007894],[39.9580949,37.8978629],[39.9621808,37.8925551],[39.969284,37.8915134],[39.9770158,37.8931008],[39.9701012,37.8820874],[39.9723642,37.8779197],[39.9701641,37.8693851],[39.9756958,37.8707249],[39.9772673,37.8725112],[39.9915365,37.8698317],[40.0014684,37.870179],[40.0004626,37.8659114],[40.0130346,37.8641249],[40.0280582,37.8700798],[40.0267381,37.8848657],[40.029504,37.8848161],[40.0336527,37.889033],[40.0342813,37.8936961],[40.0487768,37.8981724],[40.0528401,37.8981407],[40.0595988,37.9043626],[40.0625388,37.8909583],[40.0689819,37.8907723],[40.0773046,37.8776919],[40.0815288,37.8789224],[40.0840935,37.8834076],[40.089072,37.8833679],[40.0916367,37.8824947],[40.0889714,37.8812246],[40.0897258,37.8771759],[40.09395,37.8789224],[40.1054659,37.8741591],[40.1087849,37.892258],[40.1114502,37.8940835],[40.1142663,37.9055118],[40.1122548,37.9087654],[40.1090043,37.9097497],[40.1078045,37.9129761],[40.1198086,37.9140243],[40.2057828,37.9362293],[40.1601023,37.9723861],[40.1504139,37.9598182],[40.1367157,37.9638758],[40.1296091,37.9757828],[40.1189689,37.9766782],[40.1153437,37.9823283],[40.1178581,37.984173],[40.1170409,37.9933383],[40.1195553,37.9957161],[40.1033883,38.0039989],[40.0855056,38.0061296],[40.0752908,38.0096121],[40.0742104,38.0173504],[40.063701,38.0226894],[40.063701,38.0255521],[40.0589865,38.0325925],[40.0630135,38.0344492],[40.072246,38.0344492],[40.080053,38.0380265],[40.0702889,38.044751],[40.0690981,38.0480966],[40.0630007,38.0526012],[40.0516859,38.0458195],[40.0488571,38.0472551],[40.0379824,38.0473541],[40.0360966,38.0459185],[40.0301249,38.0458195],[40.0269819,38.0526507],[40.0294334,38.055868],[40.0283019,38.0590357],[40.0241532,38.0608175],[40.0240903,38.0657172],[40.0224559,38.0669544],[40.0165471,38.0673998],[40.0084819,38.0642788],[40.0079557,38.0675203],[40.0061136,38.0682322],[40.0035054,38.0664318],[39.9989447,38.0680182],[39.9941453,38.071999],[39.983162,38.0745281],[39.9758545,38.0821359],[39.9747545,38.0860941],[39.9592752,38.0853519],[39.9545607,38.0868362],[39.9539321,38.0904231],[39.9469389,38.0953085],[39.9318525,38.1023576],[39.924673,38.1126201],[39.9124142,38.1017505],[39.8979351,38.092255],[39.8899335,38.0810588],[39.8846499,38.0659571],[39.8771446,38.0259549],[39.8719972,38.0091478],[39.8476248,37.9917503],[39.8467785,37.9853943],[39.8516192,37.9705204],[39.855175,37.9705155],[39.8546839,37.9662568],[39.8498927,37.9637148],[39.8457537,37.954898],[39.8209311,37.9613359],[39.8031799,37.9492167],[39.8060118,37.9304437],[39.8146519,37.9182155],[39.8190386,37.9080425],[39.8243788,37.902285],[39.8278452,37.892191],[39.8207962,37.8718602],[39.8078691,37.8485295]]]}},{"type":"Feature","properties":{"code":"21-13","provinceCode":"21","name":"Kocaköy"},"geometry":{"type":"Polygon","coordinates":[[[40.5985998,38.1897788],[40.5977534,38.1910964],[40.6006789,38.1914887],[40.6001029,38.192737],[40.6018244,38.192794],[40.6023782,38.1953272],[40.6037339,38.1948632],[40.6061797,38.1997238],[40.6069838,38.198924],[40.6098558,38.2004969],[40.6089407,38.2018725],[40.6118496,38.2040246],[40.6112147,38.2069364],[40.6169569,38.2085116],[40.6204742,38.2124462],[40.6244199,38.2129685],[40.6305072,38.2167369],[40.6296383,38.2221721],[40.6316347,38.2237498],[40.6329616,38.2299946],[40.6254101,38.2392118],[40.6110839,38.2466356],[40.6109362,38.2494193],[40.6137424,38.2527829],[40.613447,38.2689024],[40.602131,38.2774531],[40.6175006,38.2800146],[40.6313838,38.2950717],[40.6369296,38.3130606],[40.6585774,38.3060042],[40.6682205,38.3138906],[40.6605999,38.3138906],[40.6595481,38.3257626],[40.6554203,38.3317407],[40.6454183,38.336473],[40.6341061,38.3371507],[40.6273847,38.3300834],[40.6065939,38.3254123],[40.587717,38.3127888],[40.5647673,38.3191613],[40.5343771,38.3196652],[40.5018644,38.3321865],[40.485792,38.3346017],[40.4787553,38.3414103],[40.4713748,38.3435996],[40.4594463,38.332505],[40.4554704,38.3245904],[40.456359,38.3195922],[40.4523417,38.3043879],[40.4492697,38.299381],[40.4012992,38.2962282],[40.37707,38.2851397],[40.4016653,38.2779558],[40.4153929,38.2657415],[40.420178,38.255651],[40.4338784,38.2421752],[40.4396269,38.2385052],[40.450025,38.2357177],[40.4473651,38.2294358],[40.4521212,38.2289653],[40.4530724,38.2304459],[40.4581286,38.2315714],[40.4696289,38.2262193],[40.4639019,38.2192934],[40.4606804,38.2059086],[40.4640482,38.1945166],[40.4687339,38.1884746],[40.4739321,38.1857124],[40.4796428,38.1858275],[40.4895267,38.1918697],[40.4959695,38.1896255],[40.5002892,38.1841011],[40.500216,38.1784036],[40.4980927,38.1742884],[40.5068155,38.1686675],[40.5121064,38.1686675],[40.5185412,38.165632],[40.5332698,38.164058],[40.5351288,38.161697],[40.5498574,38.1620343],[40.563299,38.1593358],[40.5690188,38.1540511],[40.5778474,38.15263],[40.5855608,38.1577687],[40.5846747,38.1599752],[40.5874808,38.1633428],[40.5876285,38.1710066],[40.5831977,38.1826168],[40.58497,38.1871443],[40.5876285,38.189582],[40.5917693,38.1879001],[40.5896558,38.1861989],[40.591279,38.1848301],[40.5925221,38.1866257],[40.5932846,38.1857127],[40.5950472,38.1868902],[40.5950521,38.1894198],[40.5985998,38.1897788]]]}},{"type":"Feature","properties":{"code":"21-14","provinceCode":"21","name":"Kulp"},"geometry":{"type":"Polygon","coordinates":[[[40.8088678,38.5610685],[40.8036833,38.5573825],[40.8057885,38.5522361],[40.8015112,38.5524186],[40.8010792,38.5497608],[40.8037288,38.5426204],[40.8066953,38.5403677],[40.8065513,38.5287655],[40.8041608,38.5253633],[40.8072713,38.5197302],[40.8078473,38.5106712],[40.8112745,38.5067394],[40.8160363,38.5050718],[40.8154794,38.5028282],[40.8177546,38.5017464],[40.8105545,38.4957959],[40.8114761,38.4914454],[40.8149034,38.4875905],[40.8119249,38.4831957],[40.8213403,38.4754048],[40.8273164,38.4731783],[40.8237163,38.4684712],[40.8290867,38.4638968],[40.8259071,38.4553451],[40.8313677,38.4527108],[40.8333492,38.4505455],[40.8325888,38.4472254],[40.8376116,38.4448615],[40.8388097,38.4412523],[40.8370126,38.4374444],[40.8405839,38.4349719],[40.8397083,38.4310193],[40.842358,38.429774],[40.8438786,38.426525],[40.8472195,38.4235287],[40.8541777,38.4224456],[40.8570808,38.4204781],[40.8759249,38.4188004],[40.8778545,38.4145581],[40.8817138,38.4141068],[40.8836434,38.4122563],[40.8916499,38.4114439],[40.8935219,38.4090969],[40.8904115,38.4007576],[40.895394,38.3930042],[40.8930467,38.3908597],[40.8980508,38.3838051],[40.9037389,38.383664],[40.9027309,38.380334],[40.909859,38.373476],[40.908779,38.3695246],[40.911767,38.3654035],[40.9062989,38.3643874],[40.908563,38.3585723],[40.9061149,38.3554388],[40.9024789,38.3550153],[40.9040629,38.3525309],[40.9014349,38.34999],[40.9029109,38.3444561],[40.9083393,38.3459253],[40.9147797,38.3441347],[40.9204539,38.3398598],[40.9267819,38.3406298],[40.9351269,38.3339171],[40.9392315,38.3337931],[40.9439787,38.3360094],[40.9470686,38.3343912],[40.9483613,38.3315964],[40.956136,38.333305],[40.9631494,38.3308574],[40.9670315,38.3311222],[40.9745883,38.32782],[40.9788919,38.3239866],[40.9884605,38.3218068],[40.9917995,38.3150884],[40.9964012,38.3114084],[41.0071341,38.3088163],[41.0088862,38.3054899],[41.0172601,38.3019561],[41.0229158,38.2913321],[41.027349,38.2872847],[41.0318509,38.2857158],[41.0392719,38.2875267],[41.0449875,38.2840418],[41.0505674,38.2832514],[41.0519173,38.2805987],[41.0431351,38.2786018],[41.0448916,38.2750628],[41.0537,38.2734256],[41.0575575,38.2682517],[41.063934,38.2652514],[41.0804231,38.2528155],[41.0962846,38.2377192],[41.1168373,38.2463257],[41.1280481,38.258821],[41.1416271,38.2652102],[41.1783278,38.2656352],[41.1836533,38.275856],[41.1834536,38.2842326],[41.1872391,38.2891364],[41.1838469,38.2951737],[41.1818256,38.2959397],[41.1815536,38.3033851],[41.1774448,38.3084465],[41.178257,38.3115206],[41.174817,38.3141823],[41.1756204,38.3150036],[41.1833214,38.3129827],[41.1858058,38.3155318],[41.1934865,38.316423],[41.1971291,38.3193269],[41.2078265,38.340409],[41.2152467,38.3497824],[41.217206,38.362232],[41.2315005,38.3671259],[41.2305187,38.3710984],[41.2323447,38.3721232],[41.2375659,38.3706997],[41.239573,38.3715014],[41.2402292,38.3735144],[41.2354231,38.3791332],[41.2312484,38.390413],[41.2352884,38.3983835],[41.2378568,38.3981841],[41.2400502,38.4101379],[41.2494843,38.4130878],[41.2504438,38.4157503],[41.2554785,38.4154524],[41.2570408,38.4171707],[41.2639093,38.4161493],[41.2649507,38.4211936],[41.2665601,38.4219471],[41.266595,38.4282072],[41.2710126,38.4305936],[41.270737,38.434449],[41.2727303,38.4346014],[41.2737531,38.432159],[41.2812496,38.4329414],[41.2820086,38.4341635],[41.2783392,38.4349421],[41.2771767,38.437208],[41.2816576,38.4409764],[41.2809094,38.4436824],[41.2860769,38.4435911],[41.2872695,38.4411129],[41.2903171,38.4409014],[41.2911112,38.4430166],[41.2895754,38.4446728],[41.2931593,38.4458665],[41.2927426,38.4492796],[41.2969833,38.4487942],[41.3025294,38.453106],[41.308292,38.4509015],[41.3154233,38.452027],[41.3194491,38.4556213],[41.3211663,38.4616272],[41.3337388,38.4658629],[41.3379375,38.4653756],[41.3459897,38.4594309],[41.3504112,38.4589362],[41.351383,38.4606103],[41.3558045,38.4615614],[41.3544926,38.4669637],[41.3591275,38.4762392],[41.3634026,38.4772737],[41.3665813,38.4832901],[41.3553143,38.4919888],[41.3361601,38.4958248],[41.3323093,38.5036526],[41.3215569,38.5094055],[41.2959514,38.5122231],[41.2973517,38.5151579],[41.3073038,38.5184057],[41.3048533,38.5277178],[41.3109546,38.536481],[41.3023027,38.5350336],[41.2928507,38.5396496],[41.2893499,38.5442653],[41.2905002,38.5461819],[41.2853991,38.5540825],[41.2861477,38.5616965],[41.2828474,38.5681797],[41.2873495,38.5782481],[41.2734965,38.5958002],[41.2735465,38.6091276],[41.2695456,38.6163179],[41.2720462,38.6187796],[41.2740663,38.6298945],[41.2644359,38.6381178],[41.2596134,38.6399829],[41.2626235,38.6498243],[41.2603345,38.6504947],[41.2573166,38.6487687],[41.2459529,38.6520868],[41.2426134,38.6511628],[41.2329479,38.6547796],[41.2280054,38.6544228],[41.2234095,38.6572126],[41.2209522,38.6558771],[41.2133125,38.6560489],[41.2103504,38.6584306],[41.2071244,38.6565413],[41.2029747,38.6577322],[41.1930892,38.653269],[41.1620157,38.6564101],[41.1395461,38.6620034],[41.1192728,38.6632384],[41.1163652,38.6725316],[41.1044966,38.6824864],[41.1118309,38.7014153],[41.1293166,38.7033091],[41.1387913,38.7114168],[41.1391815,38.7145841],[41.1093848,38.7100312],[41.0870519,38.6994422],[41.0003822,38.67062],[40.9328082,38.6290027],[40.8942991,38.6120462],[40.8473453,38.5764446],[40.8363415,38.5768467],[40.8147054,38.5639084],[40.813241,38.561555],[40.8088678,38.5610685]]]}},{"type":"Feature","properties":{"code":"21-15","provinceCode":"21","name":"Lice"},"geometry":{"type":"Polygon","coordinates":[[[40.4433296,38.5811645],[40.4430403,38.5702827],[40.4314219,38.5437437],[40.4326449,38.5250888],[40.4378426,38.5088216],[40.4547449,38.4906973],[40.4560858,38.49542],[40.4617366,38.4966193],[40.4612894,38.5001302],[40.4687283,38.5011917],[40.4858103,38.4972105],[40.4956239,38.4928014],[40.5018976,38.4868732],[40.5044954,38.4738825],[40.4953883,38.4668628],[40.4903079,38.4459764],[40.4847513,38.4334169],[40.4980944,38.4182732],[40.5156585,38.4117322],[40.5256185,38.4008218],[40.5422231,38.3682212],[40.5417468,38.3648603],[40.5357754,38.3559851],[40.5300455,38.3540741],[40.5155535,38.3539406],[40.4925306,38.3598808],[40.4775184,38.3539543],[40.4713748,38.3435996],[40.4787553,38.3414103],[40.485792,38.3346017],[40.5018644,38.3321865],[40.5343771,38.3196652],[40.5647673,38.3191613],[40.587717,38.3127888],[40.6065939,38.3254123],[40.6273847,38.3300834],[40.6341061,38.3371507],[40.6454183,38.336473],[40.6554203,38.3317407],[40.6595481,38.3257626],[40.6605999,38.3138906],[40.6682205,38.3138906],[40.6872719,38.3158837],[40.6925111,38.3188732],[40.7057201,38.3214142],[40.7109275,38.3258981],[40.716385,38.3266281],[40.7196911,38.331378],[40.7339162,38.3317765],[40.7674467,38.3130436],[40.784974,38.3116484],[40.8113047,38.3186802],[40.8204335,38.3272432],[40.8299592,38.3284886],[40.8444462,38.3273989],[40.8498045,38.329267],[40.8611162,38.3415645],[40.8987496,38.3361135],[40.9059414,38.339629],[40.9029109,38.3444561],[40.9014349,38.34999],[40.9040629,38.3525309],[40.9024789,38.3550153],[40.9061149,38.3554388],[40.908563,38.3585723],[40.9062989,38.3643874],[40.911767,38.3654035],[40.908779,38.3695246],[40.909859,38.373476],[40.9027309,38.380334],[40.9037389,38.383664],[40.8980508,38.3838051],[40.8930467,38.3908597],[40.895394,38.3930042],[40.8904115,38.4007576],[40.8935219,38.4090969],[40.8916499,38.4114439],[40.8836434,38.4122563],[40.8817138,38.4141068],[40.8778545,38.4145581],[40.8759249,38.4188004],[40.8570808,38.4204781],[40.8541777,38.4224456],[40.8472195,38.4235287],[40.8438786,38.426525],[40.842358,38.429774],[40.8397083,38.4310193],[40.8405839,38.4349719],[40.8370126,38.4374444],[40.8388097,38.4412523],[40.8376116,38.4448615],[40.8325888,38.4472254],[40.8333492,38.4505455],[40.8313677,38.4527108],[40.8259071,38.4553451],[40.8290867,38.4638968],[40.8237163,38.4684712],[40.8273164,38.4731783],[40.8213403,38.4754048],[40.8119249,38.4831957],[40.8149034,38.4875905],[40.8114761,38.4914454],[40.8105545,38.4957959],[40.8177546,38.5017464],[40.8154794,38.5028282],[40.8160363,38.5050718],[40.8112745,38.5067394],[40.8078473,38.5106712],[40.8072713,38.5197302],[40.8041608,38.5253633],[40.8065513,38.5287655],[40.8066953,38.5403677],[40.8037288,38.5426204],[40.8010792,38.5497608],[40.8015112,38.5524186],[40.8057885,38.5522361],[40.8036833,38.5573825],[40.8088678,38.5610685],[40.8077784,38.5667775],[40.8054449,38.5681043],[40.809079,38.5734023],[40.8067291,38.5747909],[40.8003695,38.5740145],[40.7985934,38.5760973],[40.7914892,38.5746287],[40.7937787,38.5819279],[40.7841603,38.5926034],[40.7672685,38.6000714],[40.7441555,38.6011043],[40.7175288,38.5965501],[40.6720445,38.6012964],[40.6589129,38.5963837],[40.6463325,38.5780994],[40.633144,38.5707328],[40.624166,38.5690353],[40.6191582,38.5633584],[40.6033615,38.5633017],[40.5855513,38.580397],[40.5740015,38.5832947],[40.5609595,38.5827357],[40.551448,38.5895709],[40.5410197,38.5925799],[40.4984054,38.6141971],[40.4842907,38.6194696],[40.4730503,38.62052],[40.4574375,38.6184369],[40.4476738,38.6138196],[40.4381508,38.5993237],[40.4447921,38.5976544],[40.4453022,38.5944519],[40.4403865,38.5934069],[40.4379233,38.5881263],[40.4433296,38.5811645]]]}},{"type":"Feature","properties":{"code":"21-16","provinceCode":"21","name":"Silvan"},"geometry":{"type":"Polygon","coordinates":[[[41.0103272,37.9790043],[41.0576936,37.9854065],[41.085879,37.9809479],[41.1004339,37.9761587],[41.122595,37.9751325],[41.1267794,37.9801773],[41.1352284,37.9850341],[41.1374182,37.9858947],[41.1439193,37.9839381],[41.1469684,37.9849508],[41.1550434,37.9913683],[41.1538075,37.9977981],[41.1496631,37.9979982],[41.1468008,38.0020324],[41.1528445,38.016008],[41.1566963,38.0182116],[41.1625171,38.0185406],[41.1639982,38.0203883],[41.1623108,38.023625],[41.1647686,38.028393],[41.1632279,38.0303579],[41.1646952,38.0322939],[41.1733142,38.0356123],[41.1724299,38.0463839],[41.178926,38.0517264],[41.1767747,38.0633721],[41.1823364,38.0691361],[41.1857084,38.0700014],[41.1918927,38.0671502],[41.1964054,38.0687708],[41.2088225,38.0816432],[41.2058954,38.0855574],[41.2065162,38.0902993],[41.2180405,38.1241603],[41.2159962,38.1463639],[41.2142616,38.150222],[41.2216565,38.1663813],[41.2194365,38.1891553],[41.2261444,38.1967454],[41.220514,38.2025174],[41.218594,38.2077252],[41.2072123,38.2118729],[41.2023409,38.2327893],[41.1902015,38.2403934],[41.175092,38.2440861],[41.1783278,38.2656352],[41.1416271,38.2652102],[41.1280481,38.258821],[41.1168373,38.2463257],[41.0962846,38.2377192],[41.0804231,38.2528155],[41.063934,38.2652514],[41.0575575,38.2682517],[41.0537,38.2734256],[41.0448916,38.2750628],[41.0431351,38.2786018],[41.0519173,38.2805987],[41.0505674,38.2832514],[41.0449875,38.2840418],[41.0392719,38.2875267],[41.0318509,38.2857158],[41.027349,38.2872847],[41.0229158,38.2913321],[41.0172601,38.3019561],[41.0088862,38.3054899],[41.0071341,38.3088163],[40.9964012,38.3114084],[40.9917995,38.3150884],[40.9884605,38.3218068],[40.9788919,38.3239866],[40.9745883,38.32782],[40.9670315,38.3311222],[40.9631494,38.3308574],[40.956136,38.333305],[40.9483613,38.3315964],[40.9470686,38.3343912],[40.9439787,38.3360094],[40.9392315,38.3337931],[40.9351269,38.3339171],[40.9267819,38.3406298],[40.9204539,38.3398598],[40.9147797,38.3441347],[40.9083393,38.3459253],[40.9029109,38.3444561],[40.9059414,38.339629],[40.8987496,38.3361135],[40.8611162,38.3415645],[40.8498045,38.329267],[40.8541643,38.3223339],[40.851038,38.309362],[40.8553204,38.2968807],[40.8680601,38.2899815],[40.9077217,38.2769546],[40.9134673,38.2617566],[40.9111728,38.2564574],[40.915355,38.251657],[40.9182417,38.2432351],[40.9076668,38.231492],[40.889589,38.2257013],[40.8840888,38.2215924],[40.8799311,38.221319],[40.8733897,38.2100059],[40.8547925,38.1910929],[40.8420298,38.1724616],[40.830361,38.1601337],[40.8168689,38.1535389],[40.8055647,38.1529654],[40.7935313,38.1572665],[40.7807685,38.1578399],[40.7705583,38.1543991],[40.7545933,38.141401],[40.7352851,38.1442859],[40.7243456,38.1529367],[40.7027334,38.1515316],[40.6994515,38.1389134],[40.6859594,38.1283009],[40.6701551,38.1257617],[40.6663741,38.1169483],[40.6677745,38.0950203],[40.6597924,38.088628],[40.658392,38.0849908],[40.6529306,38.0815738],[40.646629,38.0803613],[40.6478893,38.0744087],[40.6414476,38.0742985],[40.636399,38.0723806],[40.6404932,38.0622409],[40.6406425,38.0540129],[40.6467631,38.0450787],[40.6519408,38.0457017],[40.6660985,38.043924],[40.6695734,38.0402099],[40.6687239,38.0356356],[40.6720372,38.0337122],[40.6724096,38.0293041],[40.6756763,38.0263451],[40.6732872,38.024161],[40.6764112,38.0219489],[40.6758496,38.0175797],[40.6804109,38.014981],[40.683221,38.0106105],[40.6883813,38.009008],[40.6883459,38.0051066],[40.6938812,38.0047628],[40.6934006,38.0008193],[40.697297,37.9999895],[40.6989467,37.9966425],[40.7019304,37.9969744],[40.7025775,37.9983684],[40.703971,37.9976121],[40.7044424,37.9948128],[40.7107949,37.9925956],[40.7098431,37.9896335],[40.7154182,37.989823],[40.7199838,37.9842006],[40.7260094,37.9833073],[40.7328359,37.9759766],[40.7384248,37.9760185],[40.7385791,37.9715163],[40.7421295,37.9682859],[40.7463881,37.9674161],[40.7463624,37.9631522],[40.7524252,37.9614411],[40.7498888,37.959671],[40.7519087,37.956945],[40.7564136,37.9563067],[40.7556527,37.9514317],[40.7613597,37.9504566],[40.7659253,37.9461063],[40.7653546,37.943856],[40.768438,37.9431014],[40.7718225,37.9443061],[40.7727552,37.9414011],[40.7766378,37.9415438],[40.778908,37.9375173],[40.7845511,37.9395415],[40.7850576,37.9449595],[40.7898284,37.9477512],[40.7904279,37.9521056],[40.7860426,37.9754483],[40.7812656,37.9886267],[40.7818628,38.0016851],[40.7844005,38.0053316],[40.8011201,38.0116832],[40.818586,38.0146235],[40.8261993,38.0242671],[40.8327536,38.0273079],[40.8599369,38.0317929],[40.872178,38.0289708],[40.8799407,38.026031],[40.8950181,38.0114479],[40.8996458,38.0030967],[40.9054678,37.9973325],[40.9157682,37.9929797],[40.9523421,37.9867442],[40.9649913,37.9876483],[40.970853,37.9799198],[40.9784664,37.9780371],[41.0103272,37.9790043]]]}},{"type":"Feature","properties":{"code":"21-17","provinceCode":"21","name":"Sur"},"geometry":{"type":"Polygon","coordinates":[[[40.4675846,37.8328425],[40.4622549,37.839306],[40.4626162,37.8472956],[40.4783919,37.8781045],[40.4852651,37.8820287],[40.4844914,37.886627],[40.4757054,37.8912657],[40.4841524,37.8945185],[40.500737,37.9063347],[40.5121035,37.9119997],[40.5167149,37.9123514],[40.516825,37.9196748],[40.5095897,37.9318466],[40.5117784,37.9376258],[40.5000462,37.9399761],[40.5001056,37.949334],[40.4940096,37.9516058],[40.4782477,37.9755239],[40.4709848,37.9817238],[40.4662188,37.9934117],[40.4610874,37.9988122],[40.4596554,38.01487],[40.4629633,38.0192394],[40.4789882,38.0215825],[40.5229871,38.0489134],[40.5319518,38.0475593],[40.5395564,38.041469],[40.547861,38.0387994],[40.5614197,38.0458737],[40.5710424,38.0462669],[40.5752906,38.0517477],[40.5751368,38.0601251],[40.5773744,38.0636345],[40.5755749,38.0684131],[40.5984147,38.0707032],[40.6163484,38.0657387],[40.6229737,38.0665264],[40.636399,38.0723806],[40.6414476,38.0742985],[40.6478893,38.0744087],[40.646629,38.0803613],[40.6529306,38.0815738],[40.658392,38.0849908],[40.6597924,38.088628],[40.6677745,38.0950203],[40.6663741,38.1169483],[40.6701551,38.1257617],[40.6635734,38.125982],[40.6537708,38.1338029],[40.6523705,38.1369972],[40.6400472,38.142394],[40.6432681,38.1505436],[40.6463489,38.1498829],[40.6476092,38.1531865],[40.6512502,38.1532967],[40.65069,38.160454],[40.6537708,38.1619956],[40.6536308,38.1684915],[40.6553112,38.1706934],[40.6553112,38.175097],[40.6536308,38.1768584],[40.6504099,38.1761979],[40.6456487,38.1791701],[40.6424279,38.1788398],[40.6418677,38.1832429],[40.6306648,38.1799406],[40.626709,38.1774186],[40.6284038,38.181582],[40.618023,38.185412],[40.6053118,38.1844129],[40.6006511,38.1864111],[40.5985998,38.1897788],[40.5950521,38.1894198],[40.5950472,38.1868902],[40.5932846,38.1857127],[40.5925221,38.1866257],[40.591279,38.1848301],[40.5896558,38.1861989],[40.5917693,38.1879001],[40.5876285,38.189582],[40.58497,38.1871443],[40.5831977,38.1826168],[40.5876285,38.1710066],[40.5874808,38.1633428],[40.5846747,38.1599752],[40.5855608,38.1577687],[40.5778474,38.15263],[40.5690188,38.1540511],[40.563299,38.1593358],[40.5498574,38.1620343],[40.5351288,38.161697],[40.5332698,38.164058],[40.5185412,38.165632],[40.5121064,38.1686675],[40.5068155,38.1686675],[40.4980927,38.1742884],[40.500216,38.1784036],[40.5002892,38.1841011],[40.4959695,38.1896255],[40.4895267,38.1918697],[40.4796428,38.1858275],[40.4739321,38.1857124],[40.4687339,38.1884746],[40.4640482,38.1945166],[40.4606804,38.2059086],[40.4639019,38.2192934],[40.4696289,38.2262193],[40.4581286,38.2315714],[40.4530724,38.2304459],[40.4521212,38.2289653],[40.4473651,38.2294358],[40.450025,38.2357177],[40.4396269,38.2385052],[40.4338784,38.2421752],[40.420178,38.255651],[40.4153929,38.2657415],[40.409551,38.2662785],[40.4056915,38.2637463],[40.4047927,38.2587439],[40.4023871,38.2586194],[40.3975495,38.2633934],[40.3851685,38.2637084],[40.3804163,38.2629461],[40.375747,38.259268],[40.37274,38.2617848],[40.3728392,38.2593199],[40.3706583,38.2600724],[40.3716496,38.2640161],[40.3696339,38.2674667],[40.3677834,38.2678299],[40.3667921,38.2657285],[40.3693365,38.2636529],[40.3650408,38.262667],[40.3678826,38.2576074],[40.3571797,38.2533506],[40.3564721,38.2480728],[40.3490372,38.2481539],[40.344442,38.2534655],[40.3387626,38.252168],[40.3351484,38.2540736],[40.3244607,38.2532627],[40.3224987,38.2503029],[40.316716,38.2485594],[40.3057702,38.2372862],[40.2916749,38.2329874],[40.29152,38.2265386],[40.2883188,38.2241456],[40.2876476,38.2200082],[40.2849112,38.2184668],[40.2834139,38.2140451],[40.2879574,38.209258],[40.2746204,38.2007202],[40.2738137,38.1986914],[40.2767179,38.1972332],[40.2755885,38.1949508],[40.2688119,38.196092],[40.2619546,38.194507],[40.2681665,38.1752299],[40.2531612,38.1730102],[40.2597764,38.1700293],[40.2679245,38.1539178],[40.2717162,38.1533469],[40.273874,38.1449614],[40.2768309,38.141812],[40.2900422,38.1365308],[40.2880471,38.1318369],[40.2828497,38.1309852],[40.2819856,38.132193],[40.2779996,38.130072],[40.2786404,38.1285151],[40.2697668,38.1257321],[40.2713001,38.1213857],[40.276032,38.1102586],[40.2710621,38.1090106],[40.2683129,38.1038104],[40.2714322,38.1017302],[40.2753711,38.1019382],[40.2798651,38.0981105],[40.2843271,38.083987],[40.2899155,38.083059],[40.2902826,38.0782901],[40.2940925,38.0734349],[40.2900574,38.0683291],[40.2845709,38.0696047],[40.282473,38.075425],[40.2791908,38.0772097],[40.2599021,38.0745255],[40.2604528,38.0680138],[40.2526221,38.0638226],[40.2518487,38.0619759],[40.2538629,38.0500485],[40.2571486,38.0455763],[40.2619859,38.0428383],[40.2621684,38.0408303],[40.2535421,38.032512],[40.2524638,38.0283784],[40.2495883,38.0273001],[40.2521043,38.0194823],[40.2522992,38.0053759],[40.2431691,37.993808],[40.2396559,37.992353],[40.2389421,37.9890462],[40.2395596,37.981195],[40.2434684,37.9709718],[40.2506611,37.9653709],[40.2450013,37.9541101],[40.2457957,37.9492014],[40.2423745,37.9375906],[40.2368153,37.9333063],[40.2447916,37.9179885],[40.2307467,37.9149375],[40.2272735,37.9120916],[40.2284432,37.908398],[40.226405,37.9065323],[40.2305125,37.9043445],[40.2350228,37.9060541],[40.2365785,37.9049112],[40.2330594,37.9016012],[40.2290254,37.8835161],[40.225678,37.8833298],[40.2185122,37.8900674],[40.2215119,37.8699395],[40.2178421,37.8670432],[40.2152727,37.8602903],[40.2157118,37.8553728],[40.2217124,37.8479511],[40.2211201,37.8444811],[40.2240833,37.8387883],[40.2250732,37.828043],[40.2314464,37.826896],[40.2365288,37.8228178],[40.2356414,37.8168911],[40.2462904,37.813577],[40.2504047,37.8156165],[40.2528451,37.8135213],[40.2539897,37.8075189],[40.2492679,37.8064525],[40.2531231,37.7898484],[40.2735252,37.7951476],[40.2735897,37.7994824],[40.2772684,37.7969325],[40.2877711,37.8010989],[40.2913379,37.8107007],[40.2974691,37.8149326],[40.3045921,37.8248039],[40.3144859,37.821926],[40.3274053,37.8318723],[40.3347845,37.8332083],[40.3476137,37.8310415],[40.3517275,37.82507],[40.3607864,37.8276059],[40.3678686,37.8273277],[40.3716868,37.8259224],[40.3796598,37.8171978],[40.382159,37.8163642],[40.3969874,37.8177681],[40.4056512,37.8129859],[40.4218681,37.8158816],[40.4258668,37.8118999],[40.4319981,37.8117881],[40.4355969,37.8131921],[40.4394178,37.8205276],[40.4441718,37.8233704],[40.4475332,37.8221247],[40.4579746,37.830354],[40.4645588,37.830538],[40.4658108,37.8329987],[40.4675846,37.8328425]]]}},{"type":"Feature","properties":{"code":"21-18","provinceCode":"21","name":"Yenişehir"},"geometry":{"type":"Polygon","coordinates":[[[39.924673,38.1126201],[39.9318525,38.1023576],[39.9469389,38.0953085],[39.9539321,38.0904231],[39.9545607,38.0868362],[39.9592752,38.0853519],[39.9747545,38.0860941],[39.9758545,38.0821359],[39.983162,38.0745281],[39.9941453,38.071999],[39.9989447,38.0680182],[40.0035054,38.0664318],[40.0061136,38.0682322],[40.0079557,38.0675203],[40.0084819,38.0642788],[40.0165471,38.0673998],[40.0224559,38.0669544],[40.0240903,38.0657172],[40.0241532,38.0608175],[40.0283019,38.0590357],[40.0294334,38.055868],[40.0269819,38.0526507],[40.0301249,38.0458195],[40.0360966,38.0459185],[40.0379824,38.0473541],[40.0488571,38.0472551],[40.0516859,38.0458195],[40.0630007,38.0526012],[40.0690981,38.0480966],[40.0702889,38.044751],[40.080053,38.0380265],[40.072246,38.0344492],[40.0630135,38.0344492],[40.0589865,38.0325925],[40.063701,38.0255521],[40.063701,38.0226894],[40.0742104,38.0173504],[40.0752908,38.0096121],[40.0855056,38.0061296],[40.1033883,38.0039989],[40.1195553,37.9957161],[40.1170409,37.9933383],[40.1178581,37.984173],[40.1153437,37.9823283],[40.1189689,37.9766782],[40.1296091,37.9757828],[40.1367157,37.9638758],[40.1504139,37.9598182],[40.1601023,37.9723861],[40.2057828,37.9362293],[40.2173937,37.9234656],[40.2129632,37.9031537],[40.2142444,37.9017183],[40.2123616,37.9004002],[40.2166935,37.8973002],[40.2159715,37.8913736],[40.2185122,37.8900674],[40.225678,37.8833298],[40.2290254,37.8835161],[40.2330594,37.9016012],[40.2365785,37.9049112],[40.2350228,37.9060541],[40.2305125,37.9043445],[40.226405,37.9065323],[40.2284432,37.908398],[40.2272735,37.9120916],[40.2307467,37.9149375],[40.2447916,37.9179885],[40.2368153,37.9333063],[40.2423745,37.9375906],[40.2457957,37.9492014],[40.2450013,37.9541101],[40.2506611,37.9653709],[40.2434684,37.9709718],[40.2395596,37.981195],[40.2389421,37.9890462],[40.2396559,37.992353],[40.2431691,37.993808],[40.2522992,38.0053759],[40.2521043,38.0194823],[40.2495883,38.0273001],[40.2524638,38.0283784],[40.2535421,38.032512],[40.2621684,38.0408303],[40.2619859,38.0428383],[40.2571486,38.0455763],[40.2538629,38.0500485],[40.2518487,38.0619759],[40.2526221,38.0638226],[40.2604528,38.0680138],[40.2599021,38.0745255],[40.2791908,38.0772097],[40.282473,38.075425],[40.2845709,38.0696047],[40.2900574,38.0683291],[40.2940925,38.0734349],[40.2902826,38.0782901],[40.2899155,38.083059],[40.2843271,38.083987],[40.2798651,38.0981105],[40.2753711,38.1019382],[40.2714322,38.1017302],[40.2683129,38.1038104],[40.2710621,38.1090106],[40.276032,38.1102586],[40.2713001,38.1213857],[40.263036,38.128925],[40.2557737,38.1314957],[40.2481483,38.1314957],[40.2397967,38.1274016],[40.2210358,38.1237834],[40.2188571,38.1204507],[40.2193412,38.1120707],[40.2072374,38.1141658],[40.2014334,38.1101591],[40.1881095,38.1133285],[40.1878616,38.121422],[40.197839,38.1316595],[40.1814166,38.1367289],[40.1786898,38.1398972],[40.1693941,38.1410182],[40.1598841,38.1364307],[40.1496367,38.1346632],[40.143301,38.1256829],[40.1347701,38.1200823],[40.1354361,38.1149419],[40.1378983,38.1142229],[40.1437112,38.1166993],[40.1467826,38.1163199],[40.1551084,38.1119462],[40.1576975,38.1079317],[40.1559794,38.1023987],[40.1482057,38.1092022],[40.1356329,38.1048331],[40.1226635,38.0939715],[40.1011643,38.0924893],[40.0918005,38.0967959],[40.084432,38.1035233],[40.061703,38.1033435],[40.0565903,38.1087684],[40.0497734,38.1098046],[40.0443509,38.105416],[40.0389284,38.1098046],[40.0345904,38.1096218],[40.0341256,38.1052331],[40.0230482,38.1065132],[40.013675,38.1163261],[40.0146046,38.1235174],[40.0084849,38.1247971],[39.9986368,38.1239059],[39.9909033,38.1195997],[39.99345,38.1255281],[39.9920793,38.1282437],[40.0017806,38.1374344],[40.0004321,38.1430493],[40.004081,38.1550888],[39.9987267,38.1565234],[39.9869194,38.1548648],[39.9755766,38.1567872],[39.9775597,38.1600227],[39.9698907,38.1628245],[39.961602,38.1759184],[39.9580386,38.170133],[39.9450556,38.1651886],[39.9378161,38.1510072],[39.9321007,38.1306291],[39.924673,38.1126201]]]}}]}