{"type":"FeatureCollection","features":[{"type":"Feature","properties":{"code":"52-01","provinceCode":"52","name":"Akkuş"},"geometry":{"type":"Polygon","coordinates":[[[36.9149819,40.934983],[36.9047435,40.9391147],[36.9078481,40.9452797],[36.9055756,40.9470928],[36.9072719,40.9482532],[36.9047114,40.9483257],[36.9026951,40.9533538],[36.8960378,40.9571971],[36.8970359,40.9593404],[36.8928232,40.9582075],[36.884751,40.9470277],[36.8707173,40.9472301],[36.8710298,40.949236],[36.8651245,40.9470179],[36.8543902,40.9468303],[36.8545222,40.9453815],[36.8513978,40.9445948],[36.8513454,40.9412296],[36.8543139,40.9375143],[36.8502522,40.9359801],[36.8521268,40.9346819],[36.8513457,40.9323608],[36.8538453,40.9306691],[36.8548819,40.9207544],[36.8519706,40.9195737],[36.8512416,40.9207935],[36.8469194,40.9197311],[36.84593,40.9216985],[36.8448885,40.9204],[36.8413995,40.9204394],[36.8419724,40.9216198],[36.834281,40.9234442],[36.8286934,40.9226035],[36.8285893,40.9193376],[36.818591,40.9194557],[36.8047914,40.9227609],[36.7990223,40.9208732],[36.796095,40.9235085],[36.7893774,40.9239806],[36.7856281,40.9280725],[36.7809935,40.9295675],[36.7724125,40.9208155],[36.7635491,40.9175523],[36.7591744,40.9137498],[36.7421231,40.9122803],[36.7398839,40.9140483],[36.7363702,40.9140174],[36.7320465,40.913097],[36.7282353,40.9095912],[36.7244409,40.9099325],[36.721681,40.9079254],[36.7130887,40.9080435],[36.7123475,40.9091938],[36.7120962,40.9066775],[36.708121,40.9052195],[36.7016302,40.9026511],[36.700276,40.8997679],[36.6944167,40.8961904],[36.6900178,40.8883851],[36.68241,40.886852],[36.6833326,40.8822904],[36.6906915,40.8846946],[36.6920944,40.8810123],[36.695294,40.8787737],[36.6909013,40.8761373],[36.6900622,40.8720779],[36.6950339,40.8705829],[36.6919399,40.8692582],[36.6928733,40.868132],[36.699836,40.8671482],[36.6996568,40.8655671],[36.6971444,40.864693],[36.7025563,40.8612301],[36.7047447,40.8523282],[36.7125932,40.8394149],[36.725347,40.8358521],[36.7696262,40.8311759],[36.769625,40.8099788],[36.7776361,40.8008443],[36.8127917,40.7809501],[36.8508867,40.7667095],[36.8564444,40.7424856],[36.8407347,40.7120804],[36.8662126,40.7046123],[36.8918799,40.715578],[36.9172135,40.7223081],[36.9427239,40.7196839],[36.9580535,40.7166593],[36.9644316,40.7080533],[36.9650303,40.7032293],[36.9713663,40.6965309],[36.9787574,40.691907],[36.9940851,40.686089],[37.0294415,40.7005543],[37.0347135,40.6997144],[37.0510103,40.7058677],[37.0885937,40.7075159],[37.106879,40.721658],[37.1342375,40.7206306],[37.1295657,40.7566988],[37.1205008,40.7725759],[37.1250332,40.7850174],[37.1301323,40.7914518],[37.1618595,40.8004589],[37.1618595,40.8098935],[37.1516615,40.8184693],[37.1516615,40.8249004],[37.1601598,40.8300449],[37.1618595,40.8403326],[37.1709244,40.8510472],[37.1703579,40.8591892],[37.1618595,40.8647595],[37.157884,40.8730126],[37.1520623,40.8790153],[37.1326104,40.8756918],[37.1168837,40.8815659],[37.0950687,40.8818264],[37.065858,40.9049178],[37.0558063,40.9027179],[37.0411984,40.8924185],[37.0204198,40.8870397],[36.9976723,40.8903626],[36.9958003,40.8928663],[36.9981862,40.8968673],[36.9944776,40.8968673],[36.9911593,40.8987853],[36.9839372,40.8974575],[36.9794479,40.891408],[36.9759344,40.8894897],[36.9681268,40.8912604],[36.9538778,40.8883093],[36.9529938,40.8931977],[36.9454675,40.8953128],[36.9331031,40.8940278],[36.9234476,40.8992677],[36.9172583,40.9075011],[36.9149819,40.934983]]]}},{"type":"Feature","properties":{"code":"52-02","provinceCode":"52","name":"Altınordu"},"geometry":{"type":"Polygon","coordinates":[[[38.040227,40.7874574],[38.0277156,40.7909395],[38.0236816,40.7906146],[38.0196891,40.7926944],[38.0170726,40.7963978],[38.0190467,40.7989968],[38.0132233,40.8012966],[38.0154538,40.8060002],[38.0094384,40.8104622],[38.0045543,40.8171325],[38.0085157,40.8242826],[38.0112481,40.8358608],[38.008747,40.8461514],[38.0156713,40.8555491],[38.0115733,40.8665245],[38.0196475,40.8795161],[38.0184482,40.8839359],[38.0260046,40.8906948],[38.0263952,40.8999955],[38.0314943,40.9083455],[38.0299362,40.9166945],[38.0173303,40.9345664],[38.0122313,40.9467636],[38.0076988,40.9514707],[37.9909854,40.9551077],[37.9768214,40.9717928],[37.9807873,40.9741455],[37.9976525,40.9752462],[37.9998255,40.9806961],[37.961178,40.981806],[37.9558675,40.9832499],[37.9412549,40.9834381],[37.9399884,40.9846516],[37.9326499,40.9846187],[37.9280791,40.9863038],[37.9118549,40.9842973],[37.8861212,40.9849877],[37.8760918,40.9888498],[37.8762677,40.9945724],[37.8794082,40.9973457],[37.8761917,40.9961728],[37.872637,40.998818],[37.8739089,41.0015259],[37.8705984,41.0050557],[37.870929,41.009583],[37.865413,41.015048],[37.857942,41.015874],[37.8549653,41.0186259],[37.8556079,41.017053],[37.849189,41.0180921],[37.8510235,41.0199735],[37.8567212,41.0201364],[37.8509035,41.0202631],[37.8480966,41.0177652],[37.8309583,41.0205656],[37.8239764,41.0023854],[37.8162948,40.997374],[37.814049,40.9925677],[37.810171,40.9897477],[37.8069016,40.9893862],[37.8046439,40.9862179],[37.8001809,40.9877158],[37.7958984,40.9843186],[37.7945149,40.9867069],[37.7910911,40.9853169],[37.7896279,40.9871993],[37.7829314,40.9847922],[37.7813037,40.9889639],[37.7792514,40.989496],[37.7766732,40.9877278],[37.7777007,40.9854864],[37.773089,40.9834439],[37.7740609,40.9812852],[37.7714427,40.982714],[37.7683829,40.981516],[37.7619661,40.9842174],[37.7606496,40.9838616],[37.7610209,40.9799345],[37.757635,40.980759],[37.7559114,40.9771847],[37.7532898,40.9762622],[37.7493074,40.9785944],[37.7376682,40.9764603],[37.7365235,40.9783458],[37.7267562,40.9750356],[37.7175814,40.9821582],[37.7174168,40.9842282],[37.7119206,40.9841729],[37.7090249,40.9858549],[37.7054979,40.9808744],[37.7023165,40.9816043],[37.7005866,40.9786697],[37.6982616,40.9796421],[37.6946252,40.9758755],[37.6887441,40.9731503],[37.6884147,40.9665632],[37.691219,40.9624792],[37.6824055,40.9438716],[37.689799,40.9312446],[37.6861016,40.9286267],[37.6809681,40.9275533],[37.6780176,40.9193213],[37.6742781,40.9180896],[37.6734988,40.9155699],[37.6788367,40.9123947],[37.6777016,40.910849],[37.6926672,40.9037306],[37.6961268,40.9005746],[37.708714,40.8986858],[37.7166708,40.9035469],[37.7167907,40.9073994],[37.7229764,40.9124118],[37.7274513,40.9112333],[37.7318816,40.9148149],[37.7455026,40.9083057],[37.7718088,40.9141651],[37.7853296,40.9109862],[37.7951448,40.9031898],[37.8143744,40.8997832],[37.819983,40.8955438],[37.8235886,40.8831267],[37.8287966,40.8750997],[37.829097,40.8705558],[37.8243898,40.8649511],[37.8284703,40.8584561],[37.8325033,40.858715],[37.8360057,40.8616761],[37.8487065,40.8621952],[37.8563179,40.8712856],[37.862193,40.8710224],[37.8651729,40.8690167],[37.8709027,40.8704697],[37.8747823,40.8689253],[37.8758898,40.8726068],[37.8941902,40.8795827],[37.8971659,40.8836672],[37.8978746,40.8888521],[37.9011554,40.8914317],[37.9092663,40.8915752],[37.9231986,40.8963734],[37.9248496,40.8932644],[37.9249228,40.8762663],[37.9285599,40.8707003],[37.9314177,40.8519033],[37.9300321,40.8471214],[37.9217186,40.836246],[37.9217186,40.830349],[37.9244762,40.825906],[37.9243823,40.8204452],[37.9199667,40.8195306],[37.9224841,40.8033154],[37.9476111,40.8133144],[37.9509203,40.8026291],[37.9504539,40.7981044],[37.9597223,40.7961019],[37.9786309,40.8008909],[37.9751507,40.7882383],[37.9753249,40.7822912],[37.9818632,40.7800409],[37.9795971,40.774023],[37.9841468,40.772863],[37.9855296,40.7706228],[37.9879975,40.7710868],[37.990608,40.7683026],[37.9894889,40.763462],[37.9957156,40.7648132],[38.0028609,40.770954],[38.0253982,40.7746269],[38.0289857,40.7775395],[38.048315,40.7832061],[38.040227,40.7874574]]]}},{"type":"Feature","properties":{"code":"52-03","provinceCode":"52","name":"Aybastı"},"geometry":{"type":"Polygon","coordinates":[[[37.2688103,40.6027358],[37.278794,40.6007553],[37.2885907,40.6100927],[37.2986472,40.6074912],[37.3054898,40.6006954],[37.3163178,40.5953537],[37.3210653,40.5954907],[37.3232827,40.5992674],[37.3252268,40.5963509],[37.3288746,40.59741],[37.335557,40.5950187],[37.3404622,40.5990599],[37.3469581,40.5870028],[37.3617045,40.5816208],[37.366907,40.5851042],[37.3708476,40.5784483],[37.3754474,40.5551777],[37.3815702,40.5585256],[37.3824867,40.5569371],[37.386636,40.5572794],[37.3875083,40.5560538],[37.3849361,40.5521686],[37.3858879,40.5495095],[37.3933965,40.5439936],[37.4025205,40.5472675],[37.4078267,40.544898],[37.4113149,40.5453611],[37.4168206,40.543487],[37.4282421,40.5487835],[37.4315221,40.5588411],[37.436735,40.5636468],[37.4422408,40.5652486],[37.4457551,40.5646257],[37.4509094,40.55626],[37.4630338,40.5489615],[37.4708238,40.5491395],[37.4770446,40.5555988],[37.476056,40.5575893],[37.4786759,40.5632225],[37.4739304,40.5699818],[37.4799117,40.5689304],[37.4772918,40.5721596],[37.4778355,40.5754262],[37.4741281,40.5768154],[37.4695309,40.5827848],[37.4691849,40.5862386],[37.4644394,40.5907808],[37.4539598,40.5944594],[37.4517847,40.5994515],[37.4593973,40.6065448],[37.4655763,40.6249314],[37.4571728,40.6415125],[37.4641428,40.6460884],[37.4716071,40.644063],[37.4751167,40.6530268],[37.4747213,40.6618018],[37.478923,40.6650266],[37.4743151,40.6827986],[37.4781069,40.6843428],[37.4811299,40.6881392],[37.4778813,40.6874065],[37.4783378,40.6906368],[37.4703306,40.6900401],[37.4674113,40.6996984],[37.4656842,40.700099],[37.46589,40.7035246],[37.4635353,40.7046277],[37.4641716,40.7067655],[37.4607514,40.7072323],[37.45978,40.7052002],[37.4562215,40.7048037],[37.4549232,40.703246],[37.4480551,40.7048406],[37.4484055,40.707663],[37.4457607,40.7109777],[37.4471195,40.7131352],[37.4463503,40.7191109],[37.4522537,40.7231915],[37.4459273,40.7258729],[37.4445812,40.7234247],[37.4389776,40.7295518],[37.4369725,40.7268426],[37.4318168,40.7254069],[37.4317521,40.7199112],[37.4277806,40.7167028],[37.4279509,40.7148259],[37.4241728,40.7130561],[37.4219797,40.7137605],[37.4151905,40.7181372],[37.4113512,40.7236142],[37.4111062,40.7310798],[37.4090393,40.7350365],[37.405075,40.7343515],[37.4030761,40.7366507],[37.3988717,40.7366018],[37.3955972,40.740054],[37.3895535,40.7388219],[37.3842205,40.7451789],[37.3731309,40.7356327],[37.3697835,40.7350721],[37.3593668,40.7381207],[37.3587605,40.7359491],[37.3518161,40.7311463],[37.3538553,40.7163182],[37.346803,40.7143166],[37.3441,40.7179474],[37.3395806,40.7181145],[37.3375211,40.7168491],[37.3268954,40.709361],[37.327904,40.7042334],[37.3228964,40.6951392],[37.3250592,40.693264],[37.3303542,40.6937555],[37.3299893,40.684166],[37.3248563,40.6784487],[37.3144298,40.6747992],[37.3120237,40.6687161],[37.304512,40.6631787],[37.2985187,40.6526901],[37.288149,40.6488826],[37.2906762,40.6425738],[37.2868658,40.6378067],[37.2754769,40.6364678],[37.2680982,40.6301377],[37.2673929,40.6194383],[37.2602671,40.6108578],[37.2643646,40.608839],[37.2662203,40.6037844],[37.2688103,40.6027358]]]}},{"type":"Feature","properties":{"code":"52-04","provinceCode":"52","name":"Çamaş"},"geometry":{"type":"Polygon","coordinates":[[[37.5856371,40.8894906],[37.5863602,40.8916289],[37.5839553,40.8958789],[37.5812114,40.8963427],[37.5776461,40.9002881],[37.5768074,40.9083975],[37.5748284,40.9090984],[37.5785411,40.9146158],[37.5781959,40.9176069],[37.5745448,40.9196085],[37.5773502,40.9225024],[37.5761097,40.9232955],[37.573272,40.9219247],[37.572768,40.924354],[37.57003,40.9250372],[37.5712519,40.9264169],[37.5680804,40.9258113],[37.5648915,40.9304321],[37.5588389,40.9296836],[37.5534922,40.9339234],[37.549416,40.9353116],[37.5478447,40.9345358],[37.5453444,40.9385512],[37.5428465,40.9384841],[37.5423703,40.9405022],[37.539957,40.9403094],[37.5369812,40.949226],[37.5316156,40.9493254],[37.5280952,40.953646],[37.5163387,40.9583166],[37.5107371,40.9597725],[37.5045349,40.9593882],[37.5065465,40.9551154],[37.5057607,40.9528365],[37.5002601,40.9501302],[37.497501,40.9429065],[37.4878792,40.9352249],[37.4836638,40.9336286],[37.4849145,40.9297847],[37.489757,40.9283344],[37.4868204,40.9259573],[37.4781337,40.9236096],[37.4745651,40.9205706],[37.4763459,40.9164931],[37.4751802,40.9118343],[37.4721075,40.9104652],[37.471837,40.9077016],[37.4689889,40.9058265],[37.4742075,40.9047817],[37.4749656,40.9021059],[37.4784557,40.903629],[37.4796403,40.9021715],[37.486327,40.9014537],[37.4901932,40.898484],[37.4925192,40.8911183],[37.4925192,40.8820408],[37.5006288,40.8773352],[37.4988371,40.8762657],[37.4934307,40.8770263],[37.4851012,40.8734137],[37.4895646,40.8641911],[37.4947195,40.8600548],[37.4992772,40.8590801],[37.4998115,40.8565601],[37.5073867,40.8522569],[37.4913248,40.8528513],[37.5022004,40.8463128],[37.5027816,40.8431472],[37.5053682,40.8430143],[37.5085734,40.8382774],[37.5143379,40.8373186],[37.5140149,40.8291784],[37.5232828,40.8291972],[37.528128,40.8379578],[37.5340415,40.839612],[37.5412471,40.8362471],[37.542241,40.8320361],[37.5475334,40.8358899],[37.5507884,40.8367547],[37.5534967,40.8357584],[37.5533724,40.8387097],[37.5563292,40.8391045],[37.5595,40.8428408],[37.5628407,40.8418688],[37.5600688,40.8502563],[37.5647705,40.8523795],[37.5687354,40.8497254],[37.571788,40.8495662],[37.5728757,40.84593],[37.5807704,40.8477348],[37.5820647,40.852268],[37.5785942,40.8548849],[37.5761923,40.8540764],[37.5745132,40.8581513],[37.5762631,40.8598478],[37.5791001,40.8578927],[37.5828397,40.8577991],[37.5841493,40.8633077],[37.582099,40.8626604],[37.5811022,40.8663945],[37.5742043,40.8654323],[37.5730636,40.8698977],[37.5745367,40.8741732],[37.5770621,40.8750765],[37.5736579,40.8782147],[37.5830823,40.8851982],[37.5856371,40.8894906]]]}},{"type":"Feature","properties":{"code":"52-05","provinceCode":"52","name":"Çatalpınar"},"geometry":{"type":"Polygon","coordinates":[[[37.5027816,40.8431472],[37.5022004,40.8463128],[37.4913248,40.8528513],[37.5073867,40.8522569],[37.4998115,40.8565601],[37.4992772,40.8590801],[37.4947195,40.8600548],[37.4895646,40.8641911],[37.4851012,40.8734137],[37.4934307,40.8770263],[37.4988371,40.8762657],[37.5006288,40.8773352],[37.4925192,40.8820408],[37.4925192,40.8911183],[37.4901932,40.898484],[37.486327,40.9014537],[37.4796403,40.9021715],[37.4784557,40.903629],[37.4749656,40.9021059],[37.4742075,40.9047817],[37.4689889,40.9058265],[37.471837,40.9077016],[37.4721075,40.9104652],[37.4751802,40.9118343],[37.4763459,40.9164931],[37.4745651,40.9205706],[37.4781337,40.9236096],[37.4691438,40.927492],[37.4706828,40.9292846],[37.4674764,40.9309642],[37.4673268,40.9327729],[37.4640349,40.9322077],[37.4590543,40.9339195],[37.4523851,40.9321593],[37.4470411,40.9329506],[37.4403077,40.928461],[37.4410131,40.9249079],[37.4475541,40.924488],[37.4429583,40.923535],[37.4399443,40.9163796],[37.4384052,40.9159435],[37.4348996,40.9178657],[37.4353699,40.919061],[37.432078,40.9198524],[37.4295342,40.9174457],[37.4268836,40.9185279],[37.4186325,40.9162827],[37.4243826,40.9090134],[37.4246178,40.9035367],[37.4187391,40.8978063],[37.4189101,40.8935729],[37.4169863,40.8910844],[37.4115148,40.8870122],[37.4095537,40.8799484],[37.397352,40.8738654],[37.3974059,40.8706883],[37.3936227,40.8653508],[37.3960379,40.8616358],[37.3942851,40.8625734],[37.3913815,40.8605913],[37.392338,40.8570905],[37.3988618,40.8529508],[37.4040614,40.8520819],[37.4091614,40.8491482],[37.4127632,40.8491806],[37.4135328,40.8512502],[37.4172798,40.8497981],[37.4193355,40.8475571],[37.416252,40.8443555],[37.4177937,40.8393928],[37.4239002,40.8383408],[37.42387,40.8342925],[37.4217539,40.8314563],[37.4258954,40.8305414],[37.4303997,40.8268815],[37.4258954,40.8208652],[37.4268325,40.8170447],[37.416252,40.8072979],[37.4164636,40.8021035],[37.4131685,40.7994033],[37.4124458,40.7962947],[37.4140622,40.7950673],[37.4173373,40.7934612],[37.4280253,40.7924254],[37.4234081,40.7900626],[37.4261869,40.787279],[37.4377299,40.7919399],[37.4382002,40.7866963],[37.4442282,40.7823263],[37.4428174,40.7764992],[37.45047,40.7722256],[37.4520672,40.7669738],[37.4582457,40.7695772],[37.4578702,40.776957],[37.464447,40.7788181],[37.4631348,40.7818737],[37.4735802,40.7840077],[37.477224,40.7865345],[37.4785936,40.787871],[37.4769044,40.7914412],[37.4778324,40.793575],[37.4729582,40.7963451],[37.4704033,40.8029784],[37.4664985,40.8051959],[37.4645056,40.811407],[37.4595732,40.8130513],[37.456952,40.8222954],[37.4576391,40.825782],[37.4554553,40.8282355],[37.4573467,40.8304563],[37.4550187,40.8320214],[37.4582115,40.8341976],[37.4579248,40.8408873],[37.4700929,40.8393207],[37.4708751,40.8405042],[37.4781871,40.8409159],[37.485261,40.8366448],[37.4884238,40.8366962],[37.4908044,40.8390634],[37.4903623,40.841379],[37.492947,40.8405299],[37.496756,40.8425882],[37.5027816,40.8431472]]]}},{"type":"Feature","properties":{"code":"52-06","provinceCode":"52","name":"Çaybaşı"},"geometry":{"type":"Polygon","coordinates":[[[36.9529938,40.8931977],[36.9538778,40.8883093],[36.9681268,40.8912604],[36.9759344,40.8894897],[36.9794479,40.891408],[36.9839372,40.8974575],[36.9911593,40.8987853],[36.9944776,40.8968673],[36.9981862,40.8968673],[37.0024804,40.9011459],[37.0104832,40.9027688],[37.0136063,40.9057193],[37.0145822,40.9194375],[37.0311209,40.9421716],[37.0391736,40.9474709],[37.0482484,40.9500997],[37.0485186,40.9516013],[37.0557214,40.9554693],[37.0639203,40.9586011],[37.0724415,40.9581752],[37.072726,40.9614674],[37.0773417,40.9638824],[37.0863047,40.9634891],[37.0928125,40.9679718],[37.0987907,40.9692743],[37.0987117,40.9718241],[37.1040811,40.9758334],[37.1076093,40.9814172],[37.1139668,40.9873344],[37.118454,40.9887449],[37.1178568,40.9960283],[37.1243677,41.0030119],[37.1238266,41.0094641],[37.1255577,41.011524],[37.1218548,41.0124753],[37.1213013,41.0165292],[37.1145421,41.0228168],[37.1138871,41.0310003],[37.1160566,41.038627],[37.1131912,41.0455119],[37.1114675,41.0460185],[37.1068372,41.053292],[37.0996963,41.0537827],[37.0884212,41.0488716],[37.0814329,41.0487952],[37.0807239,41.0417679],[37.0775651,41.0362687],[37.0733882,41.0315146],[37.0597603,41.0243154],[37.0510806,41.0122717],[37.04689,41.0099532],[37.0432972,41.0105283],[37.0427529,41.0079404],[37.0384887,41.007023],[37.0363294,41.0038324],[37.0329181,41.0043528],[37.0279725,41.0026104],[37.0291257,41.0000665],[37.0170056,40.9968885],[37.015165,40.9907417],[37.0061265,40.9867286],[37.0036942,40.9825609],[37.0048587,40.9768576],[36.9999996,40.9703409],[36.9993005,40.9599181],[36.9932649,40.9495534],[36.9933064,40.9446539],[36.9735654,40.9227651],[36.9691027,40.9060143],[36.9570009,40.8945066],[36.9529938,40.8931977]]]}},{"type":"Feature","properties":{"code":"52-07","provinceCode":"52","name":"Fatsa"},"geometry":{"type":"Polygon","coordinates":[[[37.3013226,40.9721353],[37.3017993,40.9615213],[37.2927344,40.956387],[37.2933009,40.9499687],[37.3097311,40.9499687],[37.3080315,40.9422658],[37.3114308,40.9371301],[37.3221954,40.9431218],[37.3369259,40.9439777],[37.3374925,40.931994],[37.3323934,40.9200081],[37.3312603,40.9118736],[37.3488236,40.9118736],[37.3577599,40.905774],[37.3623435,40.9047188],[37.3599494,40.9020045],[37.3590944,40.8922453],[37.3510585,40.8885204],[37.3312603,40.8891774],[37.3267279,40.8784689],[37.3438324,40.8647831],[37.3446019,40.8627138],[37.3504162,40.865171],[37.3601636,40.8623905],[37.3662055,40.8673142],[37.3716121,40.8643701],[37.3745444,40.8596147],[37.3817392,40.8572597],[37.3859109,40.8578542],[37.3868178,40.8567338],[37.3913815,40.8605913],[37.3942851,40.8625734],[37.3960379,40.8616358],[37.3936227,40.8653508],[37.3974059,40.8706883],[37.397352,40.8738654],[37.4095537,40.8799484],[37.4115148,40.8870122],[37.4169863,40.8910844],[37.4189101,40.8935729],[37.4187391,40.8978063],[37.4246178,40.9035367],[37.4243826,40.9090134],[37.4186325,40.9162827],[37.4268836,40.9185279],[37.4295342,40.9174457],[37.432078,40.9198524],[37.4353699,40.919061],[37.4348996,40.9178657],[37.4384052,40.9159435],[37.4399443,40.9163796],[37.4429583,40.923535],[37.4475541,40.924488],[37.4410131,40.9249079],[37.4403077,40.928461],[37.4470411,40.9329506],[37.4523851,40.9321593],[37.4590543,40.9339195],[37.4640349,40.9322077],[37.4673268,40.9327729],[37.4674764,40.9309642],[37.4706828,40.9292846],[37.4691438,40.927492],[37.4781337,40.9236096],[37.4868204,40.9259573],[37.489757,40.9283344],[37.4849145,40.9297847],[37.4836638,40.9336286],[37.4878792,40.9352249],[37.497501,40.9429065],[37.5002601,40.9501302],[37.5057607,40.9528365],[37.5065465,40.9551154],[37.5045349,40.9593882],[37.5107371,40.9597725],[37.5163387,40.9583166],[37.5280952,40.953646],[37.5316156,40.9493254],[37.5369812,40.949226],[37.539957,40.9403094],[37.5423703,40.9405022],[37.5428465,40.9384841],[37.5453444,40.9385512],[37.5478447,40.9345358],[37.549416,40.9353116],[37.5534922,40.9339234],[37.5588389,40.9296836],[37.5648915,40.9304321],[37.5680804,40.9258113],[37.5712519,40.9264169],[37.57003,40.9250372],[37.572768,40.924354],[37.573272,40.9219247],[37.5761097,40.9232955],[37.5773502,40.9225024],[37.5745448,40.9196085],[37.5781959,40.9176069],[37.5785411,40.9146158],[37.5748284,40.9090984],[37.5768074,40.9083975],[37.5776461,40.9002881],[37.5812114,40.8963427],[37.5839553,40.8958789],[37.5863602,40.8916289],[37.5856371,40.8894906],[37.5949119,40.8893687],[37.5989799,40.8996253],[37.6010852,40.895143],[37.6004887,40.8919867],[37.6044886,40.8950667],[37.6177731,40.8941938],[37.6254515,40.9045283],[37.6240149,40.9065875],[37.6268025,40.914412],[37.6310244,40.9165019],[37.632845,40.9147079],[37.6314928,40.9136174],[37.6335576,40.9127276],[37.6325045,40.9110945],[37.635577,40.9108006],[37.6411598,40.9066986],[37.6438571,40.9012073],[37.6466182,40.9019986],[37.6502885,40.8988441],[37.6527592,40.8991161],[37.6532921,40.8948378],[37.6513363,40.8936319],[37.6520732,40.8916224],[37.6499826,40.8910876],[37.65208,40.8872942],[37.6580922,40.8876743],[37.6589027,40.8866166],[37.6647907,40.8893585],[37.6617708,40.8934776],[37.6642655,40.8969514],[37.673279,40.8968813],[37.6708849,40.9085134],[37.6729536,40.9103087],[37.6679496,40.9167854],[37.6541419,40.9130175],[37.6499254,40.9159343],[37.643145,40.9473774],[37.6423438,40.9715802],[37.6507567,40.9836783],[37.6526926,40.9929971],[37.6632933,41.0019979],[37.6615265,41.0088311],[37.6542385,41.0136638],[37.6343622,41.0064979],[37.6334788,41.0131639],[37.636129,41.0176631],[37.6334788,41.0229951],[37.6328163,41.0304924],[37.6398834,41.035157],[37.6301661,41.0436524],[37.6423127,41.0501481],[37.6416502,41.0588081],[37.6141567,41.0642622],[37.614846,41.059675],[37.6125189,41.0571274],[37.6126501,41.053302],[37.6085486,41.0512183],[37.6117723,41.052648],[37.61273,41.0515801],[37.6102263,41.0511287],[37.6091762,41.0481336],[37.602097,41.045145],[37.599312,41.04049],[37.5948972,41.0391742],[37.594029,41.0373701],[37.5898882,41.0382972],[37.5872484,41.0369055],[37.5908282,41.0380113],[37.5909106,41.0360157],[37.5890884,41.0354226],[37.5886075,41.0366744],[37.587731,41.035085],[37.571927,41.028986],[37.5373218,41.0213655],[37.5101699,41.0278221],[37.5116291,41.0292279],[37.5097004,41.0284795],[37.5033258,41.0304991],[37.5007293,41.0324353],[37.5006599,41.0348656],[37.493424,41.0371028],[37.4887642,41.0411059],[37.4914552,41.0450918],[37.4886884,41.0417285],[37.4864192,41.0437215],[37.4866554,41.0466744],[37.4933142,41.0465037],[37.4863718,41.0476311],[37.47987,41.051812],[37.4783658,41.0567902],[37.4792379,41.0603142],[37.4811694,41.0603092],[37.4791581,41.0625194],[37.4712371,41.0638765],[37.4668486,41.068438],[37.462269,41.0692921],[37.4626706,41.070217],[37.453427,41.0709929],[37.4420102,41.0763673],[37.4426263,41.0661387],[37.4209694,41.0535146],[37.4165616,41.0471301],[37.4123078,41.0306132],[37.4038581,41.0197311],[37.393576,41.0153967],[37.3832259,40.9980778],[37.3807562,40.9924959],[37.3980864,40.9811736],[37.3930877,40.9710264],[37.3836893,40.9631929],[37.3755812,40.9613484],[37.3616311,40.9656573],[37.352856,40.9654874],[37.341156,40.9678659],[37.3321559,40.9665067],[37.3013226,40.9721353]]]}},{"type":"Feature","properties":{"code":"52-08","provinceCode":"52","name":"Gölköy"},"geometry":{"type":"Polygon","coordinates":[[[37.7636748,40.7004654],[37.7564291,40.7053175],[37.7521743,40.7151519],[37.7280401,40.7278922],[37.7246223,40.7341293],[37.7152058,40.7364548],[37.7103929,40.7404715],[37.7094164,40.7449106],[37.7126947,40.751833],[37.7097651,40.7576452],[37.705859,40.7587547],[37.6956753,40.7659398],[37.6841266,40.7636218],[37.6803323,40.764434],[37.6770052,40.7680551],[37.6693646,40.7664096],[37.6638237,40.7690158],[37.6581661,40.768795],[37.6536167,40.7675139],[37.6507004,40.7632289],[37.6509337,40.7692367],[37.6458011,40.7731237],[37.6400269,40.7711361],[37.6355358,40.7720195],[37.6374022,40.7550116],[37.6342526,40.7543047],[37.6325612,40.751963],[37.6265537,40.7539954],[37.614597,40.7535094],[37.6096393,40.7553209],[37.6058481,40.7525374],[37.6043317,40.7477653],[37.5954662,40.7467049],[37.594533,40.7478537],[37.5827512,40.7434349],[37.5715715,40.7507436],[37.5623013,40.7428306],[37.5545882,40.7402915],[37.5468106,40.7423563],[37.5418893,40.7398704],[37.5331011,40.7425025],[37.5230937,40.7430082],[37.5232875,40.7469325],[37.5212679,40.7480715],[37.535181,40.7532541],[37.5420634,40.7589977],[37.545942,40.7671041],[37.5448922,40.7744807],[37.5386514,40.7744807],[37.5353268,40.7773075],[37.5329938,40.7755408],[37.526403,40.7744366],[37.5215037,40.7765567],[37.5093136,40.7752316],[37.5106551,40.7716539],[37.5095469,40.769622],[37.4988727,40.7631675],[37.4995709,40.760281],[37.5113464,40.7559443],[37.5085614,40.7532943],[37.5134482,40.7499776],[37.5105089,40.7488923],[37.5132835,40.7428118],[37.5120147,40.7391515],[37.5171609,40.7397744],[37.516746,40.7375871],[37.5114815,40.7348686],[37.5063858,40.7278451],[37.50154,40.7245517],[37.4954059,40.7219576],[37.4905216,40.7225551],[37.4858489,40.7208792],[37.4840413,40.7094669],[37.4769169,40.7120906],[37.4711769,40.7117772],[37.4690617,40.7113909],[37.4683599,40.708432],[37.4656759,40.7090348],[37.4641716,40.7067655],[37.4635353,40.7046277],[37.46589,40.7035246],[37.4656842,40.700099],[37.4674113,40.6996984],[37.4703306,40.6900401],[37.4783378,40.6906368],[37.4778813,40.6874065],[37.4811299,40.6881392],[37.4781069,40.6843428],[37.4743151,40.6827986],[37.478923,40.6650266],[37.4747213,40.6618018],[37.4751167,40.6530268],[37.4716071,40.644063],[37.4641428,40.6460884],[37.4571728,40.6415125],[37.4655763,40.6249314],[37.4593973,40.6065448],[37.4517847,40.5994515],[37.4539598,40.5944594],[37.4644394,40.5907808],[37.4691849,40.5862386],[37.4695309,40.5827848],[37.4741281,40.5768154],[37.4778355,40.5754262],[37.4772918,40.5721596],[37.4799117,40.5689304],[37.4739304,40.5699818],[37.4786759,40.5632225],[37.476056,40.5575893],[37.4770446,40.5555988],[37.4708238,40.5491395],[37.4778524,40.5466885],[37.4818939,40.5413474],[37.4841782,40.5411248],[37.4876925,40.5454868],[37.4920268,40.5433949],[37.4926125,40.5415699],[37.497127,40.5413397],[37.5047997,40.5377351],[37.5067527,40.5392724],[37.5095428,40.5349256],[37.516518,40.5348195],[37.5178433,40.5321159],[37.5217494,40.5324339],[37.5255857,40.5361978],[37.5292128,40.5341304],[37.5440002,40.5307375],[37.5525099,40.5343424],[37.554742,40.5383182],[37.566529,40.5471405],[37.5709782,40.5500689],[37.5747955,40.5579358],[37.5735029,40.5718351],[37.5790903,40.5807005],[37.5976354,40.5730583],[37.6063161,40.5748566],[37.6045842,40.5783971],[37.6086996,40.5845952],[37.6077928,40.5916931],[37.6094669,40.6026564],[37.6160235,40.6048277],[37.6227895,40.6039804],[37.6294159,40.6073696],[37.6324152,40.6072107],[37.6362516,40.6039274],[37.6428082,40.6042452],[37.6474119,40.6065223],[37.6585024,40.6244188],[37.6744058,40.6327301],[37.6800557,40.6322536],[37.692332,40.6370176],[37.6969356,40.6451156],[37.6947036,40.6550118],[37.7032133,40.6518896],[37.7270684,40.6558585],[37.7345319,40.6534243],[37.7369034,40.6539535],[37.7378102,40.657446],[37.7422046,40.6616261],[37.7367639,40.6722076],[37.7397633,40.6872833],[37.7510631,40.6870718],[37.7628511,40.6929425],[37.7636748,40.7004654]]]}},{"type":"Feature","properties":{"code":"52-09","provinceCode":"52","name":"Gülyalı"},"geometry":{"type":"Polygon","coordinates":[[[38.0260046,40.8906948],[38.0381869,40.8991765],[38.0507282,40.8950331],[38.0558681,40.8976844],[38.0663522,40.89685],[38.0780124,40.8996956],[38.0819481,40.9083563],[38.0803298,40.9144856],[38.0942474,40.9260561],[38.0992554,40.9273924],[38.099773,40.9325299],[38.1024975,40.9358867],[38.101716,40.9389936],[38.1051178,40.9415316],[38.1038952,40.9434172],[38.1066163,40.9450897],[38.107262,40.9486686],[38.1131596,40.9513051],[38.1129585,40.9532386],[38.1154713,40.9535154],[38.1140584,40.9551425],[38.1160428,40.9579796],[38.1103321,40.9584598],[38.1066591,40.9611262],[38.0984731,40.9625138],[38.0982594,40.9634424],[38.1062748,40.9614821],[38.1075393,40.9633235],[38.114516,40.9621411],[38.1076462,40.9637972],[38.1079672,40.9660021],[38.1064776,40.9665589],[38.0664477,40.9728483],[38.0649924,40.9705781],[38.0580604,40.9715451],[38.0647723,40.9701066],[38.0651398,40.9680129],[38.0742767,40.9667838],[38.0739615,40.9648834],[38.065535,40.9664316],[38.0642721,40.9679225],[38.0528615,40.9679292],[38.0461822,40.9699976],[38.0452571,40.9689634],[38.0430335,40.9706558],[38.0472407,40.9708841],[38.0242267,40.9742159],[38.0204587,40.9772236],[38.0093137,40.977687],[37.9998255,40.9806961],[37.9976525,40.9752462],[37.9807873,40.9741455],[37.9768214,40.9717928],[37.9909854,40.9551077],[38.0076988,40.9514707],[38.0122313,40.9467636],[38.0173303,40.9345664],[38.0299362,40.9166945],[38.0314943,40.9083455],[38.0263952,40.8999955],[38.0260046,40.8906948]]]}},{"type":"Feature","properties":{"code":"52-10","provinceCode":"52","name":"Gürgentepe"},"geometry":{"type":"Polygon","coordinates":[[[37.6770052,40.7680551],[37.6797266,40.7703348],[37.6846876,40.7842622],[37.6827335,40.7839263],[37.6769932,40.7890411],[37.6762932,40.7942615],[37.673213,40.7983422],[37.6739131,40.8024226],[37.6704129,40.8015482],[37.6688378,40.7991901],[37.6594774,40.7963632],[37.6548244,40.7927657],[37.6509634,40.7956887],[37.6476445,40.8005774],[37.6502531,40.8012893],[37.651587,40.803958],[37.6490281,40.8077544],[37.6553844,40.812965],[37.6431216,40.8166525],[37.6374968,40.8242402],[37.6385652,40.8292895],[37.635995,40.8330418],[37.6342786,40.8323858],[37.6328731,40.8335984],[37.6325322,40.8357402],[37.6343186,40.8405899],[37.6402385,40.8447504],[37.6332765,40.8454167],[37.63142,40.8473776],[37.6324008,40.8512196],[37.6291782,40.8550084],[37.6305093,40.8604396],[37.6381455,40.8624795],[37.6439603,40.8593269],[37.6528926,40.8606515],[37.6584916,40.8547188],[37.6601561,40.8569761],[37.6639829,40.8580484],[37.6747229,40.8592747],[37.6770009,40.8579861],[37.6841591,40.87168],[37.6844381,40.8769668],[37.6777505,40.8872104],[37.6777557,40.8945553],[37.673279,40.8968813],[37.6642655,40.8969514],[37.6617708,40.8934776],[37.6647907,40.8893585],[37.6589027,40.8866166],[37.6580922,40.8876743],[37.65208,40.8872942],[37.6499826,40.8910876],[37.6520732,40.8916224],[37.6513363,40.8936319],[37.6532921,40.8948378],[37.6527592,40.8991161],[37.6502885,40.8988441],[37.6466182,40.9019986],[37.6438571,40.9012073],[37.6411598,40.9066986],[37.635577,40.9108006],[37.6325045,40.9110945],[37.6335576,40.9127276],[37.6314928,40.9136174],[37.632845,40.9147079],[37.6310244,40.9165019],[37.6268025,40.914412],[37.6240149,40.9065875],[37.6254515,40.9045283],[37.6177731,40.8941938],[37.6044886,40.8950667],[37.6004887,40.8919867],[37.6010852,40.895143],[37.5989799,40.8996253],[37.5949119,40.8893687],[37.5856371,40.8894906],[37.5830823,40.8851982],[37.5736579,40.8782147],[37.5770621,40.8750765],[37.5745367,40.8741732],[37.5730636,40.8698977],[37.5742043,40.8654323],[37.5811022,40.8663945],[37.582099,40.8626604],[37.5841493,40.8633077],[37.5828397,40.8577991],[37.5791001,40.8578927],[37.5762631,40.8598478],[37.5745132,40.8581513],[37.5761923,40.8540764],[37.5785942,40.8548849],[37.5820647,40.852268],[37.5807704,40.8477348],[37.5728757,40.84593],[37.571788,40.8495662],[37.5687354,40.8497254],[37.5647705,40.8523795],[37.5600688,40.8502563],[37.5628407,40.8418688],[37.5595,40.8428408],[37.5563292,40.8391045],[37.5533724,40.8387097],[37.5534967,40.8357584],[37.5507884,40.8367547],[37.5475334,40.8358899],[37.542241,40.8320361],[37.5412471,40.8362471],[37.5340415,40.839612],[37.528128,40.8379578],[37.5232828,40.8291972],[37.5140149,40.8291784],[37.5143379,40.8373186],[37.5085734,40.8382774],[37.5053682,40.8430143],[37.5027816,40.8431472],[37.496756,40.8425882],[37.492947,40.8405299],[37.4903623,40.841379],[37.4908044,40.8390634],[37.4884238,40.8366962],[37.485261,40.8366448],[37.4781871,40.8409159],[37.4708751,40.8405042],[37.4700929,40.8393207],[37.4579248,40.8408873],[37.4582115,40.8341976],[37.4550187,40.8320214],[37.4573467,40.8304563],[37.4554553,40.8282355],[37.4576391,40.825782],[37.456952,40.8222954],[37.4595732,40.8130513],[37.4645056,40.811407],[37.4664985,40.8051959],[37.4704033,40.8029784],[37.4729582,40.7963451],[37.4778324,40.793575],[37.4769044,40.7914412],[37.4785936,40.787871],[37.477224,40.7865345],[37.4764393,40.7841706],[37.4794861,40.7806466],[37.4836548,40.7796785],[37.4887225,40.7738372],[37.4943999,40.7725209],[37.4988727,40.7631675],[37.5095469,40.769622],[37.5106551,40.7716539],[37.5093136,40.7752316],[37.5215037,40.7765567],[37.526403,40.7744366],[37.5329938,40.7755408],[37.5353268,40.7773075],[37.5386514,40.7744807],[37.5448922,40.7744807],[37.545942,40.7671041],[37.5420634,40.7589977],[37.535181,40.7532541],[37.5212679,40.7480715],[37.5232875,40.7469325],[37.5230937,40.7430082],[37.5331011,40.7425025],[37.5418893,40.7398704],[37.5468106,40.7423563],[37.5545882,40.7402915],[37.5623013,40.7428306],[37.5715715,40.7507436],[37.5827512,40.7434349],[37.594533,40.7478537],[37.5954662,40.7467049],[37.6043317,40.7477653],[37.6058481,40.7525374],[37.6096393,40.7553209],[37.614597,40.7535094],[37.6265537,40.7539954],[37.6325612,40.751963],[37.6342526,40.7543047],[37.6374022,40.7550116],[37.6355358,40.7720195],[37.6400269,40.7711361],[37.6458011,40.7731237],[37.6509337,40.7692367],[37.6507004,40.7632289],[37.6536167,40.7675139],[37.6581661,40.768795],[37.6638237,40.7690158],[37.6693646,40.7664096],[37.6770052,40.7680551]]]}},{"type":"Feature","properties":{"code":"52-11","provinceCode":"52","name":"İkizce"},"geometry":{"type":"Polygon","coordinates":[[[37.1205896,41.0957955],[37.1139748,41.0966341],[37.1091693,41.1000139],[37.1024773,41.0998798],[37.1009823,41.0979485],[37.0979566,41.1009259],[37.09308,41.0970364],[37.0870643,41.0950514],[37.0873134,41.0972242],[37.0725056,41.1068],[37.01662,41.1019184],[37.0158725,41.098941],[37.0114942,41.0984582],[37.0041615,41.0929857],[36.9957608,41.0919127],[36.988962,41.0856617],[36.9879653,41.0767],[36.9912757,41.0741239],[36.9893536,41.0702865],[36.9920588,41.0662878],[36.9843701,41.0586387],[36.9724099,41.0579945],[36.9668926,41.0631746],[36.9599558,41.0657786],[36.9582783,41.0644897],[36.9552527,41.0614837],[36.9570681,41.0527603],[36.9546476,41.0400892],[36.9578156,41.0394717],[36.9599158,41.0362766],[36.9692063,41.0361961],[36.976539,41.0296713],[36.976539,41.0269323],[36.9807038,41.0258581],[36.9816648,41.0220179],[36.9786036,41.0144039],[36.9730978,41.0085466],[36.9728896,41.005757],[36.9616512,40.9961105],[36.9553428,40.993419],[36.9544442,40.991271],[36.9480536,40.9897259],[36.9402151,40.9809445],[36.9306779,40.9779039],[36.9251873,40.9731797],[36.9203943,40.9732928],[36.9143033,40.9761199],[36.9139039,40.9718603],[36.920594,40.9713326],[36.9220419,40.9698624],[36.9195092,40.9682694],[36.9153409,40.9599826],[36.921227,40.9558617],[36.921355,40.9483681],[36.9246209,40.9463703],[36.9209069,40.9423243],[36.9210349,40.9394714],[36.9149819,40.934983],[36.9172583,40.9075011],[36.9234476,40.8992677],[36.9331031,40.8940278],[36.9454675,40.8953128],[36.9529938,40.8931977],[36.9570009,40.8945066],[36.9691027,40.9060143],[36.9735654,40.9227651],[36.9933064,40.9446539],[36.9932649,40.9495534],[36.9993005,40.9599181],[36.9999996,40.9703409],[37.0048587,40.9768576],[37.0036942,40.9825609],[37.0061265,40.9867286],[37.015165,40.9907417],[37.0170056,40.9968885],[37.0291257,41.0000665],[37.0279725,41.0026104],[37.0329181,41.0043528],[37.0363294,41.0038324],[37.0384887,41.007023],[37.0427529,41.0079404],[37.0432972,41.0105283],[37.04689,41.0099532],[37.0510806,41.0122717],[37.0597603,41.0243154],[37.0733882,41.0315146],[37.0775651,41.0362687],[37.0807239,41.0417679],[37.0814329,41.0487952],[37.0884212,41.0488716],[37.0996963,41.0537827],[37.1068372,41.053292],[37.1114675,41.0460185],[37.1139013,41.0586823],[37.111143,41.0665729],[37.1110619,41.0746461],[37.113739,41.0851031],[37.1205896,41.0957955]]]}},{"type":"Feature","properties":{"code":"52-12","provinceCode":"52","name":"Kabadüz"},"geometry":{"type":"Polygon","coordinates":[[[38.1076239,40.5124942],[38.1067285,40.5215171],[38.1006056,40.5314617],[38.1008019,40.5434849],[38.0971091,40.5728848],[38.0894996,40.574393],[38.0654548,40.5911692],[38.03541,40.5979618],[38.0349397,40.6001561],[38.0371611,40.6016588],[38.0338561,40.6033702],[38.0341554,40.6088615],[38.0309708,40.6126878],[38.0320072,40.6204839],[38.0231202,40.6211285],[38.015325,40.6291315],[38.0140406,40.6337535],[38.0091955,40.6346662],[38.0059288,40.6382762],[38.005996,40.6478231],[37.9994772,40.6572016],[38.0018805,40.6661866],[38.0092619,40.6678793],[38.0128568,40.6725309],[37.9985614,40.6788657],[37.9941397,40.6820231],[37.9949611,40.6843447],[37.9866281,40.6843218],[37.9747072,40.6805752],[37.9625192,40.6832334],[37.9639433,40.6887088],[37.9680632,40.6898803],[37.9711262,40.6940088],[37.9704664,40.699902],[37.9748206,40.7058104],[37.9709669,40.7115256],[37.9721935,40.7171427],[37.970398,40.7191441],[37.9735058,40.7212991],[37.9679943,40.7288304],[37.9691653,40.7359593],[37.9603505,40.7467136],[37.9644241,40.7470233],[37.9653639,40.7500241],[37.9682625,40.7508789],[37.9717139,40.7456924],[37.9807338,40.7470952],[37.9813976,40.7532012],[37.9880353,40.754135],[37.9874457,40.7607709],[37.9894889,40.763462],[37.990608,40.7683026],[37.9879975,40.7710868],[37.9855296,40.7706228],[37.9841468,40.772863],[37.9795971,40.774023],[37.9818632,40.7800409],[37.9753249,40.7822912],[37.9751507,40.7882383],[37.9786309,40.8008909],[37.9597223,40.7961019],[37.9504539,40.7981044],[37.9509203,40.8026291],[37.9476111,40.8133144],[37.9224841,40.8033154],[37.9199667,40.8195306],[37.9243823,40.8204452],[37.9244762,40.825906],[37.9217186,40.830349],[37.9217186,40.836246],[37.9300321,40.8471214],[37.9314177,40.8519033],[37.9285599,40.8707003],[37.9249228,40.8762663],[37.9248496,40.8932644],[37.9231986,40.8963734],[37.9092663,40.8915752],[37.9011554,40.8914317],[37.8978746,40.8888521],[37.8971659,40.8836672],[37.8941902,40.8795827],[37.8758898,40.8726068],[37.8747823,40.8689253],[37.8709027,40.8704697],[37.8651729,40.8690167],[37.862193,40.8710224],[37.8563179,40.8712856],[37.8487065,40.8621952],[37.8360057,40.8616761],[37.8325033,40.858715],[37.8284703,40.8584561],[37.8216134,40.8564999],[37.8146543,40.8603882],[37.8064059,40.8587368],[37.8054427,40.8551489],[37.8146149,40.8450304],[37.8176773,40.8446377],[37.8201512,40.842337],[37.8225134,40.8376977],[37.8262428,40.8375209],[37.8250608,40.8334355],[37.8287848,40.8301566],[37.8262843,40.8260295],[37.8301499,40.8241596],[37.828744,40.8190991],[37.8317519,40.8167003],[37.8297004,40.8132597],[37.8325125,40.8115255],[37.8471585,40.80879],[37.8477735,40.8054022],[37.8532239,40.803472],[37.854601,40.8046446],[37.857071,40.8038968],[37.8581887,40.8060189],[37.8649399,40.8047794],[37.8651806,40.8019463],[37.8704974,40.798311],[37.8680198,40.7975827],[37.8679145,40.7950502],[37.8735818,40.7897321],[37.8712148,40.7785884],[37.8749546,40.7784945],[37.8755183,40.7768068],[37.8737124,40.7742885],[37.8712927,40.7747004],[37.8663912,40.7712235],[37.8655346,40.7670092],[37.8723506,40.7660452],[37.870178,40.7645814],[37.8759261,40.7604874],[37.8759996,40.7519801],[37.8652435,40.7448064],[37.8605653,40.7337739],[37.8615764,40.7308262],[37.8611462,40.7290062],[37.8641307,40.7255426],[37.8614182,40.7150029],[37.8435805,40.7052193],[37.8408779,40.6976785],[37.8319134,40.6935391],[37.8352547,40.689238],[37.8348327,40.6835432],[37.8276804,40.6824076],[37.8252636,40.6863534],[37.8222303,40.6876811],[37.8320658,40.6647499],[37.8491312,40.6610085],[37.8805733,40.6447505],[37.8802773,40.6410828],[37.8835326,40.6390618],[37.8822502,40.6341213],[37.8846177,40.6311269],[37.8873797,40.6304531],[37.8876756,40.627758],[37.8923119,40.6268596],[37.8897472,40.6240894],[37.8877743,40.6130076],[37.8977373,40.6053691],[37.8935943,40.5969808],[37.9051356,40.5981043],[37.9121393,40.5907637],[37.9146054,40.584621],[37.9226942,40.5828979],[37.9279224,40.5778034],[37.9326573,40.5777285],[37.9348274,40.5801259],[37.9379841,40.580051],[37.9408447,40.5778034],[37.948539,40.5792269],[37.9508078,40.5784777],[37.9492295,40.5763798],[37.9443927,40.5746646],[37.9464641,40.5614461],[37.9507313,40.557479],[37.9521837,40.551271],[37.9545553,40.5586905],[37.9737467,40.5675284],[37.9727899,40.5642281],[37.9766171,40.5550845],[37.968511,40.5441975],[37.9758573,40.5398183],[37.9807924,40.533969],[37.9840355,40.5229753],[37.987792,40.517993],[37.9959717,40.5129873],[38.01215,40.5076348],[38.0332074,40.5342663],[38.0675684,40.5526082],[38.0690001,40.5475917],[38.0664252,40.5427652],[38.0672036,40.5348891],[38.0741499,40.5289362],[38.0742105,40.5228075],[38.0856512,40.5190193],[38.1007874,40.5198862],[38.1076239,40.5124942]]]}},{"type":"Feature","properties":{"code":"52-13","provinceCode":"52","name":"Kabataş"},"geometry":{"type":"Polygon","coordinates":[[[37.4988727,40.7631675],[37.4943999,40.7725209],[37.4887225,40.7738372],[37.4836548,40.7796785],[37.4794861,40.7806466],[37.4764393,40.7841706],[37.477224,40.7865345],[37.4735802,40.7840077],[37.4631348,40.7818737],[37.464447,40.7788181],[37.4578702,40.776957],[37.4582457,40.7695772],[37.4520672,40.7669738],[37.45047,40.7722256],[37.4428174,40.7764992],[37.4442282,40.7823263],[37.4382002,40.7866963],[37.4377299,40.7919399],[37.4261869,40.787279],[37.4234081,40.7900626],[37.4280253,40.7924254],[37.4173373,40.7934612],[37.4140622,40.7950673],[37.4078647,40.7860193],[37.403572,40.7841882],[37.3970423,40.7837761],[37.4011536,40.7770005],[37.3936566,40.7707278],[37.394503,40.7681178],[37.3870664,40.7664693],[37.3784811,40.7698578],[37.3736443,40.7660114],[37.3634265,40.7641339],[37.3581665,40.7598293],[37.3542365,40.7557533],[37.3513752,40.7314387],[37.3477927,40.727095],[37.3422812,40.7253825],[37.3364942,40.7257167],[37.3368249,40.7235029],[37.333518,40.7226258],[37.3334078,40.7197436],[37.3375211,40.7168491],[37.3395806,40.7181145],[37.3441,40.7179474],[37.346803,40.7143166],[37.3538553,40.7163182],[37.3518161,40.7311463],[37.3587605,40.7359491],[37.3593668,40.7381207],[37.3697835,40.7350721],[37.3731309,40.7356327],[37.3842205,40.7451789],[37.3895535,40.7388219],[37.3955972,40.740054],[37.3988717,40.7366018],[37.4030761,40.7366507],[37.405075,40.7343515],[37.4090393,40.7350365],[37.4111062,40.7310798],[37.4113512,40.7236142],[37.4151905,40.7181372],[37.4219797,40.7137605],[37.4241728,40.7130561],[37.4279509,40.7148259],[37.4277806,40.7167028],[37.4317521,40.7199112],[37.4318168,40.7254069],[37.4369725,40.7268426],[37.4389776,40.7295518],[37.4445812,40.7234247],[37.4459273,40.7258729],[37.4522537,40.7231915],[37.4463503,40.7191109],[37.4471195,40.7131352],[37.4457607,40.7109777],[37.4484055,40.707663],[37.4480551,40.7048406],[37.4549232,40.703246],[37.4562215,40.7048037],[37.45978,40.7052002],[37.4607514,40.7072323],[37.4641716,40.7067655],[37.4656759,40.7090348],[37.4683599,40.708432],[37.4690617,40.7113909],[37.4711769,40.7117772],[37.4769169,40.7120906],[37.4840413,40.7094669],[37.4858489,40.7208792],[37.4905216,40.7225551],[37.4954059,40.7219576],[37.50154,40.7245517],[37.5063858,40.7278451],[37.5114815,40.7348686],[37.516746,40.7375871],[37.5171609,40.7397744],[37.5120147,40.7391515],[37.5132835,40.7428118],[37.5105089,40.7488923],[37.5134482,40.7499776],[37.5085614,40.7532943],[37.5113464,40.7559443],[37.4995709,40.760281],[37.4988727,40.7631675]]]}},{"type":"Feature","properties":{"code":"52-14","provinceCode":"52","name":"Korgan"},"geometry":{"type":"Polygon","coordinates":[[[37.2408106,40.613663],[37.2484893,40.6127261],[37.2492832,40.6103437],[37.2570479,40.6082093],[37.2602671,40.6108578],[37.2673929,40.6194383],[37.2680982,40.6301377],[37.2754769,40.6364678],[37.2868658,40.6378067],[37.2906762,40.6425738],[37.288149,40.6488826],[37.2985187,40.6526901],[37.304512,40.6631787],[37.3120237,40.6687161],[37.3144298,40.6747992],[37.3248563,40.6784487],[37.3299893,40.684166],[37.3303542,40.6937555],[37.3250592,40.693264],[37.3228964,40.6951392],[37.327904,40.7042334],[37.3268954,40.709361],[37.3375211,40.7168491],[37.3334078,40.7197436],[37.333518,40.7226258],[37.3368249,40.7235029],[37.3364942,40.7257167],[37.3422812,40.7253825],[37.3477927,40.727095],[37.3513752,40.7314387],[37.3542365,40.7557533],[37.3581665,40.7598293],[37.3634265,40.7641339],[37.3736443,40.7660114],[37.3784811,40.7698578],[37.3870664,40.7664693],[37.394503,40.7681178],[37.3936566,40.7707278],[37.4011536,40.7770005],[37.3970423,40.7837761],[37.403572,40.7841882],[37.4078647,40.7860193],[37.4140622,40.7950673],[37.4124458,40.7962947],[37.4131685,40.7994033],[37.4164636,40.8021035],[37.416252,40.8072979],[37.4268325,40.8170447],[37.4258954,40.8208652],[37.4303997,40.8268815],[37.4258954,40.8305414],[37.4217539,40.8314563],[37.42387,40.8342925],[37.4239002,40.8383408],[37.4177937,40.8393928],[37.416252,40.8443555],[37.4193355,40.8475571],[37.4172798,40.8497981],[37.4135328,40.8512502],[37.4127632,40.8491806],[37.4091614,40.8491482],[37.4040614,40.8520819],[37.3988618,40.8529508],[37.392338,40.8570905],[37.3913815,40.8605913],[37.3868178,40.8567338],[37.3859109,40.8578542],[37.3817392,40.8572597],[37.3745444,40.8596147],[37.3716121,40.8643701],[37.3662055,40.8673142],[37.3601636,40.8623905],[37.3606339,40.8595128],[37.3576412,40.8589632],[37.357684,40.8559237],[37.3534516,40.8524637],[37.3512285,40.8529811],[37.3491764,40.8512025],[37.3453715,40.8518816],[37.3445592,40.8489712],[37.3431056,40.8494563],[37.3046321,40.832617],[37.2944341,40.8214706],[37.2695055,40.8073206],[37.2383448,40.8021744],[37.220215,40.7923097],[37.1998189,40.7717178],[37.1986858,40.7554113],[37.2015186,40.7309442],[37.1972584,40.7227888],[37.1977972,40.7079382],[37.2032353,40.6788114],[37.2151827,40.6729736],[37.2219105,40.6737158],[37.2250639,40.6671704],[37.2381701,40.6671979],[37.2327258,40.6598846],[37.2277351,40.656787],[37.230117,40.6494726],[37.2410058,40.6469769],[37.2447488,40.642932],[37.2422534,40.6414689],[37.2425937,40.635444],[37.2393044,40.6344971],[37.23953,40.6273735],[37.2464173,40.6224666],[37.2408106,40.613663]]]}},{"type":"Feature","properties":{"code":"52-15","provinceCode":"52","name":"Kumru"},"geometry":{"type":"Polygon","coordinates":[[[37.1972584,40.7227888],[37.2015186,40.7309442],[37.1986858,40.7554113],[37.1998189,40.7717178],[37.220215,40.7923097],[37.2383448,40.8021744],[37.2695055,40.8073206],[37.2944341,40.8214706],[37.3046321,40.832617],[37.3431056,40.8494563],[37.3445592,40.8489712],[37.3453715,40.8518816],[37.3491764,40.8512025],[37.3512285,40.8529811],[37.3534516,40.8524637],[37.357684,40.8559237],[37.3576412,40.8589632],[37.3606339,40.8595128],[37.3601636,40.8623905],[37.3504162,40.865171],[37.3446019,40.8627138],[37.3438324,40.8647831],[37.3267279,40.8784689],[37.3312603,40.8891774],[37.3510585,40.8885204],[37.3590944,40.8922453],[37.3599494,40.9020045],[37.3623435,40.9047188],[37.3577599,40.905774],[37.3488236,40.9118736],[37.3312603,40.9118736],[37.3323934,40.9200081],[37.3374925,40.931994],[37.3369259,40.9439777],[37.3221954,40.9431218],[37.3114308,40.9371301],[37.3080315,40.9422658],[37.3097311,40.9499687],[37.2933009,40.9499687],[37.2927344,40.956387],[37.3017993,40.9615213],[37.3013226,40.9721353],[37.2889678,40.9841141],[37.2693673,40.975852],[37.2499088,40.9647174],[37.2465187,40.9573208],[37.2540878,40.9523031],[37.2546846,40.9455521],[37.2396179,40.9344046],[37.2421032,40.908853],[37.2210178,40.9037509],[37.2117144,40.8922649],[37.1984048,40.8832579],[37.157884,40.8730126],[37.1618595,40.8647595],[37.1703579,40.8591892],[37.1709244,40.8510472],[37.1618595,40.8403326],[37.1601598,40.8300449],[37.1516615,40.8249004],[37.1516615,40.8184693],[37.1618595,40.8098935],[37.1618595,40.8004589],[37.1301323,40.7914518],[37.1250332,40.7850174],[37.1205008,40.7725759],[37.1295657,40.7566988],[37.1342375,40.7206306],[37.1591604,40.7203094],[37.1723316,40.7295566],[37.1870258,40.7310666],[37.1972584,40.7227888]]]}},{"type":"Feature","properties":{"code":"52-16","provinceCode":"52","name":"Mesudiye"},"geometry":{"type":"Polygon","coordinates":[[[38.01215,40.5076348],[37.9959717,40.5129873],[37.987792,40.517993],[37.9840355,40.5229753],[37.9807924,40.533969],[37.9758573,40.5398183],[37.968511,40.5441975],[37.9766171,40.5550845],[37.9727899,40.5642281],[37.9737467,40.5675284],[37.9545553,40.5586905],[37.9521837,40.551271],[37.9507313,40.557479],[37.9464641,40.5614461],[37.9443927,40.5746646],[37.9492295,40.5763798],[37.9508078,40.5784777],[37.948539,40.5792269],[37.9408447,40.5778034],[37.9379841,40.580051],[37.9348274,40.5801259],[37.9326573,40.5777285],[37.9279224,40.5778034],[37.9226942,40.5828979],[37.9146054,40.584621],[37.9121393,40.5907637],[37.9051356,40.5981043],[37.8935943,40.5969808],[37.8977373,40.6053691],[37.8877743,40.6130076],[37.8897472,40.6240894],[37.8923119,40.6268596],[37.8876756,40.627758],[37.8873797,40.6304531],[37.8846177,40.6311269],[37.8822502,40.6341213],[37.8835326,40.6390618],[37.8802773,40.6410828],[37.8805733,40.6447505],[37.8491312,40.6610085],[37.8320658,40.6647499],[37.8222303,40.6876811],[37.8252636,40.6863534],[37.8276804,40.6824076],[37.8348327,40.6835432],[37.8352547,40.689238],[37.8319134,40.6935391],[37.8408779,40.6976785],[37.8435805,40.7052193],[37.8614182,40.7150029],[37.8641307,40.7255426],[37.8611462,40.7290062],[37.8615764,40.7308262],[37.855288,40.728154],[37.8461165,40.7291106],[37.8431572,40.7324744],[37.8312213,40.7321007],[37.8274728,40.7288864],[37.8221823,40.7289855],[37.8198772,40.7266437],[37.8116898,40.7288864],[37.8044265,40.7268778],[37.7996552,40.7235787],[37.794723,40.7235787],[37.7849573,40.7187939],[37.7813616,40.7188494],[37.7756847,40.7163267],[37.7719308,40.7064152],[37.7636748,40.7004654],[37.7628511,40.6929425],[37.7510631,40.6870718],[37.7397633,40.6872833],[37.7367639,40.6722076],[37.7422046,40.6616261],[37.7378102,40.657446],[37.7369034,40.6539535],[37.7345319,40.6534243],[37.7270684,40.6558585],[37.7032133,40.6518896],[37.6947036,40.6550118],[37.6969356,40.6451156],[37.692332,40.6370176],[37.6800557,40.6322536],[37.6744058,40.6327301],[37.6585024,40.6244188],[37.6474119,40.6065223],[37.6428082,40.6042452],[37.6362516,40.6039274],[37.6324152,40.6072107],[37.6294159,40.6073696],[37.6227895,40.6039804],[37.6160235,40.6048277],[37.6094669,40.6026564],[37.6077928,40.5916931],[37.6086996,40.5845952],[37.6045842,40.5783971],[37.6063161,40.5748566],[37.5976354,40.5730583],[37.5790903,40.5807005],[37.5735029,40.5718351],[37.5747955,40.5579358],[37.5709782,40.5500689],[37.566529,40.5471405],[37.5712158,40.5449403],[37.5803641,40.5447136],[37.5897112,40.5410865],[37.5945837,40.5416155],[37.6009357,40.5399547],[37.6129797,40.5487939],[37.6102948,40.5371569],[37.613278,40.5351165],[37.6061185,40.528768],[37.6022404,40.5222678],[37.6042291,40.520756],[37.6137752,40.5247621],[37.6136757,40.5280122],[37.6169572,40.5285413],[37.6219291,40.5257447],[37.619642,40.5206048],[37.6221279,40.5165228],[37.6197414,40.513121],[37.6211512,40.5098889],[37.6134899,40.5054847],[37.6280211,40.4990197],[37.6197426,40.488239],[37.6090001,40.4791511],[37.6137605,40.4578872],[37.6216924,40.4532888],[37.6292465,40.4561629],[37.6375561,40.4567376],[37.6405777,40.4469655],[37.6358061,40.4345833],[37.6609809,40.4201457],[37.6653888,40.4109411],[37.6436298,40.3963382],[37.6440868,40.3861683],[37.6555586,40.377818],[37.6756167,40.3732942],[37.6787489,40.3658838],[37.6731473,40.3555665],[37.6771654,40.3466791],[37.6945147,40.3311928],[37.7035658,40.3348353],[37.7213221,40.3257705],[37.7584937,40.3334801],[37.7532318,40.3520561],[37.75967,40.3632721],[37.7499208,40.3756308],[37.7500339,40.3822916],[37.7561592,40.392849],[37.7578223,40.391692],[37.769931,40.3929735],[37.771742,40.3911088],[37.7766051,40.3928203],[37.779741,40.3908662],[37.7926048,40.3878062],[37.8063702,40.3799249],[37.8166502,40.3716797],[37.8278749,40.3510136],[37.8388654,40.3426995],[37.8432549,40.3410765],[37.851169,40.3439446],[37.8620788,40.3514051],[37.8648844,40.3605198],[37.885316,40.3736882],[37.8924525,40.3755082],[37.8993558,40.3899485],[37.9029318,40.402317],[37.9114397,40.4084022],[37.9210647,40.4242514],[37.932055,40.4295367],[37.929047,40.4388985],[37.932345,40.4489515],[37.9332509,40.4598776],[37.9425518,40.4733385],[37.9450979,40.4801703],[37.9538934,40.481866],[37.9601108,40.4740859],[37.9597929,40.4673417],[37.9617643,40.4648452],[37.971563,40.4636808],[37.9811747,40.4733096],[37.9888569,40.4850651],[38.0055057,40.4996766],[38.0057783,40.5022887],[38.01215,40.5076348]]]}},{"type":"Feature","properties":{"code":"52-17","provinceCode":"52","name":"Perşembe"},"geometry":{"type":"Polygon","coordinates":[[[37.673279,40.8968813],[37.6799257,40.9058603],[37.6853499,40.9029906],[37.6926672,40.9037306],[37.6777016,40.910849],[37.6788367,40.9123947],[37.6734988,40.9155699],[37.6742781,40.9180896],[37.6780176,40.9193213],[37.6809681,40.9275533],[37.6861016,40.9286267],[37.689799,40.9312446],[37.6824055,40.9438716],[37.691219,40.9624792],[37.6884147,40.9665632],[37.6887441,40.9731503],[37.6946252,40.9758755],[37.6982616,40.9796421],[37.7005866,40.9786697],[37.7023165,40.9816043],[37.7054979,40.9808744],[37.7090249,40.9858549],[37.7119206,40.9841729],[37.7174168,40.9842282],[37.7175814,40.9821582],[37.7267562,40.9750356],[37.7365235,40.9783458],[37.7376682,40.9764603],[37.7493074,40.9785944],[37.7532898,40.9762622],[37.7559114,40.9771847],[37.757635,40.980759],[37.7610209,40.9799345],[37.7606496,40.9838616],[37.7619661,40.9842174],[37.7683829,40.981516],[37.7714427,40.982714],[37.7740609,40.9812852],[37.773089,40.9834439],[37.7777007,40.9854864],[37.7766732,40.9877278],[37.7792514,40.989496],[37.7813037,40.9889639],[37.7829314,40.9847922],[37.7896279,40.9871993],[37.7910911,40.9853169],[37.7945149,40.9867069],[37.7958984,40.9843186],[37.8001809,40.9877158],[37.8046439,40.9862179],[37.8069016,40.9893862],[37.810171,40.9897477],[37.814049,40.9925677],[37.8162948,40.997374],[37.8239764,41.0023854],[37.8309583,41.0205656],[37.8311221,41.0215713],[37.8103891,41.0248602],[37.803234,41.0290966],[37.803187,41.035343],[37.799393,41.038897],[37.799861,41.041213],[37.785621,41.050306],[37.7811,41.056419],[37.7820442,41.0580801],[37.778947,41.059902],[37.779294,41.0626253],[37.7786456,41.0600165],[37.778834,41.0618435],[37.7773347,41.0614742],[37.7745193,41.0652304],[37.7746937,41.0685819],[37.7725268,41.0711169],[37.7730408,41.0767578],[37.7776313,41.0837132],[37.7777813,41.0811348],[37.7814568,41.0898251],[37.7806785,41.0967335],[37.7837722,41.0985324],[37.785459,41.105243],[37.787161,41.1057018],[37.7884148,41.1114435],[37.786615,41.1161912],[37.777822,41.114404],[37.776495,41.112721],[37.77242,41.112806],[37.765936,41.114662],[37.7650148,41.1163005],[37.7624177,41.1159952],[37.7666988,41.1172785],[37.7621064,41.1169899],[37.757704,41.1199333],[37.75669,41.118927],[37.751503,41.1198256],[37.7445222,41.1172968],[37.7406872,41.1179879],[37.7316572,41.1142553],[37.7281141,41.116669],[37.7178895,41.1135889],[37.7044276,41.114162],[37.695666,41.1193253],[37.695134,41.124536],[37.682966,41.130302],[37.6831417,41.1365662],[37.676051,41.12804],[37.672432,41.1287671],[37.672181,41.126327],[37.668332,41.123587],[37.661239,41.121837],[37.659262,41.118861],[37.654879,41.117398],[37.654192,41.109432],[37.651335,41.108115],[37.648068,41.101915],[37.642871,41.098773],[37.642766,41.095692],[37.63906,41.094364],[37.6355594,41.0857277],[37.630781,41.084511],[37.6255606,41.0807538],[37.6278038,41.0819162],[37.6292898,41.0809652],[37.6207472,41.0751808],[37.6166722,41.0696356],[37.6183639,41.0690155],[37.6141567,41.0642622],[37.6416502,41.0588081],[37.6423127,41.0501481],[37.6301661,41.0436524],[37.6398834,41.035157],[37.6328163,41.0304924],[37.6334788,41.0229951],[37.636129,41.0176631],[37.6334788,41.0131639],[37.6343622,41.0064979],[37.6542385,41.0136638],[37.6615265,41.0088311],[37.6632933,41.0019979],[37.6526926,40.9929971],[37.6507567,40.9836783],[37.6423438,40.9715802],[37.643145,40.9473774],[37.6499254,40.9159343],[37.6541419,40.9130175],[37.6679496,40.9167854],[37.6729536,40.9103087],[37.6708849,40.9085134],[37.673279,40.8968813]]]}},{"type":"Feature","properties":{"code":"52-18","provinceCode":"52","name":"Ulubey"},"geometry":{"type":"Polygon","coordinates":[[[37.8615764,40.7308262],[37.8605653,40.7337739],[37.8652435,40.7448064],[37.8759996,40.7519801],[37.8759261,40.7604874],[37.870178,40.7645814],[37.8723506,40.7660452],[37.8655346,40.7670092],[37.8663912,40.7712235],[37.8712927,40.7747004],[37.8737124,40.7742885],[37.8755183,40.7768068],[37.8749546,40.7784945],[37.8712148,40.7785884],[37.8735818,40.7897321],[37.8679145,40.7950502],[37.8680198,40.7975827],[37.8704974,40.798311],[37.8651806,40.8019463],[37.8649399,40.8047794],[37.8581887,40.8060189],[37.857071,40.8038968],[37.854601,40.8046446],[37.8532239,40.803472],[37.8477735,40.8054022],[37.8471585,40.80879],[37.8325125,40.8115255],[37.8297004,40.8132597],[37.8317519,40.8167003],[37.828744,40.8190991],[37.8301499,40.8241596],[37.8262843,40.8260295],[37.8287848,40.8301566],[37.8250608,40.8334355],[37.8262428,40.8375209],[37.8225134,40.8376977],[37.8201512,40.842337],[37.8176773,40.8446377],[37.8146149,40.8450304],[37.8054427,40.8551489],[37.8064059,40.8587368],[37.8146543,40.8603882],[37.8216134,40.8564999],[37.8284703,40.8584561],[37.8243898,40.8649511],[37.829097,40.8705558],[37.8287966,40.8750997],[37.8235886,40.8831267],[37.819983,40.8955438],[37.8143744,40.8997832],[37.7951448,40.9031898],[37.7853296,40.9109862],[37.7718088,40.9141651],[37.7455026,40.9083057],[37.7318816,40.9148149],[37.7274513,40.9112333],[37.7229764,40.9124118],[37.7167907,40.9073994],[37.7166708,40.9035469],[37.708714,40.8986858],[37.6961268,40.9005746],[37.6926672,40.9037306],[37.6853499,40.9029906],[37.6799257,40.9058603],[37.673279,40.8968813],[37.6777557,40.8945553],[37.6777505,40.8872104],[37.6844381,40.8769668],[37.6841591,40.87168],[37.6770009,40.8579861],[37.6747229,40.8592747],[37.6639829,40.8580484],[37.6601561,40.8569761],[37.6584916,40.8547188],[37.6528926,40.8606515],[37.6439603,40.8593269],[37.6381455,40.8624795],[37.6305093,40.8604396],[37.6291782,40.8550084],[37.6324008,40.8512196],[37.63142,40.8473776],[37.6332765,40.8454167],[37.6402385,40.8447504],[37.6343186,40.8405899],[37.6325322,40.8357402],[37.6328731,40.8335984],[37.6342786,40.8323858],[37.635995,40.8330418],[37.6385652,40.8292895],[37.6374968,40.8242402],[37.6431216,40.8166525],[37.6553844,40.812965],[37.6490281,40.8077544],[37.651587,40.803958],[37.6502531,40.8012893],[37.6476445,40.8005774],[37.6509634,40.7956887],[37.6548244,40.7927657],[37.6594774,40.7963632],[37.6688378,40.7991901],[37.6704129,40.8015482],[37.6739131,40.8024226],[37.673213,40.7983422],[37.6762932,40.7942615],[37.6769932,40.7890411],[37.6827335,40.7839263],[37.6846876,40.7842622],[37.6797266,40.7703348],[37.6770052,40.7680551],[37.6803323,40.764434],[37.6841266,40.7636218],[37.6956753,40.7659398],[37.705859,40.7587547],[37.7097651,40.7576452],[37.7126947,40.751833],[37.7094164,40.7449106],[37.7103929,40.7404715],[37.7152058,40.7364548],[37.7246223,40.7341293],[37.7280401,40.7278922],[37.7521743,40.7151519],[37.7564291,40.7053175],[37.7636748,40.7004654],[37.7719308,40.7064152],[37.7756847,40.7163267],[37.7813616,40.7188494],[37.7849573,40.7187939],[37.794723,40.7235787],[37.7996552,40.7235787],[37.8044265,40.7268778],[37.8116898,40.7288864],[37.8198772,40.7266437],[37.8221823,40.7289855],[37.8274728,40.7288864],[37.8312213,40.7321007],[37.8431572,40.7324744],[37.8461165,40.7291106],[37.855288,40.728154],[37.8615764,40.7308262]]]}},{"type":"Feature","properties":{"code":"52-19","provinceCode":"52","name":"Ünye"},"geometry":{"type":"Polygon","coordinates":[[[37.1114675,41.0460185],[37.1131912,41.0455119],[37.1160566,41.038627],[37.1138871,41.0310003],[37.1145421,41.0228168],[37.1213013,41.0165292],[37.1218548,41.0124753],[37.1255577,41.011524],[37.1238266,41.0094641],[37.1243677,41.0030119],[37.1178568,40.9960283],[37.118454,40.9887449],[37.1139668,40.9873344],[37.1076093,40.9814172],[37.1040811,40.9758334],[37.0987117,40.9718241],[37.0987907,40.9692743],[37.0928125,40.9679718],[37.0863047,40.9634891],[37.0773417,40.9638824],[37.072726,40.9614674],[37.0724415,40.9581752],[37.0639203,40.9586011],[37.0557214,40.9554693],[37.0485186,40.9516013],[37.0482484,40.9500997],[37.0391736,40.9474709],[37.0311209,40.9421716],[37.0145822,40.9194375],[37.0136063,40.9057193],[37.0104832,40.9027688],[37.0024804,40.9011459],[36.9981862,40.8968673],[36.9958003,40.8928663],[36.9976723,40.8903626],[37.0204198,40.8870397],[37.0411984,40.8924185],[37.0558063,40.9027179],[37.065858,40.9049178],[37.0950687,40.8818264],[37.1168837,40.8815659],[37.1326104,40.8756918],[37.1520623,40.8790153],[37.157884,40.8730126],[37.1984048,40.8832579],[37.2117144,40.8922649],[37.2210178,40.9037509],[37.2421032,40.908853],[37.2396179,40.9344046],[37.2546846,40.9455521],[37.2540878,40.9523031],[37.2465187,40.9573208],[37.2499088,40.9647174],[37.2693673,40.975852],[37.2889678,40.9841141],[37.3013226,40.9721353],[37.3321559,40.9665067],[37.341156,40.9678659],[37.352856,40.9654874],[37.3616311,40.9656573],[37.3755812,40.9613484],[37.3836893,40.9631929],[37.3930877,40.9710264],[37.3980864,40.9811736],[37.3807562,40.9924959],[37.3832259,40.9980778],[37.393576,41.0153967],[37.4038581,41.0197311],[37.4123078,41.0306132],[37.4165616,41.0471301],[37.4209694,41.0535146],[37.4426263,41.0661387],[37.4420102,41.0763673],[37.431449,41.07722],[37.4199795,41.0803704],[37.418362,41.085384],[37.4130331,41.0875376],[37.4077978,41.09476],[37.397581,41.102811],[37.391446,41.10388],[37.38696,41.106898],[37.3580339,41.1080279],[37.3467031,41.1102715],[37.3454655,41.1148564],[37.3449664,41.1111666],[37.3353999,41.1136495],[37.3383681,41.1173705],[37.3489084,41.1167712],[37.3385804,41.1177432],[37.3358617,41.1149877],[37.3309223,41.1145406],[37.3117716,41.1171157],[37.2973941,41.1219475],[37.2916378,41.1249279],[37.29084,41.1267984],[37.2920858,41.1268079],[37.2876565,41.132511],[37.2950639,41.1409546],[37.2925381,41.1454576],[37.2856953,41.1447297],[37.2807556,41.1464955],[37.2659728,41.1444614],[37.252705,41.1465928],[37.207422,41.144034],[37.177848,41.14511],[37.1698717,41.1475887],[37.1681648,41.139816],[37.1623114,41.1399433],[37.1579179,41.1371205],[37.158867,41.129465],[37.1636331,41.1260278],[37.1625177,41.1210625],[37.1578305,41.1172518],[37.1507545,41.1189235],[37.1483929,41.1179507],[37.1501212,41.1112209],[37.1367918,41.1065382],[37.1320057,41.1068335],[37.1311334,41.1028039],[37.1279382,41.1024816],[37.1261934,41.0990009],[37.1205896,41.0957955],[37.113739,41.0851031],[37.1110619,41.0746461],[37.111143,41.0665729],[37.1139013,41.0586823],[37.1114675,41.0460185]]]}}]}