{"type":"FeatureCollection","features":[{"type":"Feature","properties":{"code":"02-01","provinceCode":"02","name":"Adıyaman merkez"},"geometry":{"type":"Polygon","coordinates":[[[37.9661026,37.8665777],[37.9864919,37.851762],[38.0166668,37.8333079],[38.022783,37.823099],[38.0249092,37.8132902],[38.0337264,37.8110667],[38.0455653,37.8112191],[38.0548416,37.8125867],[38.0599016,37.816865],[38.0643511,37.8153973],[38.0653014,37.8136668],[38.0685074,37.8145556],[38.0706933,37.8129049],[38.0714914,37.8070384],[38.0741192,37.8044855],[38.0722618,37.801095],[38.071801,37.792611],[38.0735143,37.7823857],[38.0689278,37.7635103],[38.0709718,37.7600629],[38.0689039,37.7565648],[38.0653391,37.7547055],[38.0591074,37.7358586],[38.0546923,37.7316425],[38.0452321,37.7275473],[38.0421425,37.7220578],[38.0427696,37.7172527],[38.047914,37.7159603],[38.0481353,37.7144718],[38.0446311,37.7132152],[38.0439031,37.7107377],[38.050144,37.7114781],[38.0542613,37.709606],[38.0547204,37.7123564],[38.0572852,37.71257],[38.0585305,37.7114549],[38.0575481,37.7087772],[38.0631012,37.7067799],[38.0671197,37.7074264],[38.0683464,37.7027014],[38.0717579,37.7020868],[38.0739445,37.7058799],[38.0790805,37.7053948],[38.0808892,37.7033272],[38.0790175,37.6973092],[38.0832536,37.6935823],[38.0785871,37.6894691],[38.079127,37.6861093],[38.0802466,37.6840161],[38.085767,37.6841965],[38.0851715,37.6807092],[38.0889717,37.6740206],[38.0915961,37.6725304],[38.0933382,37.6673501],[38.0942132,37.6541486],[38.0916014,37.6502701],[38.1013746,37.6420501],[38.0999633,37.6396514],[38.1017624,37.6334531],[38.1009477,37.6273335],[38.0980564,37.6203902],[38.099691,37.6102042],[38.1048671,37.6105747],[38.1013372,37.6011834],[38.1017268,37.5937514],[38.1003461,37.5916606],[38.1102639,37.5850383],[38.1097484,37.5778617],[38.1127967,37.5736515],[38.1190403,37.5717071],[38.1201825,37.5676582],[38.1226258,37.5662412],[38.1296888,37.5642779],[38.1301793,37.5621833],[38.1262505,37.5576243],[38.1298855,37.5553981],[38.1341882,37.5452736],[38.1377726,37.5437328],[38.1395005,37.5267199],[38.1441049,37.5192528],[38.1508957,37.519328],[38.1492572,37.5093028],[38.1521099,37.5078446],[38.1542647,37.5039816],[38.1529006,37.5013437],[38.1595825,37.4911512],[38.1586166,37.4869652],[38.1640952,37.4888134],[38.166141,37.4872335],[38.1649883,37.4817772],[38.1709676,37.4724991],[38.1708811,37.4673312],[38.1741352,37.4646143],[38.1717283,37.4628718],[38.1619004,37.4607805],[38.1582649,37.4544867],[38.1550458,37.4542083],[38.1598163,37.4505861],[38.1596887,37.4482565],[38.1640356,37.4455006],[38.1675953,37.4380269],[38.1516569,37.4313926],[38.1504567,37.4284898],[38.151939,37.4264151],[38.1434542,37.4265643],[38.1343458,37.4221932],[38.1504462,37.4178753],[38.1641087,37.4218001],[38.1724189,37.4167846],[38.1701873,37.4116716],[38.1749938,37.4096946],[38.1810878,37.41024],[38.1864427,37.4134593],[38.1933616,37.4233286],[38.1905292,37.4293949],[38.1903575,37.4365512],[38.1946158,37.4475157],[38.1990397,37.4511083],[38.2170509,37.4522245],[38.2315562,37.4450016],[38.2383369,37.4430935],[38.2474349,37.4435024],[38.2541297,37.4513387],[38.2669315,37.472109],[38.271172,37.4757463],[38.2796493,37.477298],[38.3054565,37.4725949],[38.3087372,37.4748725],[38.3106396,37.4814756],[38.3101696,37.4874974],[38.3274486,37.4901505],[38.3411026,37.4874873],[38.3635144,37.578579],[38.3834771,37.59924],[38.4014027,37.6134411],[38.431143,37.6418352],[38.4802771,37.6747813],[38.4878993,37.68841],[38.4926985,37.6922077],[38.4952903,37.6999654],[38.4960291,37.7162782],[38.5032307,37.7260329],[38.500603,37.737765],[38.5051462,37.7534457],[38.5062201,37.7731819],[38.512742,37.7772699],[38.516412,37.7951184],[38.5031437,37.8221059],[38.4780187,37.8544333],[38.4760426,37.8653546],[38.4696605,37.8777559],[38.4716428,37.8816959],[38.481124,37.8889746],[38.4796639,37.8994631],[38.4678546,37.9241734],[38.4542483,37.9444216],[38.4225494,37.9836631],[38.4069838,37.965394],[38.4095074,37.9502997],[38.4012508,37.9385116],[38.3851146,37.9399332],[38.3760165,37.9425731],[38.3833121,37.9557711],[38.3850288,37.9638918],[38.3761689,37.9719306],[38.3489907,37.9759527],[38.3329993,37.9833214],[38.326371,37.9815548],[38.3089655,37.9799386],[38.3019295,37.9811818],[38.290654,37.9789989],[38.282308,37.9819066],[38.2813553,37.9841483],[38.2761575,37.9859523],[38.2658096,37.9832838],[38.2542695,37.9881322],[38.254651,37.9862154],[38.2519806,37.9866664],[38.2492148,37.9893349],[38.2240894,37.9889754],[38.196661,38.0033128],[38.1740384,38.002678],[38.1508503,37.9970183],[38.1476768,37.9931648],[38.1361596,37.9882346],[38.1319776,37.9760787],[38.1068688,37.9672584],[38.097771,37.9497736],[38.0707619,37.936321],[38.0505761,37.9190532],[38.0443442,37.9124252],[38.0424608,37.9041839],[38.0385581,37.8991055],[38.0116218,37.8908094],[37.9924801,37.8827878],[37.9754837,37.8703606],[37.9661026,37.8665777]]]}},{"type":"Feature","properties":{"code":"02-02","provinceCode":"02","name":"Besni"},"geometry":{"type":"Polygon","coordinates":[[[37.586324,37.5831633],[37.5870767,37.5760561],[37.5783759,37.5426587],[37.5813531,37.5210817],[37.6033388,37.490042],[37.6037704,37.4834572],[37.6292225,37.4880206],[37.6300378,37.5048374],[37.6366615,37.515346],[37.6401234,37.5166377],[37.6494776,37.5116811],[37.6710903,37.5169997],[37.7011166,37.52067],[37.719488,37.5265556],[37.7314597,37.5270811],[37.7478151,37.5221904],[37.797996,37.4859833],[37.8173538,37.4758989],[37.8376565,37.4697605],[37.8610024,37.4666592],[37.8977106,37.4661661],[37.9308229,37.4678043],[37.9677736,37.4729765],[38.0000034,37.4754649],[38.0416631,37.472918],[38.0631272,37.4684609],[38.0760636,37.463924],[38.0796738,37.4610584],[38.0809598,37.4479079],[38.0911372,37.4488175],[38.0974029,37.4469096],[38.1178306,37.4276909],[38.1343458,37.4221932],[38.1434542,37.4265643],[38.151939,37.4264151],[38.1504567,37.4284898],[38.1516569,37.4313926],[38.1675953,37.4380269],[38.1640356,37.4455006],[38.1596887,37.4482565],[38.1598163,37.4505861],[38.1550458,37.4542083],[38.1582649,37.4544867],[38.1619004,37.4607805],[38.1717283,37.4628718],[38.1741352,37.4646143],[38.1708811,37.4673312],[38.1709676,37.4724991],[38.1649883,37.4817772],[38.166141,37.4872335],[38.1640952,37.4888134],[38.1586166,37.4869652],[38.1595825,37.4911512],[38.1529006,37.5013437],[38.1542647,37.5039816],[38.1521099,37.5078446],[38.1492572,37.5093028],[38.1508957,37.519328],[38.1441049,37.5192528],[38.1395005,37.5267199],[38.1377726,37.5437328],[38.1341882,37.5452736],[38.1298855,37.5553981],[38.1262505,37.5576243],[38.1301793,37.5621833],[38.1296888,37.5642779],[38.1226258,37.5662412],[38.1201825,37.5676582],[38.1190403,37.5717071],[38.1127967,37.5736515],[38.1097484,37.5778617],[38.1102639,37.5850383],[38.1003461,37.5916606],[38.1017268,37.5937514],[38.1013372,37.6011834],[38.1048671,37.6105747],[38.099691,37.6102042],[38.0980564,37.6203902],[38.1009477,37.6273335],[38.1017624,37.6334531],[38.0999633,37.6396514],[38.1013746,37.6420501],[38.0916014,37.6502701],[38.0942132,37.6541486],[38.0933382,37.6673501],[38.0915961,37.6725304],[38.0889717,37.6740206],[38.0851715,37.6807092],[38.085767,37.6841965],[38.0802466,37.6840161],[38.079127,37.6861093],[38.0785871,37.6894691],[38.0832536,37.6935823],[38.0790175,37.6973092],[38.0808892,37.7033272],[38.0790805,37.7053948],[38.0739445,37.7058799],[38.0717579,37.7020868],[38.0683464,37.7027014],[38.0671197,37.7074264],[38.0631012,37.7067799],[38.0575481,37.7087772],[38.0585305,37.7114549],[38.0572852,37.71257],[38.0547204,37.7123564],[38.0542613,37.709606],[38.050144,37.7114781],[38.0439031,37.7107377],[38.0446311,37.7132152],[38.0481353,37.7144718],[38.047914,37.7159603],[38.0427696,37.7172527],[38.031788,37.7227343],[38.0290804,37.7257554],[38.0255395,37.7364699],[38.0206911,37.7367054],[38.0146271,37.7446294],[38.0072814,37.7467737],[38.0081016,37.7503048],[38.0026132,37.7567825],[37.9890801,37.7545019],[37.9808268,37.7594817],[37.9783977,37.7579935],[37.9731949,37.7586766],[37.9714023,37.7600939],[37.9714967,37.7652364],[37.9671102,37.7691252],[37.958531,37.7689754],[37.9562604,37.765973],[37.9482167,37.7659756],[37.9453316,37.7616434],[37.9384094,37.7628837],[37.9316883,37.7615856],[37.9224352,37.7623444],[37.915711,37.7594009],[37.9122323,37.7619939],[37.9126855,37.765029],[37.909356,37.7672511],[37.9037288,37.7671614],[37.9007061,37.7645717],[37.8825997,37.7703638],[37.8787876,37.7672559],[37.8687698,37.7702324],[37.8616479,37.778639],[37.8564015,37.7790243],[37.8422275,37.7836088],[37.8418106,37.7773924],[37.8362624,37.7701365],[37.8133031,37.7746177],[37.8030037,37.7787678],[37.8030542,37.7814427],[37.7979599,37.7830532],[37.7925812,37.7873508],[37.7790891,37.7912371],[37.7460523,37.789842],[37.7401259,37.7863542],[37.7341994,37.7779829],[37.7318036,37.7649258],[37.7169245,37.7585459],[37.7133938,37.75396],[37.7086022,37.752963],[37.6912011,37.75396],[37.6818701,37.7569508],[37.6785917,37.7559539],[37.6702694,37.7453856],[37.6635864,37.7457845],[37.6625777,37.7401009],[37.6720348,37.7281341],[37.6840138,37.7257406],[37.6864096,37.7177614],[37.6881749,37.7094821],[37.6869139,37.7027981],[37.6775641,37.6833583],[37.6852307,37.6580628],[37.6870061,37.6463704],[37.685957,37.6412583],[37.694027,37.6262396],[37.6901534,37.623683],[37.6811149,37.6254087],[37.670059,37.62445],[37.6629573,37.6198478],[37.6582767,37.6086608],[37.6502066,37.608469],[37.6322621,37.5999068],[37.6221906,37.6021165],[37.6181104,37.6008889],[37.6163415,37.5976357],[37.6080777,37.5949246],[37.6022673,37.5907299],[37.5923895,37.5912414],[37.586324,37.5831633]]]}},{"type":"Feature","properties":{"code":"02-03","provinceCode":"02","name":"Çelikhan"},"geometry":{"type":"Polygon","coordinates":[[[38.4225494,37.9836631],[38.4360203,38.0344982],[38.4370838,38.0515284],[38.4313232,38.0897622],[38.4250651,38.0994676],[38.4151265,38.1025569],[38.4018253,38.1070765],[38.3992338,38.1058587],[38.3958081,38.1064144],[38.3781194,38.1187235],[38.3650212,38.117423],[38.3506206,38.1191935],[38.3454609,38.1164782],[38.3269858,38.1128486],[38.312813,38.1065509],[38.3035969,38.1051496],[38.3016014,38.1088303],[38.2987046,38.1103836],[38.3109355,38.112342],[38.3242929,38.1199389],[38.3209884,38.1252817],[38.3077168,38.1280415],[38.3062791,38.1266068],[38.3038974,38.1317211],[38.3103131,38.1485639],[38.3212995,38.1646604],[38.3150501,38.167431],[38.2996273,38.1663306],[38.2908725,38.1601389],[38.3098197,38.1584854],[38.3113861,38.1572706],[38.3071374,38.1415943],[38.301773,38.1326325],[38.2848215,38.1330376],[38.2754659,38.1401936],[38.2685136,38.1471802],[38.281517,38.1463364],[38.2880401,38.1472307],[38.2910871,38.1495426],[38.2831049,38.1543347],[38.282032,38.1565619],[38.2675695,38.1617923],[38.2791566,38.1664149],[38.270788,38.1675285],[38.2580852,38.1787631],[38.2555532,38.1840256],[38.2565832,38.1881071],[38.271346,38.201497],[38.2749939,38.2084777],[38.2695865,38.2066904],[38.263235,38.2100626],[38.2594681,38.202546],[38.2229375,38.1675959],[38.2175731,38.1588566],[38.2154396,38.1482475],[38.2052135,38.1414425],[38.1937593,38.1408404],[38.1876462,38.1036802],[38.1704974,38.116019],[38.1592659,38.1193167],[38.1564819,38.1131973],[38.1486511,38.1076822],[38.1317705,38.1052243],[38.1295434,38.0931654],[38.1186012,38.0749257],[38.1107051,38.0654436],[38.1102629,38.0475722],[38.1337574,38.015164],[38.1396451,38.0151016],[38.1472434,38.0112513],[38.1533926,38.0051629],[38.1508503,37.9970183],[38.1740384,38.002678],[38.196661,38.0033128],[38.2240894,37.9889754],[38.2492148,37.9893349],[38.2519806,37.9866664],[38.254651,37.9862154],[38.2542695,37.9881322],[38.2658096,37.9832838],[38.2761575,37.9859523],[38.2813553,37.9841483],[38.282308,37.9819066],[38.290654,37.9789989],[38.3019295,37.9811818],[38.3089655,37.9799386],[38.326371,37.9815548],[38.3329993,37.9833214],[38.3489907,37.9759527],[38.3761689,37.9719306],[38.3850288,37.9638918],[38.3833121,37.9557711],[38.3760165,37.9425731],[38.3851146,37.9399332],[38.4012508,37.9385116],[38.4095074,37.9502997],[38.4069838,37.965394],[38.4225494,37.9836631]]]}},{"type":"Feature","properties":{"code":"02-04","provinceCode":"02","name":"Gerger"},"geometry":{"type":"Polygon","coordinates":[[[39.1375295,38.0179549],[39.1505094,38.0156171],[39.1594209,38.0180994],[39.1766961,38.0293465],[39.1830144,38.0417499],[39.1966009,38.0487134],[39.201536,38.0629104],[39.2223263,38.0717695],[39.2350935,38.1061438],[39.2361298,38.1148866],[39.2378483,38.1214274],[39.2465567,38.1254383],[39.2535532,38.1330204],[39.2629315,38.1461335],[39.2632665,38.1527769],[39.2583912,38.1659157],[39.2567722,38.1778617],[39.2530368,38.1829582],[39.2436477,38.1892529],[39.2334622,38.191613],[39.2319327,38.2006845],[39.2264891,38.2059231],[39.2200999,38.2077979],[39.2069683,38.207617],[39.203274,38.2058704],[39.1952249,38.2068301],[39.1624614,38.1835256],[39.1520042,38.1831986],[39.1376261,38.1891188],[39.134346,38.1893405],[39.1267178,38.1867371],[39.1182995,38.1789522],[39.1119075,38.1757099],[39.1069722,38.1685237],[39.1047999,38.1686219],[39.0999516,38.1640782],[39.0874856,38.1586006],[39.0802628,38.1509473],[39.068724,38.1426177],[39.0662134,38.1353076],[39.0612084,38.1288939],[39.0543597,38.1050589],[39.0466869,38.0938529],[39.0437189,38.0929893],[39.042213,38.0893185],[39.0398097,38.0892932],[39.036988,38.0836269],[39.030919,38.081002],[39.0237441,38.0752601],[39.0144145,38.074506],[39.007357,38.071043],[39.0038574,38.0716428],[39.0023875,38.0703336],[38.9924299,38.0711481],[38.9872384,38.0693623],[38.9573478,38.0663046],[38.9554596,38.0644125],[38.939495,38.0608985],[38.9358043,38.0588542],[38.9330186,38.0882563],[38.9247171,38.0888516],[38.9128768,38.087123],[38.863084,38.0760349],[38.8738344,38.0723355],[38.8908505,38.0578911],[38.8993573,38.0542941],[38.9007854,38.0522816],[38.8946056,38.0494598],[38.8891554,38.0502709],[38.8838768,38.0473814],[38.8760876,38.0462492],[38.8703752,38.0429712],[38.8637924,38.0433258],[38.8566899,38.0369377],[38.8508963,38.035366],[38.8255763,38.0094188],[38.8100301,38.0053484],[38.7974667,38.0059697],[38.791418,38.0008306],[38.760581,37.9870309],[38.7808703,37.954742],[38.7871164,37.9376814],[38.7941441,37.9316035],[38.7954042,37.9270542],[38.7997177,37.9216636],[38.8224321,37.91105],[38.8320559,37.908762],[38.8426206,37.9072729],[38.8738343,37.9191359],[38.8866232,37.925494],[38.8967575,37.9364168],[38.9108475,37.9459581],[38.92712,37.9522738],[38.9357396,37.9485567],[38.9296922,37.9293517],[38.921731,37.9129404],[38.9089806,37.8957768],[38.9079204,37.8898005],[38.9077093,37.8749312],[38.9146683,37.8698191],[38.9202,37.8621931],[38.9187452,37.8561017],[38.9115172,37.8466627],[38.904089,37.843805],[38.9072299,37.8368679],[38.9207979,37.826398],[38.9413755,37.8286148],[38.9680406,37.8222204],[38.9766615,37.8238753],[38.9791565,37.8319393],[38.9738656,37.8599719],[38.9835528,37.8698434],[38.9924007,37.8851362],[38.9772185,37.8938823],[38.9736968,37.9000874],[38.9960629,37.9126714],[39.0100759,37.9162385],[39.0248664,37.9166177],[39.0314332,37.9257469],[39.0393376,37.9305379],[39.0391529,37.9369998],[39.0442508,37.944294],[39.0464809,37.9524619],[39.0572125,37.9647214],[39.0555495,37.9716564],[39.0591654,37.9844434],[39.0672145,37.9922104],[39.0813825,37.9988784],[39.0883244,38.0074307],[39.0971422,38.0127193],[39.1120023,38.0179779],[39.1279016,38.0205169],[39.1375295,38.0179549]]]}},{"type":"Feature","properties":{"code":"02-05","provinceCode":"02","name":"Gölbaşı"},"geometry":{"type":"Polygon","coordinates":[[[37.4578441,37.6723779],[37.4541779,37.6676823],[37.451754,37.6544555],[37.4468042,37.6531609],[37.4455407,37.6507347],[37.4421559,37.6499122],[37.435966,37.6409023],[37.4421559,37.6348937],[37.448406,37.6230036],[37.4455002,37.6162597],[37.4514193,37.6064323],[37.4495825,37.6001687],[37.4506751,37.5740043],[37.4584319,37.5736571],[37.4713595,37.562552],[37.4957101,37.560923],[37.4941503,37.5706901],[37.4986736,37.5755114],[37.5081881,37.5790962],[37.5077122,37.5859673],[37.5175268,37.5906463],[37.5273919,37.5907474],[37.5422088,37.6069298],[37.5498431,37.6081582],[37.5538328,37.6103706],[37.5583012,37.606894],[37.5632484,37.6055033],[37.5644119,37.5987922],[37.586324,37.5831633],[37.5923895,37.5912414],[37.6022673,37.5907299],[37.6080777,37.5949246],[37.6163415,37.5976357],[37.6181104,37.6008889],[37.6221906,37.6021165],[37.6322621,37.5999068],[37.6502066,37.608469],[37.6582767,37.6086608],[37.6629573,37.6198478],[37.670059,37.62445],[37.6811149,37.6254087],[37.6901534,37.623683],[37.694027,37.6262396],[37.685957,37.6412583],[37.6870061,37.6463704],[37.6852307,37.6580628],[37.6775641,37.6833583],[37.6869139,37.7027981],[37.6881749,37.7094821],[37.6864096,37.7177614],[37.6840138,37.7257406],[37.6720348,37.7281341],[37.6625777,37.7401009],[37.6635864,37.7457845],[37.6702694,37.7453856],[37.6785917,37.7559539],[37.6818701,37.7569508],[37.6912011,37.75396],[37.7086022,37.752963],[37.7133938,37.75396],[37.7169245,37.7585459],[37.7318036,37.7649258],[37.7341994,37.7779829],[37.7401259,37.7863542],[37.7460523,37.789842],[37.7790891,37.7912371],[37.7925812,37.7873508],[37.7979599,37.7830532],[37.8030542,37.7814427],[37.8030037,37.7787678],[37.8133031,37.7746177],[37.8362624,37.7701365],[37.8418106,37.7773924],[37.8422275,37.7836088],[37.8395339,37.8007666],[37.8310055,37.8088108],[37.8287846,37.8133401],[37.8325005,37.8293954],[37.8349538,37.8336787],[37.8445088,37.8339846],[37.852708,37.8363301],[37.8558714,37.8387265],[37.8599871,37.8459279],[37.8591801,37.8526826],[37.8694291,37.8580349],[37.8646678,37.8629408],[37.8681379,37.8704715],[37.8782497,37.87788],[37.8874818,37.8800203],[37.8883211,37.8819057],[37.884658,37.8884296],[37.8710757,37.8877874],[37.8595005,37.8804997],[37.8161054,37.8804582],[37.8061221,37.8851081],[37.7840792,37.8847747],[37.7830831,37.8893343],[37.7667569,37.8875539],[37.7668294,37.9018638],[37.7582439,37.908066],[37.7636066,37.9135887],[37.7563297,37.9346271],[37.7420673,37.9272715],[37.725045,37.9116663],[37.7019067,37.9126301],[37.6891659,37.9093386],[37.6844851,37.9107511],[37.6815798,37.9139163],[37.6843277,37.9217301],[37.6898039,37.926567],[37.6895454,37.9286884],[37.6928032,37.9300369],[37.6982887,37.9436159],[37.6934232,37.9494535],[37.6961998,37.9536377],[37.6941505,37.9538478],[37.6912772,37.9615252],[37.6708451,37.9430225],[37.6595116,37.9520856],[37.645704,37.9537219],[37.6184079,37.9493165],[37.6120289,37.938501],[37.598043,37.9330995],[37.5992689,37.9297474],[37.6078504,37.9213665],[37.6052351,37.9180784],[37.6005692,37.9146944],[37.5873336,37.9102154],[37.5828876,37.9025804],[37.5699385,37.8998899],[37.564054,37.9006637],[37.5428863,37.9114973],[37.5378191,37.9195569],[37.5356942,37.9196214],[37.5092959,37.9044686],[37.4954837,37.8918926],[37.4876378,37.8875711],[37.482929,37.8820347],[37.5039254,37.8779533],[37.508114,37.8744052],[37.5085226,37.8675504],[37.5122004,37.8648082],[37.512609,37.8612595],[37.5104637,37.8581138],[37.5131198,37.8447232],[37.5107701,37.8398019],[37.5082161,37.7948498],[37.5104637,37.7938811],[37.5149587,37.7978367],[37.5211905,37.7974331],[37.519556,37.7903289],[37.5208841,37.7867765],[37.5151631,37.7744227],[37.5066723,37.7715794],[37.4997577,37.7647565],[37.4900958,37.7591744],[37.4836389,37.7499437],[37.467017,37.7526227],[37.458752,37.7557778],[37.4533164,37.7482244],[37.4562754,37.7429179],[37.4558607,37.7352121],[37.4590619,37.7211717],[37.4665942,37.7131483],[37.4693787,37.6822334],[37.4626101,37.6747042],[37.4578441,37.6723779]]]}},{"type":"Feature","properties":{"code":"02-06","provinceCode":"02","name":"Kahta"},"geometry":{"type":"Polygon","coordinates":[[[38.9207979,37.826398],[38.9072299,37.8368679],[38.904089,37.843805],[38.9115172,37.8466627],[38.9187452,37.8561017],[38.9202,37.8621931],[38.9146683,37.8698191],[38.9077093,37.8749312],[38.9079204,37.8898005],[38.9089806,37.8957768],[38.921731,37.9129404],[38.9296922,37.9293517],[38.9357396,37.9485567],[38.92712,37.9522738],[38.9108475,37.9459581],[38.8967575,37.9364168],[38.8866232,37.925494],[38.8738343,37.9191359],[38.8426206,37.9072729],[38.8320559,37.908762],[38.8224321,37.91105],[38.7997177,37.9216636],[38.7954042,37.9270542],[38.7941441,37.9316035],[38.7871164,37.9376814],[38.7808703,37.954742],[38.760581,37.9870309],[38.7289709,37.9810413],[38.7256046,37.9777784],[38.7056829,37.9667691],[38.6459177,37.9525193],[38.6350327,37.9452314],[38.6093657,37.9438935],[38.5944447,37.9334054],[38.5646392,37.9225533],[38.5363997,37.918908],[38.5079034,37.9114142],[38.4796639,37.8994631],[38.481124,37.8889746],[38.4716428,37.8816959],[38.4696605,37.8777559],[38.4760426,37.8653546],[38.4780187,37.8544333],[38.5031437,37.8221059],[38.516412,37.7951184],[38.512742,37.7772699],[38.5062201,37.7731819],[38.5051462,37.7534457],[38.500603,37.737765],[38.5032307,37.7260329],[38.4960291,37.7162782],[38.4952903,37.6999654],[38.4926985,37.6922077],[38.4878993,37.68841],[38.4802771,37.6747813],[38.4990073,37.6668907],[38.5444582,37.6610803],[38.5563345,37.650317],[38.5868037,37.6302334],[38.6260986,37.5969314],[38.6444395,37.6208264],[38.6513745,37.6241604],[38.6941525,37.6274944],[38.7213745,37.6258314],[38.7497176,37.6272123],[38.7579495,37.6292034],[38.7682036,37.6349943],[38.7830505,37.6405484],[38.8011015,37.6433253],[38.8216626,37.6430433],[38.8474031,37.6476226],[38.8568563,37.6509608],[38.8570346,37.6550031],[38.8472135,37.6627653],[38.8169457,37.6695586],[38.8058315,37.6819304],[38.8102501,37.6935729],[38.8269346,37.6977764],[38.8494686,37.6911084],[38.8583646,37.6926169],[38.8716212,37.7010565],[38.8800766,37.7065895],[38.8958757,37.7125281],[38.9126325,37.7129402],[38.9148326,37.7250537],[38.9030795,37.7320202],[38.9053399,37.7411986],[38.924183,37.7479293],[38.9586119,37.7529806],[38.9645243,37.76372],[38.9552593,37.7726932],[38.9541625,37.7986073],[38.9507782,37.8050392],[38.9413307,37.8078404],[38.9211768,37.80146],[38.9016074,37.7916936],[38.8968009,37.793864],[38.8981651,37.8045723],[38.9207979,37.826398]]]}},{"type":"Feature","properties":{"code":"02-07","provinceCode":"02","name":"Samsat"},"geometry":{"type":"Polygon","coordinates":[[[38.5722196,37.5566633],[38.5794295,37.5705414],[38.5994416,37.5819394],[38.6149975,37.5869373],[38.6260986,37.5969314],[38.5868037,37.6302334],[38.5563345,37.650317],[38.5444582,37.6610803],[38.4990073,37.6668907],[38.4802771,37.6747813],[38.431143,37.6418352],[38.4014027,37.6134411],[38.3834771,37.59924],[38.3635144,37.578579],[38.3411026,37.4874873],[38.3830416,37.4811094],[38.3927685,37.4819333],[38.4108276,37.4897153],[38.4630506,37.4883193],[38.4763795,37.4905544],[38.4994355,37.4986033],[38.5091625,37.5044323],[38.5419385,37.5347134],[38.5616605,37.5463864],[38.5722196,37.5566633]]]}},{"type":"Feature","properties":{"code":"02-08","provinceCode":"02","name":"Sincik"},"geometry":{"type":"Polygon","coordinates":[[[38.4796639,37.8994631],[38.5079034,37.9114142],[38.5363997,37.918908],[38.5646392,37.9225533],[38.5944447,37.9334054],[38.6093657,37.9438935],[38.6350327,37.9452314],[38.6459177,37.9525193],[38.7056829,37.9667691],[38.7256046,37.9777784],[38.7289709,37.9810413],[38.760581,37.9870309],[38.7515258,37.9927807],[38.7568903,38.0095202],[38.7637138,38.0191902],[38.746376,38.0376138],[38.7387799,38.0431906],[38.7318277,38.0539037],[38.7218284,38.0526027],[38.7193501,38.0471321],[38.7138194,38.0450241],[38.7009555,38.0465153],[38.6959827,38.0486571],[38.6957949,38.0506468],[38.6927962,38.04954],[38.6825234,38.0509214],[38.6818528,38.0537727],[38.6755013,38.055323],[38.6734468,38.0593272],[38.6665727,38.0620732],[38.642435,38.0782475],[38.6384332,38.0841421],[38.638084,38.0878895],[38.6244106,38.0914211],[38.6131561,38.0979226],[38.6095716,38.1039552],[38.5983084,38.1139981],[38.5739972,38.1243472],[38.5824023,38.1270023],[38.5756587,38.133544],[38.5706805,38.133814],[38.5668182,38.1390798],[38.5475492,38.1474501],[38.5381078,38.1497451],[38.5308981,38.1539298],[38.5258129,38.1553758],[38.5175943,38.1532886],[38.5073397,38.1586112],[38.496437,38.1582492],[38.4971236,38.1657402],[38.4949779,38.1695866],[38.4919597,38.1902752],[38.4562602,38.1819215],[38.4417411,38.1751234],[38.4291503,38.1258615],[38.422451,38.1159887],[38.4163141,38.1159549],[38.4151265,38.1025569],[38.4250651,38.0994676],[38.4313232,38.0897622],[38.4370838,38.0515284],[38.4360203,38.0344982],[38.4225494,37.9836631],[38.4542483,37.9444216],[38.4678546,37.9241734],[38.4796639,37.8994631]]]}},{"type":"Feature","properties":{"code":"02-09","provinceCode":"02","name":"Tut"},"geometry":{"type":"Polygon","coordinates":[[[37.8422275,37.7836088],[37.8564015,37.7790243],[37.8616479,37.778639],[37.8687698,37.7702324],[37.8787876,37.7672559],[37.8825997,37.7703638],[37.9007061,37.7645717],[37.9037288,37.7671614],[37.909356,37.7672511],[37.9126855,37.765029],[37.9122323,37.7619939],[37.915711,37.7594009],[37.9224352,37.7623444],[37.9316883,37.7615856],[37.9384094,37.7628837],[37.9453316,37.7616434],[37.9482167,37.7659756],[37.9562604,37.765973],[37.958531,37.7689754],[37.9671102,37.7691252],[37.9714967,37.7652364],[37.9714023,37.7600939],[37.9731949,37.7586766],[37.9783977,37.7579935],[37.9808268,37.7594817],[37.9890801,37.7545019],[38.0026132,37.7567825],[38.0081016,37.7503048],[38.0072814,37.7467737],[38.0146271,37.7446294],[38.0206911,37.7367054],[38.0255395,37.7364699],[38.0290804,37.7257554],[38.031788,37.7227343],[38.0427696,37.7172527],[38.0421425,37.7220578],[38.0452321,37.7275473],[38.0546923,37.7316425],[38.0591074,37.7358586],[38.0653391,37.7547055],[38.0689039,37.7565648],[38.0709718,37.7600629],[38.0689278,37.7635103],[38.0735143,37.7823857],[38.071801,37.792611],[38.0722618,37.801095],[38.0741192,37.8044855],[38.0714914,37.8070384],[38.0706933,37.8129049],[38.0685074,37.8145556],[38.0653014,37.8136668],[38.0643511,37.8153973],[38.0599016,37.816865],[38.0548416,37.8125867],[38.0455653,37.8112191],[38.0337264,37.8110667],[38.0249092,37.8132902],[38.022783,37.823099],[38.0166668,37.8333079],[37.9864919,37.851762],[37.9661026,37.8665777],[37.9497006,37.8712079],[37.935352,37.880511],[37.9146293,37.8824554],[37.884658,37.8884296],[37.8883211,37.8819057],[37.8874818,37.8800203],[37.8782497,37.87788],[37.8681379,37.8704715],[37.8646678,37.8629408],[37.8694291,37.8580349],[37.8591801,37.8526826],[37.8599871,37.8459279],[37.8558714,37.8387265],[37.852708,37.8363301],[37.8445088,37.8339846],[37.8349538,37.8336787],[37.8325005,37.8293954],[37.8287846,37.8133401],[37.8310055,37.8088108],[37.8395339,37.8007666],[37.8422275,37.7836088]]]}}]}