{"type":"FeatureCollection","features":[{"type":"Feature","properties":{"code":"14-01","provinceCode":"14","name":"Bolu Merkez"},"geometry":{"type":"Polygon","coordinates":[[[31.7807161,40.9607834],[31.7763731,40.9729939],[31.7711283,40.9771621],[31.7613289,40.9803922],[31.7565958,40.9852461],[31.7490635,40.9878651],[31.7409765,40.984323],[31.7323173,40.983449],[31.7294012,40.9811483],[31.7216099,40.9803358],[31.7202196,40.9786986],[31.7176368,40.9792587],[31.7174866,40.9765313],[31.712072,40.9759998],[31.7050678,40.9702273],[31.6887251,40.9690389],[31.6861428,40.9665899],[31.6816005,40.9661459],[31.6781663,40.9617637],[31.6684891,40.9604516],[31.6685051,40.9587005],[31.6629992,40.9550989],[31.6540112,40.9541456],[31.6500559,40.9555147],[31.6439724,40.9505188],[31.6429987,40.9207562],[31.6369015,40.9135622],[31.6205087,40.9084564],[31.6100259,40.8949545],[31.5945156,40.8849274],[31.5672389,40.8740899],[31.5527983,40.8698838],[31.5382508,40.867538],[31.5330362,40.8612412],[31.5456455,40.8027145],[31.5190106,40.8018237],[31.4728007,40.7820638],[31.4428498,40.7788239],[31.4376233,40.7731151],[31.4151549,40.7628305],[31.4143989,40.7481268],[31.409168,40.7384848],[31.4076705,40.728353],[31.4017873,40.7151387],[31.3848864,40.6874045],[31.3858374,40.6709219],[31.3750007,40.6598123],[31.3700854,40.6579015],[31.3640573,40.6516872],[31.355726,40.648174],[31.348553,40.6478977],[31.339277,40.6443269],[31.3112426,40.6408466],[31.3027852,40.6290475],[31.313309,40.620921],[31.3225642,40.6211286],[31.3425991,40.6287716],[31.3790537,40.6289743],[31.3811841,40.6173631],[31.3628151,40.604576],[31.3614078,40.5921996],[31.3768908,40.5849549],[31.3960827,40.5817257],[31.4157123,40.5684419],[31.4439539,40.557873],[31.4504186,40.5455228],[31.4575298,40.5392065],[31.4842199,40.5406102],[31.4880063,40.537873],[31.4887452,40.5302924],[31.4964917,40.526075],[31.5044739,40.5238481],[31.50624,40.5274036],[31.5261084,40.5346432],[31.524019,40.5418876],[31.5345113,40.5523389],[31.5417063,40.5554792],[31.5543465,40.557491],[31.5702963,40.5567566],[31.5676688,40.5539679],[31.570796,40.5516154],[31.5824236,40.5508105],[31.5943024,40.555139],[31.6101414,40.5746207],[31.6045364,40.5812561],[31.6039689,40.5956648],[31.6070561,40.6028985],[31.622916,40.6045064],[31.6292329,40.5938758],[31.6441251,40.5974781],[31.6527324,40.592507],[31.6725203,40.5879626],[31.6950254,40.5885138],[31.7140233,40.5922342],[31.7260407,40.6019753],[31.7250886,40.6130754],[31.7106406,40.6159745],[31.7131058,40.6217951],[31.7180449,40.6259994],[31.7197729,40.6321287],[31.725572,40.6322195],[31.7449537,40.6279721],[31.751515,40.6207122],[31.7669515,40.6117959],[31.7764359,40.6114492],[31.7874008,40.6170875],[31.8149333,40.5839954],[31.8126039,40.5696183],[31.8162046,40.5617405],[31.8275462,40.5563602],[31.8317597,40.5668831],[31.8385608,40.5726289],[31.8489717,40.5885564],[31.8640591,40.5945488],[31.8751664,40.6069465],[31.8802799,40.6180192],[31.8807963,40.6271935],[31.8868755,40.6334816],[31.8944386,40.6338856],[31.9052862,40.639225],[31.9112667,40.6387844],[31.9206854,40.6411396],[31.9255904,40.6445453],[31.9281757,40.6441355],[31.9309652,40.6460906],[31.9360211,40.645667],[31.9417314,40.6488909],[31.9483933,40.6485932],[31.9597302,40.6538734],[31.9655016,40.6574326],[31.9713696,40.6651512],[31.9713994,40.6679179],[31.9781625,40.6728543],[31.9832427,40.681042],[31.9986492,40.686327],[32.0003802,40.6881724],[32.0056617,40.6863738],[32.0112241,40.6921426],[32.0138973,40.6981891],[32.0054802,40.7118918],[31.9988788,40.7148305],[31.9808689,40.7187122],[31.9753431,40.7236757],[31.9810735,40.7300346],[31.9915111,40.7367031],[31.9751423,40.7516916],[31.9607556,40.7783272],[31.9391755,40.7967843],[31.9371774,40.8094895],[31.9247888,40.8267283],[31.9147981,40.8146314],[31.8996121,40.8128166],[31.885625,40.8143289],[31.8828276,40.8197728],[31.8888221,40.8255187],[31.8880228,40.8339854],[31.8800302,40.8418464],[31.8800302,40.8472881],[31.8848258,40.8521248],[31.8836269,40.8608903],[31.8648442,40.8614948],[31.8638331,40.8596094],[31.8504771,40.8599614],[31.844463,40.8714798],[31.8413687,40.8828355],[31.8328738,40.8905033],[31.8140912,40.8938264],[31.8033011,40.8992638],[31.8045,40.907117],[31.7789237,40.9333884],[31.7674454,40.9487561],[31.7745026,40.9573936],[31.7807161,40.9607834]]]}},{"type":"Feature","properties":{"code":"14-02","provinceCode":"14","name":"Çamlıdere"},"geometry":{"type":"Polygon","coordinates":[[[32.0997333,40.5082525],[32.1090888,40.5034232],[32.1129512,40.4927845],[32.1085738,40.4899125],[32.1031665,40.4887375],[32.1057414,40.4810996],[32.1001624,40.4758114],[32.1002483,40.4668008],[32.1017932,40.4615114],[32.1132945,40.4509967],[32.1148395,40.437998],[32.1137237,40.4340783],[32.1109771,40.4333597],[32.1007256,40.4215047],[32.1114062,40.4124505],[32.1314906,40.4082025],[32.1426486,40.4016013],[32.1443652,40.397418],[32.1511458,40.3963068],[32.155609,40.3928423],[32.155609,40.3834283],[32.1593856,40.3802246],[32.1657371,40.3785246],[32.1606609,40.3724062],[32.1655653,40.3689125],[32.1646213,40.3606724],[32.1729468,40.364204],[32.1768951,40.3617188],[32.1811008,40.3613264],[32.1871089,40.3638116],[32.1924304,40.3597568],[32.2011851,40.359953],[32.2050475,40.3568136],[32.2143172,40.3536741],[32.2302817,40.3547206],[32.2336291,40.3561595],[32.2463321,40.3518426],[32.2510528,40.3481795],[32.2533702,40.348245],[32.2587775,40.3569444],[32.2653007,40.3585795],[32.2686481,40.3577947],[32.2753919,40.3528187],[32.2855567,40.3610648],[32.2861575,40.3679316],[32.2908782,40.3691741],[32.2972297,40.374863],[32.2994613,40.3795708],[32.3107909,40.3857165],[32.3170566,40.3914041],[32.3207473,40.3918617],[32.3225497,40.3904235],[32.3226356,40.3890507],[32.318344,40.3877432],[32.317829,40.3855858],[32.3227214,40.3853243],[32.3231505,40.378917],[32.3309611,40.3806169],[32.3291587,40.371659],[32.3458957,40.3727052],[32.3539638,40.3755823],[32.3553371,40.3770862],[32.3550796,40.3866972],[32.3773955,40.3865664],[32.3785113,40.3885931],[32.3953342,40.3885277],[32.4122428,40.3860434],[32.411642,40.3893776],[32.4147319,40.3875471],[32.4191951,40.3891814],[32.4189376,40.3903581],[32.4147319,40.3908811],[32.4179076,40.3932345],[32.4170493,40.3967644],[32.4198817,40.3995097],[32.4187659,40.4013399],[32.4260615,40.4000326],[32.4282931,40.401732],[32.4312114,40.3991829],[32.433958,40.3995751],[32.4349021,40.4021896],[32.4415111,40.4016667],[32.439022,40.3975488],[32.4409103,40.3953917],[32.4442577,40.3953263],[32.44812,40.3976795],[32.4519824,40.3969605],[32.4521541,40.39866],[32.465372,40.3976141],[32.4631404,40.3949995],[32.4591922,40.3960453],[32.4572181,40.3946726],[32.4671744,40.3904235],[32.4721526,40.3919924],[32.4752425,40.3910772],[32.4832248,40.39245],[32.4851989,40.3938882],[32.4948119,40.3925154],[32.5066566,40.3932345],[32.5088023,40.3959146],[32.5112056,40.3961761],[32.5128364,40.4019281],[32.5154971,40.4038889],[32.5231361,40.4025164],[32.5256251,40.3961107],[32.5308608,40.3902928],[32.5344657,40.3898352],[32.535324,40.3870894],[32.5371265,40.3920578],[32.540903,40.3935613],[32.5385856,40.4007516],[32.529745,40.4104899],[32.5327491,40.4202269],[32.5314616,40.4283943],[32.5371265,40.4325104],[32.5379848,40.4378673],[32.5468253,40.4432892],[32.552061,40.448776],[32.5543784,40.4482535],[32.5620174,40.451062],[32.5668239,40.4579849],[32.5636481,40.4654948],[32.563734,40.4720898],[32.5659656,40.4754849],[32.5702571,40.4765296],[32.5746345,40.4867139],[32.5793552,40.4882805],[32.5843333,40.4938289],[32.5875091,40.4951343],[32.5862216,40.4966356],[32.5838183,40.4958523],[32.5795268,40.4970272],[32.5781535,40.4996379],[32.5702571,40.5021832],[32.5683688,40.5096229],[32.5605582,40.5117111],[32.568798,40.5169965],[32.5635623,40.5226078],[32.561159,40.5288709],[32.5556659,40.5282838],[32.5556659,40.5340245],[32.5592708,40.5376122],[32.5814151,40.5404171],[32.5821017,40.5426347],[32.5790977,40.5477221],[32.5769519,40.5484395],[32.5742053,40.5472655],[32.561674,40.5578304],[32.5630473,40.5619384],[32.561674,40.5679371],[32.5669955,40.5738701],[32.5668239,40.579281],[32.5599574,40.5821492],[32.5564384,40.5820188],[32.5532626,40.5760866],[32.5451945,40.5727617],[32.5439071,40.5703495],[32.5378989,40.572501],[32.5341224,40.5699583],[32.5247668,40.5722402],[32.5258826,40.5764126],[32.5218486,40.5771949],[32.509489,40.5935558],[32.5016784,40.5922523],[32.5009917,40.5934906],[32.4989318,40.5915354],[32.4916362,40.5926434],[32.4877738,40.5902318],[32.4785041,40.5895148],[32.4736117,40.5931648],[32.4679469,40.6045043],[32.4673461,40.6073063],[32.4694919,40.6103037],[32.4672603,40.6108901],[32.4603938,40.6080231],[32.4575614,40.6086747],[32.4498366,40.6173405],[32.4493217,40.6224221],[32.4379062,40.6238554],[32.4310397,40.6166238],[32.4309539,40.6153208],[32.4368762,40.6140177],[32.4372195,40.6119327],[32.434473,40.6065896],[32.4285506,40.6060031],[32.4352454,40.5975966],[32.4292373,40.5932299],[32.4294089,40.5901666],[32.4380778,40.5886675],[32.4460601,40.5798677],[32.4530982,40.5781076],[32.459793,40.5826707],[32.4618529,40.581041],[32.4591064,40.5738049],[32.4565314,40.5740656],[32.4533557,40.5719794],[32.4483775,40.5593954],[32.4464892,40.5619384],[32.443571,40.5610908],[32.4408244,40.5588085],[32.4367904,40.5588085],[32.4287223,40.5550915],[32.4284648,40.5528742],[32.4209975,40.5545046],[32.4138736,40.5538524],[32.4099254,40.5483743],[32.3982524,40.546809],[32.3963641,40.5452437],[32.3857211,40.5510482],[32.3604869,40.5402214],[32.3586845,40.5516351],[32.3612594,40.5526786],[32.3635768,40.5618732],[32.3630618,40.5655899],[32.3579978,40.5686543],[32.3595428,40.5708059],[32.3674392,40.5723054],[32.3688125,40.5738049],[32.369585,40.5771949],[32.3725032,40.5793462],[32.3728465,40.5849522],[32.3714732,40.5866469],[32.3661517,40.5872987],[32.3632335,40.592513],[32.3527621,40.5949245],[32.3428916,40.5939469],[32.3342227,40.5836485],[32.3286437,40.5833877],[32.3263263,40.5876246],[32.3210906,40.5912747],[32.3161983,40.5874943],[32.3071002,40.5876898],[32.2985171,40.5807151],[32.2940539,40.5740004],[32.2948264,40.5668287],[32.2862434,40.5665027],[32.2781753,40.5685891],[32.2679614,40.5688499],[32.2635841,40.5674807],[32.2578334,40.5631121],[32.2542285,40.5626557],[32.252941,40.5565914],[32.255001,40.5541133],[32.2516536,40.5501351],[32.252941,40.5464177],[32.2515678,40.5445914],[32.2470187,40.5433522],[32.2335433,40.543287],[32.2270202,40.5451132],[32.2157764,40.5534611],[32.2093391,40.5492873],[32.1797275,40.5448523],[32.1705436,40.5467438],[32.1624755,40.5462872],[32.1567248,40.548896],[32.1506309,40.5455046],[32.1453383,40.5456776],[32.1358679,40.5409389],[32.131748,40.5362425],[32.121105,40.5350683],[32.1149252,40.532459],[32.1138952,40.5228036],[32.1085737,40.5196718],[32.1068581,40.5146151],[32.0997333,40.5082525]]]}},{"type":"Feature","properties":{"code":"14-03","provinceCode":"14","name":"Dörtdivan"},"geometry":{"type":"Polygon","coordinates":[[[31.8275462,40.5563602],[31.8346403,40.5488278],[31.8342082,40.5300015],[31.8590574,40.5297893],[31.8736514,40.5359328],[31.8986402,40.5240623],[31.9199807,40.5171616],[31.9391436,40.5169075],[31.9637337,40.5076532],[31.9730345,40.5010724],[31.9922915,40.4825137],[31.995964,40.4859958],[32.0037746,40.4871708],[32.0046329,40.4897166],[32.0110702,40.4901083],[32.0183658,40.4944164],[32.0215415,40.4975493],[32.021799,40.5005516],[32.0246314,40.5022485],[32.0270347,40.5008779],[32.0293521,40.502379],[32.0280646,40.5055769],[32.0298671,40.5070126],[32.0412826,40.5045327],[32.0413684,40.5003558],[32.0451449,40.4995073],[32.048664,40.4999642],[32.0538997,40.5040759],[32.0599937,40.5035538],[32.0678043,40.5051853],[32.0781898,40.4992463],[32.0806789,40.5010085],[32.0835113,40.4998337],[32.090721,40.5003558],[32.0997333,40.5082525],[32.1068581,40.5146151],[32.1085737,40.5196718],[32.1138952,40.5228036],[32.1149252,40.532459],[32.121105,40.5350683],[32.131748,40.5362425],[32.1358679,40.5409389],[32.1453383,40.5456776],[32.1429354,40.5543307],[32.1476425,40.5628825],[32.1471838,40.5699444],[32.1511132,40.5780834],[32.1500117,40.5975026],[32.1643721,40.6130219],[32.164598,40.6171579],[32.1712757,40.6209415],[32.1726108,40.6307916],[32.177318,40.6425948],[32.185095,40.6519117],[32.1840717,40.660451],[32.1681083,40.6720937],[32.1646292,40.6793888],[32.1595127,40.6828033],[32.1473902,40.6866622],[32.1356028,40.6934313],[32.1377112,40.7018714],[32.1354004,40.7093209],[32.1392803,40.7210686],[32.1449231,40.7200646],[32.1477506,40.7277609],[32.1391582,40.7411794],[32.1260323,40.7430901],[32.1187911,40.7501163],[32.1170496,40.7533862],[32.1194262,40.7589437],[32.1184108,40.7618975],[32.1099098,40.7677358],[32.097873,40.764707],[32.0938492,40.7617229],[32.0799092,40.7597677],[32.0668172,40.7604558],[32.0642248,40.7555425],[32.0207772,40.7492628],[31.9915111,40.7367031],[31.9810735,40.7300346],[31.9753431,40.7236757],[31.9808689,40.7187122],[31.9988788,40.7148305],[32.0054802,40.7118918],[32.0138973,40.6981891],[32.0112241,40.6921426],[32.0056617,40.6863738],[32.0003802,40.6881724],[31.9986492,40.686327],[31.9832427,40.681042],[31.9781625,40.6728543],[31.9713994,40.6679179],[31.9713696,40.6651512],[31.9655016,40.6574326],[31.9597302,40.6538734],[31.9483933,40.6485932],[31.9417314,40.6488909],[31.9360211,40.645667],[31.9309652,40.6460906],[31.9281757,40.6441355],[31.9255904,40.6445453],[31.9206854,40.6411396],[31.9112667,40.6387844],[31.9052862,40.639225],[31.8944386,40.6338856],[31.8868755,40.6334816],[31.8807963,40.6271935],[31.8802799,40.6180192],[31.8751664,40.6069465],[31.8640591,40.5945488],[31.8489717,40.5885564],[31.8385608,40.5726289],[31.8317597,40.5668831],[31.8275462,40.5563602]]]}},{"type":"Feature","properties":{"code":"14-04","provinceCode":"14","name":"Gerede"},"geometry":{"type":"Polygon","coordinates":[[[32.5719835,40.8254243],[32.5523314,40.838704],[32.5349025,40.8466225],[32.5224766,40.8657254],[32.5221081,40.873436],[32.5197195,40.8791511],[32.5134906,40.8817926],[32.4924578,40.8826503],[32.4757831,40.8770369],[32.4351305,40.8583712],[32.4193772,40.8537081],[32.3868852,40.8552108],[32.3756699,40.8589537],[32.3394831,40.8667807],[32.313342,40.8582449],[32.297587,40.8583996],[32.275489,40.8517449],[32.2372268,40.8520544],[32.2106274,40.8424581],[32.1973277,40.8421486],[32.1809588,40.8486495],[32.1793219,40.8532926],[32.1733882,40.8580901],[32.1658176,40.8587091],[32.1469934,40.8358018],[32.147198,40.8169128],[32.1508342,40.8077958],[32.1426966,40.8004967],[32.1316476,40.7967793],[32.1154206,40.7948039],[32.111128,40.7896862],[32.1099098,40.7677358],[32.1184108,40.7618975],[32.1194262,40.7589437],[32.1170496,40.7533862],[32.1187911,40.7501163],[32.1260323,40.7430901],[32.1391582,40.7411794],[32.1477506,40.7277609],[32.1449231,40.7200646],[32.1392803,40.7210686],[32.1354004,40.7093209],[32.1377112,40.7018714],[32.1356028,40.6934313],[32.1473902,40.6866622],[32.1595127,40.6828033],[32.1646292,40.6793888],[32.1681083,40.6720937],[32.1840717,40.660451],[32.185095,40.6519117],[32.177318,40.6425948],[32.1726108,40.6307916],[32.1712757,40.6209415],[32.164598,40.6171579],[32.1643721,40.6130219],[32.1500117,40.5975026],[32.1511132,40.5780834],[32.1471838,40.5699444],[32.1476425,40.5628825],[32.1429354,40.5543307],[32.1453383,40.5456776],[32.1506309,40.5455046],[32.1567248,40.548896],[32.1624755,40.5462872],[32.1705436,40.5467438],[32.1797275,40.5448523],[32.2093391,40.5492873],[32.2157764,40.5534611],[32.2270202,40.5451132],[32.2335433,40.543287],[32.2470187,40.5433522],[32.2515678,40.5445914],[32.252941,40.5464177],[32.2516536,40.5501351],[32.255001,40.5541133],[32.252941,40.5565914],[32.2542285,40.5626557],[32.2578334,40.5631121],[32.2635841,40.5674807],[32.2679614,40.5688499],[32.2781753,40.5685891],[32.2862434,40.5665027],[32.2948264,40.5668287],[32.2940539,40.5740004],[32.2985171,40.5807151],[32.3071002,40.5876898],[32.3161983,40.5874943],[32.3210906,40.5912747],[32.3263263,40.5876246],[32.3286437,40.5833877],[32.3342227,40.5836485],[32.3428916,40.5939469],[32.3527621,40.5949245],[32.3632335,40.592513],[32.3661517,40.5872987],[32.3714732,40.5866469],[32.3728465,40.5849522],[32.3725032,40.5793462],[32.369585,40.5771949],[32.3688125,40.5738049],[32.3674392,40.5723054],[32.3595428,40.5708059],[32.3579978,40.5686543],[32.3630618,40.5655899],[32.3635768,40.5618732],[32.3612594,40.5526786],[32.3586845,40.5516351],[32.3604869,40.5402214],[32.3857211,40.5510482],[32.3963641,40.5452437],[32.3982524,40.546809],[32.4099254,40.5483743],[32.4138736,40.5538524],[32.4209975,40.5545046],[32.4284648,40.5528742],[32.4287223,40.5550915],[32.4367904,40.5588085],[32.4408244,40.5588085],[32.443571,40.5610908],[32.4464892,40.5619384],[32.4483775,40.5593954],[32.4533557,40.5719794],[32.4565314,40.5740656],[32.4591064,40.5738049],[32.4618529,40.581041],[32.459793,40.5826707],[32.4530982,40.5781076],[32.4460601,40.5798677],[32.4380778,40.5886675],[32.4294089,40.5901666],[32.4292373,40.5932299],[32.4352454,40.5975966],[32.4285506,40.6060031],[32.434473,40.6065896],[32.4372195,40.6119327],[32.4368762,40.6140177],[32.4309539,40.6153208],[32.4310397,40.6166238],[32.4379062,40.6238554],[32.434473,40.6236599],[32.4183368,40.6308907],[32.4145602,40.6416377],[32.4158477,40.65922],[32.4259757,40.6597409],[32.4316405,40.6676188],[32.4277782,40.673608],[32.4288081,40.6790108],[32.4265765,40.6848688],[32.4318122,40.6868214],[32.4361896,40.6827209],[32.4453734,40.6846736],[32.44915,40.6822653],[32.455244,40.6834369],[32.4602222,40.6825908],[32.4644279,40.6857149],[32.4703502,40.6855197],[32.4817657,40.6816795],[32.4869155,40.681289],[32.4884605,40.6824606],[32.4901771,40.6801174],[32.4972152,40.6773184],[32.4997043,40.6804428],[32.5057983,40.6734778],[32.5102614,40.6734127],[32.513523,40.6786854],[32.5124072,40.684283],[32.5218486,40.6943056],[32.5233935,40.698991],[32.5226211,40.7058232],[32.5282001,40.7114186],[32.5300025,40.7157775],[32.5304317,40.7181194],[32.5267409,40.7198108],[32.5263976,40.7237789],[32.5239944,40.7246895],[32.5261401,40.7311289],[32.5240802,40.7345759],[32.5399589,40.7343808],[32.5635623,40.7401039],[32.5669097,40.7374375],[32.5752353,40.7359417],[32.5790977,40.7417947],[32.5859641,40.7414045],[32.5860499,40.7445909],[32.5886249,40.7468019],[32.5935172,40.7453713],[32.5691845,40.7655659],[32.5814078,40.7781553],[32.5957534,40.8134513],[32.5719835,40.8254243]]]}},{"type":"Feature","properties":{"code":"14-05","provinceCode":"14","name":"Göynük"},"geometry":{"type":"Polygon","coordinates":[[[30.8640163,40.5110919],[30.8559905,40.512343],[30.8532472,40.514944],[30.8376633,40.5157163],[30.8317693,40.5143904],[30.8213046,40.5165393],[30.7992613,40.5140649],[30.7903699,40.5078902],[30.7824408,40.5073926],[30.7742807,40.5036466],[30.7667364,40.5044368],[30.7280674,40.500021],[30.7101451,40.5009814],[30.6853064,40.4989234],[30.6566445,40.5067109],[30.6385587,40.507341],[30.630235,40.5018169],[30.6219402,40.4903238],[30.6117271,40.4889522],[30.608673,40.4850213],[30.6002809,40.4848528],[30.5864721,40.4858254],[30.5739033,40.4910069],[30.571789,40.4909175],[30.568265,40.4873441],[30.5683825,40.4821623],[30.571554,40.4763546],[30.5789543,40.4730485],[30.590231,40.4709039],[30.5914056,40.4629504],[30.5797766,40.449901],[30.5841228,40.4429284],[30.5850144,40.4369279],[30.5790941,40.4302043],[30.5791881,40.42441],[30.5772147,40.423337],[30.5767448,40.4181145],[30.5785303,40.4093855],[30.5835108,40.4046628],[30.5815374,40.4002261],[30.5836988,40.3987948],[30.5785303,40.3948586],[30.5741136,40.3872003],[30.5820285,40.3797678],[30.5790617,40.3708725],[30.5719803,40.367365],[30.5647636,40.3570814],[30.567661,40.3501966],[30.5761564,40.3448626],[30.5873815,40.3455106],[30.6023989,40.3421725],[30.6085985,40.3366819],[30.607557,40.3265208],[30.5961115,40.3242034],[30.5880536,40.3269922],[30.5758027,40.3287251],[30.5707897,40.3266101],[30.5716611,40.3136368],[30.5666885,40.3086857],[30.5813511,40.3016558],[30.5852664,40.2966475],[30.5880482,40.2860894],[30.5924235,40.2826546],[30.5937389,40.2744222],[30.6015543,40.272519],[30.6036358,40.2685368],[30.6036733,40.2503066],[30.6124695,40.2435104],[30.6089389,40.219027],[30.6138974,40.2118995],[30.6392433,40.203299],[30.6421474,40.1984607],[30.6291486,40.1783199],[30.6283894,40.1724392],[30.6335557,40.1671557],[30.6624453,40.1677112],[30.6638008,40.1775389],[30.6804337,40.1873426],[30.6866123,40.1855445],[30.6888217,40.1744385],[30.7155739,40.1562078],[30.7283911,40.1558684],[30.7319422,40.1535475],[30.7398656,40.152945],[30.7497195,40.1564159],[30.7738531,40.1533654],[30.801098,40.1450011],[30.819019,40.1419411],[30.826041,40.1341712],[30.8361038,40.0978711],[30.8415197,40.099511],[30.8445239,40.102728],[30.851562,40.1016119],[30.8641791,40.1056165],[30.866239,40.1111964],[30.8682131,40.1112621],[30.8660674,40.1085706],[30.8703589,40.1085706],[30.8732771,40.1107369],[30.8729338,40.114938],[30.8692431,40.1175634],[30.8703589,40.1201233],[30.8680415,40.1254395],[30.8660674,40.1255707],[30.862205,40.1203858],[30.8642649,40.1304927],[30.8595442,40.134955],[30.8535361,40.1370548],[30.8552527,40.1395483],[30.8483004,40.1530637],[30.8521628,40.1579181],[30.865724,40.1646087],[30.8725047,40.1650023],[30.8828366,40.1712495],[30.8888983,40.1711676],[30.8919882,40.1726104],[30.893619,40.1714299],[30.9012579,40.1777257],[30.916965,40.1732662],[30.9252905,40.1683473],[30.9367918,40.1732662],[30.9434866,40.1789717],[30.9506964,40.1909057],[30.9488081,40.2080819],[30.9551596,40.2117526],[30.9593653,40.2114904],[30.9658026,40.213981],[30.9755873,40.2115559],[30.992496,40.2120803],[31.0463976,40.2179136],[31.050775,40.2209939],[31.0651087,40.2230255],[31.0727477,40.2284646],[31.0740351,40.2301029],[31.0711169,40.2304305],[31.0684561,40.235476],[31.0657954,40.2356726],[31.0655379,40.2410452],[31.0714602,40.2479242],[31.0763525,40.2506755],[31.0722327,40.2584706],[31.0743784,40.2612215],[31.0678553,40.260763],[31.0658812,40.262073],[31.0668253,40.2689499],[31.0582423,40.2691463],[31.0557532,40.2703906],[31.0613322,40.2758915],[31.0556673,40.2819158],[31.056354,40.2904273],[31.061933,40.3081672],[31.0657095,40.3100654],[31.0665678,40.3137959],[31.0641646,40.3158902],[31.0608172,40.3153011],[31.0600447,40.3185734],[31.0641646,40.3226307],[31.0657954,40.3215837],[31.0651087,40.3247246],[31.0694861,40.3310063],[31.0663962,40.3312026],[31.0630488,40.3342123],[31.0674262,40.3371565],[31.0663962,40.3402967],[31.068911,40.3496055],[31.0546713,40.344418],[31.0352585,40.3572305],[31.0213972,40.3594542],[31.0101235,40.3754892],[31.0075782,40.4002848],[31.015921,40.404678],[31.0181606,40.4109944],[31.0353402,40.4255904],[31.018051,40.4329767],[31.0089595,40.4320868],[31.0038921,40.4348094],[31.0018056,40.4400275],[30.9943535,40.4475137],[30.988541,40.4501223],[30.9861563,40.456133],[30.9887913,40.4631457],[30.9865021,40.4741031],[30.9884098,40.4836078],[30.9849759,40.4922407],[30.9837359,40.5052967],[30.974886,40.509904],[30.9636989,40.5114521],[30.9585719,40.5085513],[30.9511794,40.5076447],[30.9464101,40.5044718],[30.9307907,40.5055597],[30.9239944,40.5087326],[30.9207751,40.5061943],[30.9113558,40.5071915],[30.9098057,40.505469],[30.9051557,40.5050157],[30.8885823,40.5089139],[30.8640163,40.5110919]]]}},{"type":"Feature","properties":{"code":"14-06","provinceCode":"14","name":"Kıbrıscık"},"geometry":{"type":"Polygon","coordinates":[[[31.8342082,40.5300015],[31.8200934,40.5271552],[31.8015154,40.5157682],[31.7872232,40.5095788],[31.7515785,40.5038482],[31.7459651,40.4961794],[31.7442167,40.489688],[31.7289043,40.4615422],[31.7306495,40.4566393],[31.7301694,40.4337267],[31.7236477,40.4180661],[31.7284988,40.4065481],[31.7360779,40.3994043],[31.7457836,40.3942876],[31.7448005,40.3823809],[31.7498903,40.376782],[31.7431611,40.3718085],[31.7517827,40.3633335],[31.7375943,40.355572],[31.7315754,40.3409244],[31.7228727,40.3306432],[31.7193305,40.3232692],[31.7092223,40.3184039],[31.7023801,40.3092472],[31.7234515,40.3183443],[31.7272281,40.3180171],[31.7494582,40.3317587],[31.762762,40.3331327],[31.7673968,40.3304501],[31.7712592,40.3309081],[31.7790698,40.3254772],[31.783533,40.3255426],[31.7891978,40.3223362],[31.7924594,40.3231869],[31.7932319,40.3208311],[31.7990684,40.3201113],[31.8013,40.3222708],[31.8043899,40.3208311],[31.8057632,40.3155302],[31.8082522,40.3141559],[31.8258475,40.3105562],[31.8278216,40.3083309],[31.8352031,40.3111453],[31.8396663,40.3100981],[31.844387,40.3063018],[31.8448161,40.3031599],[31.8486785,40.3052545],[31.8527984,40.3047964],[31.859579,40.3104908],[31.8640422,40.3104908],[31.8650722,40.3142868],[31.8739127,40.3180826],[31.8758868,40.320962],[31.885414,40.3226634],[31.8884181,40.3246265],[31.8927096,40.3280291],[31.8912505,40.3295995],[31.8929671,40.3313661],[31.8917655,40.3360115],[31.8938254,40.3375817],[31.9049834,40.3386939],[31.909275,40.3418341],[31.9108199,40.34589],[31.914854,40.345105],[31.9235229,40.3486374],[31.9320201,40.3483104],[31.9319343,40.3460863],[31.9371699,40.3450396],[31.9376849,40.3436659],[31.9587134,40.3528238],[31.9652365,40.352693],[31.9668674,40.3639424],[31.9703864,40.3655119],[31.9811153,40.3653811],[31.9984531,40.3725744],[32.0029163,40.3766939],[32.0110702,40.3783939],[32.0125293,40.38029],[32.0117568,40.3846051],[32.0146751,40.3864357],[32.0123576,40.3914695],[32.0336436,40.4129733],[32.0325608,40.4174651],[32.0235243,40.4185371],[32.0195674,40.431073],[32.0297812,40.4440731],[32.0315837,40.45694],[32.0306396,40.4642541],[32.026863,40.4641888],[32.0266914,40.4672579],[32.0160483,40.471698],[32.0114135,40.4720245],[32.0094394,40.4741138],[32.0051478,40.4731997],[32.0014571,40.4683026],[31.9993114,40.4684332],[31.9975947,40.4709145],[31.9974231,40.4784229],[31.9922915,40.4825137],[31.9730345,40.5010724],[31.9637337,40.5076532],[31.9391436,40.5169075],[31.9199807,40.5171616],[31.8986402,40.5240623],[31.8736514,40.5359328],[31.8590574,40.5297893],[31.8342082,40.5300015]]]}},{"type":"Feature","properties":{"code":"14-07","provinceCode":"14","name":"Mengen"},"geometry":{"type":"Polygon","coordinates":[[[31.7807161,40.9607834],[31.7745026,40.9573936],[31.7674454,40.9487561],[31.7789237,40.9333884],[31.8045,40.907117],[31.8033011,40.8992638],[31.8140912,40.8938264],[31.8328738,40.8905033],[31.8413687,40.8828355],[31.844463,40.8714798],[31.8504771,40.8599614],[31.8638331,40.8596094],[31.8648442,40.8614948],[31.8836269,40.8608903],[31.8848258,40.8521248],[31.8800302,40.8472881],[31.8800302,40.8418464],[31.8880228,40.8339854],[31.8888221,40.8255187],[31.8828276,40.8197728],[31.885625,40.8143289],[31.8996121,40.8128166],[31.9147981,40.8146314],[31.9247888,40.8267283],[31.9607556,40.8267283],[31.9759415,40.8321712],[32.0203005,40.8415441],[32.0318898,40.8466835],[32.0518713,40.8515202],[32.0942322,40.8521248],[32.1162119,40.8478927],[32.1321971,40.8500088],[32.1529779,40.8602858],[32.1658176,40.8587091],[32.1733882,40.8580901],[32.1793219,40.8532926],[32.1809588,40.8486495],[32.1973277,40.8421486],[32.2106274,40.8424581],[32.2372268,40.8520544],[32.275489,40.8517449],[32.297587,40.8583996],[32.313342,40.8582449],[32.3394831,40.8667807],[32.3310133,40.8686125],[32.3260693,40.8799904],[32.3533141,40.8986111],[32.3827721,40.9103679],[32.3904813,40.9216309],[32.4029218,40.9266786],[32.4043355,40.9352765],[32.4009229,40.9624034],[32.3666336,40.9485383],[32.3519259,40.9500069],[32.3447444,40.9669523],[32.3550951,40.9822194],[32.3567494,40.9952609],[32.3719363,41.0083656],[32.3277459,41.0265578],[32.2754958,41.0324993],[32.2359168,41.030299],[32.1713391,41.048679],[32.1570076,41.0304104],[32.1188127,41.0292884],[32.1136929,41.0106196],[32.1009902,41.0076183],[32.0839072,41.0078012],[32.0590446,41.0126351],[32.0437481,41.0226655],[32.0373227,41.0192435],[32.0278735,41.0200991],[32.0067072,41.0286536],[31.9809328,41.0463319],[31.96251,41.0443112],[31.9435865,41.0354964],[31.9269972,41.0118792],[31.901254,41.0118286],[31.8936946,41.00698],[31.8849799,41.0082956],[31.8536456,41.0082997],[31.8504902,41.0032073],[31.8449694,40.9988324],[31.8387584,40.9979991],[31.795834,40.972056],[31.7876908,40.9702844],[31.7854825,40.9649694],[31.7807161,40.9607834]]]}},{"type":"Feature","properties":{"code":"14-08","provinceCode":"14","name":"Mudurnu"},"geometry":{"type":"Polygon","coordinates":[[[31.0358569,40.6393729],[31.0118329,40.6304536],[30.9692544,40.6248374],[30.9398746,40.6316276],[30.9407908,40.6504102],[30.9230317,40.6549652],[30.9186354,40.6599218],[30.9017973,40.6540834],[30.895036,40.6446056],[30.8964969,40.6303137],[30.8914771,40.6244172],[30.8856039,40.6208509],[30.8704798,40.5986097],[30.8709033,40.5912695],[30.8734953,40.5854112],[30.8712699,40.574694],[30.8825829,40.5764111],[30.8842296,40.5786615],[30.8867711,40.575342],[30.8853277,40.5720894],[30.8785969,40.570401],[30.8751276,40.5709412],[30.8746897,40.5684977],[30.872248,40.5672109],[30.8723021,40.5647465],[30.8746506,40.563951],[30.8711525,40.5515424],[30.8716698,40.5441485],[30.8825582,40.5385137],[30.8766213,40.532429],[30.8726537,40.5248657],[30.8656098,40.5189846],[30.8674189,40.5150343],[30.8640163,40.5110919],[30.8885823,40.5089139],[30.9051557,40.5050157],[30.9098057,40.505469],[30.9113558,40.5071915],[30.9207751,40.5061943],[30.9239944,40.5087326],[30.9307907,40.5055597],[30.9464101,40.5044718],[30.9511794,40.5076447],[30.9585719,40.5085513],[30.9636989,40.5114521],[30.974886,40.509904],[30.9837359,40.5052967],[30.9849759,40.4922407],[30.9884098,40.4836078],[30.9865021,40.4741031],[30.9887913,40.4631457],[30.9861563,40.456133],[30.988541,40.4501223],[30.9943535,40.4475137],[31.0018056,40.4400275],[31.0038921,40.4348094],[31.0089595,40.4320868],[31.018051,40.4329767],[31.0353402,40.4255904],[31.0181606,40.4109944],[31.015921,40.404678],[31.0075782,40.4002848],[31.0101235,40.3754892],[31.0213972,40.3594542],[31.0352585,40.3572305],[31.0546713,40.344418],[31.068911,40.3496055],[31.0741424,40.3491607],[31.1091613,40.3549168],[31.117916,40.3551784],[31.1347388,40.3534778],[31.1459827,40.3501419],[31.1596297,40.3511885],[31.1663245,40.3490299],[31.1846065,40.3495532],[31.199541,40.3521043],[31.2006568,40.3485066],[31.2058066,40.3460209],[31.2024592,40.3430771],[31.2042617,40.3409837],[31.2135314,40.3366003],[31.2210845,40.3369929],[31.2263202,40.3345067],[31.2397956,40.3390864],[31.2498378,40.3380397],[31.2651157,40.3418995],[31.2781619,40.3421612],[31.2789344,40.3373854],[31.2808227,40.3361424],[31.2942981,40.334703],[31.2965297,40.3322167],[31.2986755,40.3331327],[31.3049411,40.3302538],[31.3094043,40.3299267],[31.3123225,40.330123],[31.3158416,40.3459554],[31.3193606,40.3471983],[31.3211631,40.3508615],[31.3271712,40.3537395],[31.3365268,40.3530854],[31.33996,40.3436659],[31.3453673,40.3407874],[31.3514613,40.3434042],[31.3597011,40.3441892],[31.373434,40.3499457],[31.3826179,40.3624382],[31.379528,40.3700896],[31.3852786,40.3713974],[31.4059638,40.363223],[31.4150619,40.3632884],[31.4188384,40.3662313],[31.4218425,40.3666237],[31.4263915,40.3644656],[31.4352321,40.3652503],[31.4369087,40.3639052],[31.4358467,40.3602756],[31.4377972,40.3590213],[31.4473446,40.3655788],[31.4494432,40.3838295],[31.457977,40.3908777],[31.4568537,40.393965],[31.450456,40.400511],[31.4465978,40.3987258],[31.4426908,40.3998044],[31.431673,40.3984655],[31.4283911,40.3964422],[31.4251874,40.3998936],[31.4211632,40.4009052],[31.4190143,40.4062606],[31.4265158,40.4084918],[31.4257344,40.4136086],[31.4284693,40.4201527],[31.4329233,40.4211045],[31.4380024,40.4244358],[31.4416359,40.4297],[31.4456601,40.4307706],[31.4574984,40.4411193],[31.4652343,40.4435873],[31.4710166,40.4489689],[31.4759004,40.4507825],[31.473986,40.4492662],[31.4757392,40.449322],[31.48625,40.4566997],[31.4843445,40.4600236],[31.481368,40.4586636],[31.477516,40.4598521],[31.4768972,40.4617981],[31.4791871,40.4629054],[31.4752089,40.4667613],[31.4713521,40.4679279],[31.4705158,40.4658123],[31.4677675,40.4666044],[31.4661541,40.4723109],[31.4620697,40.4764354],[31.461962,40.4795642],[31.4589976,40.4797095],[31.4592817,40.4835636],[31.4626007,40.4852096],[31.4638282,40.4917481],[31.4676398,40.4941607],[31.4668763,40.496608],[31.4695572,40.5015831],[31.4717092,40.5030574],[31.4811789,40.5034517],[31.4861616,40.5081507],[31.4924558,40.5096896],[31.4947621,40.5134783],[31.5020547,40.5169118],[31.5044739,40.5238481],[31.4964917,40.526075],[31.4887452,40.5302924],[31.4880063,40.537873],[31.4842199,40.5406102],[31.4575298,40.5392065],[31.4504186,40.5455228],[31.4439539,40.557873],[31.4157123,40.5684419],[31.3960827,40.5817257],[31.3768908,40.5849549],[31.3614078,40.5921996],[31.3628151,40.604576],[31.3811841,40.6173631],[31.3790537,40.6289743],[31.3425991,40.6287716],[31.3225642,40.6211286],[31.313309,40.620921],[31.3027852,40.6290475],[31.2793353,40.6281611],[31.2714321,40.6324848],[31.2644626,40.6396999],[31.2548744,40.6399478],[31.2473198,40.6440339],[31.2336749,40.6357701],[31.2263155,40.6230662],[31.189511,40.6242074],[31.1601998,40.6392478],[31.1480548,40.6414491],[31.1117827,40.6539721],[31.0923507,40.6547731],[31.0716311,40.6501888],[31.0358569,40.6393729]]]}},{"type":"Feature","properties":{"code":"14-09","provinceCode":"14","name":"Seben"},"geometry":{"type":"Polygon","coordinates":[[[31.8275462,40.5563602],[31.8162046,40.5617405],[31.8126039,40.5696183],[31.8149333,40.5839954],[31.7874008,40.6170875],[31.7764359,40.6114492],[31.7669515,40.6117959],[31.751515,40.6207122],[31.7449537,40.6279721],[31.725572,40.6322195],[31.7197729,40.6321287],[31.7180449,40.6259994],[31.7131058,40.6217951],[31.7106406,40.6159745],[31.7250886,40.6130754],[31.7260407,40.6019753],[31.7140233,40.5922342],[31.6950254,40.5885138],[31.6725203,40.5879626],[31.6527324,40.592507],[31.6441251,40.5974781],[31.6292329,40.5938758],[31.622916,40.6045064],[31.6070561,40.6028985],[31.6039689,40.5956648],[31.6045364,40.5812561],[31.6101414,40.5746207],[31.5943024,40.555139],[31.5824236,40.5508105],[31.570796,40.5516154],[31.5676688,40.5539679],[31.5702963,40.5567566],[31.5543465,40.557491],[31.5417063,40.5554792],[31.5345113,40.5523389],[31.524019,40.5418876],[31.5261084,40.5346432],[31.50624,40.5274036],[31.5044739,40.5238481],[31.5020547,40.5169118],[31.4947621,40.5134783],[31.4924558,40.5096896],[31.4861616,40.5081507],[31.4811789,40.5034517],[31.4717092,40.5030574],[31.4695572,40.5015831],[31.4668763,40.496608],[31.4676398,40.4941607],[31.4638282,40.4917481],[31.4626007,40.4852096],[31.4592817,40.4835636],[31.4589976,40.4797095],[31.461962,40.4795642],[31.4620697,40.4764354],[31.4661541,40.4723109],[31.4677675,40.4666044],[31.4705158,40.4658123],[31.4713521,40.4679279],[31.4752089,40.4667613],[31.4791871,40.4629054],[31.4768972,40.4617981],[31.477516,40.4598521],[31.481368,40.4586636],[31.4843445,40.4600236],[31.48625,40.4566997],[31.4757392,40.449322],[31.473986,40.4492662],[31.4759004,40.4507825],[31.4710166,40.4489689],[31.4652343,40.4435873],[31.4574984,40.4411193],[31.4456601,40.4307706],[31.4416359,40.4297],[31.4380024,40.4244358],[31.4329233,40.4211045],[31.4284693,40.4201527],[31.4257344,40.4136086],[31.4265158,40.4084918],[31.4190143,40.4062606],[31.4211632,40.4009052],[31.4251874,40.3998936],[31.4283911,40.3964422],[31.431673,40.3984655],[31.4426908,40.3998044],[31.4465978,40.3987258],[31.450456,40.400511],[31.4568537,40.393965],[31.457977,40.3908777],[31.4494432,40.3838295],[31.4473446,40.3655788],[31.4377972,40.3590213],[31.4397445,40.3579014],[31.4313697,40.351581],[31.431198,40.349357],[31.4453601,40.3423575],[31.44742,40.3313007],[31.4498233,40.331955],[31.4487933,40.3278328],[31.4460467,40.3278983],[31.4405536,40.3234487],[31.4366912,40.3233832],[31.4371204,40.3264587],[31.4396094,40.3265242],[31.4398669,40.3280291],[31.4371204,40.3309081],[31.4392661,40.332413],[31.4354896,40.3354881],[31.4199542,40.3347684],[31.4216708,40.3326747],[31.4153194,40.3280946],[31.4144611,40.32515],[31.4116286,40.3228597],[31.401329,40.3212892],[31.4021014,40.3195223],[31.3970374,40.3176899],[31.3977241,40.3152685],[31.3869952,40.3168391],[31.3866519,40.3127815],[31.39472,40.3053855],[31.3977241,40.2974649],[31.4086246,40.2914421],[31.4159202,40.2898708],[31.4173793,40.2700304],[31.414976,40.2675418],[31.4301681,40.2717331],[31.4505099,40.2661665],[31.4537715,40.2611233],[31.4556598,40.2624987],[31.4573764,40.2697685],[31.4513682,40.2900672],[31.4517974,40.2953701],[31.4542865,40.29465],[31.4549731,40.2923586],[31.4597797,40.2924896],[31.4720534,40.2864663],[31.480894,40.2865972],[31.4936978,40.2909152],[31.501671,40.2881914],[31.510374,40.2994118],[31.5108489,40.3019162],[31.5068149,40.3058763],[31.5087461,40.3072509],[31.5164709,40.3043709],[31.5150117,40.3005743],[31.5169859,40.3013271],[31.5159318,40.2949661],[31.5178012,40.2932752],[31.5211486,40.292555],[31.520462,40.2953701],[31.5223502,40.2976613],[31.5400313,40.2964175],[31.5466403,40.2937989],[31.5534978,40.2845049],[31.5724753,40.2780852],[31.5759944,40.2754658],[31.5889194,40.2726078],[31.5911759,40.2685711],[31.5922527,40.2703969],[31.6043579,40.2728815],[31.6126441,40.2785435],[31.6385246,40.2884069],[31.6741179,40.313783],[31.6889476,40.3147449],[31.6982878,40.3191224],[31.6991615,40.3089854],[31.7023801,40.3092472],[31.7092223,40.3184039],[31.7193305,40.3232692],[31.7228727,40.3306432],[31.7315754,40.3409244],[31.7375943,40.355572],[31.7517827,40.3633335],[31.7431611,40.3718085],[31.7498903,40.376782],[31.7448005,40.3823809],[31.7457836,40.3942876],[31.7360779,40.3994043],[31.7284988,40.4065481],[31.7236477,40.4180661],[31.7301694,40.4337267],[31.7306495,40.4566393],[31.7289043,40.4615422],[31.7442167,40.489688],[31.7459651,40.4961794],[31.7515785,40.5038482],[31.7872232,40.5095788],[31.8015154,40.5157682],[31.8200934,40.5271552],[31.8342082,40.5300015],[31.8346403,40.5488278],[31.8275462,40.5563602]]]}},{"type":"Feature","properties":{"code":"14-10","provinceCode":"14","name":"Yeniçağa"},"geometry":{"type":"Polygon","coordinates":[[[31.9247888,40.8267283],[31.9371774,40.8094895],[31.9391755,40.7967843],[31.9607556,40.7783272],[31.9751423,40.7516916],[31.9915111,40.7367031],[32.0207772,40.7492628],[32.0642248,40.7555425],[32.0668172,40.7604558],[32.0799092,40.7597677],[32.0938492,40.7617229],[32.097873,40.764707],[32.1099098,40.7677358],[32.111128,40.7896862],[32.1154206,40.7948039],[32.1316476,40.7967793],[32.1426966,40.8004967],[32.1508342,40.8077958],[32.147198,40.8169128],[32.1469934,40.8358018],[32.1658176,40.8587091],[32.1529779,40.8602858],[32.1321971,40.8500088],[32.1162119,40.8478927],[32.0942322,40.8521248],[32.0518713,40.8515202],[32.0318898,40.8466835],[32.0203005,40.8415441],[31.9759415,40.8321712],[31.9607556,40.8267283],[31.9247888,40.8267283]]]}}]}