{"type":"FeatureCollection","features":[{"type":"Feature","properties":{"code":"55-01","provinceCode":"55","name":"19 Mayıs"},"geometry":{"type":"Polygon","coordinates":[[[36.1494339,41.4452298],[36.1490337,41.4472006],[36.1476031,41.4464948],[36.1470418,41.4487479],[36.1448597,41.4484764],[36.1457199,41.449793],[36.1429855,41.4504241],[36.1435378,41.4515167],[36.1411385,41.4521546],[36.1386486,41.4564026],[36.1366929,41.456484],[36.1369102,41.4580108],[36.1305452,41.4629844],[36.1305271,41.4650334],[36.1334153,41.4663972],[36.1297122,41.4652777],[36.1278108,41.4691313],[36.1318942,41.4694637],[36.136539,41.4661326],[36.1322473,41.469864],[36.1292233,41.469613],[36.1264889,41.4726523],[36.1201873,41.4855406],[36.1191845,41.4987586],[36.120531,41.4990438],[36.1213633,41.5082227],[36.128718,41.52453],[36.131586,41.536922],[36.132532,41.554143],[36.123419,41.582405],[36.1168,41.6207536],[36.1117144,41.6287368],[36.0884011,41.6024042],[36.0835065,41.6033019],[36.0764416,41.5946693],[36.0695614,41.5690061],[36.0656624,41.5663098],[36.0573508,41.5642023],[36.0522253,41.5598144],[36.0518097,41.5522817],[36.0549958,41.5446099],[36.0495471,41.5355546],[36.0467303,41.5328585],[36.041651,41.5356237],[36.0338473,41.5348978],[36.0292759,41.5263251],[36.0131706,41.5146426],[36.0087155,41.5084422],[36.0035956,41.5054994],[36.0032315,41.5032579],[35.9994839,41.5029113],[35.9922955,41.4987159],[35.9929062,41.4951372],[35.9884632,41.4913231],[35.9875147,41.485639],[35.9901106,41.4820113],[35.9895615,41.4781591],[35.9839203,41.4746806],[35.9758849,41.477336],[35.9780316,41.4669374],[35.9859192,41.4584078],[35.9910112,41.4401476],[35.9902124,41.4381267],[35.9835728,41.437977],[35.9839722,41.4327748],[35.9731892,41.4293687],[35.9732391,41.4243155],[35.9701439,41.4188127],[35.9683468,41.4090412],[35.9640535,41.4032375],[35.9686962,41.4002793],[35.9646026,41.3960851],[35.9585122,41.394662],[35.9499756,41.3998673],[35.9431364,41.3969839],[35.9422378,41.37777],[35.9325144,41.3624583],[35.9328853,41.359553],[35.9383938,41.3591499],[35.9485778,41.3547283],[35.9546879,41.3462748],[35.9602035,41.3451901],[35.972082,41.332979],[35.9806052,41.3340638],[35.9852919,41.3398408],[35.9802625,41.3550091],[35.9809712,41.3631385],[35.9838253,41.3641183],[35.9861184,41.3610409],[35.9858736,41.3569761],[35.9900622,41.355855],[35.995999,41.3495672],[35.9966952,41.341575],[36.0010709,41.34105],[36.0051192,41.34521],[36.0140514,41.3426335],[36.0189387,41.3459867],[36.0212849,41.3514143],[36.0255271,41.3539257],[36.0291701,41.3508756],[36.0299768,41.3460567],[36.0322923,41.3462454],[36.0348183,41.3495037],[36.0419023,41.3453978],[36.044691,41.3454076],[36.0481859,41.3491773],[36.0475834,41.351622],[36.0423428,41.3554851],[36.0467818,41.3607537],[36.0443765,41.3604419],[36.0426052,41.3631499],[36.0362419,41.3667933],[36.0319997,41.3662845],[36.0306659,41.3683687],[36.0329072,41.3738403],[36.02968,41.3782915],[36.0235612,41.3786194],[36.0212261,41.377064],[36.0129036,41.3800332],[36.010908,41.3823123],[36.0063518,41.382299],[36.001566,41.3850551],[35.9989524,41.3844853],[35.9964447,41.3867643],[35.9945551,41.3934019],[35.9997117,41.3939848],[36.0054,41.3915135],[36.0117779,41.3913942],[36.0166365,41.3974511],[36.0228866,41.4002559],[36.0221502,41.4097219],[36.0274471,41.4115021],[36.0324692,41.4090098],[36.0305578,41.4050838],[36.0352926,41.4043717],[36.037204,41.4020384],[36.0367043,41.3971131],[36.0398525,41.394564],[36.0437752,41.3962322],[36.0448496,41.3944891],[36.0480977,41.3945828],[36.0480727,41.3928583],[36.051146,41.393908],[36.0557183,41.3917899],[36.0550437,41.395951],[36.0570675,41.4003743],[36.0625894,41.402567],[36.06149,41.4038039],[36.0635638,41.4065588],[36.0606405,41.4176707],[36.0639636,41.4197692],[36.0591413,41.4284435],[36.0604906,41.4325461],[36.0756318,41.4308414],[36.077056,41.4327709],[36.0812286,41.4338386],[36.0870253,41.440713],[36.0910729,41.4391771],[36.1005925,41.4422676],[36.1105367,41.4418181],[36.1234293,41.4389336],[36.1236792,41.435487],[36.1175827,41.4294739],[36.1206809,41.4291929],[36.1271272,41.4327334],[36.1273271,41.4310662],[36.1389703,41.4324524],[36.1444172,41.4366484],[36.1420186,41.4406381],[36.1480401,41.4431104],[36.1494339,41.4452298]]]}},{"type":"Feature","properties":{"code":"55-02","provinceCode":"55","name":"Alaçam"},"geometry":{"type":"Polygon","coordinates":[[[35.42516,41.321352],[35.4287065,41.3160775],[35.4330447,41.3144671],[35.4343227,41.3119408],[35.4456364,41.3048268],[35.4446514,41.2827689],[35.4805733,41.2700729],[35.5044942,41.2685528],[35.5139521,41.2775997],[35.5138215,41.2888391],[35.5188652,41.2917075],[35.536224,41.2931303],[35.5446929,41.3027579],[35.5404109,41.310552],[35.5377886,41.3126055],[35.533353,41.312815],[35.5294686,41.3211121],[35.5229048,41.3271057],[35.5225143,41.3323637],[35.5167955,41.3357989],[35.5147311,41.3405117],[35.52151,41.3465644],[35.5164886,41.3512345],[35.5128899,41.3511507],[35.5107419,41.3542918],[35.5120809,41.3559042],[35.5081754,41.3764638],[35.4983279,41.4054288],[35.5035955,41.4151492],[35.49777,41.4210151],[35.4960993,41.4257106],[35.4989467,41.4256072],[35.5045662,41.430805],[35.5125928,41.4226516],[35.5166423,41.4207397],[35.5252661,41.420646],[35.5327651,41.4240761],[35.5356397,41.4234388],[35.5383778,41.4179833],[35.5436097,41.4192028],[35.5456424,41.4183677],[35.5491069,41.4199754],[35.5505184,41.4187449],[35.5566807,41.4200211],[35.5616421,41.4227677],[35.565769,41.4223075],[35.5695472,41.4240276],[35.571759,41.4229329],[35.5778464,41.4303691],[35.5861318,41.4325109],[35.5865317,41.4340295],[35.5946064,41.4326235],[35.6006537,41.4339822],[35.6096371,41.4326593],[35.6144045,41.4349578],[35.6217403,41.4456507],[35.6283275,41.4480137],[35.6298529,41.4509939],[35.6343291,41.4502817],[35.6398244,41.4538445],[35.6404768,41.4567031],[35.6379926,41.4580195],[35.6408281,41.461837],[35.6409787,41.4672714],[35.6487074,41.4769731],[35.6525969,41.4755819],[35.665018,41.4837785],[35.663387,41.4876509],[35.6669,41.4887599],[35.6758583,41.496673],[35.6807766,41.4977255],[35.6812283,41.5017661],[35.6834114,41.5037958],[35.6945026,41.5060508],[35.6955314,41.5071971],[35.6920686,41.5187342],[35.6936996,41.5218718],[35.7056942,41.5253473],[35.7040631,41.5322979],[35.7080028,41.532204],[35.7110391,41.5282779],[35.7127454,41.5288039],[35.7133978,41.5242577],[35.7157064,41.525817],[35.7272744,41.5215524],[35.7290309,41.5248777],[35.7360069,41.5238632],[35.7373117,41.5249152],[35.744664,41.5228675],[35.7461194,41.5280525],[35.7487542,41.5290106],[35.753547,41.5376512],[35.753522,41.5461593],[35.7506613,41.5537649],[35.747876,41.5561497],[35.7502096,41.5572951],[35.7531205,41.5671148],[35.7561066,41.570081],[35.7609436,41.5845097],[35.7608065,41.5916274],[35.7675048,41.5943375],[35.7713729,41.600866],[35.7769444,41.6021928],[35.7735376,41.6053505],[35.7772283,41.6057751],[35.7788252,41.6109757],[35.7826578,41.6142922],[35.7796059,41.6155392],[35.7875906,41.6273974],[35.7829062,41.6319597],[35.7817707,41.6384313],[35.7725347,41.6534208],[35.7746602,41.6577855],[35.77303,41.672604],[35.676465,41.647175],[35.6720435,41.6465419],[35.670443,41.6482811],[35.671871,41.646174],[35.6675595,41.6455419],[35.6672412,41.6476422],[35.6706431,41.6495929],[35.6670229,41.6479277],[35.6672139,41.6451681],[35.647101,41.640411],[35.5962225,41.6336955],[35.5627454,41.6319303],[35.5537341,41.6182231],[35.5419726,41.6104027],[35.5332641,41.6022633],[35.5261572,41.5999616],[35.5138452,41.6024691],[35.5099422,41.6075579],[35.5062615,41.6059291],[35.4987054,41.6065109],[35.4933502,41.6030492],[35.4981298,41.5932619],[35.4976293,41.5890134],[35.4740563,41.583548],[35.4739312,41.5755736],[35.4688262,41.5713802],[35.4673998,41.5676545],[35.4592168,41.5626179],[35.45729,41.5551278],[35.4529357,41.5542102],[35.4514843,41.5514574],[35.4360943,41.5471312],[35.4336169,41.5441721],[35.4350683,41.5412689],[35.4319152,41.5314536],[35.4331164,41.5248217],[35.4302135,41.5150788],[35.4292126,41.4981001],[35.4251586,41.4966756],[35.4221056,41.4977814],[35.4155242,41.4972566],[35.4160997,41.5029917],[35.4144231,41.5055592],[35.4105443,41.5053531],[35.4055144,41.5027481],[35.3990581,41.5024295],[35.3951293,41.4997494],[35.3963121,41.4927649],[35.3950628,41.4846984],[35.399819,41.4717735],[35.4066729,41.4692185],[35.4143396,41.4578863],[35.4228186,41.4542057],[35.434314,41.4526071],[35.4299923,41.4414448],[35.4323659,41.4373991],[35.4329655,41.4297379],[35.4362882,41.422713],[35.4469967,41.4105908],[35.4440699,41.4047312],[35.4387221,41.4033678],[35.4356714,41.3968352],[35.4388515,41.3936014],[35.4473353,41.3906712],[35.4532269,41.3863822],[35.4537012,41.3844717],[35.4500315,41.3812499],[35.4480593,41.3740191],[35.4599174,41.3593678],[35.4666329,41.3547019],[35.4670073,41.3501481],[35.4731736,41.3427733],[35.4782774,41.3406893],[35.4720506,41.3372928],[35.4639243,41.3373646],[35.4619039,41.3304766],[35.4502089,41.3234049],[35.448559,41.3169305],[35.4375893,41.3138837],[35.42516,41.321352]]]}},{"type":"Feature","properties":{"code":"55-03","provinceCode":"55","name":"Asarcık"},"geometry":{"type":"Polygon","coordinates":[[[36.1980928,40.9758173],[36.1998239,40.9811381],[36.2111732,40.9773526],[36.2134147,40.9743709],[36.2157096,40.9744716],[36.2163056,40.9770235],[36.2178177,40.9757073],[36.2162255,40.9782927],[36.2178201,40.9808936],[36.2155307,40.9805375],[36.225369,40.9859234],[36.2295468,40.979305],[36.2357189,40.9764862],[36.2602672,40.9808028],[36.2674756,40.980195],[36.2708345,40.9837849],[36.3015384,40.9787924],[36.3064143,40.9745167],[36.3126271,40.9751061],[36.3163618,40.9770035],[36.3179064,40.9761675],[36.3256002,40.9797005],[36.3334616,40.9794207],[36.3415166,40.9750485],[36.3440786,40.9562559],[36.3496589,40.9521694],[36.3508496,40.9408194],[36.3559846,40.9396786],[36.3635879,40.9409701],[36.3739777,40.9393561],[36.3788942,40.9410967],[36.3862934,40.9469311],[36.3841348,40.9725977],[36.3738326,40.9815518],[36.3743609,40.9825356],[36.3830795,40.9850799],[36.3870993,40.9914326],[36.3938383,40.9950302],[36.3939629,40.9915206],[36.3989452,40.9861066],[36.3993797,40.9822045],[36.4023703,40.978881],[36.4110554,40.9823198],[36.4171382,40.9818782],[36.4099228,40.9914144],[36.409606,40.9969129],[36.4185354,41.0067315],[36.4230625,41.005439],[36.4243345,41.008066],[36.426624,41.0063105],[36.4279199,41.0070496],[36.4278564,41.0109331],[36.4317031,41.0127186],[36.4339588,41.0184157],[36.4360353,41.0282296],[36.4341777,41.0320434],[36.4319891,41.0317771],[36.4318836,41.0336288],[36.4280019,41.0344485],[36.4294563,41.0367804],[36.4278437,41.0393839],[36.422989,41.040926],[36.4211014,41.0392297],[36.4155011,41.0382766],[36.3983148,41.0441409],[36.3999769,41.0507777],[36.3967887,41.0543884],[36.3991192,41.0587027],[36.3909257,41.059874],[36.3915323,41.0648355],[36.3885988,41.0671153],[36.3855302,41.067167],[36.384271,41.0707885],[36.3801246,41.0708176],[36.3828976,41.0752815],[36.3809151,41.0760798],[36.3764223,41.0738978],[36.3782258,41.0769164],[36.3736463,41.0774923],[36.3741953,41.078883],[36.371392,41.0793973],[36.3693648,41.082098],[36.364672,41.0791497],[36.3582357,41.07089],[36.3408594,41.0721262],[36.3291286,41.07461],[36.2987598,41.0684725],[36.2972756,41.0709189],[36.2903581,41.0747305],[36.2803465,41.0716774],[36.2574305,41.0679794],[36.2465888,41.0760579],[36.2385393,41.0935012],[36.2246858,41.1057742],[36.2144025,41.1000931],[36.2109162,41.0925329],[36.2052243,41.089262],[36.2036928,41.0868279],[36.2058629,41.085809],[36.2020209,41.0770941],[36.1978942,41.0743051],[36.2019141,41.0717574],[36.1964001,41.0623969],[36.1935542,41.0608948],[36.193634,41.0582935],[36.1827535,41.0564113],[36.1800176,41.050594],[36.1641197,41.0483744],[36.1599692,41.0454719],[36.1542339,41.0369911],[36.1565985,41.0327598],[36.1520455,41.0300653],[36.1469893,41.0233095],[36.1403086,41.0196547],[36.1426031,41.0186751],[36.1418739,41.0165009],[36.1371781,41.0171317],[36.1364488,41.0160715],[36.1391169,41.0137496],[36.1303122,41.0089312],[36.1322688,41.0050521],[36.1244621,41.0002881],[36.1261726,40.9979529],[36.1231227,40.9946111],[36.1426511,40.9923653],[36.1493861,40.9887939],[36.1633865,40.9850508],[36.170107,40.9757071],[36.1810833,40.9782533],[36.1833928,40.9772363],[36.1946695,40.9805587],[36.1980928,40.9758173]]]}},{"type":"Feature","properties":{"code":"55-04","provinceCode":"55","name":"Atakum"},"geometry":{"type":"Polygon","coordinates":[[[35.9806052,41.3340638],[35.9806352,41.3314009],[35.9743142,41.3265575],[35.9517422,41.3158466],[35.9510033,41.3123328],[35.945942,41.3074727],[35.9437198,41.3022016],[35.937132,41.301181],[35.9321296,41.2968635],[35.9326313,41.2945743],[35.9275259,41.2942773],[35.928606,41.2906382],[35.9273069,41.2889922],[35.9321487,41.2855878],[35.9323803,41.2820244],[35.9297016,41.276001],[35.9246908,41.2729259],[35.9233358,41.2681172],[35.9197485,41.2645099],[35.9329729,41.2521595],[35.937497,41.2529557],[35.9432391,41.2481735],[35.9501207,41.2478574],[35.9521868,41.2502772],[35.9592375,41.2524433],[35.9627823,41.2553589],[35.9695534,41.2559493],[35.9693725,41.2585472],[35.9634584,41.2635013],[35.9668971,41.2630123],[36.0003758,41.2833686],[36.0196081,41.2869486],[36.0221001,41.2793255],[36.0332503,41.2764479],[36.0369307,41.2741491],[36.0311453,41.2716966],[36.0212854,41.2705168],[36.0123427,41.2632382],[36.0119547,41.2611963],[36.0174532,41.2538051],[36.0383294,41.252131],[36.0443764,41.2560619],[36.05132,41.2550041],[36.0655222,41.261465],[36.0696595,41.2603608],[36.0714608,41.2549909],[36.0747301,41.2529018],[36.0775982,41.2534796],[36.0795883,41.2574547],[36.0815984,41.2536602],[36.0864079,41.2542003],[36.0898521,41.2586412],[36.0928883,41.2540707],[36.0994573,41.2568013],[36.1035442,41.2533215],[36.1108863,41.2561175],[36.1115146,41.2585122],[36.1133298,41.2561216],[36.1107672,41.2539695],[36.1119011,41.2510851],[36.1093108,41.2475236],[36.1095274,41.2434447],[36.0995597,41.2330214],[36.1072925,41.2281064],[36.1120943,41.2291194],[36.1189291,41.2330777],[36.118954,41.2316239],[36.1224089,41.2321304],[36.1326193,41.2256964],[36.1399097,41.2293907],[36.1526142,41.231645],[36.1725864,41.2443567],[36.1742682,41.2574409],[36.1787205,41.2682104],[36.1841251,41.272667],[36.1857039,41.2763476],[36.191027,41.2775161],[36.1937613,41.2844108],[36.1981057,41.2865705],[36.1955254,41.2890877],[36.1960604,41.2965755],[36.2101603,41.2990109],[36.2140583,41.3021703],[36.2200987,41.3017754],[36.2214575,41.3048154],[36.2269227,41.3039958],[36.2349071,41.3077361],[36.2379315,41.3113786],[36.2426528,41.3048818],[36.2452713,41.3078174],[36.2479691,41.3058951],[36.2506868,41.3078919],[36.2533648,41.3069978],[36.2559238,41.3088604],[36.2635016,41.3091584],[36.2687386,41.3037343],[36.2722498,41.3028849],[36.2789945,41.3064911],[36.2876236,41.300724],[36.2990272,41.2983902],[36.3006393,41.3080823],[36.3052368,41.3080791],[36.307998,41.3101033],[36.3066694,41.3168361],[36.3110522,41.3185795],[36.3153754,41.325768],[36.3187879,41.3295329],[36.3089057,41.3316511],[36.3059395,41.3283689],[36.2893677,41.3324142],[36.2641174,41.3416858],[36.2416904,41.3538206],[36.2307798,41.3664002],[36.2315729,41.3725722],[36.2374774,41.3639992],[36.2335088,41.3718223],[36.208637,41.389434],[36.1714612,41.426252],[36.1494339,41.4452298],[36.1480401,41.4431104],[36.1420186,41.4406381],[36.1444172,41.4366484],[36.1389703,41.4324524],[36.1273271,41.4310662],[36.1271272,41.4327334],[36.1206809,41.4291929],[36.1175827,41.4294739],[36.1236792,41.435487],[36.1234293,41.4389336],[36.1105367,41.4418181],[36.1005925,41.4422676],[36.0910729,41.4391771],[36.0870253,41.440713],[36.0812286,41.4338386],[36.077056,41.4327709],[36.0756318,41.4308414],[36.0604906,41.4325461],[36.0591413,41.4284435],[36.0639636,41.4197692],[36.0606405,41.4176707],[36.0635638,41.4065588],[36.06149,41.4038039],[36.0625894,41.402567],[36.0570675,41.4003743],[36.0550437,41.395951],[36.0557183,41.3917899],[36.051146,41.393908],[36.0480727,41.3928583],[36.0480977,41.3945828],[36.0448496,41.3944891],[36.0437752,41.3962322],[36.0398525,41.394564],[36.0367043,41.3971131],[36.037204,41.4020384],[36.0352926,41.4043717],[36.0305578,41.4050838],[36.0324692,41.4090098],[36.0274471,41.4115021],[36.0221502,41.4097219],[36.0228866,41.4002559],[36.0166365,41.3974511],[36.0117779,41.3913942],[36.0054,41.3915135],[35.9997117,41.3939848],[35.9945551,41.3934019],[35.9964447,41.3867643],[35.9989524,41.3844853],[36.001566,41.3850551],[36.0063518,41.382299],[36.010908,41.3823123],[36.0129036,41.3800332],[36.0212261,41.377064],[36.0235612,41.3786194],[36.02968,41.3782915],[36.0329072,41.3738403],[36.0306659,41.3683687],[36.0319997,41.3662845],[36.0362419,41.3667933],[36.0426052,41.3631499],[36.0443765,41.3604419],[36.0467818,41.3607537],[36.0423428,41.3554851],[36.0475834,41.351622],[36.0481859,41.3491773],[36.044691,41.3454076],[36.0419023,41.3453978],[36.0348183,41.3495037],[36.0322923,41.3462454],[36.0299768,41.3460567],[36.0291701,41.3508756],[36.0255271,41.3539257],[36.0212849,41.3514143],[36.0189387,41.3459867],[36.0140514,41.3426335],[36.0051192,41.34521],[36.0010709,41.34105],[35.9966952,41.341575],[35.995999,41.3495672],[35.9900622,41.355855],[35.9858736,41.3569761],[35.9861184,41.3610409],[35.9838253,41.3641183],[35.9809712,41.3631385],[35.9802625,41.3550091],[35.9852919,41.3398408],[35.9806052,41.3340638]]]}},{"type":"Feature","properties":{"code":"55-05","provinceCode":"55","name":"Ayvacık"},"geometry":{"type":"Polygon","coordinates":[[[36.708121,40.9052195],[36.7031758,40.9163175],[36.7052539,40.9212132],[36.7104043,40.9248321],[36.7106457,40.9314335],[36.7180084,40.9448113],[36.7127763,40.9541129],[36.7100163,40.9546242],[36.7142344,40.9582816],[36.7109537,40.9632364],[36.7114227,40.9658125],[36.7177754,40.9708646],[36.7182614,40.9752088],[36.7145468,40.983917],[36.7163304,40.9867299],[36.712075,40.9881648],[36.7095411,40.9875037],[36.703332,40.992075],[36.6973616,40.9939212],[36.6981868,40.9964838],[36.6960669,40.9976153],[36.6975955,41.0007052],[36.6948886,41.0055808],[36.6971625,41.0111943],[36.6977935,41.0189583],[36.6959869,41.0241662],[36.6975652,41.0265117],[36.6899251,41.0329741],[36.6916209,41.0408031],[36.7051053,41.0551855],[36.7029941,41.058551],[36.7035329,41.0613325],[36.7004398,41.0617476],[36.691391,41.0681179],[36.6886231,41.0682614],[36.6868108,41.0724707],[36.688517,41.0735388],[36.6880236,41.0757066],[36.6855177,41.0797268],[36.680966,41.0774077],[36.6720878,41.0850024],[36.6648863,41.0851041],[36.661476,41.0832582],[36.6607852,41.0857997],[36.6557787,41.0868414],[36.6520367,41.082507],[36.6453241,41.0808909],[36.6454443,41.0781362],[36.642761,41.0793859],[36.6415773,41.0776399],[36.6363922,41.0772079],[36.6360166,41.0743457],[36.6315617,41.0723647],[36.6297297,41.0732573],[36.6218441,41.0723225],[36.6115976,41.0685077],[36.6089021,41.0693379],[36.6068186,41.0657941],[36.5981146,41.0632207],[36.5951754,41.0594402],[36.5966958,41.0584311],[36.5951198,41.0555539],[36.5974864,41.0530222],[36.5987289,41.0465365],[36.5937195,41.0387257],[36.5788015,41.0332228],[36.5687891,41.0210577],[36.5677828,41.0164264],[36.5612672,41.0115101],[36.5565125,41.0097067],[36.5491919,41.009365],[36.5383996,41.0052455],[36.5291923,41.004581],[36.519205,41.0073148],[36.5102995,41.0171098],[36.4913564,41.0094789],[36.4892684,41.0077324],[36.4891426,41.0025686],[36.4862244,40.9996828],[36.4933122,40.9966923],[36.4955325,40.9888597],[36.4988783,40.9854226],[36.4960607,40.975338],[36.497067,40.9681202],[36.4951803,40.9663346],[36.4831805,40.9652708],[36.4760611,40.9626113],[36.4648663,40.9532072],[36.4565394,40.9510412],[36.4464012,40.9591728],[36.4308543,40.9622124],[36.4269298,40.9663346],[36.4242632,40.9744643],[36.417984,40.9783228],[36.4171382,40.9818782],[36.4110554,40.9823198],[36.4023703,40.978881],[36.3993797,40.9822045],[36.3989452,40.9861066],[36.3939629,40.9915206],[36.3938383,40.9950302],[36.3870993,40.9914326],[36.3830795,40.9850799],[36.3743609,40.9825356],[36.3738326,40.9815518],[36.3841348,40.9725977],[36.3862934,40.9469311],[36.3788942,40.9410967],[36.3794006,40.9363583],[36.386076,40.9322273],[36.3897949,40.9258486],[36.3964788,40.9200009],[36.4027103,40.9037952],[36.4104244,40.8937289],[36.3984353,40.8724067],[36.3990966,40.8670659],[36.3960154,40.8647624],[36.4017896,40.862526],[36.4041666,40.864903],[36.4086223,40.8657531],[36.4102651,40.863973],[36.4172311,40.8625723],[36.4236241,40.865477],[36.4269888,40.8653593],[36.4326949,40.8734355],[36.4366546,40.8753297],[36.4486954,40.8699524],[36.4505512,40.8713019],[36.4489351,40.8772177],[36.4513473,40.8816302],[36.4616186,40.8822774],[36.4684662,40.8752761],[36.4728234,40.8733291],[36.4796712,40.8765117],[36.484645,40.876224],[36.487865,40.8730157],[36.4947055,40.8734],[36.4984532,40.8767103],[36.507468,40.8762593],[36.5124128,40.8785536],[36.5194186,40.8789903],[36.5369417,40.8898662],[36.5696461,40.8988854],[36.5794511,40.8948547],[36.5876862,40.8964513],[36.591319,40.9063509],[36.5930405,40.9080504],[36.5978529,40.9085181],[36.6062039,40.9050842],[36.607576,40.8992907],[36.6147279,40.8933348],[36.6238612,40.8976286],[36.6259697,40.9070276],[36.6329778,40.9057712],[36.635111,40.910309],[36.6402235,40.9098219],[36.6425674,40.9047188],[36.6577932,40.9014434],[36.6774037,40.8938526],[36.6822411,40.8895893],[36.68241,40.886852],[36.6900178,40.8883851],[36.6944167,40.8961904],[36.700276,40.8997679],[36.7016302,40.9026511],[36.708121,40.9052195]]]}},{"type":"Feature","properties":{"code":"55-06","provinceCode":"55","name":"Bafra"},"geometry":{"type":"Polygon","coordinates":[[[35.5446929,41.3027579],[35.5499884,41.3090298],[35.5711609,41.3227015],[35.5923427,41.3131334],[35.6000027,41.3153176],[35.6035845,41.3147582],[35.6200039,41.3063939],[35.6322387,41.3081787],[35.6470978,41.3148115],[35.6537649,41.3129469],[35.6583396,41.3148647],[35.6668153,41.3149446],[35.6573466,41.3060209],[35.6532776,41.2983286],[35.6550415,41.2906213],[35.6586748,41.2864095],[35.6532684,41.2719131],[35.6612831,41.2684481],[35.6633045,41.2660491],[35.6624888,41.2610375],[35.6743393,41.2574369],[35.6911264,41.2551302],[35.6947351,41.2533792],[35.7010983,41.2550962],[35.7047506,41.2544086],[35.7116592,41.2595888],[35.7120968,41.2579439],[35.7199483,41.2586599],[35.7216987,41.2555636],[35.7292928,41.2547121],[35.7337462,41.2517898],[35.7386887,41.2518865],[35.7405937,41.253609],[35.7467976,41.2449963],[35.7484709,41.2353371],[35.7528986,41.2271286],[35.7554471,41.2266252],[35.7656668,41.2309425],[35.7680866,41.233769],[35.7733638,41.2292582],[35.7759638,41.2292776],[35.7856944,41.2324526],[35.7882686,41.2362469],[35.7848192,41.2378343],[35.7845617,41.245035],[35.7821677,41.2482866],[35.7775598,41.2497576],[35.7755519,41.2529703],[35.7692707,41.2572279],[35.7708668,41.2607886],[35.7765044,41.2600145],[35.7787697,41.2629946],[35.7801598,41.2619303],[35.7802885,41.2632268],[35.7869558,41.2655681],[35.7923874,41.2628978],[35.7999667,41.2683283],[35.8050498,41.2755804],[35.810778,41.2790276],[35.8200716,41.2818242],[35.8299891,41.2754905],[35.8281893,41.2728061],[35.8307734,41.2721215],[35.8298877,41.2700794],[35.8386126,41.2663043],[35.8360868,41.264635],[35.8346347,41.260483],[35.8370202,41.2536145],[35.8409586,41.2518639],[35.8378792,41.2487815],[35.8395309,41.2433055],[35.8560502,41.2426039],[35.8809586,41.2383397],[35.8890877,41.2410315],[35.8961942,41.2508561],[35.8997562,41.2510947],[35.9124413,41.2446194],[35.9169946,41.2388631],[35.922679,41.240097],[35.9324665,41.2464111],[35.9329729,41.2521595],[35.9197485,41.2645099],[35.9233358,41.2681172],[35.9246908,41.2729259],[35.9297016,41.276001],[35.9323803,41.2820244],[35.9321487,41.2855878],[35.9273069,41.2889922],[35.928606,41.2906382],[35.9275259,41.2942773],[35.9326313,41.2945743],[35.9321296,41.2968635],[35.937132,41.301181],[35.9437198,41.3022016],[35.945942,41.3074727],[35.9510033,41.3123328],[35.9517422,41.3158466],[35.9743142,41.3265575],[35.9806352,41.3314009],[35.9806052,41.3340638],[35.972082,41.332979],[35.9602035,41.3451901],[35.9546879,41.3462748],[35.9485778,41.3547283],[35.9383938,41.3591499],[35.9328853,41.359553],[35.9325144,41.3624583],[35.9422378,41.37777],[35.9431364,41.3969839],[35.9499756,41.3998673],[35.9585122,41.394662],[35.9646026,41.3960851],[35.9686962,41.4002793],[35.9640535,41.4032375],[35.9683468,41.4090412],[35.9701439,41.4188127],[35.9732391,41.4243155],[35.9731892,41.4293687],[35.9839722,41.4327748],[35.9835728,41.437977],[35.9902124,41.4381267],[35.9910112,41.4401476],[35.9859192,41.4584078],[35.9780316,41.4669374],[35.9758849,41.477336],[35.9839203,41.4746806],[35.9895615,41.4781591],[35.9901106,41.4820113],[35.9875147,41.485639],[35.9884632,41.4913231],[35.9929062,41.4951372],[35.9922955,41.4987159],[35.9994839,41.5029113],[36.0032315,41.5032579],[36.0035956,41.5054994],[36.0087155,41.5084422],[36.0131706,41.5146426],[36.0292759,41.5263251],[36.0338473,41.5348978],[36.041651,41.5356237],[36.0467303,41.5328585],[36.0495471,41.5355546],[36.0549958,41.5446099],[36.0518097,41.5522817],[36.0522253,41.5598144],[36.0573508,41.5642023],[36.0656624,41.5663098],[36.0695614,41.5690061],[36.0764416,41.5946693],[36.0835065,41.6033019],[36.0884011,41.6024042],[36.1117144,41.6287368],[36.0964096,41.6425505],[36.0670609,41.6800106],[36.0369715,41.6966031],[36.002416,41.711237],[35.994008,41.716977],[35.987709,41.7176609],[35.9831182,41.7216112],[35.9792554,41.7225324],[35.9800812,41.7234537],[35.9774883,41.72352],[35.9783941,41.7248919],[35.9758189,41.7249847],[35.9771242,41.7274633],[35.9762718,41.7264029],[35.9744248,41.7272313],[35.9751618,41.7282784],[35.973075,41.72745],[35.9732615,41.7291863],[35.9720894,41.7280929],[35.9712635,41.7301274],[35.9692123,41.7293586],[35.9692212,41.73136],[35.9674274,41.7304455],[35.9671255,41.7324733],[35.9647901,41.7319961],[35.9649855,41.7333745],[35.9572918,41.7368197],[35.9551776,41.7352362],[35.9556052,41.737931],[35.9533951,41.7362444],[35.9542999,41.7343306],[35.9486821,41.7317112],[35.851093,41.696103],[35.856299,41.689942],[35.849349,41.695376],[35.77303,41.672604],[35.7746602,41.6577855],[35.7725347,41.6534208],[35.7817707,41.6384313],[35.7829062,41.6319597],[35.7875906,41.6273974],[35.7796059,41.6155392],[35.7826578,41.6142922],[35.7788252,41.6109757],[35.7772283,41.6057751],[35.7735376,41.6053505],[35.7769444,41.6021928],[35.7713729,41.600866],[35.7675048,41.5943375],[35.7608065,41.5916274],[35.7609436,41.5845097],[35.7561066,41.570081],[35.7531205,41.5671148],[35.7502096,41.5572951],[35.747876,41.5561497],[35.7506613,41.5537649],[35.753522,41.5461593],[35.753547,41.5376512],[35.7487542,41.5290106],[35.7461194,41.5280525],[35.744664,41.5228675],[35.7373117,41.5249152],[35.7360069,41.5238632],[35.7290309,41.5248777],[35.7272744,41.5215524],[35.7157064,41.525817],[35.7133978,41.5242577],[35.7127454,41.5288039],[35.7110391,41.5282779],[35.7080028,41.532204],[35.7040631,41.5322979],[35.7056942,41.5253473],[35.6936996,41.5218718],[35.6920686,41.5187342],[35.6955314,41.5071971],[35.6945026,41.5060508],[35.6834114,41.5037958],[35.6812283,41.5017661],[35.6807766,41.4977255],[35.6758583,41.496673],[35.6669,41.4887599],[35.663387,41.4876509],[35.665018,41.4837785],[35.6525969,41.4755819],[35.6487074,41.4769731],[35.6409787,41.4672714],[35.6408281,41.461837],[35.6379926,41.4580195],[35.6404768,41.4567031],[35.6398244,41.4538445],[35.6343291,41.4502817],[35.6298529,41.4509939],[35.6283275,41.4480137],[35.6217403,41.4456507],[35.6144045,41.4349578],[35.6096371,41.4326593],[35.6006537,41.4339822],[35.5946064,41.4326235],[35.5865317,41.4340295],[35.5861318,41.4325109],[35.5778464,41.4303691],[35.571759,41.4229329],[35.5695472,41.4240276],[35.565769,41.4223075],[35.5616421,41.4227677],[35.5566807,41.4200211],[35.5505184,41.4187449],[35.5491069,41.4199754],[35.5456424,41.4183677],[35.5436097,41.4192028],[35.5383778,41.4179833],[35.5356397,41.4234388],[35.5327651,41.4240761],[35.5252661,41.420646],[35.5166423,41.4207397],[35.5125928,41.4226516],[35.5045662,41.430805],[35.4989467,41.4256072],[35.4960993,41.4257106],[35.49777,41.4210151],[35.5035955,41.4151492],[35.4983279,41.4054288],[35.5081754,41.3764638],[35.5120809,41.3559042],[35.5107419,41.3542918],[35.5128899,41.3511507],[35.5164886,41.3512345],[35.52151,41.3465644],[35.5147311,41.3405117],[35.5167955,41.3357989],[35.5225143,41.3323637],[35.5229048,41.3271057],[35.5294686,41.3211121],[35.533353,41.312815],[35.5377886,41.3126055],[35.5404109,41.310552],[35.5446929,41.3027579]]]}},{"type":"Feature","properties":{"code":"55-07","provinceCode":"55","name":"Canik"},"geometry":{"type":"Polygon","coordinates":[[[36.3887448,41.2542283],[36.3853059,41.2561742],[36.3844901,41.2623245],[36.3809772,41.266064],[36.3828807,41.2702983],[36.3811337,41.2671493],[36.374976,41.2703672],[36.3781759,41.2722014],[36.3845785,41.2713122],[36.3780879,41.2725571],[36.3735655,41.2707668],[36.3740823,41.2720936],[36.3718931,41.2728961],[36.3725286,41.2716364],[36.3712139,41.2716926],[36.3676424,41.2732975],[36.374292,41.2735564],[36.3689933,41.2742797],[36.3553937,41.2803971],[36.3516388,41.2782319],[36.3492382,41.272857],[36.3440318,41.2693583],[36.3399738,41.261328],[36.332072,41.2601584],[36.316991,41.2548231],[36.3104774,41.2544751],[36.3055411,41.2502025],[36.2920872,41.246449],[36.2828137,41.2414306],[36.2820378,41.2350486],[36.2791039,41.2368095],[36.2780379,41.2352199],[36.2739833,41.2361038],[36.2735915,41.2345758],[36.2688809,41.2344593],[36.2669402,41.2359393],[36.2632045,41.234939],[36.2638241,41.2401805],[36.2610229,41.2417608],[36.2555337,41.2498119],[36.2522736,41.24894],[36.2510495,41.2445706],[36.236847,41.2483181],[36.2411932,41.2372468],[36.2466498,41.2312545],[36.2360195,41.2310426],[36.2319274,41.2322109],[36.2286635,41.2305784],[36.2293178,41.2277119],[36.2273983,41.2273648],[36.2261132,41.2306521],[36.2246308,41.2305026],[36.2209181,41.2294393],[36.2207472,41.2269193],[36.2184496,41.2276925],[36.2155311,41.2259521],[36.2171894,41.2217694],[36.2132538,41.2222778],[36.2151907,41.2202778],[36.2106939,41.2160281],[36.2164238,41.215105],[36.2136123,41.2081896],[36.2164724,41.2057797],[36.2136376,41.202037],[36.2172323,41.1976271],[36.2141234,41.195602],[36.2127415,41.1912036],[36.2087291,41.1901736],[36.2047744,41.1829443],[36.2064593,41.1812153],[36.2035909,41.17958],[36.2061567,41.1782478],[36.2044013,41.1750602],[36.2075092,41.1736297],[36.2043297,41.1692845],[36.2069787,41.1687786],[36.2043118,41.1651976],[36.2058892,41.1631413],[36.2035776,41.162425],[36.2064403,41.1535442],[36.2009868,41.1508277],[36.2057659,41.1481888],[36.2095163,41.1369033],[36.2179704,41.1303273],[36.2193524,41.1220075],[36.2181175,41.1189576],[36.221508,41.1080113],[36.2246858,41.1057742],[36.2385393,41.0935012],[36.2465888,41.0760579],[36.2574305,41.0679794],[36.2803465,41.0716774],[36.2903581,41.0747305],[36.2972756,41.0709189],[36.2987598,41.0684725],[36.3291286,41.07461],[36.3408594,41.0721262],[36.3582357,41.07089],[36.364672,41.0791497],[36.3693648,41.082098],[36.3672731,41.0854184],[36.3632172,41.0842799],[36.3618313,41.0866446],[36.3593122,41.0847392],[36.3559879,41.0857487],[36.3543283,41.0883657],[36.355853,41.0909444],[36.3522218,41.0933328],[36.3492058,41.0923479],[36.3489137,41.0961044],[36.3541617,41.0990899],[36.3575089,41.1077482],[36.3675273,41.119296],[36.3733724,41.1230218],[36.3796171,41.1206132],[36.3837136,41.1226831],[36.3919067,41.1224573],[36.3949042,41.1257313],[36.3960033,41.131865],[36.402248,41.1358911],[36.3881599,41.1365683],[36.3867111,41.1400298],[36.3882098,41.1425881],[36.3799668,41.1480431],[36.380966,41.1498112],[36.3788677,41.1507516],[36.3733724,41.1489459],[36.3733724,41.1541371],[36.3694257,41.1542875],[36.3650794,41.1573343],[36.3580853,41.1517296],[36.3575357,41.1397288],[36.354888,41.136606],[36.3532394,41.1387882],[36.3501919,41.1388258],[36.3472444,41.1438673],[36.3463452,41.1510525],[36.3423985,41.1600424],[36.3428481,41.1626],[36.3454459,41.1642924],[36.3579203,41.1661438],[36.3706235,41.1777477],[36.3722504,41.1773475],[36.3764541,41.1852704],[36.3754297,41.1886733],[36.3808698,41.1892847],[36.3841198,41.1936709],[36.3959538,41.2007945],[36.3966603,41.2069738],[36.3931317,41.2095331],[36.388459,41.2073285],[36.3875602,41.2096034],[36.3850316,41.209805],[36.3886086,41.2163458],[36.3881116,41.2202698],[36.3923659,41.2265956],[36.38387,41.225271],[36.3787675,41.2358132],[36.3813983,41.2449047],[36.3887448,41.2542283]]]}},{"type":"Feature","properties":{"code":"55-08","provinceCode":"55","name":"Çarşamba"},"geometry":{"type":"Polygon","coordinates":[[[36.422989,41.040926],[36.4278437,41.0393839],[36.4294563,41.0367804],[36.4280019,41.0344485],[36.4318836,41.0336288],[36.4319891,41.0317771],[36.4341777,41.0320434],[36.4360353,41.0282296],[36.4339588,41.0184157],[36.4317031,41.0127186],[36.4278564,41.0109331],[36.4279199,41.0070496],[36.426624,41.0063105],[36.4243345,41.008066],[36.4230625,41.005439],[36.4185354,41.0067315],[36.409606,40.9969129],[36.4099228,40.9914144],[36.4171382,40.9818782],[36.417984,40.9783228],[36.4242632,40.9744643],[36.4269298,40.9663346],[36.4308543,40.9622124],[36.4464012,40.9591728],[36.4565394,40.9510412],[36.4648663,40.9532072],[36.4760611,40.9626113],[36.4831805,40.9652708],[36.4951803,40.9663346],[36.497067,40.9681202],[36.4960607,40.975338],[36.4988783,40.9854226],[36.4955325,40.9888597],[36.4933122,40.9966923],[36.4862244,40.9996828],[36.4891426,41.0025686],[36.4892684,41.0077324],[36.4913564,41.0094789],[36.5102995,41.0171098],[36.519205,41.0073148],[36.5291923,41.004581],[36.5383996,41.0052455],[36.5491919,41.009365],[36.5565125,41.0097067],[36.5612672,41.0115101],[36.5677828,41.0164264],[36.5687891,41.0210577],[36.5788015,41.0332228],[36.5937195,41.0387257],[36.5987289,41.0465365],[36.5974864,41.0530222],[36.5951198,41.0555539],[36.5966958,41.0584311],[36.5951754,41.0594402],[36.5981146,41.0632207],[36.6068186,41.0657941],[36.6089021,41.0693379],[36.6115976,41.0685077],[36.6218441,41.0723225],[36.6297297,41.0732573],[36.6315617,41.0723647],[36.6360166,41.0743457],[36.6363922,41.0772079],[36.6415773,41.0776399],[36.642761,41.0793859],[36.6454443,41.0781362],[36.6453241,41.0808909],[36.6520367,41.082507],[36.6557787,41.0868414],[36.6607852,41.0857997],[36.661476,41.0832582],[36.6648863,41.0851041],[36.6720878,41.0850024],[36.680966,41.0774077],[36.6855177,41.0797268],[36.6880236,41.0757066],[36.688517,41.0735388],[36.6868108,41.0724707],[36.6886231,41.0682614],[36.691391,41.0681179],[36.7004398,41.0617476],[36.7035329,41.0613325],[36.7029941,41.058551],[36.7051053,41.0551855],[36.6916209,41.0408031],[36.6899251,41.0329741],[36.6975652,41.0265117],[36.6959869,41.0241662],[36.6977935,41.0189583],[36.6971625,41.0111943],[36.6948886,41.0055808],[36.6975955,41.0007052],[36.6960669,40.9976153],[36.6981868,40.9964838],[36.6973616,40.9939212],[36.703332,40.992075],[36.7095411,40.9875037],[36.712075,40.9881648],[36.7091832,40.9972026],[36.7179316,41.0024296],[36.7221668,41.0083911],[36.7260031,41.0091888],[36.7285783,41.016223],[36.7328248,41.0197191],[36.7326686,41.0245908],[36.7206395,41.0315441],[36.7181727,41.0351348],[36.7120993,41.0373969],[36.7109569,41.0476598],[36.7090472,41.0506508],[36.7162783,41.0555522],[36.7162415,41.0573848],[36.723385,41.0549136],[36.7361606,41.0559736],[36.7363667,41.063275],[36.7434162,41.0664358],[36.7415382,41.0730428],[36.7491604,41.0778172],[36.7521798,41.0861715],[36.7466933,41.0890301],[36.7425757,41.0943217],[36.7407282,41.0942473],[36.7385925,41.0988537],[36.7473561,41.1076216],[36.7643679,41.1166656],[36.7676819,41.1212982],[36.7735734,41.1210763],[36.7771083,41.1233785],[36.7737575,41.1249873],[36.7731683,41.1294806],[36.7754145,41.1340013],[36.7716682,41.1381586],[36.7773292,41.1377452],[36.7813797,41.1397696],[36.7808642,41.1422098],[36.7754145,41.1453155],[36.7751147,41.1485941],[36.777513,41.1492859],[36.7793096,41.14709],[36.7816009,41.1478743],[36.7833714,41.1453254],[36.7843347,41.1467763],[36.7871468,41.144894],[36.7958692,41.148188],[36.7956348,41.1493643],[36.797822,41.1486193],[36.79928,41.1499721],[36.7963899,41.158304],[36.8004777,41.1585196],[36.801389,41.1609896],[36.7993321,41.1618325],[36.8059716,41.1653607],[36.8049822,41.1687516],[36.8077681,41.1682224],[36.8095126,41.1658312],[36.8099553,41.1689476],[36.8121684,41.1686928],[36.8149804,41.1709272],[36.8151627,41.1699276],[36.8357841,41.1690064],[36.8372874,41.1623956],[36.8383553,41.1648351],[36.8468399,41.1556906],[36.848085,41.158242],[36.8519903,41.1555488],[36.8569105,41.1559204],[36.8563556,41.1665946],[36.8541685,41.167653],[36.8552621,41.1714553],[36.8576054,41.1723569],[36.8558847,41.1749254],[36.8600936,41.1790936],[36.8620204,41.1790936],[36.8645199,41.1755269],[36.8645199,41.1790936],[36.8704564,41.1811317],[36.8694489,41.1855024],[36.8626792,41.1861686],[36.8579926,41.1889901],[36.8512037,41.1963687],[36.8516945,41.2049878],[36.8493387,41.2053718],[36.8484485,41.2108687],[36.8388023,41.2134596],[36.8355709,41.2115785],[36.8304533,41.202211],[36.8245895,41.2016405],[36.8216062,41.1997075],[36.8211694,41.1956758],[36.8156668,41.194963],[36.8159805,41.1978075],[36.8122353,41.1995522],[36.8147481,41.2081189],[36.8168683,41.207794],[36.820559,41.2119293],[36.8264485,41.2106001],[36.8279797,41.2118407],[36.82743,41.2146761],[36.8324164,41.2188995],[36.8350863,41.2244221],[36.8247994,41.2282019],[36.8234645,41.2323359],[36.8210695,41.2323654],[36.8217762,41.2357315],[36.8184781,41.235761],[36.8190278,41.2404259],[36.8149444,41.2392449],[36.8121568,41.2345209],[36.808152,41.2328083],[36.8077593,41.2304166],[36.8047753,41.2297079],[36.8048539,41.2321292],[36.7987681,41.2326016],[36.7993571,41.2341371],[36.7957449,41.2354658],[36.7961375,41.240603],[36.7941744,41.2401011],[36.7921327,41.2415773],[36.7925253,41.2446477],[36.7907978,41.2451496],[36.7904837,41.2515259],[36.7958627,41.2545958],[36.7928394,41.2557469],[36.7937817,41.257754],[36.7905229,41.2589346],[36.794724,41.2620632],[36.7972761,41.2674935],[36.796805,41.2707102],[36.7944885,41.2715955],[36.7961375,41.2739563],[36.7949596,41.2800643],[36.792329,41.281215],[36.7920542,41.2851685],[36.7882064,41.2869092],[36.7914652,41.2976768],[36.7934284,41.2998007],[36.7966087,41.2995057],[36.7949204,41.3107726],[36.7989644,41.3189119],[36.8101151,41.323217],[36.80666,41.3266668],[36.8026552,41.3371331],[36.7988467,41.3404937],[36.8004957,41.3424687],[36.7990822,41.3448269],[36.801803,41.35436],[36.7420693,41.3634663],[36.6870134,41.3679126],[36.676847,41.3712572],[36.6741801,41.3745546],[36.6645417,41.3803365],[36.6649982,41.3815586],[36.6624566,41.3822704],[36.6608725,41.3808737],[36.6578985,41.382366],[36.6496681,41.3804819],[36.6360206,41.3749479],[36.6217918,41.3661961],[36.6121385,41.3541761],[36.6019831,41.3343615],[36.5766502,41.3094274],[36.5695079,41.295259],[36.5615286,41.2863288],[36.5384835,41.2717779],[36.507269,41.2571783],[36.5099875,41.2524375],[36.4937551,41.2469082],[36.5085257,41.2349997],[36.5102487,41.2293613],[36.5134548,41.22673],[36.5338872,41.2252407],[36.5789903,41.2147227],[36.5784572,41.2109234],[36.5802402,41.2092929],[36.5632535,41.2075017],[36.5619327,41.20452],[36.5589341,41.2031288],[36.5571472,41.2065483],[36.5510475,41.20499],[36.5518374,41.20264],[36.5491886,41.2005342],[36.5551358,41.1919978],[36.5579845,41.1933141],[36.5583843,41.1906439],[36.5611831,41.1894404],[36.5602335,41.1878984],[36.5578846,41.1881241],[36.561233,41.1805264],[36.5675801,41.1822566],[36.5682836,41.1857561],[36.5714159,41.1870737],[36.5716157,41.1923357],[36.5766601,41.1919598],[36.5818545,41.1870737],[36.5846015,41.1869609],[36.5890466,41.1819992],[36.5902453,41.1721499],[36.5859,41.1684279],[36.5867491,41.1638784],[36.5853007,41.1639912],[36.5870488,41.1617727],[36.5821541,41.1568467],[36.5820043,41.1505289],[36.5835526,41.1424427],[36.5859999,41.1410886],[36.5853007,41.1381547],[36.5884473,41.1380794],[36.5926427,41.1333774],[36.5969879,41.1325498],[36.5914939,41.1270573],[36.5917436,41.1226178],[36.5901454,41.1209999],[36.5884972,41.122091],[36.5872486,41.1211881],[36.5860998,41.1185166],[36.5811552,41.1179146],[36.5797568,41.1205484],[36.5758111,41.1197207],[36.575861,41.1230693],[36.5724647,41.1214891],[36.5720652,41.1231069],[36.5712161,41.1212633],[36.5634746,41.1223168],[36.5650728,41.1232198],[36.5600783,41.1234455],[36.5569817,41.1255524],[36.5582303,41.1266434],[36.5559828,41.1273206],[36.5549339,41.1256276],[36.55853,41.119382],[36.5635245,41.1172373],[36.5695679,41.1179522],[36.574962,41.1130982],[36.5801563,41.1124585],[36.5780586,41.1112167],[36.5787579,41.1057601],[36.5757112,41.1050826],[36.5752117,41.1011309],[36.5769598,41.0986469],[36.5757611,41.0957111],[36.5717655,41.0974801],[36.56767,41.0949583],[36.566721,41.0963133],[36.5564323,41.0952971],[36.5534356,41.0930386],[36.5525865,41.0963886],[36.5490404,41.0918718],[36.5420019,41.1007222],[36.5322898,41.1008287],[36.5210237,41.0865093],[36.5209531,41.0809191],[36.5239197,41.0796413],[36.5238491,41.0765797],[36.526957,41.073944],[36.5250852,41.0707491],[36.5199642,41.0700036],[36.519046,41.0636398],[36.5153024,41.0633735],[36.5014936,41.0689385],[36.4891328,41.0665954],[36.4899097,41.0686989],[36.4834115,41.0722401],[36.4831642,41.0687255],[36.4815044,41.0707491],[36.4783965,41.0665422],[36.4717216,41.0727992],[36.4683312,41.0698704],[36.4669539,41.0633468],[36.4627159,41.0615894],[36.4621508,41.0586335],[36.4590429,41.0583406],[36.4460111,41.0505641],[36.4381708,41.0497384],[36.4322729,41.0510967],[36.4272226,41.0494721],[36.4242373,41.0462378],[36.422989,41.040926]]]}},{"type":"Feature","properties":{"code":"55-09","provinceCode":"55","name":"Havza"},"geometry":{"type":"Polygon","coordinates":[[[35.638149,40.8930125],[35.6401161,40.8947061],[35.6465713,40.8934478],[35.6523453,40.8996212],[35.6551947,40.8983119],[35.6532401,40.8966451],[35.6549701,40.8948414],[35.6638322,40.8966087],[35.6635936,40.8947824],[35.6652938,40.894602],[35.6643095,40.8902954],[35.6674753,40.8867442],[35.6687504,40.8782673],[35.6718525,40.8752677],[35.6704804,40.8734183],[35.6735825,40.8718846],[35.6745966,40.8693133],[35.6787725,40.8690427],[35.6845996,40.8769513],[35.6883181,40.8742205],[35.6908483,40.8669126],[35.6946066,40.8637095],[35.7142324,40.8665154],[35.7203712,40.8716372],[35.7229837,40.8711053],[35.726199,40.8761198],[35.729287,40.8757527],[35.7228682,40.8872821],[35.7099035,40.8960214],[35.6990128,40.8981322],[35.6974479,40.9005007],[35.7001705,40.9077122],[35.7046663,40.9065779],[35.7074848,40.9079152],[35.7082443,40.9108412],[35.7111007,40.9115985],[35.709697,40.9123236],[35.7121313,40.9181374],[35.7111185,40.9193861],[35.7141924,40.9248771],[35.7108697,40.9251859],[35.7114028,40.9269043],[35.7194162,40.9272667],[35.7216372,40.9261525],[35.7268965,40.9272802],[35.727323,40.9256558],[35.7295389,40.925383],[35.7309717,40.9291055],[35.7333221,40.9277951],[35.7350818,40.9284883],[35.7385633,40.932486],[35.7444455,40.9329703],[35.7451117,40.9295613],[35.76032,40.9332741],[35.7643043,40.9266175],[35.7666044,40.9273202],[35.7734326,40.9230555],[35.770129,40.9221363],[35.7723628,40.920908],[35.7791272,40.9226514],[35.7821371,40.9211695],[35.7847275,40.9243788],[35.7846122,40.9213201],[35.7871711,40.9200601],[35.7939985,40.9222234],[35.7921631,40.9260745],[35.7945543,40.9272948],[35.7964315,40.9251791],[35.7990639,40.9253535],[35.7980466,40.9279525],[35.7995463,40.9309158],[35.7974278,40.9312565],[35.7961274,40.9336493],[35.8003434,40.9336731],[35.7982249,40.9369848],[35.8025038,40.9388941],[35.8055032,40.9379593],[35.8051047,40.9472846],[35.803993,40.9490273],[35.7975747,40.9501046],[35.7960855,40.9557124],[35.7931644,40.9560987],[35.7885613,40.9624],[35.7892162,40.9646102],[35.7852105,40.9732841],[35.7870222,40.9779456],[35.7885716,40.9793173],[35.7912255,40.9782576],[35.7944965,40.9792854],[35.7981159,40.9844152],[35.8006102,40.9849847],[35.8024796,40.98817],[35.8013184,40.9896627],[35.805782,40.987659],[35.807416,40.9887947],[35.8099792,40.9867751],[35.8139877,40.9896955],[35.817616,40.9882086],[35.8235361,40.9940396],[35.8251504,40.990858],[35.827456,40.9920265],[35.8277949,40.9938771],[35.8341136,40.9978989],[35.8309168,41.0006516],[35.8326739,41.0101689],[35.8355868,41.0124804],[35.8490986,41.0070346],[35.8676233,41.0128248],[35.859278,41.0237303],[35.8586847,41.0282127],[35.8610516,41.0342068],[35.864415,41.0368913],[35.8646199,41.046254],[35.8577033,41.0545623],[35.8554725,41.0599627],[35.8593141,41.0631349],[35.8453285,41.0623847],[35.846681,41.0662089],[35.8382277,41.0752584],[35.8498835,41.081642],[35.8493861,41.0890216],[35.8465473,41.0914967],[35.8498933,41.0981954],[35.8514149,41.0978132],[35.8507386,41.0938634],[35.8531055,41.0936086],[35.8610516,41.1046927],[35.8638059,41.1053925],[35.8661236,41.112718],[35.8627093,41.1224423],[35.848953,41.1320994],[35.8615332,41.1494451],[35.8610596,41.1508154],[35.8677904,41.1545695],[35.8720782,41.159975],[35.8721529,41.1628841],[35.8836202,41.1676321],[35.8850163,41.165868],[35.8881075,41.1687768],[35.8878831,41.172755],[35.9002478,41.1837127],[35.9144635,41.1838182],[35.9180926,41.1937122],[35.9147434,41.1981158],[35.9160446,41.2022358],[35.9132274,41.2043228],[35.9184835,41.213747],[35.9165061,41.217292],[35.9116595,41.2199469],[35.9157977,41.2250095],[35.9169946,41.2388631],[35.9124413,41.2446194],[35.8997562,41.2510947],[35.8961942,41.2508561],[35.8890877,41.2410315],[35.8809586,41.2383397],[35.8560502,41.2426039],[35.8395309,41.2433055],[35.8378792,41.2487815],[35.8409586,41.2518639],[35.8370202,41.2536145],[35.8346347,41.260483],[35.8360868,41.264635],[35.8386126,41.2663043],[35.8298877,41.2700794],[35.8307734,41.2721215],[35.8281893,41.2728061],[35.8299891,41.2754905],[35.8200716,41.2818242],[35.810778,41.2790276],[35.8050498,41.2755804],[35.7999667,41.2683283],[35.7923874,41.2628978],[35.7869558,41.2655681],[35.7802885,41.2632268],[35.7801598,41.2619303],[35.7787697,41.2629946],[35.7765044,41.2600145],[35.7708668,41.2607886],[35.7692707,41.2572279],[35.7755519,41.2529703],[35.7775598,41.2497576],[35.7821677,41.2482866],[35.7845617,41.245035],[35.7848192,41.2378343],[35.7882686,41.2362469],[35.7856944,41.2324526],[35.7759638,41.2292776],[35.7733638,41.2292582],[35.7680866,41.233769],[35.7656668,41.2309425],[35.7554471,41.2266252],[35.7528986,41.2271286],[35.7484709,41.2353371],[35.7467976,41.2449963],[35.7405937,41.253609],[35.7386887,41.2518865],[35.7337462,41.2517898],[35.7292928,41.2547121],[35.7216987,41.2555636],[35.7199483,41.2586599],[35.7120968,41.2579439],[35.7116592,41.2595888],[35.7047506,41.2544086],[35.7010983,41.2550962],[35.6947351,41.2533792],[35.6911264,41.2551302],[35.6743393,41.2574369],[35.6655197,41.2433818],[35.6737225,41.2328454],[35.6738282,41.2277089],[35.6706949,41.2230751],[35.6696775,41.2078272],[35.6752537,41.2035196],[35.6774074,41.1983326],[35.6790006,41.1823719],[35.6750923,41.1786996],[35.6778555,41.174109],[35.6774778,41.16855],[35.6644487,41.1552089],[35.6596192,41.1547216],[35.6568311,41.1574393],[35.6471664,41.1613086],[35.6377314,41.1599038],[35.6372913,41.1575051],[35.6405302,41.1562593],[35.6418688,41.1530818],[35.6388685,41.1498385],[35.6329867,41.1505543],[35.6308479,41.1488543],[35.6303726,41.143933],[35.6331947,41.1423],[35.6354201,41.137352],[35.6323184,41.1283412],[35.6179179,41.1215267],[35.6181394,41.1171595],[35.6141972,41.1127233],[35.6156745,41.1095191],[35.6025943,41.0966269],[35.6016342,41.0914232],[35.5979403,41.0869495],[35.6052898,41.080263],[35.613963,41.0789732],[35.6159536,41.0702146],[35.6145136,41.0678485],[35.6059709,41.0652346],[35.5973807,41.0544846],[35.5856119,41.0463873],[35.5684113,41.0424428],[35.552209,41.0413416],[35.540868,41.044684],[35.5363816,41.0445435],[35.5334277,41.0412295],[35.5306952,41.0425384],[35.5311383,41.0448776],[35.5242704,41.0387507],[35.5224668,41.045689],[35.5196549,41.0422042],[35.5174763,41.0421764],[35.5174394,41.0439308],[35.5149456,41.0445163],[35.5150487,41.0482448],[35.5049234,41.0474765],[35.5057138,41.0446882],[35.4987797,41.0435486],[35.4887168,41.0367142],[35.4874408,41.0293168],[35.4851257,41.0266768],[35.4713406,41.0213082],[35.4523835,41.0101168],[35.4541221,41.007168],[35.4597513,41.0038737],[35.4659628,40.9913574],[35.4715219,40.9897308],[35.472538,40.9852188],[35.4763038,40.9831882],[35.4754643,40.9789511],[35.4773797,40.973847],[35.4852101,40.973847],[35.4972246,40.9649108],[35.5016308,40.9595511],[35.521433,40.9576435],[35.5288342,40.9510575],[35.540441,40.9481632],[35.5485703,40.9482084],[35.5624378,40.945364],[35.5699693,40.9414811],[35.5723004,40.9422035],[35.573735,40.9401265],[35.5789353,40.9407587],[35.5825217,40.9386365],[35.5839563,40.9394492],[35.5892734,40.9380233],[35.5920258,40.9400362],[35.5970468,40.9403071],[35.600693,40.9374625],[35.616533,40.9387268],[35.6266992,40.9366369],[35.643938,40.9148638],[35.6402516,40.9071554],[35.6373634,40.9066017],[35.6408347,40.9032425],[35.6381876,40.9029059],[35.6395396,40.9013857],[35.6372258,40.9007823],[35.6344384,40.8969457],[35.638149,40.8930125]]]}},{"type":"Feature","properties":{"code":"55-10","provinceCode":"55","name":"İlkadım"},"geometry":{"type":"Polygon","coordinates":[[[36.1326193,41.2256964],[36.1279439,41.2195251],[36.1402246,41.2114347],[36.1360972,41.2092984],[36.1350407,41.2065378],[36.1362347,41.2007117],[36.1350231,41.1932863],[36.1444409,41.1973234],[36.1480913,41.1967255],[36.1487369,41.1951559],[36.1448134,41.1882605],[36.1394744,41.1868962],[36.1414362,41.1863356],[36.1391516,41.1819063],[36.1324219,41.177645],[36.1316521,41.1752899],[36.1336884,41.1739441],[36.1375623,41.1743927],[36.136271,41.1724861],[36.1378603,41.1712337],[36.1477436,41.1682429],[36.1501027,41.1634011],[36.150253,41.1599547],[36.1451784,41.1572644],[36.1455546,41.15237],[36.1424998,41.1476932],[36.1434129,41.1406453],[36.1456078,41.1377757],[36.1513497,41.1378286],[36.1537729,41.1358581],[36.158988,41.1374186],[36.1607966,41.1402354],[36.1593743,41.1444537],[36.1629739,41.1474288],[36.177897,41.1385316],[36.1836804,41.1417519],[36.1798938,41.1442483],[36.1831791,41.1470293],[36.1866816,41.1483611],[36.1974282,41.1481389],[36.2009868,41.1508277],[36.2064403,41.1535442],[36.2035776,41.162425],[36.2058892,41.1631413],[36.2043118,41.1651976],[36.2069787,41.1687786],[36.2043297,41.1692845],[36.2075092,41.1736297],[36.2044013,41.1750602],[36.2061567,41.1782478],[36.2035909,41.17958],[36.2064593,41.1812153],[36.2047744,41.1829443],[36.2087291,41.1901736],[36.2127415,41.1912036],[36.2141234,41.195602],[36.2172323,41.1976271],[36.2136376,41.202037],[36.2164724,41.2057797],[36.2136123,41.2081896],[36.2164238,41.215105],[36.2106939,41.2160281],[36.2151907,41.2202778],[36.2132538,41.2222778],[36.2171894,41.2217694],[36.2155311,41.2259521],[36.2184496,41.2276925],[36.2207472,41.2269193],[36.2209181,41.2294393],[36.2246308,41.2305026],[36.2261132,41.2306521],[36.2273983,41.2273648],[36.2293178,41.2277119],[36.2286635,41.2305784],[36.2319274,41.2322109],[36.2360195,41.2310426],[36.2466498,41.2312545],[36.2411932,41.2372468],[36.236847,41.2483181],[36.2510495,41.2445706],[36.2522736,41.24894],[36.2555337,41.2498119],[36.2610229,41.2417608],[36.2638241,41.2401805],[36.2632045,41.234939],[36.2669402,41.2359393],[36.2688809,41.2344593],[36.2735915,41.2345758],[36.2739833,41.2361038],[36.2780379,41.2352199],[36.2791039,41.2368095],[36.2820378,41.2350486],[36.2828137,41.2414306],[36.2920872,41.246449],[36.3055411,41.2502025],[36.3104774,41.2544751],[36.316991,41.2548231],[36.332072,41.2601584],[36.3399738,41.261328],[36.3440318,41.2693583],[36.3492382,41.272857],[36.3516388,41.2782319],[36.3553937,41.2803971],[36.3521223,41.2831941],[36.354005,41.2815492],[36.3509882,41.2814388],[36.3516535,41.2826315],[36.3499647,41.2826117],[36.3480888,41.2863649],[36.3509853,41.3079823],[36.3473697,41.294367],[36.3475549,41.2868452],[36.3444475,41.2872073],[36.336031,41.2975272],[36.3373347,41.3058326],[36.3393777,41.3067114],[36.3423137,41.3037079],[36.3402823,41.3065611],[36.3422195,41.3077152],[36.3401831,41.3133914],[36.3441789,41.3127103],[36.3436933,41.3104754],[36.3450516,41.3124819],[36.3558327,41.3096893],[36.3383451,41.3148239],[36.3372127,41.3144062],[36.3375314,41.3180322],[36.3357933,41.3161112],[36.333412,41.3179892],[36.3356886,41.3200268],[36.3419795,41.3173432],[36.3314868,41.3228576],[36.3303467,41.3212405],[36.3285073,41.3216486],[36.3319385,41.3238774],[36.3178372,41.3260145],[36.3208909,41.3249671],[36.3174328,41.324351],[36.3153754,41.325768],[36.3110522,41.3185795],[36.3066694,41.3168361],[36.307998,41.3101033],[36.3052368,41.3080791],[36.3006393,41.3080823],[36.2990272,41.2983902],[36.2876236,41.300724],[36.2789945,41.3064911],[36.2722498,41.3028849],[36.2687386,41.3037343],[36.2635016,41.3091584],[36.2559238,41.3088604],[36.2533648,41.3069978],[36.2506868,41.3078919],[36.2479691,41.3058951],[36.2452713,41.3078174],[36.2426528,41.3048818],[36.2379315,41.3113786],[36.2349071,41.3077361],[36.2269227,41.3039958],[36.2214575,41.3048154],[36.2200987,41.3017754],[36.2140583,41.3021703],[36.2101603,41.2990109],[36.1960604,41.2965755],[36.1955254,41.2890877],[36.1981057,41.2865705],[36.1937613,41.2844108],[36.191027,41.2775161],[36.1857039,41.2763476],[36.1841251,41.272667],[36.1787205,41.2682104],[36.1742682,41.2574409],[36.1725864,41.2443567],[36.1526142,41.231645],[36.1399097,41.2293907],[36.1326193,41.2256964]]]}},{"type":"Feature","properties":{"code":"55-11","provinceCode":"55","name":"Kavak"},"geometry":{"type":"Polygon","coordinates":[[[36.1231227,40.9946111],[36.1261726,40.9979529],[36.1244621,41.0002881],[36.1322688,41.0050521],[36.1303122,41.0089312],[36.1391169,41.0137496],[36.1364488,41.0160715],[36.1371781,41.0171317],[36.1418739,41.0165009],[36.1426031,41.0186751],[36.1403086,41.0196547],[36.1469893,41.0233095],[36.1520455,41.0300653],[36.1565985,41.0327598],[36.1542339,41.0369911],[36.1599692,41.0454719],[36.1641197,41.0483744],[36.1800176,41.050594],[36.1827535,41.0564113],[36.193634,41.0582935],[36.1935542,41.0608948],[36.1964001,41.0623969],[36.2019141,41.0717574],[36.1978942,41.0743051],[36.2020209,41.0770941],[36.2058629,41.085809],[36.2036928,41.0868279],[36.2052243,41.089262],[36.2109162,41.0925329],[36.2144025,41.1000931],[36.2246858,41.1057742],[36.221508,41.1080113],[36.2181175,41.1189576],[36.2193524,41.1220075],[36.2179704,41.1303273],[36.2095163,41.1369033],[36.2057659,41.1481888],[36.2009868,41.1508277],[36.1974282,41.1481389],[36.1866816,41.1483611],[36.1831791,41.1470293],[36.1798938,41.1442483],[36.1836804,41.1417519],[36.177897,41.1385316],[36.1629739,41.1474288],[36.1593743,41.1444537],[36.1607966,41.1402354],[36.158988,41.1374186],[36.1537729,41.1358581],[36.1513497,41.1378286],[36.1456078,41.1377757],[36.1434129,41.1406453],[36.1424998,41.1476932],[36.1455546,41.15237],[36.1451784,41.1572644],[36.150253,41.1599547],[36.1501027,41.1634011],[36.1477436,41.1682429],[36.1378603,41.1712337],[36.136271,41.1724861],[36.1375623,41.1743927],[36.1336884,41.1739441],[36.1316521,41.1752899],[36.1324219,41.177645],[36.1391516,41.1819063],[36.1414362,41.1863356],[36.1394744,41.1868962],[36.1448134,41.1882605],[36.1487369,41.1951559],[36.1480913,41.1967255],[36.1444409,41.1973234],[36.1350231,41.1932863],[36.1362347,41.2007117],[36.1350407,41.2065378],[36.1360972,41.2092984],[36.1402246,41.2114347],[36.1279439,41.2195251],[36.1326193,41.2256964],[36.1224089,41.2321304],[36.118954,41.2316239],[36.1189291,41.2330777],[36.1120943,41.2291194],[36.1072925,41.2281064],[36.0995597,41.2330214],[36.1095274,41.2434447],[36.1093108,41.2475236],[36.1119011,41.2510851],[36.1107672,41.2539695],[36.1133298,41.2561216],[36.1115146,41.2585122],[36.1108863,41.2561175],[36.1035442,41.2533215],[36.0994573,41.2568013],[36.0928883,41.2540707],[36.0898521,41.2586412],[36.0864079,41.2542003],[36.0815984,41.2536602],[36.0795883,41.2574547],[36.0775982,41.2534796],[36.0747301,41.2529018],[36.0714608,41.2549909],[36.0696595,41.2603608],[36.0655222,41.261465],[36.05132,41.2550041],[36.0443764,41.2560619],[36.0383294,41.252131],[36.0174532,41.2538051],[36.0119547,41.2611963],[36.0123427,41.2632382],[36.0212854,41.2705168],[36.0311453,41.2716966],[36.0369307,41.2741491],[36.0332503,41.2764479],[36.0221001,41.2793255],[36.0196081,41.2869486],[36.0003758,41.2833686],[35.9668971,41.2630123],[35.9634584,41.2635013],[35.9693725,41.2585472],[35.9695534,41.2559493],[35.9627823,41.2553589],[35.9592375,41.2524433],[35.9521868,41.2502772],[35.9501207,41.2478574],[35.9432391,41.2481735],[35.937497,41.2529557],[35.9329729,41.2521595],[35.9324665,41.2464111],[35.922679,41.240097],[35.9169946,41.2388631],[35.9157977,41.2250095],[35.9116595,41.2199469],[35.9165061,41.217292],[35.9184835,41.213747],[35.9132274,41.2043228],[35.9160446,41.2022358],[35.9147434,41.1981158],[35.9180926,41.1937122],[35.9144635,41.1838182],[35.9002478,41.1837127],[35.8878831,41.172755],[35.8881075,41.1687768],[35.8850163,41.165868],[35.8836202,41.1676321],[35.8721529,41.1628841],[35.8720782,41.159975],[35.8677904,41.1545695],[35.8610596,41.1508154],[35.8615332,41.1494451],[35.848953,41.1320994],[35.8627093,41.1224423],[35.8661236,41.112718],[35.8638059,41.1053925],[35.8610516,41.1046927],[35.8531055,41.0936086],[35.8507386,41.0938634],[35.8514149,41.0978132],[35.8498933,41.0981954],[35.8465473,41.0914967],[35.8493861,41.0890216],[35.8498835,41.081642],[35.8382277,41.0752584],[35.846681,41.0662089],[35.8453285,41.0623847],[35.8593141,41.0631349],[35.8554725,41.0599627],[35.8577033,41.0545623],[35.8646199,41.046254],[35.864415,41.0368913],[35.8610516,41.0342068],[35.8586847,41.0282127],[35.859278,41.0237303],[35.8676233,41.0128248],[35.8908269,41.0116877],[35.8945126,41.0138689],[35.9023497,41.0146975],[35.9136505,41.0206538],[35.9199436,41.0203539],[35.9318096,41.0151115],[35.9313824,41.0130298],[35.9331623,41.0120762],[35.9379325,41.0116062],[35.9447496,41.0020024],[35.9522965,41.0012367],[35.9595586,40.9969649],[35.964934,40.9966022],[35.9640262,40.9908522],[35.9708967,40.9806004],[35.9780342,40.984309],[35.9819144,40.9840537],[35.9849047,40.9816216],[35.9838546,40.9727929],[35.9902267,40.9749834],[35.9972218,40.9707905],[36.0049289,40.9713684],[36.0057476,40.9739621],[36.0101262,40.9746474],[36.0134191,40.9775635],[36.0287689,40.9791328],[36.0393238,40.982922],[36.0453043,40.9828414],[36.0559839,40.9878666],[36.0587072,40.9872485],[36.0656845,40.9922196],[36.071665,40.988928],[36.0767378,40.9897207],[36.0911552,40.9857302],[36.094092,40.9869798],[36.0961389,40.9909433],[36.1129058,40.9872351],[36.1231227,40.9946111]]]}},{"type":"Feature","properties":{"code":"55-12","provinceCode":"55","name":"Ladik"},"geometry":{"type":"Polygon","coordinates":[[[35.8676233,41.0128248],[35.8490986,41.0070346],[35.8355868,41.0124804],[35.8326739,41.0101689],[35.8309168,41.0006516],[35.8341136,40.9978989],[35.8277949,40.9938771],[35.827456,40.9920265],[35.8251504,40.990858],[35.8235361,40.9940396],[35.817616,40.9882086],[35.8139877,40.9896955],[35.8099792,40.9867751],[35.807416,40.9887947],[35.805782,40.987659],[35.8013184,40.9896627],[35.8024796,40.98817],[35.8006102,40.9849847],[35.7981159,40.9844152],[35.7944965,40.9792854],[35.7912255,40.9782576],[35.7885716,40.9793173],[35.7870222,40.9779456],[35.7852105,40.9732841],[35.7892162,40.9646102],[35.7885613,40.9624],[35.7931644,40.9560987],[35.7960855,40.9557124],[35.7975747,40.9501046],[35.803993,40.9490273],[35.8051047,40.9472846],[35.8055032,40.9379593],[35.8025038,40.9388941],[35.7982249,40.9369848],[35.8003434,40.9336731],[35.7961274,40.9336493],[35.7974278,40.9312565],[35.7995463,40.9309158],[35.7980466,40.9279525],[35.7990639,40.9253535],[35.7964315,40.9251791],[35.7945543,40.9272948],[35.7921631,40.9260745],[35.7939985,40.9222234],[35.7871711,40.9200601],[35.7846122,40.9213201],[35.7847275,40.9243788],[35.7821371,40.9211695],[35.7791272,40.9226514],[35.7723628,40.920908],[35.770129,40.9221363],[35.7734326,40.9230555],[35.7666044,40.9273202],[35.7643043,40.9266175],[35.76032,40.9332741],[35.7451117,40.9295613],[35.7444455,40.9329703],[35.7385633,40.932486],[35.7350818,40.9284883],[35.7333221,40.9277951],[35.7309717,40.9291055],[35.7295389,40.925383],[35.727323,40.9256558],[35.7268965,40.9272802],[35.7216372,40.9261525],[35.7194162,40.9272667],[35.7114028,40.9269043],[35.7108697,40.9251859],[35.7141924,40.9248771],[35.7111185,40.9193861],[35.7121313,40.9181374],[35.709697,40.9123236],[35.7111007,40.9115985],[35.7082443,40.9108412],[35.7074848,40.9079152],[35.7046663,40.9065779],[35.7001705,40.9077122],[35.6974479,40.9005007],[35.6990128,40.8981322],[35.7099035,40.8960214],[35.7228682,40.8872821],[35.729287,40.8757527],[35.7312982,40.8792536],[35.7337599,40.8798234],[35.746169,40.8761578],[35.7481786,40.8768985],[35.7508664,40.8749612],[35.7625218,40.8736506],[35.7665618,40.8682853],[35.7706649,40.8745846],[35.7776987,40.8765589],[35.7889422,40.8863221],[35.7944662,40.8815817],[35.7945195,40.8789764],[35.7983206,40.8778751],[35.8025563,40.87307],[35.806024,40.871797],[35.864421,40.869966],[35.8753574,40.8645956],[35.8912649,40.8605675],[35.9093738,40.8583117],[35.9163342,40.851583],[35.9243642,40.847526],[35.9553979,40.8439535],[36.0058899,40.8299304],[36.0095827,40.8284796],[36.0119972,40.8243687],[36.0186727,40.8219504],[36.0231822,40.8220848],[36.0265909,40.826975],[36.0373479,40.8323972],[36.0462329,40.8324432],[36.0550993,40.8350584],[36.0638231,40.8406314],[36.0751112,40.8404222],[36.0828294,40.8446445],[36.0855949,40.8515859],[36.0915029,40.8525747],[36.0962515,40.8583004],[36.0931086,40.8638602],[36.0931337,40.8683281],[36.0994594,40.8714146],[36.0946072,40.8746084],[36.0934005,40.8833524],[36.0974733,40.8865455],[36.0999873,40.8921902],[36.1195719,40.9008749],[36.1294773,40.902319],[36.1316645,40.895402],[36.1341785,40.895459],[36.135511,40.8930834],[36.1426007,40.8947748],[36.1460449,40.8934065],[36.1479378,40.8897385],[36.150301,40.8894059],[36.1618638,40.8907672],[36.1628378,40.8968248],[36.1685427,40.9063173],[36.1693432,40.9200518],[36.1747317,40.9245679],[36.1777159,40.9311386],[36.1839086,40.9369662],[36.1831522,40.9403554],[36.185098,40.9412663],[36.1892324,40.95867],[36.1925554,40.9617539],[36.1955809,40.9609755],[36.1962096,40.962381],[36.1947894,40.9676039],[36.1971152,40.9701567],[36.1980928,40.9758173],[36.1946695,40.9805587],[36.1833928,40.9772363],[36.1810833,40.9782533],[36.170107,40.9757071],[36.1633865,40.9850508],[36.1493861,40.9887939],[36.1426511,40.9923653],[36.1231227,40.9946111],[36.1129058,40.9872351],[36.0961389,40.9909433],[36.094092,40.9869798],[36.0911552,40.9857302],[36.0767378,40.9897207],[36.071665,40.988928],[36.0656845,40.9922196],[36.0587072,40.9872485],[36.0559839,40.9878666],[36.0453043,40.9828414],[36.0393238,40.982922],[36.0287689,40.9791328],[36.0134191,40.9775635],[36.0101262,40.9746474],[36.0057476,40.9739621],[36.0049289,40.9713684],[35.9972218,40.9707905],[35.9902267,40.9749834],[35.9838546,40.9727929],[35.9849047,40.9816216],[35.9819144,40.9840537],[35.9780342,40.984309],[35.9708967,40.9806004],[35.9640262,40.9908522],[35.964934,40.9966022],[35.9595586,40.9969649],[35.9522965,41.0012367],[35.9447496,41.0020024],[35.9379325,41.0116062],[35.9331623,41.0120762],[35.9313824,41.0130298],[35.9318096,41.0151115],[35.9199436,41.0203539],[35.9136505,41.0206538],[35.9023497,41.0146975],[35.8945126,41.0138689],[35.8908269,41.0116877],[35.8676233,41.0128248]]]}},{"type":"Feature","properties":{"code":"55-13","provinceCode":"55","name":"Salıpazarı"},"geometry":{"type":"Polygon","coordinates":[[[36.8970359,40.9593404],[36.8959269,40.961382],[36.8923289,40.9612674],[36.8944598,40.9635613],[36.8931038,40.9660081],[36.8971629,40.9675971],[36.8947767,40.9710675],[36.8997076,40.9723373],[36.908134,40.9797827],[36.9116032,40.9783735],[36.9165076,40.981285],[36.9182687,40.9851336],[36.9217379,40.9856454],[36.9204699,40.9876194],[36.9245203,40.9893608],[36.9270825,40.9943985],[36.9297769,40.9948239],[36.9288083,41.0011038],[36.9256209,41.0018348],[36.9266599,41.0045526],[36.9249077,41.0060078],[36.9308143,41.0103207],[36.9294449,41.0125514],[36.9321585,41.0147562],[36.9304062,41.0162405],[36.9339225,41.0195136],[36.9343613,41.0227003],[36.9375676,41.0227934],[36.934467,41.025631],[36.9363822,41.0270711],[36.9356811,41.0283533],[36.9323529,41.0294652],[36.9339395,41.0313586],[36.9315066,41.0325832],[36.9320887,41.0349338],[36.9302128,41.035815],[36.9328622,41.0371021],[36.9291603,41.0382051],[36.9289375,41.0437151],[36.9251014,41.0413384],[36.9233702,41.0427513],[36.9244625,41.044855],[36.9229542,41.046288],[36.9252771,41.0473515],[36.9235972,41.0489918],[36.9266265,41.0503574],[36.927332,41.0528578],[36.92439,41.0550698],[36.9265481,41.0595665],[36.9222793,41.0623657],[36.924435,41.0647142],[36.9210131,41.068528],[36.9147751,41.0680083],[36.9097409,41.0739647],[36.9028242,41.0743686],[36.8966382,41.0809411],[36.8899227,41.0834525],[36.8885059,41.0873575],[36.8837832,41.0876286],[36.8823322,41.0907546],[36.878991,41.0919589],[36.8739885,41.0907069],[36.8705242,41.0938118],[36.8666444,41.093646],[36.866709,41.0972636],[36.8581657,41.102752],[36.8576796,41.1080372],[36.8499878,41.1096149],[36.8520167,41.1161565],[36.8470605,41.1231108],[36.8479995,41.1257875],[36.8503008,41.1266751],[36.84417,41.1341357],[36.8353143,41.1354115],[36.84417,41.1438278],[36.8439122,41.1482921],[36.8468399,41.1556906],[36.8383553,41.1648351],[36.8372874,41.1623956],[36.8357841,41.1690064],[36.8151627,41.1699276],[36.8149804,41.1709272],[36.8121684,41.1686928],[36.8099553,41.1689476],[36.8095126,41.1658312],[36.8077681,41.1682224],[36.8049822,41.1687516],[36.8059716,41.1653607],[36.7993321,41.1618325],[36.801389,41.1609896],[36.8004777,41.1585196],[36.7963899,41.158304],[36.79928,41.1499721],[36.797822,41.1486193],[36.7956348,41.1493643],[36.7958692,41.148188],[36.7871468,41.144894],[36.7843347,41.1467763],[36.7833714,41.1453254],[36.7816009,41.1478743],[36.7793096,41.14709],[36.777513,41.1492859],[36.7751147,41.1485941],[36.7754145,41.1453155],[36.7808642,41.1422098],[36.7813797,41.1397696],[36.7773292,41.1377452],[36.7716682,41.1381586],[36.7754145,41.1340013],[36.7731683,41.1294806],[36.7737575,41.1249873],[36.7771083,41.1233785],[36.7735734,41.1210763],[36.7676819,41.1212982],[36.7643679,41.1166656],[36.7473561,41.1076216],[36.7385925,41.0988537],[36.7407282,41.0942473],[36.7425757,41.0943217],[36.7466933,41.0890301],[36.7521798,41.0861715],[36.7491604,41.0778172],[36.7415382,41.0730428],[36.7434162,41.0664358],[36.7363667,41.063275],[36.7361606,41.0559736],[36.723385,41.0549136],[36.7162415,41.0573848],[36.7162783,41.0555522],[36.7090472,41.0506508],[36.7109569,41.0476598],[36.7120993,41.0373969],[36.7181727,41.0351348],[36.7206395,41.0315441],[36.7326686,41.0245908],[36.7328248,41.0197191],[36.7285783,41.016223],[36.7260031,41.0091888],[36.7221668,41.0083911],[36.7179316,41.0024296],[36.7091832,40.9972026],[36.712075,40.9881648],[36.7163304,40.9867299],[36.7145468,40.983917],[36.7182614,40.9752088],[36.7177754,40.9708646],[36.7114227,40.9658125],[36.7109537,40.9632364],[36.7142344,40.9582816],[36.7100163,40.9546242],[36.7127763,40.9541129],[36.7180084,40.9448113],[36.7106457,40.9314335],[36.7104043,40.9248321],[36.7052539,40.9212132],[36.7031758,40.9163175],[36.708121,40.9052195],[36.7120962,40.9066775],[36.7123475,40.9091938],[36.7130887,40.9080435],[36.721681,40.9079254],[36.7244409,40.9099325],[36.7282353,40.9095912],[36.7320465,40.913097],[36.7363702,40.9140174],[36.7398839,40.9140483],[36.7421231,40.9122803],[36.7591744,40.9137498],[36.7635491,40.9175523],[36.7724125,40.9208155],[36.7809935,40.9295675],[36.7856281,40.9280725],[36.7893774,40.9239806],[36.796095,40.9235085],[36.7990223,40.9208732],[36.8047914,40.9227609],[36.818591,40.9194557],[36.8285893,40.9193376],[36.8286934,40.9226035],[36.834281,40.9234442],[36.8419724,40.9216198],[36.8413995,40.9204394],[36.8448885,40.9204],[36.84593,40.9216985],[36.8469194,40.9197311],[36.8512416,40.9207935],[36.8519706,40.9195737],[36.8548819,40.9207544],[36.8538453,40.9306691],[36.8513457,40.9323608],[36.8521268,40.9346819],[36.8502522,40.9359801],[36.8543139,40.9375143],[36.8513454,40.9412296],[36.8513978,40.9445948],[36.8545222,40.9453815],[36.8543902,40.9468303],[36.8651245,40.9470179],[36.8710298,40.949236],[36.8707173,40.9472301],[36.884751,40.9470277],[36.8928232,40.9582075],[36.8970359,40.9593404]]]}},{"type":"Feature","properties":{"code":"55-14","provinceCode":"55","name":"Tekkeköy"},"geometry":{"type":"Polygon","coordinates":[[[36.3887448,41.2542283],[36.3813983,41.2449047],[36.3787675,41.2358132],[36.38387,41.225271],[36.3923659,41.2265956],[36.3881116,41.2202698],[36.3886086,41.2163458],[36.3850316,41.209805],[36.3875602,41.2096034],[36.388459,41.2073285],[36.3931317,41.2095331],[36.3966603,41.2069738],[36.3959538,41.2007945],[36.3841198,41.1936709],[36.3808698,41.1892847],[36.3754297,41.1886733],[36.3764541,41.1852704],[36.3722504,41.1773475],[36.3706235,41.1777477],[36.3579203,41.1661438],[36.3454459,41.1642924],[36.3428481,41.1626],[36.3423985,41.1600424],[36.3463452,41.1510525],[36.3472444,41.1438673],[36.3501919,41.1388258],[36.3532394,41.1387882],[36.354888,41.136606],[36.3575357,41.1397288],[36.3580853,41.1517296],[36.3650794,41.1573343],[36.3694257,41.1542875],[36.3733724,41.1541371],[36.3733724,41.1489459],[36.3788677,41.1507516],[36.380966,41.1498112],[36.3799668,41.1480431],[36.3882098,41.1425881],[36.3867111,41.1400298],[36.3881599,41.1365683],[36.402248,41.1358911],[36.3960033,41.131865],[36.3949042,41.1257313],[36.3919067,41.1224573],[36.3837136,41.1226831],[36.3796171,41.1206132],[36.3733724,41.1230218],[36.3675273,41.119296],[36.3575089,41.1077482],[36.3541617,41.0990899],[36.3489137,41.0961044],[36.3492058,41.0923479],[36.3522218,41.0933328],[36.355853,41.0909444],[36.3543283,41.0883657],[36.3559879,41.0857487],[36.3593122,41.0847392],[36.3618313,41.0866446],[36.3632172,41.0842799],[36.3672731,41.0854184],[36.3693648,41.082098],[36.371392,41.0793973],[36.3741953,41.078883],[36.3736463,41.0774923],[36.3782258,41.0769164],[36.3764223,41.0738978],[36.3809151,41.0760798],[36.3828976,41.0752815],[36.3801246,41.0708176],[36.384271,41.0707885],[36.3855302,41.067167],[36.3885988,41.0671153],[36.3915323,41.0648355],[36.3909257,41.059874],[36.3991192,41.0587027],[36.3967887,41.0543884],[36.3999769,41.0507777],[36.3983148,41.0441409],[36.4155011,41.0382766],[36.4211014,41.0392297],[36.422989,41.040926],[36.4242373,41.0462378],[36.4272226,41.0494721],[36.4322729,41.0510967],[36.4381708,41.0497384],[36.4460111,41.0505641],[36.4590429,41.0583406],[36.4621508,41.0586335],[36.4627159,41.0615894],[36.4669539,41.0633468],[36.4683312,41.0698704],[36.4717216,41.0727992],[36.4783965,41.0665422],[36.4815044,41.0707491],[36.4831642,41.0687255],[36.4834115,41.0722401],[36.4899097,41.0686989],[36.4891328,41.0665954],[36.5014936,41.0689385],[36.5153024,41.0633735],[36.519046,41.0636398],[36.5199642,41.0700036],[36.5250852,41.0707491],[36.526957,41.073944],[36.5238491,41.0765797],[36.5239197,41.0796413],[36.5209531,41.0809191],[36.5210237,41.0865093],[36.5322898,41.1008287],[36.5420019,41.1007222],[36.5490404,41.0918718],[36.5525865,41.0963886],[36.5534356,41.0930386],[36.5564323,41.0952971],[36.566721,41.0963133],[36.56767,41.0949583],[36.5717655,41.0974801],[36.5757611,41.0957111],[36.5769598,41.0986469],[36.5752117,41.1011309],[36.5757112,41.1050826],[36.5787579,41.1057601],[36.5780586,41.1112167],[36.5801563,41.1124585],[36.574962,41.1130982],[36.5695679,41.1179522],[36.5635245,41.1172373],[36.55853,41.119382],[36.5549339,41.1256276],[36.5559828,41.1273206],[36.5582303,41.1266434],[36.5569817,41.1255524],[36.5600783,41.1234455],[36.5650728,41.1232198],[36.5634746,41.1223168],[36.5712161,41.1212633],[36.5720652,41.1231069],[36.5724647,41.1214891],[36.575861,41.1230693],[36.5758111,41.1197207],[36.5797568,41.1205484],[36.5811552,41.1179146],[36.5860998,41.1185166],[36.5872486,41.1211881],[36.5884972,41.122091],[36.5901454,41.1209999],[36.5917436,41.1226178],[36.5914939,41.1270573],[36.5969879,41.1325498],[36.5926427,41.1333774],[36.5884473,41.1380794],[36.5853007,41.1381547],[36.5859999,41.1410886],[36.5835526,41.1424427],[36.5820043,41.1505289],[36.5821541,41.1568467],[36.5870488,41.1617727],[36.5853007,41.1639912],[36.5867491,41.1638784],[36.5859,41.1684279],[36.5902453,41.1721499],[36.5890466,41.1819992],[36.5846015,41.1869609],[36.5818545,41.1870737],[36.5766601,41.1919598],[36.5716157,41.1923357],[36.5714159,41.1870737],[36.5682836,41.1857561],[36.5675801,41.1822566],[36.561233,41.1805264],[36.5578846,41.1881241],[36.5602335,41.1878984],[36.5611831,41.1894404],[36.5583843,41.1906439],[36.5579845,41.1933141],[36.5551358,41.1919978],[36.5491886,41.2005342],[36.5518374,41.20264],[36.5510475,41.20499],[36.5571472,41.2065483],[36.5589341,41.2031288],[36.5619327,41.20452],[36.5632535,41.2075017],[36.5802402,41.2092929],[36.5784572,41.2109234],[36.5789903,41.2147227],[36.5338872,41.2252407],[36.5134548,41.22673],[36.5102487,41.2293613],[36.5085257,41.2349997],[36.4937551,41.2469082],[36.5099875,41.2524375],[36.507269,41.2571783],[36.4954262,41.2526264],[36.4901596,41.2521668],[36.4916737,41.2482355],[36.4888053,41.2528456],[36.4877708,41.2507527],[36.4897364,41.2496143],[36.4788766,41.2489988],[36.4765266,41.2476677],[36.4745154,41.2500624],[36.4755974,41.251608],[36.4896093,41.2561361],[36.4751466,41.2517978],[36.4740285,41.2504827],[36.4748621,41.2480258],[36.4736769,41.2474524],[36.4572584,41.2455121],[36.4565657,41.2503937],[36.4570997,41.2454889],[36.4506582,41.2449675],[36.4502926,41.2463492],[36.4445299,41.2463971],[36.44643,41.2472277],[36.4442995,41.2471657],[36.4444875,41.2523776],[36.4439377,41.2453206],[36.4358513,41.2450814],[36.4010441,41.249952],[36.3887448,41.2542283]]]}},{"type":"Feature","properties":{"code":"55-15","provinceCode":"55","name":"Terme"},"geometry":{"type":"Polygon","coordinates":[[[37.1205896,41.0957955],[37.1261934,41.0990009],[37.1279382,41.1024816],[37.1311334,41.1028039],[37.1320057,41.1068335],[37.1367918,41.1065382],[37.1501212,41.1112209],[37.1483929,41.1179507],[37.1507545,41.1189235],[37.1578305,41.1172518],[37.1625177,41.1210625],[37.1636331,41.1260278],[37.158867,41.129465],[37.1579179,41.1371205],[37.1623114,41.1399433],[37.1681648,41.139816],[37.1698717,41.1475887],[37.132188,41.150539],[37.0956547,41.1594189],[37.060582,41.171689],[37.0435777,41.1802333],[37.0338672,41.1869081],[37.0284598,41.1942857],[37.0313909,41.1977552],[37.0267361,41.195409],[37.0257434,41.1969886],[37.0268657,41.2000737],[37.0344413,41.1973264],[37.0293325,41.2015817],[37.0263365,41.210607],[37.0247206,41.2599434],[37.0174969,41.2705711],[37.0061153,41.2795752],[36.9416857,41.3054493],[36.8777965,41.3368189],[36.862894,41.3401114],[36.8563383,41.3436554],[36.801803,41.35436],[36.7990822,41.3448269],[36.8004957,41.3424687],[36.7988467,41.3404937],[36.8026552,41.3371331],[36.80666,41.3266668],[36.8101151,41.323217],[36.7989644,41.3189119],[36.7949204,41.3107726],[36.7966087,41.2995057],[36.7934284,41.2998007],[36.7914652,41.2976768],[36.7882064,41.2869092],[36.7920542,41.2851685],[36.792329,41.281215],[36.7949596,41.2800643],[36.7961375,41.2739563],[36.7944885,41.2715955],[36.796805,41.2707102],[36.7972761,41.2674935],[36.794724,41.2620632],[36.7905229,41.2589346],[36.7937817,41.257754],[36.7928394,41.2557469],[36.7958627,41.2545958],[36.7904837,41.2515259],[36.7907978,41.2451496],[36.7925253,41.2446477],[36.7921327,41.2415773],[36.7941744,41.2401011],[36.7961375,41.240603],[36.7957449,41.2354658],[36.7993571,41.2341371],[36.7987681,41.2326016],[36.8048539,41.2321292],[36.8047753,41.2297079],[36.8077593,41.2304166],[36.808152,41.2328083],[36.8121568,41.2345209],[36.8149444,41.2392449],[36.8190278,41.2404259],[36.8184781,41.235761],[36.8217762,41.2357315],[36.8210695,41.2323654],[36.8234645,41.2323359],[36.8247994,41.2282019],[36.8350863,41.2244221],[36.8324164,41.2188995],[36.82743,41.2146761],[36.8279797,41.2118407],[36.8264485,41.2106001],[36.820559,41.2119293],[36.8168683,41.207794],[36.8147481,41.2081189],[36.8122353,41.1995522],[36.8159805,41.1978075],[36.8156668,41.194963],[36.8211694,41.1956758],[36.8216062,41.1997075],[36.8245895,41.2016405],[36.8304533,41.202211],[36.8355709,41.2115785],[36.8388023,41.2134596],[36.8484485,41.2108687],[36.8493387,41.2053718],[36.8516945,41.2049878],[36.8512037,41.1963687],[36.8579926,41.1889901],[36.8626792,41.1861686],[36.8694489,41.1855024],[36.8704564,41.1811317],[36.8645199,41.1790936],[36.8645199,41.1755269],[36.8620204,41.1790936],[36.8600936,41.1790936],[36.8558847,41.1749254],[36.8576054,41.1723569],[36.8552621,41.1714553],[36.8541685,41.167653],[36.8563556,41.1665946],[36.8569105,41.1559204],[36.8519903,41.1555488],[36.848085,41.158242],[36.8468399,41.1556906],[36.8439122,41.1482921],[36.84417,41.1438278],[36.8353143,41.1354115],[36.84417,41.1341357],[36.8503008,41.1266751],[36.8479995,41.1257875],[36.8470605,41.1231108],[36.8520167,41.1161565],[36.8499878,41.1096149],[36.8576796,41.1080372],[36.8581657,41.102752],[36.866709,41.0972636],[36.8666444,41.093646],[36.8705242,41.0938118],[36.8739885,41.0907069],[36.878991,41.0919589],[36.8823322,41.0907546],[36.8837832,41.0876286],[36.8885059,41.0873575],[36.8899227,41.0834525],[36.8966382,41.0809411],[36.9028242,41.0743686],[36.9097409,41.0739647],[36.9147751,41.0680083],[36.9210131,41.068528],[36.924435,41.0647142],[36.9222793,41.0623657],[36.9265481,41.0595665],[36.92439,41.0550698],[36.927332,41.0528578],[36.9266265,41.0503574],[36.9235972,41.0489918],[36.9252771,41.0473515],[36.9229542,41.046288],[36.9244625,41.044855],[36.9233702,41.0427513],[36.9251014,41.0413384],[36.9289375,41.0437151],[36.9291603,41.0382051],[36.9328622,41.0371021],[36.9302128,41.035815],[36.9320887,41.0349338],[36.9315066,41.0325832],[36.9339395,41.0313586],[36.9323529,41.0294652],[36.9356811,41.0283533],[36.9363822,41.0270711],[36.934467,41.025631],[36.9375676,41.0227934],[36.9343613,41.0227003],[36.9339225,41.0195136],[36.9304062,41.0162405],[36.9321585,41.0147562],[36.9294449,41.0125514],[36.9308143,41.0103207],[36.9249077,41.0060078],[36.9266599,41.0045526],[36.9256209,41.0018348],[36.9288083,41.0011038],[36.9297769,40.9948239],[36.9270825,40.9943985],[36.9245203,40.9893608],[36.9204699,40.9876194],[36.9217379,40.9856454],[36.9182687,40.9851336],[36.9165076,40.981285],[36.9116032,40.9783735],[36.908134,40.9797827],[36.8997076,40.9723373],[36.8947767,40.9710675],[36.8971629,40.9675971],[36.8931038,40.9660081],[36.8944598,40.9635613],[36.8923289,40.9612674],[36.8959269,40.961382],[36.8970359,40.9593404],[36.8960378,40.9571971],[36.9026951,40.9533538],[36.9047114,40.9483257],[36.9072719,40.9482532],[36.9055756,40.9470928],[36.9078481,40.9452797],[36.9047435,40.9391147],[36.9149819,40.934983],[36.9210349,40.9394714],[36.9209069,40.9423243],[36.9246209,40.9463703],[36.921355,40.9483681],[36.921227,40.9558617],[36.9153409,40.9599826],[36.9195092,40.9682694],[36.9220419,40.9698624],[36.920594,40.9713326],[36.9139039,40.9718603],[36.9143033,40.9761199],[36.9203943,40.9732928],[36.9251873,40.9731797],[36.9306779,40.9779039],[36.9402151,40.9809445],[36.9480536,40.9897259],[36.9544442,40.991271],[36.9553428,40.993419],[36.9616512,40.9961105],[36.9728896,41.005757],[36.9730978,41.0085466],[36.9786036,41.0144039],[36.9816648,41.0220179],[36.9807038,41.0258581],[36.976539,41.0269323],[36.976539,41.0296713],[36.9692063,41.0361961],[36.9599158,41.0362766],[36.9578156,41.0394717],[36.9546476,41.0400892],[36.9570681,41.0527603],[36.9552527,41.0614837],[36.9582783,41.0644897],[36.9599558,41.0657786],[36.9668926,41.0631746],[36.9724099,41.0579945],[36.9843701,41.0586387],[36.9920588,41.0662878],[36.9893536,41.0702865],[36.9912757,41.0741239],[36.9879653,41.0767],[36.988962,41.0856617],[36.9957608,41.0919127],[37.0041615,41.0929857],[37.0114942,41.0984582],[37.0158725,41.098941],[37.01662,41.1019184],[37.0725056,41.1068],[37.0873134,41.0972242],[37.0870643,41.0950514],[37.09308,41.0970364],[37.0979566,41.1009259],[37.1009823,41.0979485],[37.1024773,41.0998798],[37.1091693,41.1000139],[37.1139748,41.0966341],[37.1205896,41.0957955]]]}},{"type":"Feature","properties":{"code":"55-16","provinceCode":"55","name":"Vezirköprü"},"geometry":{"type":"Polygon","coordinates":[[[34.9733275,41.3261103],[34.9590256,41.3242693],[34.9484245,41.3268232],[34.9446462,41.3257334],[34.9431661,41.3160928],[34.9327151,41.3154991],[34.9287758,41.3120699],[34.9329324,41.2936405],[34.9276427,41.2796981],[34.9147884,41.2795919],[34.8875428,41.2725216],[34.8786647,41.2569244],[34.8831672,41.2522702],[34.8827451,41.24989],[34.9058908,41.2398659],[34.9168657,41.2291525],[34.9269964,41.2235438],[34.9312527,41.2101285],[34.929916,41.1992514],[34.9325542,41.1965781],[34.9414537,41.195043],[34.9532025,41.1980339],[34.9565793,41.197981],[34.9586547,41.1961811],[34.9580567,41.1935078],[34.9601321,41.1927137],[34.9650216,41.1850899],[34.9606949,41.1703164],[34.9618557,41.1656559],[34.9770517,41.153659],[34.9825744,41.1478054],[34.9841221,41.1435937],[34.9827854,41.1394347],[34.9732176,41.130639],[34.9692427,41.1247038],[34.9458507,41.1175492],[34.9423331,41.1126464],[34.9391673,41.1124079],[34.9309352,41.107867],[34.9230319,41.0991774],[34.9230816,41.0962931],[34.9283008,41.0941953],[34.9353094,41.0979787],[34.9434613,41.0978664],[34.9628241,41.0914152],[34.9862933,41.0904588],[34.9870949,41.0813468],[34.9933172,41.0818322],[35.0000773,41.0797715],[35.0116589,41.0828813],[35.0139454,41.079172],[35.0198108,41.0793593],[35.0330328,41.0831436],[35.0439186,41.0829562],[35.0479448,41.0808955],[35.0565441,41.0808206],[35.0751344,41.0762118],[35.0814304,41.0759523],[35.1197213,41.0755374],[35.1392064,41.0736638],[35.1512851,41.076624],[35.1550628,41.074713],[35.1586914,41.0775982],[35.1635627,41.0742259],[35.1674895,41.0774484],[35.174349,41.0775233],[35.183843,41.0744507],[35.2106349,41.0759495],[35.2134682,41.0739261],[35.230617,41.0693543],[35.2408069,41.0449913],[35.2459267,41.0410549],[35.2559371,41.038716],[35.2624984,41.0388097],[35.2676012,41.0332085],[35.2738352,41.0336467],[35.2744317,41.0354465],[35.2783586,41.0345841],[35.2831304,41.0373211],[35.2794521,41.0379585],[35.2806451,41.0396457],[35.2821363,41.0387084],[35.2828322,41.0411453],[35.3010248,41.0423075],[35.3117118,41.0389333],[35.3287612,41.0401705],[35.3396469,41.0360839],[35.3421323,41.0303471],[35.345065,41.0291847],[35.3466556,41.0261098],[35.3475503,41.0287722],[35.3519245,41.0299721],[35.3542607,41.0270098],[35.3533163,41.017897],[35.3577402,41.0133213],[35.3582869,41.0053319],[35.3643015,41.0049568],[35.3724534,41.0080702],[35.376579,41.0130588],[35.3854765,41.0164718],[35.3895525,41.011671],[35.3971079,41.0123837],[35.3983009,41.0148216],[35.4003885,41.0141465],[35.4095843,41.0161718],[35.4164438,41.0149716],[35.422856,41.0097956],[35.425391,41.0096831],[35.4402533,41.0143715],[35.4407007,41.0163968],[35.4461684,41.0203347],[35.450145,41.0163218],[35.4523835,41.0101168],[35.4713406,41.0213082],[35.4851257,41.0266768],[35.4874408,41.0293168],[35.4887168,41.0367142],[35.4987797,41.0435486],[35.5057138,41.0446882],[35.5049234,41.0474765],[35.5150487,41.0482448],[35.5149456,41.0445163],[35.5174394,41.0439308],[35.5174763,41.0421764],[35.5196549,41.0422042],[35.5224668,41.045689],[35.5242704,41.0387507],[35.5311383,41.0448776],[35.5306952,41.0425384],[35.5334277,41.0412295],[35.5363816,41.0445435],[35.540868,41.044684],[35.552209,41.0413416],[35.5684113,41.0424428],[35.5856119,41.0463873],[35.5973807,41.0544846],[35.6059709,41.0652346],[35.6145136,41.0678485],[35.6159536,41.0702146],[35.613963,41.0789732],[35.6052898,41.080263],[35.5979403,41.0869495],[35.6016342,41.0914232],[35.6025943,41.0966269],[35.6156745,41.1095191],[35.6141972,41.1127233],[35.6181394,41.1171595],[35.6179179,41.1215267],[35.6323184,41.1283412],[35.6354201,41.137352],[35.6331947,41.1423],[35.6303726,41.143933],[35.6308479,41.1488543],[35.6329867,41.1505543],[35.6388685,41.1498385],[35.6418688,41.1530818],[35.6405302,41.1562593],[35.6372913,41.1575051],[35.6377314,41.1599038],[35.6471664,41.1613086],[35.6568311,41.1574393],[35.6596192,41.1547216],[35.6644487,41.1552089],[35.6774778,41.16855],[35.6778555,41.174109],[35.6750923,41.1786996],[35.6790006,41.1823719],[35.6774074,41.1983326],[35.6752537,41.2035196],[35.6696775,41.2078272],[35.6706949,41.2230751],[35.6738282,41.2277089],[35.6737225,41.2328454],[35.6655197,41.2433818],[35.6743393,41.2574369],[35.6624888,41.2610375],[35.6633045,41.2660491],[35.6612831,41.2684481],[35.6532684,41.2719131],[35.6586748,41.2864095],[35.6550415,41.2906213],[35.6532776,41.2983286],[35.6573466,41.3060209],[35.6668153,41.3149446],[35.6583396,41.3148647],[35.6537649,41.3129469],[35.6470978,41.3148115],[35.6322387,41.3081787],[35.6200039,41.3063939],[35.6035845,41.3147582],[35.6000027,41.3153176],[35.5923427,41.3131334],[35.5711609,41.3227015],[35.5499884,41.3090298],[35.5446929,41.3027579],[35.536224,41.2931303],[35.5188652,41.2917075],[35.5138215,41.2888391],[35.5139521,41.2775997],[35.5044942,41.2685528],[35.4805733,41.2700729],[35.4446514,41.2827689],[35.4456364,41.3048268],[35.4343227,41.3119408],[35.4330447,41.3144671],[35.4287065,41.3160775],[35.42516,41.321352],[35.4160156,41.3264491],[35.4034637,41.3302643],[35.3980036,41.334807],[35.3910759,41.3354114],[35.388515,41.3412569],[35.3827141,41.3439085],[35.3793265,41.3432296],[35.3791969,41.3443792],[35.3707738,41.3473078],[35.3683859,41.3453842],[35.3620466,41.3442706],[35.3548871,41.3395124],[35.3541413,41.3306497],[35.3563463,41.3192287],[35.3638369,41.3156485],[35.3686361,41.3109234],[35.373111,41.2978423],[35.3802774,41.2901678],[35.3843632,41.2824437],[35.400197,41.274374],[35.4040992,41.2701016],[35.4041698,41.2676627],[35.3994436,41.2632618],[35.3900413,41.2635176],[35.3585965,41.2441633],[35.3294294,41.2380443],[35.3177715,41.2335963],[35.3065518,41.2339324],[35.2944335,41.2441633],[35.2806766,41.2432019],[35.2439504,41.2511773],[35.2258225,41.2608183],[35.1915937,41.2670497],[35.1910787,41.2907866],[35.1951986,41.3047151],[35.1933285,41.3074874],[35.1806074,41.3147727],[35.1713377,41.3145148],[35.1582914,41.3182538],[35.149594,41.3228623],[35.1303601,41.3613293],[35.125273,41.3603346],[35.1207185,41.3572876],[35.1100253,41.3559003],[35.1033255,41.3493598],[35.1049427,41.3494342],[35.1041176,41.3478733],[35.0984409,41.3494342],[35.0983749,41.3474273],[35.0945464,41.3443549],[35.0887708,41.34267],[35.0883747,41.340316],[35.0817739,41.3388788],[35.0787376,41.3350874],[35.0802558,41.3324853],[35.0752722,41.3291644],[35.0601564,41.330354],[35.0539517,41.3290653],[35.0516744,41.3260168],[35.0499252,41.3283961],[35.0383408,41.3336005],[35.0306839,41.3327083],[35.017995,41.3432575],[35.0135906,41.3446087],[35.0039504,41.3419773],[34.9998177,41.3358117],[34.9914649,41.3330528],[34.9829112,41.3336045],[34.9733275,41.3261103]]]}}]}