{"type":"FeatureCollection","features":[{"type":"Feature","properties":{"code":"45-01","provinceCode":"45","name":"Ahmetli"},"geometry":{"type":"Polygon","coordinates":[[[27.8199036,38.5993697],[27.8184653,38.5964373],[27.818778,38.585733],[27.8204039,38.5773737],[27.8253441,38.5749293],[27.826845,38.5721915],[27.825094,38.5668621],[27.8257819,38.5605544],[27.8324105,38.562217],[27.8344116,38.5613857],[27.834089,38.5598034],[27.8444852,38.5610776],[27.8490077,38.5591686],[27.8563317,38.5532221],[27.8538489,38.5486685],[27.8543375,38.5427842],[27.8610795,38.5388865],[27.8656719,38.5330013],[27.8650856,38.520465],[27.8608841,38.5196241],[27.8575619,38.5169484],[27.8560963,38.5128199],[27.848084,38.5100675],[27.8513085,38.507162],[27.8483772,38.5031859],[27.8491588,38.4940095],[27.8519924,38.4887325],[27.8445664,38.4821548],[27.8459344,38.4751176],[27.8529695,38.4684622],[27.8527741,38.46479],[27.8549237,38.4623417],[27.8516993,38.4452017],[27.8550215,38.438467],[27.8604932,38.4368598],[27.8641085,38.4339513],[27.8908812,38.4277514],[27.901043,38.4221634],[27.9098941,38.4200946],[27.9210737,38.4250723],[27.9228325,38.4417579],[27.9356325,38.44612],[27.9305516,38.4481862],[27.9316264,38.4517827],[27.9308447,38.4544609],[27.9278157,38.4558382],[27.927718,38.4610411],[27.9364142,38.4784068],[27.9420814,38.4810075],[27.953025,38.4819253],[27.9586922,38.480931],[27.9773549,38.4842199],[27.9840704,38.4901493],[27.985151,38.4946047],[27.9815603,38.5045733],[27.9846414,38.50851],[27.9693183,38.5112806],[27.9575744,38.5157614],[27.9530374,38.5246543],[27.9551986,38.5289486],[27.9549544,38.5350634],[27.9489696,38.533917],[27.9488475,38.5361144],[27.9551986,38.5404135],[27.9560307,38.5553346],[27.9667214,38.554959],[27.9672978,38.556912],[27.9661721,38.5607011],[27.9636082,38.5621681],[27.9616696,38.5690624],[27.9670476,38.5738537],[27.9682358,38.5787914],[27.9639834,38.5851953],[27.9642961,38.5893013],[27.9485999,38.5864662],[27.9447228,38.5875416],[27.9419087,38.5858796],[27.9333415,38.5874438],[27.9175202,38.5836799],[27.8967587,38.5826534],[27.8866906,38.5963396],[27.8835013,38.5983434],[27.8826884,38.6021065],[27.874684,38.6098277],[27.8718699,38.6104141],[27.8637404,38.6207727],[27.8606762,38.6222873],[27.851296,38.6188184],[27.8476065,38.6201375],[27.8409778,38.6185252],[27.8357874,38.6145186],[27.8342866,38.6100231],[27.8199036,38.5993697]]]}},{"type":"Feature","properties":{"code":"45-02","provinceCode":"45","name":"Akhisar"},"geometry":{"type":"Polygon","coordinates":[[[27.8660438,38.7582617],[27.8819252,38.7535437],[27.8992857,38.7418717],[27.9223331,38.7484083],[27.9349206,38.7492748],[27.9366782,38.756275],[27.9401934,38.7586735],[27.9411977,38.769735],[27.9445874,38.768952],[27.9512412,38.7742864],[27.9607824,38.773846],[27.9676873,38.7803544],[27.9740272,38.7755588],[27.9914691,38.7770399],[27.989021,38.7691608],[27.9937289,38.7646091],[28.0050905,38.7640707],[28.0146318,38.7672521],[28.0269643,38.764064],[28.0405653,38.7647734],[28.052746,38.7771206],[28.0805636,38.8412646],[28.1233603,38.8988611],[28.145494,38.939901],[28.1600144,38.9577314],[28.1707135,38.9666449],[28.172242,38.9853596],[28.1703314,39.0135708],[28.1558111,39.0459256],[28.1523721,39.0616524],[28.1541643,39.0824464],[28.1504876,39.0934864],[28.1434402,39.1056479],[28.1254567,39.1116773],[28.0920314,39.1271133],[28.0829091,39.1427169],[28.0844819,39.1558832],[28.0723698,39.1789617],[28.0705122,39.1976257],[28.053218,39.205365],[28.028282,39.2076706],[28.0190569,39.2122246],[28.014516,39.2204077],[28.006553,39.2292271],[27.9880485,39.2374873],[27.9827766,39.2424924],[27.9741595,39.2449873],[27.9557435,39.2447828],[27.9579656,39.2334794],[27.9536007,39.220954],[27.9267482,39.1844834],[27.9140438,39.1636665],[27.8874801,39.1054361],[27.8739095,39.0937843],[27.8560078,39.0816822],[27.8291553,39.0745097],[27.814141,39.0655429],[27.7792039,39.0585929],[27.7240552,39.0359447],[27.6930972,39.0258906],[27.6793822,39.0270121],[27.6216349,39.0466361],[27.603319,39.058541],[27.5880184,39.0476711],[27.5812613,39.031195],[27.5700186,39.0145157],[27.5570583,39.0169081],[27.5549018,39.0181251],[27.5518656,39.0173248],[27.5481748,39.0199839],[27.5452995,39.018967],[27.546823,39.0243182],[27.5451493,39.0295358],[27.5417482,39.0293941],[27.540729,39.0267104],[27.5309443,39.0324944],[27.5229621,39.0256685],[27.521239,39.021665],[27.5108467,39.0167776],[27.4963331,39.0046783],[27.4930163,39.0030223],[27.4877393,39.0069793],[27.4872565,39.0003761],[27.4715066,38.9900698],[27.4690604,38.9905034],[27.4679191,38.9841428],[27.5019039,38.9661665],[27.5274338,38.9408958],[27.5439227,38.9056902],[27.5932577,38.8982098],[27.6708835,38.8747011],[27.715562,38.8645958],[27.7400229,38.8533228],[27.7540005,38.8377709],[27.7552485,38.8078239],[27.7784613,38.7889547],[27.8031718,38.7743617],[27.8660438,38.7582617]]]}},{"type":"Feature","properties":{"code":"45-03","provinceCode":"45","name":"Alaşehir"},"geometry":{"type":"Polygon","coordinates":[[[28.4453539,38.541385],[28.4378049,38.5315886],[28.4239384,38.5247374],[28.4177351,38.5121752],[28.4056932,38.4970405],[28.3863532,38.4841878],[28.3724868,38.4713329],[28.3705291,38.4667857],[28.3684017,38.4650782],[28.3516872,38.4636188],[28.3334419,38.4587613],[28.317284,38.4474371],[28.3160375,38.4435044],[28.3038846,38.4347551],[28.2863691,38.4130282],[28.2798382,38.3895719],[28.2923868,38.3117915],[28.2971066,38.3160773],[28.3062236,38.3209098],[28.3129178,38.3221936],[28.3267269,38.3179268],[28.3335977,38.3139877],[28.3409707,38.3028564],[28.356534,38.2980655],[28.3552194,38.2950563],[28.3562279,38.290324],[28.361249,38.2871155],[28.3624935,38.2834859],[28.3676541,38.2808836],[28.3671899,38.2752967],[28.3694444,38.2758067],[28.371881,38.2703261],[28.3793485,38.2683085],[28.3800131,38.2651004],[28.3716479,38.2567253],[28.374875,38.2547391],[28.3788329,38.2542457],[28.3892553,38.2575192],[28.4011866,38.2661186],[28.4052216,38.2672501],[28.4140444,38.2650526],[28.4166738,38.2661828],[28.4407088,38.2605096],[28.451773,38.2605341],[28.4762336,38.2537221],[28.4815195,38.2550319],[28.4811571,38.2516937],[28.4890861,38.2447827],[28.4904456,38.23952],[28.4894049,38.2341604],[28.4928435,38.2318007],[28.4930008,38.227471],[28.4901198,38.2243615],[28.491686,38.2204208],[28.4886056,38.2163554],[28.4896463,38.2082837],[28.4873718,38.2078116],[28.4862453,38.2050548],[28.4895068,38.2007087],[28.486283,38.1968993],[28.4823439,38.195525],[28.4813067,38.1965034],[28.4749532,38.1934701],[28.475731,38.1923697],[28.4730434,38.1917457],[28.4723943,38.1899116],[28.4605873,38.1900339],[28.4609145,38.188027],[28.4534579,38.1850122],[28.4506631,38.1865934],[28.4441453,38.1805004],[28.4341607,38.1783906],[28.4350365,38.1771226],[28.4334487,38.1758491],[28.4449285,38.1677898],[28.445127,38.1656726],[28.4524099,38.1611007],[28.4510364,38.1607184],[28.4636885,38.1559911],[28.4654849,38.1450763],[28.4619633,38.1395071],[28.4644604,38.138046],[28.4688595,38.1387775],[28.4718147,38.1352845],[28.4755583,38.1346178],[28.4850677,38.1225949],[28.5027712,38.1219828],[28.5109165,38.1178364],[28.5281857,38.1040957],[28.5534204,38.1272746],[28.558077,38.1367548],[28.5728683,38.1559268],[28.5914945,38.1716484],[28.615325,38.1959779],[28.6134076,38.2045881],[28.5984952,38.2194619],[28.604234,38.2399549],[28.6124744,38.2578485],[28.6405564,38.2734004],[28.6449626,38.2840716],[28.656179,38.2995053],[28.6562824,38.3041982],[28.6525207,38.3099686],[28.6523719,38.3151931],[28.6644241,38.327872],[28.6844199,38.3343181],[28.70962,38.3392597],[28.7216722,38.33883],[28.7361896,38.3334586],[28.7561854,38.3325992],[28.787521,38.3377739],[28.774683,38.3493645],[28.7580641,38.3559671],[28.7548545,38.3596905],[28.7543641,38.3677855],[28.757373,38.3741582],[28.7672683,38.3815709],[28.7580428,38.3856383],[28.7296852,38.3840363],[28.7174225,38.3864393],[28.7102692,38.3940484],[28.7008167,38.4130677],[28.6939189,38.4190728],[28.6865102,38.4198734],[28.6770577,38.4174715],[28.6619848,38.4076627],[28.6504885,38.4082633],[28.6435907,38.4126674],[28.6392476,38.4194731],[28.6428243,38.427479],[28.6425688,38.4334829],[28.6372038,38.441087],[28.6274958,38.4472898],[28.6193207,38.4498908],[28.602204,38.4498908],[28.5710362,38.456693],[28.5551969,38.4692955],[28.5406349,38.4748958],[28.5286276,38.4762958],[28.5048686,38.4666951],[28.4946497,38.4666951],[28.4790658,38.4692955],[28.4711461,38.4758958],[28.4747227,38.5070895],[28.4711461,38.5184838],[28.4642483,38.5300761],[28.4453539,38.541385]]]}},{"type":"Feature","properties":{"code":"45-04","provinceCode":"45","name":"Demirci"},"geometry":{"type":"Polygon","coordinates":[[[28.6117642,38.7358384],[28.6268796,38.7445353],[28.6312268,38.7485376],[28.6333947,38.7542927],[28.6465275,38.7532428],[28.6506508,38.7616565],[28.6596064,38.7638058],[28.668596,38.7641174],[28.6742174,38.7725534],[28.68617,38.7707507],[28.6916917,38.7733322],[28.6950368,38.7779965],[28.7067142,38.782006],[28.7117703,38.78946],[28.7039426,38.797529],[28.7022807,38.8017555],[28.7022807,38.8035278],[28.7060418,38.806118],[28.7061293,38.8120479],[28.7028929,38.817432],[28.7066541,38.822884],[28.7038481,38.8363239],[28.7078787,38.8381553],[28.718515,38.8378936],[28.7275838,38.8353645],[28.7273039,38.8386349],[28.7349732,38.8413383],[28.7419707,38.8458728],[28.7453855,38.8519765],[28.7540625,38.8581232],[28.7585409,38.8542434],[28.7605562,38.8544614],[28.7663222,38.8626566],[28.769905,38.8616977],[28.7702408,38.8589951],[28.775576,38.8608935],[28.7798702,38.8666997],[28.7823474,38.8662784],[28.7842731,38.8677337],[28.7831375,38.8712991],[28.7867989,38.8742177],[28.7844599,38.8874546],[28.7934727,38.8953846],[28.792689,38.89948],[28.7949282,38.8992186],[28.8036611,38.8891975],[28.8090912,38.8898511],[28.8137376,38.8964303],[28.8168725,38.8970402],[28.821127,38.8944261],[28.8242619,38.8951668],[28.8293561,38.8916812],[28.8320432,38.8914633],[28.8305317,38.893729],[28.8331068,38.8952104],[28.8373053,38.8955589],[28.8390407,38.8935547],[28.8416158,38.8941647],[28.8415039,38.8975195],[28.843855,38.8990008],[28.8506847,38.900787],[28.8572903,38.8996543],[28.8602573,38.9008306],[28.861041,38.9037059],[28.8701098,38.9001335],[28.8753616,38.8996056],[28.8809794,38.9015149],[28.8874226,38.8986955],[28.9034446,38.8971385],[28.9097789,38.8943054],[28.9109827,38.8893306],[28.9175176,38.8849579],[28.9205271,38.8851364],[28.9227628,38.8870774],[28.9229565,38.9061899],[28.9171835,38.9122475],[28.9250558,38.9154463],[28.9264068,38.9214918],[28.9315675,38.9236694],[28.9477495,38.9241129],[28.9487631,38.9279406],[28.9564963,38.931971],[28.9545661,38.9369478],[28.9555341,38.9403396],[28.9437718,38.9415957],[28.9405175,38.944851],[28.9376617,38.9543992],[28.9130806,38.9577228],[28.911605,38.9619009],[28.904452,38.9672759],[28.9110137,38.9719178],[28.9137238,38.9713562],[28.9206339,38.9776123],[28.921596,38.9799242],[28.9195842,38.9817601],[28.9231705,38.9840038],[28.9197592,38.9859076],[28.923607,38.997292],[28.9399811,39.01831],[28.9325614,39.0207674],[28.9267131,39.0246477],[28.9387348,39.0319048],[28.9376671,39.0348939],[28.9406584,39.0377581],[28.9365818,39.0415947],[28.9359948,39.0527422],[28.9287708,39.0586068],[28.9161323,39.0542207],[28.915472,39.061284],[28.9079736,39.0625044],[28.906442,39.0639611],[28.9099409,39.0651012],[28.9105112,39.0673545],[28.9067339,39.0713643],[28.9023666,39.0715929],[28.9005944,39.0685007],[28.8918595,39.0688068],[28.8884462,39.0741898],[28.8816111,39.0754875],[28.8743175,39.0746962],[28.8698602,39.0762473],[28.8431547,39.0782494],[28.8385261,39.0802983],[28.8256165,39.0807221],[28.8203251,39.0781973],[28.8060412,39.0783247],[28.8136391,39.0647957],[28.807737,39.0638792],[28.8020317,39.0592964],[28.7941623,39.0565466],[28.7929819,39.0518106],[28.7908178,39.0506648],[28.7782267,39.0543314],[28.7782267,39.0568522],[28.7859978,39.0634209],[28.7831451,39.0777021],[28.7802924,39.0790766],[28.772423,39.0784657],[28.7712426,39.0816728],[28.7670128,39.0821309],[28.7678981,39.0793057],[28.7662259,39.0754875],[28.759045,39.0764803],[28.7570777,39.0736548],[28.7460476,39.075144],[28.7293829,39.080678],[28.7113268,39.0802927],[28.7017097,39.0860428],[28.6962105,39.0913599],[28.670452,39.0996368],[28.6658411,39.0982949],[28.6657902,39.1018509],[28.6464365,39.0997859],[28.6333721,39.1014259],[28.6274162,39.1063459],[28.616273,39.1051532],[28.6151203,39.1087312],[28.608588,39.1100729],[28.6098972,39.114459],[28.6179181,39.1214024],[28.6261132,39.1322788],[28.6324636,39.1681686],[28.6170972,39.1689826],[28.5986035,39.1759013],[28.5922165,39.1727674],[28.5925951,39.1650606],[28.5856118,39.1591029],[28.5843324,39.1502746],[28.588415,39.1465498],[28.585293,39.1433835],[28.5843324,39.1392857],[28.5797694,39.139472],[28.5728049,39.1344426],[28.5684821,39.1385406],[28.5579153,39.137423],[28.5351005,39.131462],[28.5329541,39.1347709],[28.525014,39.1359328],[28.5091054,39.1351076],[28.4975191,39.1386358],[28.4942355,39.1370039],[28.4938791,39.1289543],[28.4978765,39.1238238],[28.4986747,39.1159274],[28.5166086,39.1096629],[28.5430257,39.1074267],[28.5552736,39.1040723],[28.5607971,39.0958719],[28.5533523,39.0941945],[28.5503305,39.0862178],[28.5432658,39.0880434],[28.5179544,39.0870206],[28.5197306,39.0813326],[28.5257345,39.0798412],[28.5298171,39.0751804],[28.5237843,39.0671295],[28.5218299,39.0578043],[28.5082031,39.0477688],[28.500914,39.0361673],[28.4849081,38.9998196],[28.4713162,39.0005499],[28.4640146,38.9972067],[28.4553881,38.9867517],[28.4475601,38.9677054],[28.4349951,38.9581721],[28.4211228,38.9566188],[28.415771,38.9468635],[28.4237645,38.9336448],[28.4170402,38.9306558],[28.41482,38.9236631],[28.418241,38.9215011],[28.4283275,38.9213143],[28.43217,38.9160825],[28.4252055,38.9162693],[28.4230441,38.9134664],[28.4218433,38.9020668],[28.4253623,38.896052],[28.4251094,38.8855061],[28.4375975,38.8774673],[28.4455226,38.8797108],[28.447684,38.8754108],[28.4431211,38.8664359],[28.4311133,38.8709235],[28.4191609,38.8688759],[28.404402,38.8725117],[28.3927918,38.8686785],[28.391317,38.8637385],[28.4061339,38.8489465],[28.4146294,38.8458518],[28.4167454,38.8414776],[28.4407252,38.8324538],[28.4396143,38.8277836],[28.4428112,38.822994],[28.4472378,38.8205032],[28.459588,38.8269358],[28.5016026,38.8324624],[28.5412215,38.8009697],[28.5582992,38.7832242],[28.5912844,38.7555682],[28.5983853,38.7448591],[28.5989696,38.7396714],[28.6037263,38.7363427],[28.6117642,38.7358384]]]}},{"type":"Feature","properties":{"code":"45-05","provinceCode":"45","name":"Gölmarmara"},"geometry":{"type":"Polygon","coordinates":[[[27.8826884,38.6021065],[27.8835013,38.5983434],[27.8866906,38.5963396],[27.8967587,38.5826534],[27.9175202,38.5836799],[27.9333415,38.5874438],[27.9419087,38.5858796],[27.9447228,38.5875416],[27.9485999,38.5864662],[27.9642961,38.5893013],[27.9685937,38.5904764],[27.9716228,38.5952878],[27.975922,38.5954405],[27.9844228,38.599717],[27.9940961,38.6095671],[28.0395048,38.6215016],[28.06189,38.6352798],[28.0582722,38.6697135],[28.06189,38.7110121],[28.0697598,38.7382545],[28.0743809,38.7451223],[28.0614928,38.7604622],[28.052746,38.7771206],[28.0405653,38.7647734],[28.0269643,38.764064],[28.0146318,38.7672521],[28.0050905,38.7640707],[27.9937289,38.7646091],[27.989021,38.7691608],[27.9914691,38.7770399],[27.9740272,38.7755588],[27.9676873,38.7803544],[27.9607824,38.773846],[27.9512412,38.7742864],[27.9445874,38.768952],[27.9411977,38.769735],[27.9401934,38.7586735],[27.9366782,38.756275],[27.9349206,38.7492748],[27.9223331,38.7484083],[27.8992857,38.7418717],[27.8819252,38.7535437],[27.8660438,38.7582617],[27.8077123,38.7355876],[27.7858632,38.7205435],[27.7784371,38.7056679],[27.7896095,38.6985341],[27.8160171,38.6879643],[27.8424247,38.6813573],[27.8505501,38.6668199],[27.8749264,38.6501643],[27.8806818,38.6427605],[27.8810634,38.6201832],[27.8841567,38.6064544],[27.8826884,38.6021065]]]}},{"type":"Feature","properties":{"code":"45-06","provinceCode":"45","name":"Gördes"},"geometry":{"type":"Polygon","coordinates":[[[28.1541643,39.0824464],[28.1523721,39.0616524],[28.1558111,39.0459256],[28.1703314,39.0135708],[28.172242,38.9853596],[28.1707135,38.9666449],[28.1600144,38.9577314],[28.145494,38.939901],[28.1233603,38.8988611],[28.0805636,38.8412646],[28.052746,38.7771206],[28.0614928,38.7604622],[28.0743809,38.7451223],[28.1154315,38.7459615],[28.132149,38.7485692],[28.1431347,38.7478241],[28.1545981,38.7496867],[28.1741814,38.7489417],[28.2350982,38.7693873],[28.2467195,38.7825356],[28.2533462,38.7951904],[28.268413,38.7914336],[28.2695293,38.7966707],[28.2642494,38.8081619],[28.2819932,38.8133371],[28.3266611,38.8148122],[28.3489251,38.8177923],[28.3655547,38.8244609],[28.3824288,38.8368439],[28.3956347,38.841606],[28.4167454,38.8414776],[28.4146294,38.8458518],[28.4061339,38.8489465],[28.391317,38.8637385],[28.3927918,38.8686785],[28.404402,38.8725117],[28.4191609,38.8688759],[28.4311133,38.8709235],[28.4431211,38.8664359],[28.447684,38.8754108],[28.4455226,38.8797108],[28.4375975,38.8774673],[28.4251094,38.8855061],[28.4253623,38.896052],[28.4218433,38.9020668],[28.4230441,38.9134664],[28.4252055,38.9162693],[28.43217,38.9160825],[28.4283275,38.9213143],[28.418241,38.9215011],[28.41482,38.9236631],[28.4170402,38.9306558],[28.4237645,38.9336448],[28.415771,38.9468635],[28.4211228,38.9566188],[28.4349951,38.9581721],[28.4475601,38.9677054],[28.4553881,38.9867517],[28.4640146,38.9972067],[28.4713162,39.0005499],[28.4849081,38.9998196],[28.500914,39.0361673],[28.5082031,39.0477688],[28.5218299,39.0578043],[28.5237843,39.0671295],[28.5298171,39.0751804],[28.5257345,39.0798412],[28.5197306,39.0813326],[28.5179544,39.0870206],[28.5432658,39.0880434],[28.5503305,39.0862178],[28.5533523,39.0941945],[28.5607971,39.0958719],[28.5552736,39.1040723],[28.5430257,39.1074267],[28.5166086,39.1096629],[28.4986747,39.1159274],[28.4978765,39.1238238],[28.4938791,39.1289543],[28.4942355,39.1370039],[28.4500856,39.1398445],[28.436034,39.1388063],[28.4020417,39.1268413],[28.3801117,39.1274888],[28.362142,39.1256556],[28.3467713,39.1151218],[28.3443458,39.1055475],[28.3135768,39.085468],[28.2925296,39.0804939],[28.2666988,39.076387],[28.2240929,39.0768949],[28.1938834,39.0719739],[28.1541643,39.0824464]]]}},{"type":"Feature","properties":{"code":"45-07","provinceCode":"45","name":"Kırkağaç"},"geometry":{"type":"Polygon","coordinates":[[[27.8021751,39.307181],[27.7982463,39.297909],[27.806964,39.2737224],[27.7942163,39.2510732],[27.7910809,39.2403643],[27.7953038,39.2157796],[27.7800054,39.1926797],[27.7750903,39.1866013],[27.7399652,39.1699987],[27.7010117,39.1566836],[27.6850023,39.1551062],[27.6659859,39.1498371],[27.6498596,39.139071],[27.6378896,39.1124483],[27.6298033,39.1015211],[27.6125703,39.0880437],[27.6029119,39.0770194],[27.6016824,39.0668003],[27.603319,39.058541],[27.6216349,39.0466361],[27.6793822,39.0270121],[27.6930972,39.0258906],[27.7240552,39.0359447],[27.7792039,39.0585929],[27.814141,39.0655429],[27.8291553,39.0745097],[27.8560078,39.0816822],[27.8739095,39.0937843],[27.8874801,39.1054361],[27.9140438,39.1636665],[27.9267482,39.1844834],[27.9536007,39.220954],[27.9579656,39.2334794],[27.9557435,39.2447828],[27.9438333,39.2529201],[27.9345142,39.2676208],[27.935043,39.2825153],[27.9418689,39.2946893],[27.941961,39.3029064],[27.9326315,39.3171505],[27.9343616,39.3365884],[27.9171026,39.359579],[27.909008,39.364209],[27.9049107,39.3621917],[27.9040494,39.3569594],[27.8988816,39.353249],[27.8958056,39.3463033],[27.8852241,39.3433536],[27.8843068,39.3391493],[27.8711974,39.3377392],[27.8586548,39.3287203],[27.8441651,39.3328838],[27.8262338,39.3235473],[27.8021751,39.307181]]]}},{"type":"Feature","properties":{"code":"45-08","provinceCode":"45","name":"Köprübaşı"},"geometry":{"type":"Polygon","coordinates":[[[28.5989696,38.7396714],[28.5983853,38.7448591],[28.5912844,38.7555682],[28.5582992,38.7832242],[28.5412215,38.8009697],[28.5016026,38.8324624],[28.459588,38.8269358],[28.4472378,38.8205032],[28.4428112,38.822994],[28.4396143,38.8277836],[28.4407252,38.8324538],[28.4167454,38.8414776],[28.3956347,38.841606],[28.3824288,38.8368439],[28.3655547,38.8244609],[28.3489251,38.8177923],[28.3266611,38.8148122],[28.2819932,38.8133371],[28.2642494,38.8081619],[28.2695293,38.7966707],[28.268413,38.7914336],[28.2533462,38.7951904],[28.2467195,38.7825356],[28.2350982,38.7693873],[28.1741814,38.7489417],[28.185122,38.7411503],[28.2377613,38.7211125],[28.2527445,38.7242815],[28.289286,38.713044],[28.3003243,38.6995695],[28.3048871,38.6877385],[28.3154546,38.6818561],[28.3282164,38.6618126],[28.3380786,38.6548266],[28.3652093,38.6449486],[28.3918044,38.6697747],[28.3978621,38.6931775],[28.4101458,38.7000795],[28.4232412,38.6920405],[28.4308799,38.6916639],[28.4482638,38.6848962],[28.4548123,38.6865124],[28.4543169,38.6918259],[28.4613814,38.6932489],[28.467999,38.6920221],[28.4684757,38.6969978],[28.4723044,38.6964105],[28.4742227,38.6940399],[28.479629,38.6956825],[28.4824295,38.6983764],[28.4851597,38.6962046],[28.4918164,38.6935895],[28.4944828,38.6963351],[28.4981485,38.6964289],[28.4990942,38.698534],[28.5037815,38.6988884],[28.5060053,38.7018728],[28.5075878,38.7007649],[28.5108931,38.7020647],[28.5109852,38.699625],[28.5163875,38.7016273],[28.5170995,38.7039129],[28.5214611,38.703572],[28.5250509,38.7059185],[28.5281397,38.7023733],[28.53687,38.7023101],[28.539289,38.7052729],[28.5374053,38.7070551],[28.5377936,38.7095996],[28.5402647,38.7095421],[28.5424359,38.7128973],[28.5475393,38.7145788],[28.5473731,38.7163795],[28.5441764,38.7170328],[28.5460599,38.7183332],[28.549571,38.7175974],[28.5487322,38.7196118],[28.5525809,38.7228951],[28.5605553,38.7225797],[28.5607084,38.728877],[28.5678451,38.7273138],[28.5692482,38.7304305],[28.5721906,38.7315029],[28.572184,38.7342072],[28.5816212,38.7330945],[28.5989696,38.7396714]]]}},{"type":"Feature","properties":{"code":"45-09","provinceCode":"45","name":"Kula"},"geometry":{"type":"Polygon","coordinates":[[[28.4851597,38.6962046],[28.4443664,38.6561648],[28.4425331,38.6468946],[28.4466207,38.6181569],[28.4536143,38.5998344],[28.4385068,38.5875611],[28.4329913,38.5861365],[28.4298259,38.5822001],[28.4277636,38.5820876],[28.4265166,38.580138],[28.4276197,38.5768011],[28.4254136,38.5748514],[28.4199347,38.5742262],[28.4453539,38.541385],[28.4642483,38.5300761],[28.4711461,38.5184838],[28.4747227,38.5070895],[28.4711461,38.4758958],[28.4790658,38.4692955],[28.4946497,38.4666951],[28.5048686,38.4666951],[28.5286276,38.4762958],[28.5406349,38.4748958],[28.5551969,38.4692955],[28.5710362,38.456693],[28.602204,38.4498908],[28.6193207,38.4498908],[28.6274958,38.4472898],[28.6372038,38.441087],[28.6425688,38.4334829],[28.6428243,38.427479],[28.6392476,38.4194731],[28.6435907,38.4126674],[28.6504885,38.4082633],[28.6619848,38.4076627],[28.6770577,38.4174715],[28.6865102,38.4198734],[28.6939189,38.4190728],[28.7008167,38.4130677],[28.7102692,38.3940484],[28.7174225,38.3864393],[28.7296852,38.3840363],[28.7580428,38.3856383],[28.7672683,38.3815709],[28.788424,38.4072841],[28.7996101,38.4164911],[28.8110315,38.4289767],[28.8218142,38.4448851],[28.8263713,38.4585015],[28.8259796,38.4694922],[28.808749,38.5019436],[28.8101776,38.5228575],[28.8047872,38.5331882],[28.803664,38.5391572],[28.8087985,38.5436114],[28.8081186,38.5452598],[28.8118579,38.5520658],[28.8111781,38.5545647],[28.8136256,38.5556813],[28.8156542,38.5655406],[28.8220915,38.5708305],[28.8230479,38.574617],[28.8269912,38.5767431],[28.8250365,38.578909],[28.8268161,38.5792389],[28.8247476,38.5837056],[28.8258577,38.585818],[28.822334,38.5912519],[28.8230989,38.5961141],[28.826563,38.598319],[28.8252264,38.6004686],[28.8234033,38.6004964],[28.8282659,38.6072985],[28.8268382,38.608733],[28.8290138,38.6104198],[28.8276679,38.6134726],[28.836504,38.6366625],[28.837814,38.6487737],[28.8571051,38.6850836],[28.8201539,38.6835648],[28.8142115,38.6868212],[28.8065819,38.6966508],[28.7985983,38.7007008],[28.7748904,38.7038758],[28.7620145,38.7089795],[28.746073,38.7099364],[28.7405548,38.6951031],[28.7319709,38.685372],[28.7182775,38.6788308],[28.7064235,38.6773948],[28.6768826,38.679728],[28.6684091,38.6826599],[28.6610514,38.6882436],[28.6397961,38.7129664],[28.6117642,38.7358384],[28.6037263,38.7363427],[28.5989696,38.7396714],[28.5816212,38.7330945],[28.572184,38.7342072],[28.5721906,38.7315029],[28.5692482,38.7304305],[28.5678451,38.7273138],[28.5607084,38.728877],[28.5605553,38.7225797],[28.5525809,38.7228951],[28.5487322,38.7196118],[28.549571,38.7175974],[28.5460599,38.7183332],[28.5441764,38.7170328],[28.5473731,38.7163795],[28.5475393,38.7145788],[28.5424359,38.7128973],[28.5402647,38.7095421],[28.5377936,38.7095996],[28.5374053,38.7070551],[28.539289,38.7052729],[28.53687,38.7023101],[28.5281397,38.7023733],[28.5250509,38.7059185],[28.5214611,38.703572],[28.5170995,38.7039129],[28.5163875,38.7016273],[28.5109852,38.699625],[28.5108931,38.7020647],[28.5075878,38.7007649],[28.5060053,38.7018728],[28.5037815,38.6988884],[28.4990942,38.698534],[28.4981485,38.6964289],[28.4944828,38.6963351],[28.4918164,38.6935895],[28.4851597,38.6962046]]]}},{"type":"Feature","properties":{"code":"45-10","provinceCode":"45","name":"Salihli"},"geometry":{"type":"Polygon","coordinates":[[[28.4851597,38.6962046],[28.4824295,38.6983764],[28.479629,38.6956825],[28.4742227,38.6940399],[28.4723044,38.6964105],[28.4684757,38.6969978],[28.467999,38.6920221],[28.4613814,38.6932489],[28.4543169,38.6918259],[28.4548123,38.6865124],[28.4482638,38.6848962],[28.4308799,38.6916639],[28.4232412,38.6920405],[28.4101458,38.7000795],[28.3978621,38.6931775],[28.3918044,38.6697747],[28.3652093,38.6449486],[28.3380786,38.6548266],[28.3282164,38.6618126],[28.3154546,38.6818561],[28.3048871,38.6877385],[28.3003243,38.6995695],[28.289286,38.713044],[28.2527445,38.7242815],[28.2377613,38.7211125],[28.185122,38.7411503],[28.1741814,38.7489417],[28.1545981,38.7496867],[28.1431347,38.7478241],[28.132149,38.7485692],[28.1154315,38.7459615],[28.0743809,38.7451223],[28.0697598,38.7382545],[28.06189,38.7110121],[28.0582722,38.6697135],[28.06189,38.6352798],[28.0395048,38.6215016],[27.9940961,38.6095671],[27.9844228,38.599717],[27.975922,38.5954405],[27.9716228,38.5952878],[27.9685937,38.5904764],[27.9642961,38.5893013],[27.9639834,38.5851953],[27.9682358,38.5787914],[27.9670476,38.5738537],[27.9616696,38.5690624],[27.9636082,38.5621681],[27.9661721,38.5607011],[27.9672978,38.556912],[27.9667214,38.554959],[27.9560307,38.5553346],[27.9551986,38.5404135],[27.9488475,38.5361144],[27.9489696,38.533917],[27.9549544,38.5350634],[27.9551986,38.5289486],[27.9530374,38.5246543],[27.9575744,38.5157614],[27.9693183,38.5112806],[27.9846414,38.50851],[27.9815603,38.5045733],[27.985151,38.4946047],[27.9840704,38.4901493],[27.9773549,38.4842199],[27.9586922,38.480931],[27.953025,38.4819253],[27.9420814,38.4810075],[27.9364142,38.4784068],[27.927718,38.4610411],[27.9278157,38.4558382],[27.9308447,38.4544609],[27.9316264,38.4517827],[27.9305516,38.4481862],[27.9356325,38.44612],[27.9228325,38.4417579],[27.9210737,38.4250723],[27.9098941,38.4200946],[27.91009,38.4185728],[27.9154263,38.4165053],[27.9211006,38.4184153],[27.9256497,38.4081066],[27.9235773,38.4035467],[27.9266063,38.4011751],[27.9321409,38.3993555],[27.9355243,38.3998529],[27.9408704,38.396366],[27.9440826,38.396507],[27.9559232,38.3814428],[27.9600794,38.3785963],[27.9684512,38.3785751],[27.9706096,38.3769484],[27.9731159,38.3787033],[27.9868988,38.3813649],[27.9939794,38.3782349],[28.0000534,38.3773683],[28.006152,38.384836],[28.0175771,38.3887118],[28.0212362,38.3921181],[28.0241013,38.3880531],[28.0277899,38.3892364],[28.0323712,38.3855733],[28.037461,38.3910461],[28.0470368,38.3925161],[28.0480025,38.3996221],[28.050631,38.4007367],[28.0695531,38.4043135],[28.0739558,38.4009424],[28.0816481,38.3993582],[28.0830177,38.406907],[28.1034007,38.3942872],[28.1154493,38.3811535],[28.1170485,38.3748817],[28.1335363,38.3701532],[28.143408,38.3616259],[28.1573305,38.3586172],[28.1684267,38.3677924],[28.1816306,38.3652766],[28.1824882,38.3668172],[28.1890301,38.3688366],[28.1903327,38.3651886],[28.1891641,38.3585268],[28.1932999,38.3476997],[28.2049275,38.3462103],[28.2118656,38.3402993],[28.2114697,38.3347023],[28.2080665,38.3302088],[28.2085924,38.3254365],[28.205949,38.3211139],[28.2108103,38.313258],[28.2151183,38.3176228],[28.2272583,38.3244084],[28.2299838,38.3290276],[28.2337785,38.3297624],[28.2372342,38.3283555],[28.2470663,38.3194326],[28.2596839,38.3142925],[28.270066,38.3154914],[28.271478,38.3183958],[28.2737435,38.3181925],[28.2714312,38.3157149],[28.2770564,38.313032],[28.2923868,38.3117915],[28.2798382,38.3895719],[28.2863691,38.4130282],[28.3038846,38.4347551],[28.3160375,38.4435044],[28.317284,38.4474371],[28.3334419,38.4587613],[28.3516872,38.4636188],[28.3684017,38.4650782],[28.3705291,38.4667857],[28.3724868,38.4713329],[28.3863532,38.4841878],[28.4056932,38.4970405],[28.4177351,38.5121752],[28.4239384,38.5247374],[28.4378049,38.5315886],[28.4453539,38.541385],[28.4199347,38.5742262],[28.4254136,38.5748514],[28.4276197,38.5768011],[28.4265166,38.580138],[28.4277636,38.5820876],[28.4298259,38.5822001],[28.4329913,38.5861365],[28.4385068,38.5875611],[28.4536143,38.5998344],[28.4466207,38.6181569],[28.4425331,38.6468946],[28.4443664,38.6561648],[28.4851597,38.6962046]]]}},{"type":"Feature","properties":{"code":"45-11","provinceCode":"45","name":"Sarıgöl"},"geometry":{"type":"Polygon","coordinates":[[[28.5281857,38.1040957],[28.535728,38.1040998],[28.5414529,38.1021216],[28.5632893,38.1060774],[28.5793538,38.0994795],[28.5840122,38.0998817],[28.5908179,38.0978837],[28.593528,38.0954143],[28.5964857,38.0858065],[28.6009797,38.0853005],[28.6095752,38.0932985],[28.6199263,38.0911887],[28.6351832,38.0919325],[28.6389585,38.0905563],[28.6409141,38.0921617],[28.6522777,38.0918164],[28.6576355,38.0953598],[28.6798664,38.094399],[28.6859432,38.1002333],[28.6780659,38.1040122],[28.6782865,38.1078842],[28.7025937,38.1075017],[28.7094854,38.1145796],[28.7189051,38.1176765],[28.73011,38.1308589],[28.7320897,38.1369955],[28.7322468,38.1502632],[28.7291341,38.153221],[28.731626,38.1656791],[28.7305996,38.1743323],[28.7399842,38.1771983],[28.7852675,38.1826358],[28.8069025,38.1722268],[28.808591,38.1812902],[28.812114,38.1867542],[28.8119696,38.1948168],[28.8302084,38.203836],[28.8288354,38.2125588],[28.8350874,38.2143865],[28.8460814,38.2134392],[28.8486891,38.2207535],[28.8695194,38.2325753],[28.8611634,38.2562983],[28.844554,38.2795442],[28.834444,38.3090161],[28.8207232,38.3199705],[28.797302,38.3289421],[28.787521,38.3377739],[28.7561854,38.3325992],[28.7361896,38.3334586],[28.7216722,38.33883],[28.70962,38.3392597],[28.6844199,38.3343181],[28.6644241,38.327872],[28.6523719,38.3151931],[28.6525207,38.3099686],[28.6562824,38.3041982],[28.656179,38.2995053],[28.6449626,38.2840716],[28.6405564,38.2734004],[28.6124744,38.2578485],[28.604234,38.2399549],[28.5984952,38.2194619],[28.6134076,38.2045881],[28.615325,38.1959779],[28.5914945,38.1716484],[28.5728683,38.1559268],[28.558077,38.1367548],[28.5534204,38.1272746],[28.5281857,38.1040957]]]}},{"type":"Feature","properties":{"code":"45-12","provinceCode":"45","name":"Saruhanlı"},"geometry":{"type":"Polygon","coordinates":[[[27.4410925,38.9269555],[27.4311236,38.9008429],[27.433491,38.8811879],[27.4547978,38.8378663],[27.4851796,38.7951334],[27.5056972,38.7720654],[27.5187179,38.7480667],[27.5202962,38.7268304],[27.5226636,38.7175953],[27.5672499,38.6695533],[27.5928969,38.6482937],[27.6324006,38.6273857],[27.6376633,38.6121769],[27.6400137,38.5910112],[27.6587058,38.6031194],[27.6858094,38.6132801],[27.713137,38.6196357],[27.8018675,38.6091507],[27.8199036,38.5993697],[27.8342866,38.6100231],[27.8357874,38.6145186],[27.8409778,38.6185252],[27.8476065,38.6201375],[27.851296,38.6188184],[27.8606762,38.6222873],[27.8637404,38.6207727],[27.8718699,38.6104141],[27.874684,38.6098277],[27.8826884,38.6021065],[27.8841567,38.6064544],[27.8810634,38.6201832],[27.8806818,38.6427605],[27.8749264,38.6501643],[27.8505501,38.6668199],[27.8424247,38.6813573],[27.8160171,38.6879643],[27.7896095,38.6985341],[27.7784371,38.7056679],[27.7858632,38.7205435],[27.8077123,38.7355876],[27.8660438,38.7582617],[27.8031718,38.7743617],[27.7784613,38.7889547],[27.7552485,38.8078239],[27.7540005,38.8377709],[27.7400229,38.8533228],[27.715562,38.8645958],[27.6708835,38.8747011],[27.5932577,38.8982098],[27.5439227,38.9056902],[27.5274338,38.9408958],[27.5019039,38.9661665],[27.4679191,38.9841428],[27.4660992,38.9805793],[27.4646278,38.9646924],[27.4708798,38.9581338],[27.4685883,38.9544865],[27.4720358,38.9497267],[27.4597872,38.9378436],[27.4548363,38.9302075],[27.4424529,38.9314387],[27.4410925,38.9269555]]]}},{"type":"Feature","properties":{"code":"45-13","provinceCode":"45","name":"Selendi"},"geometry":{"type":"Polygon","coordinates":[[[28.8571051,38.6850836],[28.8642745,38.6937548],[28.8717548,38.6987632],[28.9367479,38.7047746],[28.9969267,38.7211156],[29.0294232,38.7370773],[29.042872,38.7480631],[29.1356264,38.8654145],[29.1012857,38.8697327],[29.05836,38.8645079],[29.0228532,38.8624924],[29.0153745,38.856014],[29.0067884,38.8537141],[29.0045715,38.8586845],[28.9872206,38.8680493],[28.9811095,38.8902664],[28.9689769,38.9092383],[28.9523992,38.9147096],[28.9487974,38.9193765],[28.9477495,38.9241129],[28.9315675,38.9236694],[28.9264068,38.9214918],[28.9250558,38.9154463],[28.9171835,38.9122475],[28.9229565,38.9061899],[28.9227628,38.8870774],[28.9205271,38.8851364],[28.9175176,38.8849579],[28.9109827,38.8893306],[28.9097789,38.8943054],[28.9034446,38.8971385],[28.8874226,38.8986955],[28.8809794,38.9015149],[28.8753616,38.8996056],[28.8701098,38.9001335],[28.861041,38.9037059],[28.8602573,38.9008306],[28.8572903,38.8996543],[28.8506847,38.900787],[28.843855,38.8990008],[28.8415039,38.8975195],[28.8416158,38.8941647],[28.8390407,38.8935547],[28.8373053,38.8955589],[28.8331068,38.8952104],[28.8305317,38.893729],[28.8320432,38.8914633],[28.8293561,38.8916812],[28.8242619,38.8951668],[28.821127,38.8944261],[28.8168725,38.8970402],[28.8137376,38.8964303],[28.8090912,38.8898511],[28.8036611,38.8891975],[28.7949282,38.8992186],[28.792689,38.89948],[28.7934727,38.8953846],[28.7844599,38.8874546],[28.7867989,38.8742177],[28.7831375,38.8712991],[28.7842731,38.8677337],[28.7823474,38.8662784],[28.7798702,38.8666997],[28.775576,38.8608935],[28.7702408,38.8589951],[28.769905,38.8616977],[28.7663222,38.8626566],[28.7605562,38.8544614],[28.7585409,38.8542434],[28.7540625,38.8581232],[28.7453855,38.8519765],[28.7419707,38.8458728],[28.7349732,38.8413383],[28.7273039,38.8386349],[28.7275838,38.8353645],[28.718515,38.8378936],[28.7078787,38.8381553],[28.7038481,38.8363239],[28.7066541,38.822884],[28.7028929,38.817432],[28.7061293,38.8120479],[28.7060418,38.806118],[28.7022807,38.8035278],[28.7022807,38.8017555],[28.7039426,38.797529],[28.7117703,38.78946],[28.7067142,38.782006],[28.6950368,38.7779965],[28.6916917,38.7733322],[28.68617,38.7707507],[28.6742174,38.7725534],[28.668596,38.7641174],[28.6596064,38.7638058],[28.6506508,38.7616565],[28.6465275,38.7532428],[28.6333947,38.7542927],[28.6312268,38.7485376],[28.6268796,38.7445353],[28.6117642,38.7358384],[28.6397961,38.7129664],[28.6610514,38.6882436],[28.6684091,38.6826599],[28.6768826,38.679728],[28.7064235,38.6773948],[28.7182775,38.6788308],[28.7319709,38.685372],[28.7405548,38.6951031],[28.746073,38.7099364],[28.7620145,38.7089795],[28.7748904,38.7038758],[28.7985983,38.7007008],[28.8065819,38.6966508],[28.8142115,38.6868212],[28.8201539,38.6835648],[28.8571051,38.6850836]]]}},{"type":"Feature","properties":{"code":"45-14","provinceCode":"45","name":"Soma"},"geometry":{"type":"Polygon","coordinates":[[[27.4000021,39.3710163],[27.4019283,39.3705534],[27.4040115,39.3634683],[27.4001276,39.3583668],[27.4029171,39.3555131],[27.4062753,39.3551895],[27.4042261,39.3534391],[27.406522,39.3505022],[27.4050736,39.3491416],[27.4090969,39.3389858],[27.4075949,39.3370192],[27.4096119,39.3366292],[27.4078953,39.3287954],[27.4129851,39.3282866],[27.4227601,39.3206329],[27.4265152,39.321438],[27.4287468,39.3194792],[27.4339771,39.31989],[27.4389714,39.3183711],[27.4404788,39.3169227],[27.4395561,39.3113571],[27.4417019,39.3099625],[27.4433219,39.3110499],[27.4432258,39.309899],[27.4528813,39.3097633],[27.4585783,39.3060442],[27.4635136,39.3068827],[27.4681592,39.2974763],[27.4666679,39.2938563],[27.4619472,39.2908837],[27.46508,39.2851623],[27.4679017,39.2840994],[27.4664318,39.282588],[27.4707019,39.2747648],[27.476871,39.2732199],[27.480433,39.2680786],[27.4762809,39.2582101],[27.4781155,39.2550367],[27.476002,39.2450417],[27.4731803,39.2425656],[27.4756479,39.2367739],[27.4709058,39.2335163],[27.4718069,39.2281145],[27.4696273,39.2239688],[27.4770947,39.209103],[27.4795747,39.1998766],[27.4749827,39.1991698],[27.4726009,39.1963845],[27.4694359,39.1960103],[27.4636853,39.1921272],[27.4656056,39.1910962],[27.4632025,39.1871047],[27.4485254,39.1855579],[27.4498485,39.1771728],[27.4537611,39.1765678],[27.4550915,39.1728749],[27.4518567,39.1697517],[27.4454248,39.1692983],[27.4432254,39.1652973],[27.4381184,39.1666033],[27.4361682,39.1645962],[27.4398243,39.1647119],[27.4402427,39.1633092],[27.437818,39.1628434],[27.4392986,39.1577189],[27.4440515,39.1572197],[27.4501347,39.1514958],[27.4641681,39.1464704],[27.472459,39.1463113],[27.4736094,39.1432669],[27.4851107,39.1420187],[27.4869024,39.1390231],[27.4940521,39.1391647],[27.4972355,39.1349209],[27.5054364,39.1306077],[27.5060647,39.126482],[27.4950242,39.1162851],[27.4988007,39.1147951],[27.5031137,39.1090427],[27.5054097,39.1088971],[27.510066,39.1030901],[27.5130486,39.1019079],[27.5102055,39.1011835],[27.5112623,39.0957173],[27.5135851,39.0951053],[27.5147401,39.0971897],[27.5166857,39.0967706],[27.5181418,39.0939334],[27.5223183,39.0913665],[27.5246251,39.0833471],[27.5217186,39.0781209],[27.5226402,39.0737609],[27.5244641,39.0727114],[27.5223613,39.0677553],[27.5275325,39.0681052],[27.5279724,39.0666141],[27.5305152,39.0662142],[27.533884,39.0600497],[27.531631,39.0580586],[27.5344955,39.0555176],[27.5374245,39.0559675],[27.5392592,39.0453027],[27.5451815,39.0451277],[27.5415873,39.0443278],[27.5454068,39.0428195],[27.5443339,39.0407113],[27.5492585,39.039478],[27.5495481,39.0344196],[27.552917,39.0320694],[27.5532496,39.0287023],[27.5618756,39.0292524],[27.5638175,39.0261936],[27.561178,39.021351],[27.5596011,39.0210342],[27.5577342,39.0230513],[27.5582707,39.0206758],[27.5557386,39.0194172],[27.5570583,39.0169081],[27.5700186,39.0145157],[27.5812613,39.031195],[27.5880184,39.0476711],[27.603319,39.058541],[27.6016824,39.0668003],[27.6029119,39.0770194],[27.6125703,39.0880437],[27.6298033,39.1015211],[27.6378896,39.1124483],[27.6498596,39.139071],[27.6659859,39.1498371],[27.6850023,39.1551062],[27.7010117,39.1566836],[27.7399652,39.1699987],[27.7750903,39.1866013],[27.7800054,39.1926797],[27.7953038,39.2157796],[27.7910809,39.2403643],[27.7942163,39.2510732],[27.806964,39.2737224],[27.7982463,39.297909],[27.8021751,39.307181],[27.7692402,39.3208671],[27.7473248,39.3622203],[27.7357881,39.3647848],[27.721029,39.3619086],[27.6872408,39.3460452],[27.6848119,39.3394557],[27.6604931,39.3335479],[27.649019,39.3290389],[27.603003,39.3408366],[27.5893043,39.3484668],[27.5655593,39.3457591],[27.5524391,39.3532027],[27.5307403,39.3748501],[27.5086691,39.3912458],[27.4850437,39.4037252],[27.4714405,39.407116],[27.4405057,39.4027963],[27.4261639,39.3970001],[27.4164074,39.3896174],[27.4000021,39.3710163]]]}},{"type":"Feature","properties":{"code":"45-15","provinceCode":"45","name":"Şehzadeler"},"geometry":{"type":"Polygon","coordinates":[[[27.4547978,38.8378663],[27.4187482,38.8206119],[27.414136,38.8095498],[27.4427279,38.780822],[27.4308683,38.767592],[27.4182374,38.7633067],[27.4090603,38.7548623],[27.4008164,38.7536781],[27.3916084,38.7553887],[27.3791568,38.7332174],[27.4113275,38.7127748],[27.3918092,38.6844689],[27.3915103,38.6700754],[27.4359941,38.642333],[27.4349427,38.6380508],[27.4304259,38.6391318],[27.4291706,38.6373384],[27.4283555,38.6296827],[27.4257365,38.6302003],[27.4245141,38.6212931],[27.4188558,38.6219227],[27.4188,38.6209771],[27.4219033,38.6131869],[27.4326,38.5553],[27.4363,38.5495],[27.4511,38.549],[27.4517,38.5427],[27.4811,38.5216],[27.5138,38.4817],[27.5297,38.4788],[27.5377,38.473],[27.5368,38.4699],[27.5405037,38.4680553],[27.5478,38.4536],[27.5498,38.4542],[27.55106,38.45764],[27.55702,38.45756],[27.55911,38.45923],[27.5650352,38.459537],[27.5675726,38.4576929],[27.5721109,38.4579114],[27.575072,38.4609778],[27.5742932,38.4630932],[27.5779769,38.4650415],[27.5786126,38.4685635],[27.5936192,38.4714404],[27.595673,38.4760123],[27.6015937,38.4795543],[27.6025848,38.4822336],[27.6080129,38.4831768],[27.6052771,38.4880083],[27.6097105,38.4887004],[27.6128911,38.4918598],[27.616485,38.5052182],[27.6188598,38.5151656],[27.6171833,38.5357763],[27.6165283,38.5395333],[27.6095556,38.547408],[27.6097714,38.5537082],[27.6296315,38.5810569],[27.6400137,38.5910112],[27.6376633,38.6121769],[27.6324006,38.6273857],[27.5928969,38.6482937],[27.5672499,38.6695533],[27.5226636,38.7175953],[27.5202962,38.7268304],[27.5187179,38.7480667],[27.5056972,38.7720654],[27.4851796,38.7951334],[27.4547978,38.8378663]]]}},{"type":"Feature","properties":{"code":"45-16","provinceCode":"45","name":"Turgutlu"},"geometry":{"type":"Polygon","coordinates":[[[27.6400137,38.5910112],[27.6296315,38.5810569],[27.6097714,38.5537082],[27.6095556,38.547408],[27.6165283,38.5395333],[27.6171833,38.5357763],[27.6188598,38.5151656],[27.616485,38.5052182],[27.6396167,38.492945],[27.6343757,38.4880198],[27.6417987,38.4844187],[27.6538601,38.4718446],[27.6623421,38.4710581],[27.6773232,38.4575879],[27.6851553,38.4533619],[27.6893341,38.4538828],[27.6935988,38.4492658],[27.700128,38.4500841],[27.6988493,38.4455631],[27.700473,38.4348158],[27.708036,38.42731],[27.7107861,38.4203931],[27.7062832,38.4122211],[27.7065557,38.4075418],[27.7148609,38.3934764],[27.7171044,38.38605],[27.7158675,38.3796102],[27.7091809,38.3654152],[27.7124126,38.3639427],[27.7237036,38.3653633],[27.7357108,38.3627263],[27.7396042,38.3585902],[27.7399242,38.3454192],[27.7501137,38.3356416],[27.7488518,38.3306442],[27.7550348,38.3286978],[27.7613216,38.3367015],[27.7747223,38.3376268],[27.7880031,38.3414115],[27.7908799,38.3415709],[27.7962213,38.3387937],[27.7945603,38.3374464],[27.7972931,38.3344401],[27.7957714,38.331968],[27.7977568,38.3317185],[27.7994328,38.3281032],[27.8039443,38.3297456],[27.8131563,38.3108904],[27.8178696,38.3066878],[27.8247642,38.3075763],[27.8276288,38.3053031],[27.8292811,38.3088138],[27.8324407,38.309361],[27.8343772,38.3138652],[27.8367805,38.3096052],[27.8588808,38.3080215],[27.8610463,38.312725],[27.8611028,38.3218869],[27.868135,38.3268666],[27.8682869,38.3300832],[27.8766596,38.336666],[27.8821387,38.3370052],[27.8883902,38.3396872],[27.8875612,38.3501201],[27.8819988,38.3506745],[27.8780778,38.3543269],[27.8777885,38.3566887],[27.8737414,38.3573146],[27.8727865,38.362152],[27.8683877,38.3628166],[27.8720784,38.3654833],[27.8698045,38.3699409],[27.871558,38.373527],[27.8664761,38.3789871],[27.8664565,38.3816328],[27.8697378,38.3820734],[27.8727221,38.3845595],[27.8772826,38.3837333],[27.8908324,38.4009233],[27.9002416,38.4070525],[27.9020333,38.4105835],[27.9141022,38.4148067],[27.9087639,38.4179157],[27.91009,38.4185728],[27.9098941,38.4200946],[27.901043,38.4221634],[27.8908812,38.4277514],[27.8641085,38.4339513],[27.8604932,38.4368598],[27.8550215,38.438467],[27.8516993,38.4452017],[27.8549237,38.4623417],[27.8527741,38.46479],[27.8529695,38.4684622],[27.8459344,38.4751176],[27.8445664,38.4821548],[27.8519924,38.4887325],[27.8491588,38.4940095],[27.8483772,38.5031859],[27.8513085,38.507162],[27.848084,38.5100675],[27.8560963,38.5128199],[27.8575619,38.5169484],[27.8608841,38.5196241],[27.8650856,38.520465],[27.8656719,38.5330013],[27.8610795,38.5388865],[27.8543375,38.5427842],[27.8538489,38.5486685],[27.8563317,38.5532221],[27.8490077,38.5591686],[27.8444852,38.5610776],[27.834089,38.5598034],[27.8344116,38.5613857],[27.8324105,38.562217],[27.8257819,38.5605544],[27.825094,38.5668621],[27.826845,38.5721915],[27.8253441,38.5749293],[27.8204039,38.5773737],[27.818778,38.585733],[27.8184653,38.5964373],[27.8199036,38.5993697],[27.8018675,38.6091507],[27.713137,38.6196357],[27.6858094,38.6132801],[27.6587058,38.6031194],[27.6400137,38.5910112]]]}},{"type":"Feature","properties":{"code":"45-17","provinceCode":"45","name":"Yunusemre"},"geometry":{"type":"Polygon","coordinates":[[[27.4410925,38.9269555],[27.4148369,38.922725],[27.4087787,38.9240459],[27.402247,38.9229339],[27.3933446,38.9318445],[27.3913481,38.9378235],[27.393894,38.9428385],[27.3757195,38.9501979],[27.3677241,38.9481442],[27.3624515,38.9484181],[27.362051,38.9502063],[27.3596692,38.9508738],[27.3462587,38.9512557],[27.3452677,38.9491733],[27.3462689,38.9446658],[27.3383551,38.9416904],[27.3368597,38.9383405],[27.3337805,38.9171448],[27.3294478,38.9174648],[27.3249668,38.91434],[27.3210918,38.9147771],[27.3177489,38.9108001],[27.319039,38.9143776],[27.313739,38.9217568],[27.3156924,38.9241423],[27.3139,38.9265812],[27.3012936,38.9280919],[27.291007,38.9246455],[27.2899586,38.9221366],[27.2869277,38.9206048],[27.2783911,38.9227517],[27.2760701,38.9209721],[27.2734308,38.9221073],[27.2739189,38.9201108],[27.2710705,38.9191733],[27.2722748,38.9162454],[27.2662639,38.905762],[27.2682702,38.9043928],[27.2664142,38.9035244],[27.263968,38.9034409],[27.2627878,38.9058413],[27.2584104,38.9043426],[27.2544086,38.9074401],[27.2526203,38.904088],[27.2486794,38.906672],[27.2444414,38.9049271],[27.2354898,38.9066609],[27.2304303,38.9031854],[27.2340113,38.8953192],[27.2307858,38.8857982],[27.2322857,38.8829245],[27.2286486,38.8769856],[27.2318887,38.8710719],[27.2352576,38.8686327],[27.2253924,38.8620709],[27.2278547,38.8540965],[27.224459,38.8518322],[27.2206503,38.8516233],[27.2180056,38.8530688],[27.2155507,38.8581965],[27.2055795,38.8675572],[27.1963779,38.8694798],[27.1912908,38.878656],[27.1885643,38.8803106],[27.1817929,38.8787388],[27.1793148,38.8754358],[27.1740979,38.8767642],[27.1686691,38.8743712],[27.1630847,38.8685492],[27.1645501,38.8605079],[27.1586162,38.8548902],[27.1610982,38.8505145],[27.1718931,38.8455571],[27.1727836,38.8409193],[27.1765441,38.8381115],[27.1783657,38.8292107],[27.1845645,38.8211782],[27.1757435,38.8169653],[27.1721276,38.8181036],[27.1658714,38.8170983],[27.1651541,38.8120309],[27.1632203,38.8107828],[27.1567131,38.8103216],[27.1480881,38.8058943],[27.1447736,38.808687],[27.1325631,38.8111206],[27.1251064,38.8061595],[27.1247479,38.8014288],[27.1127128,38.8002195],[27.1128598,38.7954467],[27.1207523,38.7890871],[27.1211119,38.7856785],[27.1365242,38.772352],[27.1394974,38.7677415],[27.1402216,38.7592538],[27.1420836,38.7579359],[27.1424642,38.7543615],[27.145508,38.7523794],[27.1437621,38.7500588],[27.1461332,38.7486781],[27.147431,38.7449944],[27.1523505,38.7422559],[27.1531606,38.7401764],[27.1578813,38.7389755],[27.1617436,38.7348455],[27.1674785,38.7335242],[27.1727268,38.7271503],[27.1811306,38.7226005],[27.187643,38.7200349],[27.1927446,38.7235255],[27.2043187,38.7249054],[27.205866,38.7230065],[27.2042239,38.7192575],[27.2106814,38.7194402],[27.214125,38.7161593],[27.2185205,38.7185048],[27.2172013,38.7148606],[27.2207006,38.715152],[27.2235417,38.7117683],[27.2230344,38.690348],[27.2158116,38.6918492],[27.2091973,38.6887968],[27.2091758,38.690166],[27.2021431,38.691284],[27.2047794,38.6852663],[27.2026315,38.6819322],[27.210592,38.6779385],[27.2125586,38.6746643],[27.2287568,38.669992],[27.2319788,38.6556552],[27.2382949,38.6491476],[27.2399461,38.6495854],[27.2277551,38.6408477],[27.2343011,38.6313811],[27.2350887,38.6259929],[27.2325115,38.6253009],[27.231919,38.6205888],[27.2352266,38.6170607],[27.238035,38.6096126],[27.2348067,38.6093927],[27.2359653,38.6037297],[27.2344049,38.5932753],[27.2366734,38.5835164],[27.2429936,38.5757036],[27.249831,38.5730018],[27.2608431,38.5672958],[27.275578,38.5535623],[27.2831229,38.5564147],[27.2860689,38.5515077],[27.2903037,38.5580714],[27.2922495,38.5502844],[27.2995364,38.5475394],[27.3026266,38.5477781],[27.3018622,38.5451279],[27.3053654,38.5429294],[27.3339536,38.5424949],[27.3470548,38.5348878],[27.3521268,38.5338492],[27.3540473,38.5349318],[27.3733,38.5401],[27.3846,38.5551],[27.3956,38.5596],[27.4091,38.5603],[27.4326,38.5553],[27.4219033,38.6131869],[27.4188,38.6209771],[27.4188558,38.6219227],[27.4245141,38.6212931],[27.4257365,38.6302003],[27.4283555,38.6296827],[27.4291706,38.6373384],[27.4304259,38.6391318],[27.4349427,38.6380508],[27.4359941,38.642333],[27.3915103,38.6700754],[27.3918092,38.6844689],[27.4113275,38.7127748],[27.3791568,38.7332174],[27.3916084,38.7553887],[27.4008164,38.7536781],[27.4090603,38.7548623],[27.4182374,38.7633067],[27.4308683,38.767592],[27.4427279,38.780822],[27.414136,38.8095498],[27.4187482,38.8206119],[27.4547978,38.8378663],[27.433491,38.8811879],[27.4311236,38.9008429],[27.4410925,38.9269555]]]}}]}