{"type":"FeatureCollection","features":[{"type":"Feature","properties":{"code":"43-01","provinceCode":"43","name":"Altıntaş"},"geometry":{"type":"Polygon","coordinates":[[[30.2729309,39.1169911],[30.2599091,39.1237448],[30.2589774,39.1510155],[30.2487348,39.1699879],[30.2254042,39.1832215],[30.2049189,39.1911604],[30.1525675,39.2004214],[30.1155801,39.1995395],[30.0928186,39.20439],[30.0655048,39.2013033],[30.0552173,39.1929802],[30.0184709,39.1856522],[29.991305,39.1705686],[29.9490725,39.1546939],[29.9235896,39.1324427],[29.9095887,39.0998084],[29.8731028,39.0827236],[29.8174046,39.0498899],[29.7963503,39.0277908],[29.7532052,39.0010373],[29.7498431,38.9910496],[29.754343,38.9824792],[29.7450875,38.9739672],[29.7418948,38.9629122],[29.75674,38.9409759],[29.7495236,38.9154051],[29.8406783,38.9538855],[29.867992,38.9595494],[29.8984924,38.9584875],[29.9326347,38.947513],[29.947202,38.9453887],[29.9563066,38.9506993],[29.969053,38.981139],[29.974971,38.9903392],[29.9972773,39.0005995],[30.014576,38.9988305],[30.0282329,38.98857],[30.0368822,38.9733534],[30.0459868,38.9237882],[30.0560019,38.9043067],[30.0687483,38.8968669],[30.0855918,38.8982841],[30.1083533,38.9266215],[30.1224654,38.9379532],[30.1752721,38.9322876],[30.2008081,38.9328243],[30.2125084,38.9533985],[30.2281671,38.9703985],[30.2388032,38.9740736],[30.2568255,38.9766001],[30.2606663,38.9798156],[30.2677221,39.002181],[30.2587046,39.0209825],[30.2576067,39.0364911],[30.2422698,39.0594396],[30.2450397,39.0684771],[30.2679698,39.089972],[30.2696716,39.098777],[30.2657008,39.1131563],[30.2694417,39.1137531],[30.2729309,39.1169911]]]}},{"type":"Feature","properties":{"code":"43-02","provinceCode":"43","name":"Aslanapa"},"geometry":{"type":"Polygon","coordinates":[[[29.7296057,39.3929313],[29.7021085,39.3823357],[29.7023992,39.3755934],[29.6992009,39.3657035],[29.7070513,39.3576108],[29.6986194,39.3540137],[29.6913506,39.346819],[29.6896061,39.3411976],[29.6951304,39.3358006],[29.7018177,39.3326522],[29.7032715,39.3243307],[29.6954211,39.3076848],[29.6933859,39.2887846],[29.6765221,39.255922],[29.6785574,39.2529952],[29.6922228,39.2516443],[29.7023992,39.2534455],[29.708505,39.2568226],[29.7117033,39.2660525],[29.7154831,39.2689789],[29.7256595,39.2683036],[29.7320561,39.2651521],[29.7432146,39.2546529],[29.7444122,39.2475063],[29.7407962,39.212632],[29.7468073,39.1908804],[29.7477568,39.1554384],[29.7436862,39.1477723],[29.742814,39.1344674],[29.7390342,39.1292801],[29.708505,39.1060452],[29.7012362,39.0992763],[29.6971657,39.0891217],[29.6887338,39.0859622],[29.6870709,39.0810043],[29.6788288,39.0724422],[29.6800272,39.0670454],[29.6728363,39.0596009],[29.68578,39.0499218],[29.6874579,39.0428478],[29.6785891,39.0344698],[29.6773906,39.0257184],[29.6812257,39.0206905],[29.6879373,39.0205042],[29.7012229,39.026426],[29.7154131,39.0201839],[29.7275673,39.0084333],[29.7286571,39.0016681],[29.7532052,39.0010373],[29.7963503,39.0277908],[29.8174046,39.0498899],[29.8731028,39.0827236],[29.9095887,39.0998084],[29.9235896,39.1324427],[29.9490725,39.1546939],[29.991305,39.1705686],[30.0184709,39.1856522],[30.0552173,39.1929802],[30.0307874,39.2153367],[29.9716604,39.2484517],[29.9324706,39.2530239],[29.900249,39.2668069],[29.8869741,39.2824118],[29.8654869,39.3123076],[29.8220744,39.3451769],[29.795991,39.3706803],[29.7591142,39.4029742],[29.7296057,39.3929313]]]}},{"type":"Feature","properties":{"code":"43-03","provinceCode":"43","name":"Çavdarhisar"},"geometry":{"type":"Polygon","coordinates":[[[29.4233474,39.1835203],[29.441163,39.1683242],[29.4634107,39.1421103],[29.4804803,39.1347892],[29.5219729,39.1227149],[29.5273858,39.1182671],[29.542884,39.1257813],[29.5930759,39.12116],[29.6076135,39.1155205],[29.6158126,39.1087135],[29.6268033,39.0947633],[29.6311646,39.0922811],[29.6576247,39.0889692],[29.6605307,39.0873163],[29.6601141,39.0803656],[29.6680903,39.0780629],[29.6870709,39.0810043],[29.6887338,39.0859622],[29.6971657,39.0891217],[29.7012362,39.0992763],[29.708505,39.1060452],[29.7390342,39.1292801],[29.742814,39.1344674],[29.7436862,39.1477723],[29.7477568,39.1554384],[29.7468073,39.1908804],[29.7407962,39.212632],[29.7444122,39.2475063],[29.7432146,39.2546529],[29.7320561,39.2651521],[29.7256595,39.2683036],[29.7154831,39.2689789],[29.7117033,39.2660525],[29.708505,39.2568226],[29.7023992,39.2534455],[29.6922228,39.2516443],[29.6785574,39.2529952],[29.6765221,39.255922],[29.6933859,39.2887846],[29.6954211,39.3076848],[29.7032715,39.3243307],[29.7018177,39.3326522],[29.6951304,39.3358006],[29.6896061,39.3411976],[29.6913506,39.346819],[29.6986194,39.3540137],[29.7070513,39.3576108],[29.6992009,39.3657035],[29.7023992,39.3755934],[29.7021085,39.3823357],[29.6832095,39.3740201],[29.6689625,39.3589596],[29.6587862,39.3560371],[29.6326183,39.3540137],[29.6151098,39.3499182],[29.6102315,39.346495],[29.6095439,39.3443238],[29.6046722,39.3432658],[29.6052614,39.3406224],[29.6142736,39.3399537],[29.6183196,39.3380973],[29.6237856,39.3388902],[29.6230746,39.3340509],[29.6252797,39.3319735],[29.6236125,39.3285939],[29.6283742,39.326643],[29.6325518,39.3276752],[29.6365992,39.3233202],[29.6308364,39.3220178],[29.6316571,39.3192851],[29.6262218,39.3155583],[29.6087765,39.3083597],[29.6041245,39.3040851],[29.604706,39.2975603],[29.6180807,39.2912599],[29.6201159,39.2892346],[29.6201159,39.2851839],[29.5776659,39.277532],[29.5738861,39.274381],[29.5695248,39.2561472],[29.5640005,39.2466908],[29.5509166,39.2379087],[29.5439385,39.2284498],[29.5337621,39.2250713],[29.5358206,39.2215305],[29.5328433,39.219368],[29.5283774,39.2192239],[29.5237253,39.2235487],[29.518515,39.2232604],[29.495999,39.2124478],[29.4885557,39.2120153],[29.4826011,39.2069689],[29.4658537,39.2107177],[29.4625042,39.20942],[29.4585965,39.204085],[29.4267764,39.188366],[29.4233474,39.1835203]]]}},{"type":"Feature","properties":{"code":"43-04","provinceCode":"43","name":"Domaniç"},"geometry":{"type":"Polygon","coordinates":[[[29.3761534,39.7903109],[29.3983148,39.7748059],[29.4112252,39.7534413],[29.4087368,39.7472237],[29.3970418,39.7437799],[29.389328,39.7432059],[29.3874618,39.7392835],[29.3898257,39.7300985],[29.4067551,39.7214208],[29.425982,39.7193323],[29.4346763,39.7092466],[29.4631781,39.7074923],[29.4780204,39.7123927],[29.4984005,39.699382],[29.5129805,39.6844231],[29.558347,39.6696983],[29.5917122,39.6718926],[29.6228161,39.6784387],[29.6406575,39.6909399],[29.6681553,39.7006923],[29.6923139,39.6976993],[29.7654894,39.725928],[29.7299372,39.7495017],[29.7303389,39.7728059],[29.7348056,39.7899921],[29.7442184,39.8012781],[29.7775979,39.82701],[29.780966,39.840873],[29.772043,39.8576429],[29.7604957,39.8678206],[29.6467573,39.865404],[29.6041292,39.8677085],[29.5780848,39.8714709],[29.5605848,39.8788571],[29.5262374,39.8770094],[29.5088778,39.8716419],[29.4716972,39.8384283],[29.4553492,39.8307965],[29.4238387,39.8269099],[29.4253899,39.8171407],[29.4111293,39.7996837],[29.4019949,39.7938285],[29.3761534,39.7903109]]]}},{"type":"Feature","properties":{"code":"43-05","provinceCode":"43","name":"Dumlupınar"},"geometry":{"type":"Polygon","coordinates":[[[30.0340791,38.8220466],[30.0637879,38.8155802],[30.0722313,38.8173787],[30.1035393,38.8333528],[30.1300488,38.8731855],[30.1424065,38.8861368],[30.1668667,38.9027522],[30.1838651,38.9094403],[30.1921225,38.9175474],[30.2008081,38.9328243],[30.1752721,38.9322876],[30.1224654,38.9379532],[30.1083533,38.9266215],[30.0855918,38.8982841],[30.0687483,38.8968669],[30.0560019,38.9043067],[30.0459868,38.9237882],[30.0368822,38.9733534],[30.0282329,38.98857],[30.014576,38.9988305],[29.9972773,39.0005995],[29.974971,38.9903392],[29.969053,38.981139],[29.9563066,38.9506993],[29.947202,38.9453887],[29.9326347,38.947513],[29.8984924,38.9584875],[29.867992,38.9595494],[29.8406783,38.9538855],[29.7495236,38.9154051],[29.7657018,38.918823],[29.8209779,38.9078462],[29.8790458,38.9160175],[29.9046793,38.9111268],[29.9183778,38.8984669],[29.9366182,38.841906],[29.9515917,38.8320446],[29.9929407,38.8294618],[30.0340791,38.8220466]]]}},{"type":"Feature","properties":{"code":"43-06","provinceCode":"43","name":"Emet"},"geometry":{"type":"Polygon","coordinates":[[[29.0887853,39.4557191],[29.0790015,39.4489705],[29.0823954,39.4407074],[29.0815137,39.4342385],[29.076444,39.427088],[29.0757828,39.4175528],[29.0693906,39.4071648],[29.0510958,39.4013741],[29.0411769,39.3906429],[29.0369889,39.3802509],[29.039634,39.3725837],[29.0391931,39.3555424],[29.0550633,39.3234934],[29.0552838,39.2987648],[29.0641005,39.2892121],[29.0632189,39.2811936],[29.0590309,39.2726623],[29.0533,39.2666898],[29.057488,39.2482571],[29.0533,39.2217944],[29.0550633,39.2142805],[29.0724336,39.2127833],[29.1298324,39.2435396],[29.1540002,39.2462134],[29.1721262,39.2612518],[29.2109674,39.272612],[29.2459245,39.2699392],[29.2601663,39.2565736],[29.2847658,39.2515608],[29.3313753,39.2826342],[29.348638,39.2876448],[29.3736691,39.2843044],[29.3935212,39.272612],[29.4073315,39.2565736],[29.4159629,39.2308375],[29.4116472,39.2121145],[29.410784,39.1994067],[29.4233474,39.1835203],[29.4267764,39.188366],[29.4585965,39.204085],[29.4625042,39.20942],[29.4658537,39.2107177],[29.4826011,39.2069689],[29.4885557,39.2120153],[29.495999,39.2124478],[29.518515,39.2232604],[29.5237253,39.2235487],[29.5283774,39.2192239],[29.5328433,39.219368],[29.5358206,39.2215305],[29.5337621,39.2250713],[29.5439385,39.2284498],[29.5509166,39.2379087],[29.5640005,39.2466908],[29.5695248,39.2561472],[29.5738861,39.274381],[29.5776659,39.277532],[29.6201159,39.2851839],[29.6201159,39.2892346],[29.6180807,39.2912599],[29.604706,39.2975603],[29.6041245,39.3040851],[29.6087765,39.3083597],[29.6262218,39.3155583],[29.6316571,39.3192851],[29.6308364,39.3220178],[29.6365992,39.3233202],[29.6325518,39.3276752],[29.6283742,39.326643],[29.6236125,39.3285939],[29.6252797,39.3319735],[29.6230746,39.3340509],[29.6237856,39.3388902],[29.6183196,39.3380973],[29.6142736,39.3399537],[29.6052614,39.3406224],[29.6046722,39.3432658],[29.6095439,39.3443238],[29.6102315,39.346495],[29.6151098,39.3499182],[29.5912843,39.3447303],[29.5577313,39.3463918],[29.4697179,39.3649794],[29.4457718,39.381779],[29.4346554,39.4053819],[29.4124353,39.4283917],[29.3906942,39.4457766],[29.3455203,39.4643162],[29.3189587,39.4817455],[29.309682,39.4890744],[29.3022504,39.5017293],[29.2861182,39.4955628],[29.2768006,39.4855097],[29.2581182,39.483105],[29.244777,39.4780992],[29.1950341,39.47156],[29.1801172,39.4604871],[29.1485623,39.4516275],[29.1166941,39.445112],[29.0887853,39.4557191]]]}},{"type":"Feature","properties":{"code":"43-07","provinceCode":"43","name":"Gediz Merkez"},"geometry":{"type":"Polygon","coordinates":[[[29.7495236,38.9154051],[29.75674,38.9409759],[29.7418948,38.9629122],[29.7450875,38.9739672],[29.754343,38.9824792],[29.7498431,38.9910496],[29.7532052,39.0010373],[29.7286571,39.0016681],[29.7275673,39.0084333],[29.7154131,39.0201839],[29.7012229,39.026426],[29.6879373,39.0205042],[29.6812257,39.0206905],[29.6773906,39.0257184],[29.6785891,39.0344698],[29.6874579,39.0428478],[29.68578,39.0499218],[29.6728363,39.0596009],[29.6800272,39.0670454],[29.6788288,39.0724422],[29.6870709,39.0810043],[29.6680903,39.0780629],[29.6601141,39.0803656],[29.6605307,39.0873163],[29.6576247,39.0889692],[29.6311646,39.0922811],[29.6268033,39.0947633],[29.6158126,39.1087135],[29.6076135,39.1155205],[29.5930759,39.12116],[29.542884,39.1257813],[29.5273858,39.1182671],[29.5219729,39.1227149],[29.4804803,39.1347892],[29.4634107,39.1421103],[29.441163,39.1683242],[29.4233474,39.1835203],[29.4163805,39.1822451],[29.4077472,39.1698605],[29.3793061,39.1601402],[29.3559583,39.1497465],[29.3332013,39.1469995],[29.2967673,39.14607],[29.2760735,39.1389747],[29.2646627,39.1403836],[29.2588552,39.1437463],[29.2183941,39.1273007],[29.2398792,39.1081375],[29.2391601,39.0995812],[29.2312501,39.091582],[29.274875,39.0796745],[29.3115487,39.0515724],[29.3146648,39.0398443],[29.3029196,39.0178723],[29.3007624,39.002227],[29.3045975,38.9899318],[29.3007624,38.9809885],[29.2318673,38.951992],[29.217553,38.9365404],[29.2324486,38.914624],[29.2064887,38.8816254],[29.1870068,38.8458442],[29.2169952,38.8123081],[29.247068,38.7928845],[29.2573613,38.7913898],[29.2733842,38.792106],[29.3087076,38.8052964],[29.3276438,38.8160793],[29.3378403,38.8299811],[29.3751825,38.8624823],[29.3970641,38.8714766],[29.4094549,38.8682682],[29.4445386,38.8526042],[29.4575844,38.8500175],[29.4778983,38.8507698],[29.4965352,38.8595839],[29.5058235,38.8679826],[29.5122306,38.8830173],[29.504625,38.893406],[29.5073216,38.8994689],[29.519617,38.9046768],[29.5567727,38.9016901],[29.6020498,38.91828],[29.6109014,38.9266729],[29.6399272,38.9354133],[29.7059538,38.9176928],[29.7495236,38.9154051]]]}},{"type":"Feature","properties":{"code":"43-08","provinceCode":"43","name":"Hisarcık"},"geometry":{"type":"Polygon","coordinates":[[[29.0550633,39.2142805],[29.0517571,39.1972006],[29.0537408,39.1900258],[29.0702723,39.1737944],[29.0898896,39.1741362],[29.1000289,39.1714021],[29.1125928,39.1707186],[29.1271405,39.1633702],[29.1663752,39.1690097],[29.1838547,39.1602425],[29.1950456,39.1608194],[29.2058366,39.1648975],[29.2167842,39.1563675],[29.2228025,39.138756],[29.2183941,39.1273007],[29.2588552,39.1437463],[29.2646627,39.1403836],[29.2760735,39.1389747],[29.2967673,39.14607],[29.3332013,39.1469995],[29.3559583,39.1497465],[29.3793061,39.1601402],[29.4077472,39.1698605],[29.4163805,39.1822451],[29.4233474,39.1835203],[29.410784,39.1994067],[29.4116472,39.2121145],[29.4159629,39.2308375],[29.4073315,39.2565736],[29.3935212,39.272612],[29.3736691,39.2843044],[29.348638,39.2876448],[29.3313753,39.2826342],[29.2847658,39.2515608],[29.2601663,39.2565736],[29.2459245,39.2699392],[29.2109674,39.272612],[29.1721262,39.2612518],[29.1540002,39.2462134],[29.1298324,39.2435396],[29.0724336,39.2127833],[29.0550633,39.2142805]]]}},{"type":"Feature","properties":{"code":"43-09","provinceCode":"43","name":"Kütahya merkez"},"geometry":{"type":"Polygon","coordinates":[[[30.0315834,39.6647903],[30.013607,39.6607119],[29.9819832,39.659962],[29.9713868,39.6614413],[29.9539268,39.6659636],[29.9400361,39.6714623],[29.9317611,39.6824653],[29.9188516,39.690175],[29.8808796,39.7034956],[29.8477059,39.7115161],[29.8309793,39.7077003],[29.8152281,39.7069716],[29.8190789,39.6870134],[29.8358276,39.6714094],[29.8309793,39.653087],[29.7432691,39.6092974],[29.7507619,39.5797492],[29.7432691,39.557325],[29.7225536,39.5447506],[29.7234351,39.5335337],[29.7538472,39.4900087],[29.7507163,39.4699382],[29.7634557,39.4544203],[29.7631031,39.4264403],[29.7504093,39.4084619],[29.7296057,39.3929313],[29.7591142,39.4029742],[29.795991,39.3706803],[29.8220744,39.3451769],[29.8654869,39.3123076],[29.8869741,39.2824118],[29.900249,39.2668069],[29.9324706,39.2530239],[29.9716604,39.2484517],[30.0307874,39.2153367],[30.0552173,39.1929802],[30.0655048,39.2013033],[30.0928186,39.20439],[30.1155801,39.1995395],[30.1525675,39.2004214],[30.2049189,39.1911604],[30.2254042,39.1832215],[30.2487348,39.1699879],[30.2589774,39.1510155],[30.2599091,39.1237448],[30.2729309,39.1169911],[30.2923629,39.1283885],[30.2936855,39.1341331],[30.2995472,39.1439592],[30.3080561,39.1531974],[30.3178886,39.1568631],[30.3277211,39.1586225],[30.3386881,39.1583293],[30.378018,39.1534907],[30.4099736,39.1789994],[30.4190498,39.1977585],[30.4300168,39.2124106],[30.4461877,39.2204708],[30.4025712,39.2586743],[30.3936512,39.2710327],[30.3971723,39.2993761],[30.3934165,39.316086],[30.368769,39.3407803],[30.343652,39.3745393],[30.3443562,39.3886915],[30.3528068,39.3975805],[30.3882522,39.4111839],[30.3905996,39.4139042],[30.3769848,39.419526],[30.3542152,39.4240593],[30.3363751,39.4356633],[30.3350058,39.4415049],[30.3314456,39.4566906],[30.3398962,39.512672],[30.3401309,39.5289688],[30.329333,39.539107],[30.2617284,39.5648082],[30.2467052,39.5774743],[30.2342641,39.5937559],[30.2114096,39.6499495],[30.2096166,39.6541451],[30.2084429,39.6767324],[30.223508,39.6839836],[30.1755795,39.680707],[30.1467068,39.674203],[30.1185382,39.6751063],[30.092717,39.6684211],[30.0603232,39.6554102],[30.048821,39.6555909],[30.0382473,39.6597535],[30.0315834,39.6647903]]]}},{"type":"Feature","properties":{"code":"43-10","provinceCode":"43","name":"Pazarlar"},"geometry":{"type":"Polygon","coordinates":[[[29.1436179,39.0464592],[29.1207483,39.0343922],[29.1075232,39.020865],[29.0765844,39.0036417],[29.0744603,38.9691293],[29.0682066,38.9539602],[29.0453948,38.9398813],[29.0352556,38.9084007],[29.0267161,38.89062],[29.0358869,38.8760127],[29.0365481,38.8712078],[29.05836,38.8645079],[29.1043986,38.8860549],[29.1273556,38.9009918],[29.1611329,38.9123101],[29.1925882,38.9087322],[29.1902302,38.9245897],[29.194881,38.940794],[29.1866482,38.9530382],[29.1594007,38.9695641],[29.1550503,38.9825721],[29.1530424,39.0371796],[29.1436179,39.0464592]]]}},{"type":"Feature","properties":{"code":"43-11","provinceCode":"43","name":"Simav"},"geometry":{"type":"Polygon","coordinates":[[[29.1436179,39.0464592],[29.1546929,39.0554485],[29.1841564,39.0745777],[29.2075703,39.0928845],[29.2183941,39.1273007],[29.2228025,39.138756],[29.2167842,39.1563675],[29.2058366,39.1648975],[29.1950456,39.1608194],[29.1838547,39.1602425],[29.1663752,39.1690097],[29.1271405,39.1633702],[29.1125928,39.1707186],[29.1000289,39.1714021],[29.0898896,39.1741362],[29.0702723,39.1737944],[29.0537408,39.1900258],[29.0517571,39.1972006],[29.0550633,39.2142805],[29.0533,39.2217944],[29.057488,39.2482571],[29.0533,39.2666898],[29.0590309,39.2726623],[29.0632189,39.2811936],[29.0641005,39.2892121],[29.0552838,39.2987648],[29.0550633,39.3234934],[29.0391931,39.3555424],[29.039634,39.3725837],[29.0369889,39.3802509],[29.0411769,39.3906429],[29.0510958,39.4013741],[29.0693906,39.4071648],[29.0757828,39.4175528],[29.076444,39.427088],[29.0815137,39.4342385],[29.0823954,39.4407074],[29.0790015,39.4489705],[29.0887853,39.4557191],[29.0623372,39.4818899],[29.0429403,39.4815497],[29.0176716,39.4861372],[28.9922629,39.5068522],[28.9857903,39.5174937],[28.948499,39.5315787],[28.9428724,39.5303342],[28.9393387,39.531701],[28.9408087,39.5274995],[28.936437,39.5272131],[28.9318162,39.5231407],[28.9285151,39.5250334],[28.9263346,39.5243516],[28.9280085,39.5200163],[28.9238458,39.5146812],[28.9276154,39.5126249],[28.9243728,39.5118824],[28.9236023,39.5076195],[28.9253304,39.506316],[28.9242932,39.5036803],[28.9265938,39.497187],[28.9246284,39.496167],[28.9251065,39.4940257],[28.922621,39.4908619],[28.9271531,39.4874794],[28.9309294,39.4806361],[28.9392845,39.4769862],[28.9394809,39.4718943],[28.951413,39.4589221],[28.95074,39.4558642],[28.9478032,39.4547497],[28.9486574,39.4502868],[28.9453544,39.4444771],[28.9467452,39.4406878],[28.9429185,39.4379414],[28.9506874,39.4333002],[28.9487967,39.433373],[28.9463545,39.4295838],[28.9503567,39.428766],[28.9515922,39.4270407],[28.9498128,39.4231264],[28.9503045,39.4075591],[28.9327787,39.407115],[28.9264689,39.4092658],[28.9190457,39.4078319],[28.9121792,39.4085489],[28.904212,39.401656],[28.891778,39.4006522],[28.8934483,39.3924777],[28.8921492,39.3822941],[28.8941906,39.3759824],[28.890479,39.3688093],[28.8719208,39.368092],[28.8702506,39.3649356],[28.8730343,39.3612051],[28.8702506,39.3571874],[28.864312,39.3554654],[28.8531258,39.3417403],[28.8235351,39.3268245],[28.8109989,39.3137473],[28.7969908,39.3025249],[28.7722968,39.2931205],[28.7586232,39.2846221],[28.6644451,39.2889604],[28.6283433,39.2791243],[28.6190468,39.266982],[28.6186219,39.2463178],[28.6461189,39.2129892],[28.6539827,39.1943767],[28.6397871,39.1796036],[28.6324636,39.1681686],[28.6261132,39.1322788],[28.6179181,39.1214024],[28.6098972,39.114459],[28.608588,39.1100729],[28.6151203,39.1087312],[28.616273,39.1051532],[28.6274162,39.1063459],[28.6333721,39.1014259],[28.6464365,39.0997859],[28.6657902,39.1018509],[28.6658411,39.0982949],[28.670452,39.0996368],[28.6962105,39.0913599],[28.7017097,39.0860428],[28.7113268,39.0802927],[28.7293829,39.080678],[28.7460476,39.075144],[28.7570777,39.0736548],[28.759045,39.0764803],[28.7662259,39.0754875],[28.7678981,39.0793057],[28.7670128,39.0821309],[28.7712426,39.0816728],[28.772423,39.0784657],[28.7802924,39.0790766],[28.7831451,39.0777021],[28.7859978,39.0634209],[28.7782267,39.0568522],[28.7782267,39.0543314],[28.7908178,39.0506648],[28.7929819,39.0518106],[28.7941623,39.0565466],[28.8020317,39.0592964],[28.807737,39.0638792],[28.8136391,39.0647957],[28.8060412,39.0783247],[28.8203251,39.0781973],[28.8256165,39.0807221],[28.8385261,39.0802983],[28.8431547,39.0782494],[28.8698602,39.0762473],[28.8743175,39.0746962],[28.8816111,39.0754875],[28.8884462,39.0741898],[28.8918595,39.0688068],[28.9005944,39.0685007],[28.9023666,39.0715929],[28.9067339,39.0713643],[28.9105112,39.0673545],[28.9099409,39.0651012],[28.906442,39.0639611],[28.9079736,39.0625044],[28.915472,39.061284],[28.9161323,39.0542207],[28.9287708,39.0586068],[28.9359948,39.0527422],[28.9365818,39.0415947],[28.9406584,39.0377581],[28.9376671,39.0348939],[28.9387348,39.0319048],[28.9267131,39.0246477],[28.9325614,39.0207674],[28.9399811,39.01831],[28.923607,38.997292],[28.9197592,38.9859076],[28.9231705,38.9840038],[28.9195842,38.9817601],[28.921596,38.9799242],[28.9206339,38.9776123],[28.9137238,38.9713562],[28.9110137,38.9719178],[28.904452,38.9672759],[28.911605,38.9619009],[28.9130806,38.9577228],[28.9376617,38.9543992],[28.9405175,38.944851],[28.9437718,38.9415957],[28.9555341,38.9403396],[28.9545661,38.9369478],[28.9564963,38.931971],[28.9487631,38.9279406],[28.9477495,38.9241129],[28.9487974,38.9193765],[28.9523992,38.9147096],[28.9689769,38.9092383],[28.9811095,38.8902664],[28.9872206,38.8680493],[29.0045715,38.8586845],[29.0067884,38.8537141],[29.0153745,38.856014],[29.0228532,38.8624924],[29.05836,38.8645079],[29.0365481,38.8712078],[29.0358869,38.8760127],[29.0267161,38.89062],[29.0352556,38.9084007],[29.0453948,38.9398813],[29.0682066,38.9539602],[29.0744603,38.9691293],[29.0765844,39.0036417],[29.1075232,39.020865],[29.1207483,39.0343922],[29.1436179,39.0464592]]]}},{"type":"Feature","properties":{"code":"43-12","provinceCode":"43","name":"Şaphane"},"geometry":{"type":"Polygon","coordinates":[[[29.05836,38.8645079],[29.1012857,38.8697327],[29.1356264,38.8654145],[29.1516947,38.8596975],[29.1747984,38.8461198],[29.1870068,38.8458442],[29.2064887,38.8816254],[29.2324486,38.914624],[29.217553,38.9365404],[29.2318673,38.951992],[29.3007624,38.9809885],[29.3045975,38.9899318],[29.3007624,39.002227],[29.3029196,39.0178723],[29.3146648,39.0398443],[29.3115487,39.0515724],[29.274875,39.0796745],[29.2312501,39.091582],[29.2391601,39.0995812],[29.2398792,39.1081375],[29.2183941,39.1273007],[29.2075703,39.0928845],[29.1841564,39.0745777],[29.1546929,39.0554485],[29.1436179,39.0464592],[29.1530424,39.0371796],[29.1550503,38.9825721],[29.1594007,38.9695641],[29.1866482,38.9530382],[29.194881,38.940794],[29.1902302,38.9245897],[29.1925882,38.9087322],[29.1611329,38.9123101],[29.1273556,38.9009918],[29.1043986,38.8860549],[29.05836,38.8645079]]]}},{"type":"Feature","properties":{"code":"43-13","provinceCode":"43","name":"Tavşanlı"},"geometry":{"type":"Polygon","coordinates":[[[29.3761534,39.7903109],[29.3641108,39.7832043],[29.3507757,39.7803527],[29.3422457,39.7759972],[29.3362438,39.7780028],[29.3250756,39.7779056],[29.3210879,39.7805102],[29.3164559,39.7799647],[29.3139649,39.7828027],[29.3125988,39.7819367],[29.3203839,39.7703862],[29.3131925,39.7641352],[29.3027633,39.7612079],[29.3002075,39.7591756],[29.2865207,39.7576881],[29.2644283,39.7494364],[29.2614139,39.7465005],[29.2607253,39.7376195],[29.2858101,39.7242398],[29.2857956,39.7148499],[29.2789801,39.7074508],[29.2757124,39.6980411],[29.2655358,39.6926532],[29.2486372,39.6907135],[29.2362199,39.6539201],[29.2256699,39.6441435],[29.2199748,39.628829],[29.2154,39.6255211],[29.2155867,39.6238672],[29.1988748,39.6057429],[29.1964474,39.5992687],[29.1679717,39.5938012],[29.1571416,39.5935135],[29.1485523,39.5963192],[29.1384691,39.5975422],[29.0999102,39.5987652],[29.0840386,39.6030814],[29.0681669,39.6026498],[29.0481872,39.6111375],[29.0423054,39.6120725],[29.0222324,39.6075411],[28.9975543,39.5987255],[28.9951793,39.5912057],[28.997332,39.5875704],[28.9995273,39.5871236],[28.9978975,39.5806211],[28.9873861,39.5810255],[28.9870479,39.5787787],[28.9899327,39.5785528],[28.9906885,39.5768799],[28.9847917,39.5754874],[28.9862011,39.5723353],[28.9836846,39.5698742],[28.986395,39.5662089],[28.9825387,39.5671421],[28.97766,39.5653684],[28.9736261,39.560754],[28.9705195,39.5634288],[28.9572542,39.5561631],[28.9554124,39.5565231],[28.9540759,39.5596096],[28.9518242,39.5561702],[28.9566132,39.5518129],[28.9525637,39.5518536],[28.9505372,39.5497507],[28.9465669,39.5520818],[28.9448085,39.5510499],[28.9542597,39.5457713],[28.9515265,39.5434126],[28.9538189,39.5401999],[28.9528961,39.5377732],[28.9475181,39.5386781],[28.9473167,39.5363552],[28.9442774,39.534907],[28.9441485,39.533439],[28.948499,39.5315787],[28.9857903,39.5174937],[28.9922629,39.5068522],[29.0176716,39.4861372],[29.0429403,39.4815497],[29.0623372,39.4818899],[29.0887853,39.4557191],[29.1166941,39.445112],[29.1485623,39.4516275],[29.1801172,39.4604871],[29.1950341,39.47156],[29.244777,39.4780992],[29.2581182,39.483105],[29.2768006,39.4855097],[29.2861182,39.4955628],[29.3022504,39.5017293],[29.309682,39.4890744],[29.3189587,39.4817455],[29.3455203,39.4643162],[29.3906942,39.4457766],[29.4124353,39.4283917],[29.4346554,39.4053819],[29.4457718,39.381779],[29.4697179,39.3649794],[29.5577313,39.3463918],[29.5912843,39.3447303],[29.6151098,39.3499182],[29.6326183,39.3540137],[29.6587862,39.3560371],[29.6689625,39.3589596],[29.6832095,39.3740201],[29.7021085,39.3823357],[29.7296057,39.3929313],[29.7504093,39.4084619],[29.7631031,39.4264403],[29.7634557,39.4544203],[29.7507163,39.4699382],[29.7538472,39.4900087],[29.7234351,39.5335337],[29.7225536,39.5447506],[29.7432691,39.557325],[29.7507619,39.5797492],[29.7432691,39.6092974],[29.8309793,39.653087],[29.8358276,39.6714094],[29.8190789,39.6870134],[29.8152281,39.7069716],[29.798799,39.7099377],[29.7775318,39.7181981],[29.7654894,39.725928],[29.6923139,39.6976993],[29.6681553,39.7006923],[29.6406575,39.6909399],[29.6228161,39.6784387],[29.5917122,39.6718926],[29.558347,39.6696983],[29.5129805,39.6844231],[29.4984005,39.699382],[29.4780204,39.7123927],[29.4631781,39.7074923],[29.4346763,39.7092466],[29.425982,39.7193323],[29.4067551,39.7214208],[29.3898257,39.7300985],[29.3874618,39.7392835],[29.389328,39.7432059],[29.3970418,39.7437799],[29.4087368,39.7472237],[29.4112252,39.7534413],[29.3983148,39.7748059],[29.3761534,39.7903109]]]}}]}