{"type":"FeatureCollection","features":[{"type":"Feature","properties":{"code":"11-01","provinceCode":"11","name":"Bilecik (merkez)"},"geometry":{"type":"Polygon","coordinates":[[[29.7237694,40.1355904],[29.720592,40.1184907],[29.7227432,40.1038447],[29.7216003,40.0994972],[29.7351393,40.0704501],[29.7682651,40.0827041],[29.7855641,40.0871093],[29.795992,40.0948873],[29.827782,40.1035742],[29.8423846,40.1050111],[29.8612788,40.1015969],[29.8768973,40.0904809],[29.8805962,40.0739098],[29.886465,40.0665914],[29.9004661,40.0611243],[29.9243207,40.0576291],[29.9413582,40.0517908],[29.9667854,40.0286535],[29.9820231,40.0194447],[30.0007446,40.0255378],[30.005269,40.0235068],[30.0055177,40.0089336],[30.0446807,39.9933092],[30.0639083,40.013214],[30.0681381,40.0679454],[30.0734222,40.0801561],[30.0814479,40.0925201],[30.1088232,40.107137],[30.1192574,40.1167455],[30.1329538,40.1235422],[30.1439275,40.1384485],[30.1521485,40.1543845],[30.1543834,40.1674492],[30.1595548,40.1699519],[30.1564377,40.1775246],[30.1485301,40.1829207],[30.1461423,40.1909423],[30.1426198,40.1915047],[30.139471,40.1902909],[30.1354534,40.1847626],[30.1286939,40.1849767],[30.1231507,40.1884485],[30.0971337,40.1952311],[30.0863796,40.1995814],[30.0790219,40.2066265],[30.0746277,40.217747],[30.0769104,40.2211758],[30.0758,40.2239811],[30.0653465,40.2290108],[30.065228,40.2321402],[30.0680655,40.2367073],[30.0742358,40.2387056],[30.0839913,40.2461543],[30.0947834,40.2583807],[30.0976497,40.2736761],[30.0956335,40.2777097],[30.0949653,40.2880673],[30.0515144,40.3014946],[30.0397111,40.3007202],[30.0078233,40.2919142],[29.9837127,40.2949329],[29.9547388,40.3137287],[29.8988625,40.2977374],[29.8433413,40.2934884],[29.8427513,40.2919765],[29.8394733,40.2919499],[29.834319,40.2765036],[29.8276977,40.2665249],[29.8286008,40.2433108],[29.8015981,40.2281623],[29.7970297,40.2234186],[29.7908166,40.2016492],[29.7774769,40.1888075],[29.7290517,40.1703783],[29.7261279,40.1645134],[29.7237694,40.1355904]]]}},{"type":"Feature","properties":{"code":"11-02","provinceCode":"11","name":"Bozüyük"},"geometry":{"type":"Polygon","coordinates":[[[29.7654894,39.725928],[29.7775318,39.7181981],[29.798799,39.7099377],[29.8152281,39.7069716],[29.8309793,39.7077003],[29.8477059,39.7115161],[29.8808796,39.7034956],[29.9188516,39.690175],[29.9317611,39.6824653],[29.9400361,39.6714623],[29.9539268,39.6659636],[29.9713868,39.6614413],[29.9819832,39.659962],[30.013607,39.6607119],[30.0315834,39.6647903],[30.0149308,39.6833458],[30.0017675,39.6908819],[29.9920331,39.7006874],[29.9883672,39.7160232],[29.9889163,39.7271922],[29.9962051,39.740952],[29.9977737,39.7547007],[30.0162426,39.7801441],[30.0486054,39.801616],[30.0692184,39.8201888],[30.0984579,39.840305],[30.1238998,39.8502253],[30.1554762,39.8583611],[30.1850409,39.8625708],[30.2108347,39.8608449],[30.2206832,39.8625755],[30.2177794,39.8704248],[30.2050816,39.882182],[30.1897311,39.9018299],[30.1841321,39.9229488],[30.1791268,39.9331445],[30.1734684,39.9386221],[30.1623642,39.9442721],[30.1557925,39.9510808],[30.1400199,39.9537387],[30.1033773,39.9566433],[30.0796239,39.9755622],[30.0446807,39.9933092],[30.0324085,39.9838933],[30.0162036,39.9760526],[29.9854875,39.95784],[29.9647027,39.9526519],[29.9469648,39.9508742],[29.9405642,39.9482105],[29.9303245,39.9484437],[29.9228256,39.9454066],[29.9125848,39.944986],[29.8842396,39.9395179],[29.8473023,39.937181],[29.8073075,39.9317261],[29.7980751,39.9318655],[29.7595878,39.9158754],[29.747256,39.9023095],[29.7416306,39.8854732],[29.7604957,39.8678206],[29.772043,39.8576429],[29.780966,39.840873],[29.7775979,39.82701],[29.7442184,39.8012781],[29.7348056,39.7899921],[29.7303389,39.7728059],[29.7299372,39.7495017],[29.7654894,39.725928]]]}},{"type":"Feature","properties":{"code":"11-03","provinceCode":"11","name":"Gölpazarı"},"geometry":{"type":"Polygon","coordinates":[[[30.1521485,40.1543845],[30.1987966,40.1593848],[30.2286389,40.1571983],[30.2526441,40.1508976],[30.2767615,40.1424926],[30.3369305,40.1264289],[30.3545388,40.1336737],[30.3717283,40.1473327],[30.3947569,40.1521081],[30.3739012,40.1670708],[30.3715693,40.175784],[30.3822292,40.1965188],[30.3854475,40.2117501],[30.3905031,40.2215265],[30.4051509,40.2275261],[30.4200932,40.229747],[30.4501472,40.2383768],[30.4672989,40.2403247],[30.481943,40.2463226],[30.496587,40.2550459],[30.5101596,40.2722166],[30.5244474,40.2745832],[30.536783,40.2810964],[30.5556344,40.2828882],[30.5682858,40.2871526],[30.5880482,40.2860894],[30.5832184,40.2888882],[30.569564,40.2905993],[30.5606361,40.2952317],[30.5264929,40.2944101],[30.5115475,40.2956775],[30.5084523,40.3011165],[30.5085408,40.3102022],[30.5038835,40.3128081],[30.4898384,40.3116016],[30.4824917,40.3174922],[30.4783184,40.3253647],[30.472092,40.3319869],[30.4811741,40.3442562],[30.4769641,40.3483815],[30.4762875,40.3538816],[30.4777911,40.3570897],[30.4756109,40.3582355],[30.4817003,40.3638493],[30.4789187,40.3768509],[30.4744215,40.3833524],[30.4700838,40.3811418],[30.4622147,40.3825019],[30.4545173,40.3879288],[30.4423732,40.3819515],[30.4410368,40.3837024],[30.4432761,40.3904684],[30.439714,40.3905026],[30.4364634,40.3931897],[30.4314599,40.3926018],[30.4272136,40.3940754],[30.4178497,40.3901685],[30.4122948,40.385095],[30.4039843,40.3866664],[30.4005089,40.3842401],[30.3968784,40.3848205],[30.3947266,40.3829185],[30.3900044,40.3802025],[30.3779478,40.3798249],[30.3763464,40.3779468],[30.3689147,40.379311],[30.362154,40.3772728],[30.3520686,40.3808835],[30.3501435,40.3832292],[30.3490721,40.3820271],[30.3433093,40.3817859],[30.3434621,40.3854064],[30.3401968,40.3834907],[30.3364255,40.3847269],[30.33212,40.3826007],[30.3274183,40.384502],[30.3205029,40.3809062],[30.3069673,40.3812111],[30.3085356,40.3781715],[30.3022543,40.3791043],[30.3014984,40.3764097],[30.2952362,40.3745004],[30.2937017,40.3724731],[30.2904044,40.3744048],[30.2863782,40.3726948],[30.2859539,40.3701422],[30.2830333,40.3716699],[30.2807347,40.3669437],[30.2769974,40.3660625],[30.277352,40.3648441],[30.2738857,40.3653576],[30.2728221,40.3675706],[30.2693884,40.3668015],[30.2679208,40.3648832],[30.266625,40.3667533],[30.2606567,40.366754],[30.2547396,40.3633473],[30.2492147,40.362143],[30.2468355,40.3629653],[30.2453021,40.3616877],[30.2405695,40.3640822],[30.2379606,40.3591585],[30.2349785,40.3576527],[30.2301999,40.3588574],[30.2312413,40.3555162],[30.2248369,40.3519937],[30.2269402,40.3503347],[30.2269042,40.3447915],[30.22049,40.3371315],[30.2195106,40.3325868],[30.2136696,40.3272914],[30.1874176,40.3222835],[30.1676732,40.311335],[30.1453548,40.2892189],[30.1342916,40.2805936],[30.1160743,40.2797794],[30.1017925,40.2836221],[30.0949653,40.2880673],[30.0956335,40.2777097],[30.0976497,40.2736761],[30.0947834,40.2583807],[30.0839913,40.2461543],[30.0742358,40.2387056],[30.0680655,40.2367073],[30.065228,40.2321402],[30.0653465,40.2290108],[30.0758,40.2239811],[30.0769104,40.2211758],[30.0746277,40.217747],[30.0790219,40.2066265],[30.0863796,40.1995814],[30.0971337,40.1952311],[30.1231507,40.1884485],[30.1286939,40.1849767],[30.1354534,40.1847626],[30.139471,40.1902909],[30.1426198,40.1915047],[30.1461423,40.1909423],[30.1485301,40.1829207],[30.1564377,40.1775246],[30.1595548,40.1699519],[30.1543834,40.1674492],[30.1521485,40.1543845]]]}},{"type":"Feature","properties":{"code":"11-04","provinceCode":"11","name":"İnhisar"},"geometry":{"type":"Polygon","coordinates":[[[30.3369305,40.1264289],[30.3374564,40.1187043],[30.3341672,40.113678],[30.3345508,40.0862317],[30.3314986,40.0807525],[30.3205043,40.071381],[30.2927456,40.0639388],[30.2903917,40.0574819],[30.294258,40.0448387],[30.2899468,40.0198684],[30.2956276,39.9913832],[30.3129914,39.9782062],[30.3286527,39.9736983],[30.3366359,39.9793294],[30.341265,39.9780688],[30.3432999,39.9799494],[30.349967,39.978349],[30.3612727,39.9839284],[30.3608909,39.9904123],[30.3637832,39.9904739],[30.3694407,39.993978],[30.3652291,40.0008122],[30.3625783,40.001366],[30.362016,40.0039503],[30.3752699,40.0084418],[30.3744666,40.0117642],[30.3763944,40.0174856],[30.3790452,40.0187159],[30.3788845,40.0204999],[30.3831418,40.0247443],[30.3831418,40.0158861],[30.380744,40.0125887],[30.4033841,40.0104722],[30.4060349,40.0090571],[30.4115905,40.012141],[30.431295,40.0071296],[30.4495417,40.0110818],[30.4851833,40.0362326],[30.5059187,40.0645201],[30.5167538,40.0756671],[30.5181458,40.0842458],[30.5367853,40.1020285],[30.53368,40.1219358],[30.5173964,40.1228126],[30.4548627,40.1315083],[30.4348922,40.1427746],[30.4288676,40.1485376],[30.3947569,40.1521081],[30.3717283,40.1473327],[30.3545388,40.1336737],[30.3369305,40.1264289]]]}},{"type":"Feature","properties":{"code":"11-05","provinceCode":"11","name":"Osmaneli"},"geometry":{"type":"Polygon","coordinates":[[[30.0949653,40.2880673],[30.1017925,40.2836221],[30.1160743,40.2797794],[30.1342916,40.2805936],[30.1453548,40.2892189],[30.1676732,40.311335],[30.1874176,40.3222835],[30.2136696,40.3272914],[30.2195106,40.3325868],[30.22049,40.3371315],[30.2169299,40.3355641],[30.2149816,40.3375],[30.209937,40.3375795],[30.1996739,40.3425649],[30.1968779,40.3445971],[30.1984742,40.3456486],[30.1952887,40.3471532],[30.1929394,40.3535091],[30.1901202,40.3547623],[30.1764147,40.3520756],[30.150417,40.3615651],[30.1498297,40.3667562],[30.1380832,40.3767792],[30.1356164,40.3824166],[30.1246922,40.3896638],[30.1214031,40.3936003],[30.118584,40.3995941],[30.120346,40.4019198],[30.1131806,40.4063028],[30.104958,40.4083601],[30.1007293,40.4139053],[30.101669,40.4194501],[30.0961481,40.4228483],[30.0896888,40.4229007],[30.0874555,40.4280317],[30.0845189,40.4298479],[30.0858037,40.43362],[30.0739206,40.4475628],[30.0709492,40.458092],[30.0642183,40.4572226],[30.0581324,40.4538852],[30.0546522,40.4471017],[30.0565004,40.4418799],[30.0547719,40.4383677],[30.0481535,40.4325096],[30.0456434,40.4263702],[30.0386942,40.4211548],[30.0188098,40.4252416],[30.0114095,40.4301595],[30.0023387,40.4470669],[30.0036757,40.4544419],[29.9984214,40.4595845],[29.9992648,40.464767],[29.9944535,40.4652246],[29.9909953,40.4686562],[29.9882137,40.4688278],[29.9828308,40.4745408],[29.9848307,40.4792931],[29.9772462,40.5012952],[29.9920238,40.5163303],[29.9875839,40.5245198],[29.9669815,40.551366],[29.9052577,40.5301248],[29.9012237,40.5198322],[29.9034373,40.5076831],[29.8994309,40.4999015],[29.8865201,40.4904357],[29.8641753,40.4822746],[29.8513075,40.4659835],[29.8582035,40.4529841],[29.8802471,40.4542499],[29.886317,40.4458573],[29.8922445,40.4326679],[29.8908131,40.4249246],[29.8860048,40.4154732],[29.861193,40.4111474],[29.8575269,40.4076863],[29.8509026,40.4052193],[29.84405,40.3989138],[29.8468825,40.3941517],[29.8422803,40.3871451],[29.8249271,40.3850853],[29.8167358,40.3782394],[29.7980765,40.3697995],[29.8258605,40.3528064],[29.8525008,40.3280368],[29.8486917,40.3175091],[29.8502835,40.3152729],[29.8454364,40.3116566],[29.8467964,40.3028013],[29.8433413,40.2934884],[29.8988625,40.2977374],[29.9547388,40.3137287],[29.9837127,40.2949329],[30.0078233,40.2919142],[30.0397111,40.3007202],[30.0515144,40.3014946],[30.0949653,40.2880673]]]}},{"type":"Feature","properties":{"code":"11-06","provinceCode":"11","name":"Pazaryeri"},"geometry":{"type":"Polygon","coordinates":[[[29.7351393,40.0704501],[29.7541251,40.0017906],[29.7527587,39.9961771],[29.7401811,39.9867761],[29.7429684,39.9797236],[29.7598645,39.9665329],[29.7602421,39.9556695],[29.7841831,39.9412748],[29.7920247,39.9396686],[29.7980751,39.9318655],[29.8073075,39.9317261],[29.8473023,39.937181],[29.8842396,39.9395179],[29.9125848,39.944986],[29.9228256,39.9454066],[29.9303245,39.9484437],[29.9405642,39.9482105],[29.9469648,39.9508742],[29.9647027,39.9526519],[29.9854875,39.95784],[30.0162036,39.9760526],[30.0324085,39.9838933],[30.0446807,39.9933092],[30.0055177,40.0089336],[30.005269,40.0235068],[30.0007446,40.0255378],[29.9820231,40.0194447],[29.9667854,40.0286535],[29.9413582,40.0517908],[29.9243207,40.0576291],[29.9004661,40.0611243],[29.886465,40.0665914],[29.8805962,40.0739098],[29.8768973,40.0904809],[29.8612788,40.1015969],[29.8423846,40.1050111],[29.827782,40.1035742],[29.795992,40.0948873],[29.7855641,40.0871093],[29.7682651,40.0827041],[29.7351393,40.0704501]]]}},{"type":"Feature","properties":{"code":"11-07","provinceCode":"11","name":"Söğüt"},"geometry":{"type":"Polygon","coordinates":[[[30.2723646,39.8488123],[30.2777017,39.8481824],[30.2946024,39.8405349],[30.2950316,39.8568805],[30.303862,39.8646586],[30.3122099,39.8675688],[30.3194072,39.8670262],[30.3170295,39.8703801],[30.303599,39.8730433],[30.2911668,39.9027247],[30.2964676,39.9163985],[30.2868811,39.9302628],[30.2894856,39.9381064],[30.2906905,39.9531941],[30.2953294,39.9559034],[30.2992252,39.9529632],[30.2968154,39.9500383],[30.2976187,39.9467283],[30.3060529,39.9456506],[30.3180182,39.9374016],[30.3295159,39.941151],[30.3379325,39.9372528],[30.3523965,39.9397019],[30.3564981,39.9455623],[30.3576461,39.9534056],[30.3641853,39.9515338],[30.3654732,39.9534719],[30.3642948,39.9612916],[30.3634079,39.9628225],[30.3567948,39.963833],[30.3544653,39.9703466],[30.3471556,39.9760099],[30.341265,39.9780688],[30.3366359,39.9793294],[30.3286527,39.9736983],[30.3129914,39.9782062],[30.2956276,39.9913832],[30.2899468,40.0198684],[30.294258,40.0448387],[30.2903917,40.0574819],[30.2927456,40.0639388],[30.3205043,40.071381],[30.3314986,40.0807525],[30.3345508,40.0862317],[30.3341672,40.113678],[30.3374564,40.1187043],[30.3369305,40.1264289],[30.2767615,40.1424926],[30.2526441,40.1508976],[30.2286389,40.1571983],[30.1987966,40.1593848],[30.1521485,40.1543845],[30.1439275,40.1384485],[30.1329538,40.1235422],[30.1192574,40.1167455],[30.1088232,40.107137],[30.0814479,40.0925201],[30.0734222,40.0801561],[30.0681381,40.0679454],[30.0639083,40.013214],[30.0446807,39.9933092],[30.0796239,39.9755622],[30.1033773,39.9566433],[30.1400199,39.9537387],[30.1557925,39.9510808],[30.1623642,39.9442721],[30.1734684,39.9386221],[30.1791268,39.9331445],[30.1841321,39.9229488],[30.1897311,39.9018299],[30.2050816,39.882182],[30.2177794,39.8704248],[30.2206832,39.8625755],[30.2344483,39.8604377],[30.260063,39.8511483],[30.2723646,39.8488123]]]}},{"type":"Feature","properties":{"code":"11-08","provinceCode":"11","name":"Yenipazar"},"geometry":{"type":"Polygon","coordinates":[[[30.3947569,40.1521081],[30.4288676,40.1485376],[30.4348922,40.1427746],[30.4548627,40.1315083],[30.5173964,40.1228126],[30.53368,40.1219358],[30.5448988,40.120475],[30.553445,40.1260758],[30.5670415,40.1243474],[30.5684867,40.1328368],[30.5884081,40.1356619],[30.6370246,40.1554934],[30.661898,40.1639631],[30.6624453,40.1677112],[30.6335557,40.1671557],[30.6283894,40.1724392],[30.6291486,40.1783199],[30.6421474,40.1984607],[30.6392433,40.203299],[30.6138974,40.2118995],[30.6089389,40.219027],[30.6124695,40.2435104],[30.6036733,40.2503066],[30.6036358,40.2685368],[30.6015543,40.272519],[30.5937389,40.2744222],[30.5924235,40.2826546],[30.5880482,40.2860894],[30.5682858,40.2871526],[30.5556344,40.2828882],[30.536783,40.2810964],[30.5244474,40.2745832],[30.5101596,40.2722166],[30.496587,40.2550459],[30.481943,40.2463226],[30.4672989,40.2403247],[30.4501472,40.2383768],[30.4200932,40.229747],[30.4051509,40.2275261],[30.3905031,40.2215265],[30.3854475,40.2117501],[30.3822292,40.1965188],[30.3715693,40.175784],[30.3739012,40.1670708],[30.3947569,40.1521081]]]}}]}