{"type":"FeatureCollection","features":[{"type":"Feature","properties":{"code":"61-01","provinceCode":"61","name":"Akçaabat"},"geometry":{"type":"Polygon","coordinates":[[[39.6444478,40.9090411],[39.6402654,40.9235562],[39.6353224,40.930068],[39.6227746,40.9354302],[39.6158036,40.9402175],[39.6174513,40.947685],[39.6161838,40.9635746],[39.6198594,40.9691254],[39.6146629,40.971805],[39.6112408,40.9777379],[39.6184484,40.9873614],[39.6234061,40.9899791],[39.6311637,41.007827],[39.6251228,41.008424],[39.6148066,41.0126553],[39.6181075,41.0131249],[39.6054845,41.0147403],[39.6071136,41.0153449],[39.5981228,41.0186737],[39.5856801,41.0187135],[39.5668002,41.0247261],[39.564863,41.0276956],[39.5687023,41.0262408],[39.564678,41.0284529],[39.5609303,41.0346453],[39.5563502,41.0376682],[39.5563502,41.0399469],[39.5458954,41.0466849],[39.5466086,41.0475001],[39.5395446,41.050622],[39.5402283,41.0518344],[39.5393735,41.0507859],[39.5374572,41.0521739],[39.5412446,41.0526745],[39.5366204,41.0526612],[39.5357132,41.0547003],[39.5297942,41.0575297],[39.5301554,41.058858],[39.520634,41.0643901],[39.5072357,41.0746011],[39.5059798,41.0760693],[39.5074905,41.077064],[39.5059616,41.07633],[39.5042415,41.0783949],[39.5072448,41.0787311],[39.508983,41.0773796],[39.5083004,41.0785733],[39.5042688,41.0795543],[39.5037378,41.0820253],[39.4947861,41.0843708],[39.4859446,41.0927753],[39.477729,41.0929015],[39.4754107,41.0940774],[39.47668,41.0950539],[39.4737622,41.0942169],[39.4680815,41.0959831],[39.4684694,41.0968932],[39.4577503,41.0989591],[39.4580853,41.099836],[39.4507335,41.0997496],[39.4427118,41.1017358],[39.4347448,41.1010514],[39.4338136,41.0935756],[39.4367515,41.0878699],[39.4367515,41.0826747],[39.4324577,41.0789271],[39.4297459,41.0699832],[39.4238702,41.0656385],[39.443531,41.0497057],[39.4480508,41.0379453],[39.4552823,41.0259271],[39.4553953,41.0216647],[39.4513276,41.0196187],[39.4379944,41.0223467],[39.4348306,41.0125425],[39.4186726,41.0020546],[39.4090681,40.9993257],[39.4072602,40.9958293],[39.4196895,40.9826092],[39.4195765,40.9797089],[39.4164127,40.9757848],[39.4050004,40.9702396],[39.4028535,40.9651204],[39.4097461,40.9612808],[39.4096331,40.9570997],[39.3966389,40.9396896],[39.3956052,40.9329241],[39.4028085,40.9185174],[39.4265528,40.9207022],[39.4322322,40.9240739],[39.4410218,40.924687],[39.4510284,40.9225413],[39.4627929,40.912323],[39.4699598,40.9125274],[39.4733061,40.9011017],[39.4678305,40.9015701],[39.465791,40.8995767],[39.4597429,40.8992843],[39.4484591,40.8915751],[39.4468364,40.8814542],[39.4507579,40.8737859],[39.4487296,40.8690822],[39.4495409,40.861617],[39.4567078,40.8504687],[39.4517045,40.8330778],[39.4876742,40.8283712],[39.4986909,40.8299258],[39.5065491,40.8260896],[39.5171957,40.83357],[39.5241667,40.8437343],[39.5421645,40.860895],[39.5536984,40.8626204],[39.5625705,40.8587861],[39.5680206,40.8591696],[39.5761323,40.8604157],[39.5900743,40.8653043],[39.6000872,40.8654002],[39.6043965,40.8676047],[39.6088326,40.8676047],[39.6246758,40.8838968],[39.6210002,40.8885921],[39.6444478,40.9090411]]]}},{"type":"Feature","properties":{"code":"61-02","provinceCode":"61","name":"Araklı"},"geometry":{"type":"Polygon","coordinates":[[[40.0433192,40.6769703],[40.043106,40.7034808],[40.0373126,40.7331293],[40.0380627,40.7419888],[40.0428472,40.7441568],[40.0423974,40.7596027],[40.0352011,40.7669836],[40.027855,40.7705035],[40.0313032,40.7750449],[40.031603,40.7801537],[40.0365504,40.7834458],[40.0371501,40.7869648],[40.029402,40.7922818],[40.0279978,40.7949296],[40.0271621,40.8118292],[40.0280305,40.8186404],[40.0380332,40.8175635],[40.0479391,40.8280322],[40.0511728,40.8355155],[40.0488301,40.8470505],[40.0588798,40.858203],[40.0656591,40.8582612],[40.0649446,40.8639841],[40.0625221,40.8674546],[40.0637629,40.8749577],[40.0544126,40.8922919],[40.0543272,40.8979001],[40.0573282,40.909213],[40.0732009,40.9281397],[40.0681241,40.9333023],[40.0671632,40.9376526],[40.0641499,40.9376823],[40.0635616,40.9393166],[40.0554368,40.9425557],[40.054208,40.9418694],[40.0538746,40.9451823],[40.051783,40.9448812],[40.0515476,40.9468511],[40.0534824,40.9472806],[40.0558879,40.9456168],[40.0537243,40.9474978],[40.0514692,40.948115],[40.0491264,40.9539977],[40.0424403,40.9573844],[40.036416,40.9589043],[40.0311617,40.9582463],[40.0309996,40.9595826],[40.0296907,40.9581305],[40.0213413,40.9581367],[40.0209453,40.9591099],[40.0211604,40.9580765],[40.0098404,40.9566739],[39.9999818,40.9596255],[39.9993352,40.948096],[39.994782,40.9452339],[39.9977055,40.9431379],[40.0010624,40.9333276],[40.0063596,40.9260941],[40.0035766,40.9199571],[40.004315,40.9135537],[40.0021068,40.9104057],[40.0079474,40.905066],[40.007833,40.9009155],[40.0118372,40.8947756],[40.0077186,40.8913163],[39.9963923,40.8909703],[39.9909008,40.8924406],[39.9855244,40.8901121],[39.9709527,40.871081],[39.9696213,40.8651924],[39.9618692,40.8587738],[39.9626341,40.856781],[39.9579355,40.8540679],[39.9611552,40.8434724],[39.9589815,40.8394911],[39.9598968,40.8370675],[39.9515451,40.8304889],[39.9508587,40.8278919],[39.9477697,40.8278053],[39.9402189,40.8213124],[39.9417062,40.8188882],[39.9407909,40.8085843],[39.9339266,40.7974128],[39.9304944,40.7845069],[39.9248885,40.7808685],[39.9182529,40.7790493],[39.9102445,40.7782696],[39.9030369,40.7793958],[39.8985751,40.7680461],[39.8984607,40.7630204],[39.8913675,40.7546145],[39.8897658,40.7497611],[39.8726049,40.7402267],[39.8690583,40.7351989],[39.8555905,40.725287],[39.8533843,40.721867],[39.8548886,40.7174587],[39.8456627,40.7132022],[39.8370384,40.6998988],[39.8391443,40.6939684],[39.8238013,40.6730558],[39.8286148,40.6656778],[39.8240018,40.6583751],[39.8281134,40.6511476],[39.8348322,40.646126],[39.8309213,40.638745],[39.8423534,40.6114968],[39.8464649,40.6090606],[39.8632119,40.6073096],[39.868928,40.6047972],[39.8791567,40.605254],[39.885675,40.6114968],[39.892093,40.6138567],[39.8972074,40.6071573],[39.9057313,40.6044926],[39.9184671,40.6060153],[39.9195702,40.5931474],[39.9240829,40.5761641],[39.9194699,40.5588717],[39.9231803,40.5552146],[39.936217,40.5517097],[39.9469471,40.5445469],[39.9611179,40.529689],[39.9671348,40.5288506],[39.9730515,40.5323567],[39.9786672,40.5415784],[39.9846841,40.5475223],[39.9963168,40.553161],[40.0061444,40.5556753],[40.0187799,40.5530848],[40.0252982,40.5550658],[40.0348851,40.5640162],[40.0281462,40.5713293],[40.0158236,40.5793727],[40.0067433,40.5796608],[40.0019546,40.5812765],[40.0090723,40.5989173],[39.9960734,40.6107317],[39.9939465,40.6172427],[39.997015,40.6224547],[39.9915309,40.6271217],[39.9911784,40.6468478],[40.0169276,40.6489968],[40.0264548,40.6510806],[40.0396035,40.6512125],[40.0347375,40.6576247],[40.0433192,40.6769703]]]}},{"type":"Feature","properties":{"code":"61-03","provinceCode":"61","name":"Arsin"},"geometry":{"type":"Polygon","coordinates":[[[39.8555905,40.725287],[39.8690583,40.7351989],[39.8726049,40.7402267],[39.8897658,40.7497611],[39.8913675,40.7546145],[39.8984607,40.7630204],[39.8985751,40.7680461],[39.9030369,40.7793958],[39.9102445,40.7782696],[39.9182529,40.7790493],[39.9248885,40.7808685],[39.9304944,40.7845069],[39.9339266,40.7974128],[39.9407909,40.8085843],[39.9417062,40.8188882],[39.9402189,40.8213124],[39.9477697,40.8278053],[39.9508587,40.8278919],[39.9515451,40.8304889],[39.9598968,40.8370675],[39.9589815,40.8394911],[39.9611552,40.8434724],[39.9579355,40.8540679],[39.9626341,40.856781],[39.9618692,40.8587738],[39.9696213,40.8651924],[39.9709527,40.871081],[39.9855244,40.8901121],[39.9909008,40.8924406],[39.9963923,40.8909703],[40.0077186,40.8913163],[40.0118372,40.8947756],[40.007833,40.9009155],[40.0079474,40.905066],[40.0021068,40.9104057],[40.004315,40.9135537],[40.0035766,40.9199571],[40.0063596,40.9260941],[40.0010624,40.9333276],[39.9977055,40.9431379],[39.994782,40.9452339],[39.9993352,40.948096],[39.9999818,40.9596255],[39.9919916,40.96472],[39.9799987,40.9618502],[39.9757895,40.9629403],[39.9751546,40.9648394],[39.9747959,40.9627958],[39.9698433,40.9610941],[39.9574363,40.9606446],[39.9557002,40.9593148],[39.9426187,40.9578374],[39.9401721,40.9560581],[39.9410464,40.9580623],[39.9318326,40.9553042],[39.9011718,40.953965],[39.9010559,40.9493605],[39.8976925,40.9436982],[39.89858,40.9382337],[39.9029118,40.9314664],[39.9009651,40.9292837],[39.9035938,40.9259672],[39.9010595,40.922244],[39.8998228,40.9111333],[39.9038077,40.9019942],[39.8921276,40.8964893],[39.8933644,40.8911917],[39.891578,40.8752965],[39.8933644,40.8735301],[39.8910283,40.8709324],[39.8913032,40.8675033],[39.8986471,40.8543697],[39.8980281,40.851927],[39.8768306,40.838668],[39.874441,40.8328958],[39.8640521,40.8213417],[39.8599945,40.8133942],[39.8676887,40.8013472],[39.879529,40.7947649],[39.8743629,40.7871866],[39.8756933,40.7774705],[39.8736441,40.7725631],[39.869674,40.7709119],[39.8673463,40.7631699],[39.858377,40.7556528],[39.8549362,40.7446033],[39.8450077,40.7399311],[39.8421528,40.734938],[39.8515793,40.7298467],[39.8555905,40.725287]]]}},{"type":"Feature","properties":{"code":"61-04","provinceCode":"61","name":"Beşikdüzü"},"geometry":{"type":"Polygon","coordinates":[[[39.221741,40.955429],[39.2290047,40.9546082],[39.2488411,40.9566377],[39.2508607,40.9799091],[39.2451406,40.9905762],[39.2450907,40.9990766],[39.2420175,41.0060183],[39.247225,41.0152485],[39.2486356,41.021835],[39.2443588,41.0272099],[39.2456139,41.0297908],[39.2431736,41.0348827],[39.2442806,41.0384954],[39.2467056,41.0394294],[39.2443122,41.0432548],[39.246978,41.0444347],[39.2468454,41.0493163],[39.2377315,41.0518746],[39.2336974,41.0544064],[39.2360089,41.055248],[39.2327043,41.0546516],[39.2251987,41.0571434],[39.2257261,41.0581508],[39.2180711,41.062942],[39.2194597,41.0658841],[39.2179832,41.0638896],[39.2159266,41.066116],[39.2169197,41.0677063],[39.2227555,41.0661624],[39.2075773,41.0720595],[39.2076125,41.0735437],[39.2059163,41.073219],[39.2046946,41.0749218],[39.2000014,41.073166],[39.1883124,41.0744249],[39.1806227,41.0736897],[39.1824983,41.0675774],[39.1782191,41.0620806],[39.1747148,41.0611379],[39.174401,41.049947],[39.1677143,41.0469701],[39.1623973,41.0471298],[39.1621491,41.0449037],[39.1543571,41.0386258],[39.1534414,41.0348801],[39.1549558,41.0305762],[39.1529835,41.0258203],[39.1560476,41.0196557],[39.1544877,41.0074188],[39.1494282,41.0063322],[39.1444472,40.9944258],[39.1314983,40.9898113],[39.1343313,40.9856731],[39.1404596,40.9821276],[39.1468145,40.9581153],[39.1512132,40.9595741],[39.1624536,40.9594079],[39.1672944,40.9624236],[39.1722014,40.9679213],[39.1771619,40.9840039],[39.1876197,40.9940083],[39.197781,40.996427],[39.1990527,40.9949338],[39.1970744,40.993014],[39.1950285,40.9832254],[39.1967379,40.9816451],[39.2099336,40.984054],[39.2138919,40.9829291],[39.221741,40.955429]]]}},{"type":"Feature","properties":{"code":"61-05","provinceCode":"61","name":"Çarşıbaşı"},"geometry":{"type":"Polygon","coordinates":[[[39.4347448,41.1010514],[39.4305471,41.1006995],[39.4305383,41.1035757],[39.4291984,41.1021078],[39.4275147,41.1028251],[39.4267037,41.1054156],[39.4320192,41.1044658],[39.4241033,41.1066511],[39.419173,41.1076502],[39.4128401,41.1063258],[39.4020318,41.1009244],[39.3968385,41.0956539],[39.3969206,41.0976646],[39.3956864,41.0949683],[39.3885931,41.0917458],[39.3827463,41.0864654],[39.3814249,41.0871513],[39.3722621,41.0814571],[39.3705542,41.0821994],[39.3712678,41.0800047],[39.3667894,41.0798784],[39.370816,41.0837593],[39.3648322,41.0790233],[39.358225,41.077125],[39.3541361,41.0731967],[39.3523658,41.0740708],[39.3500222,41.0710352],[39.3449437,41.0696946],[39.3519616,41.061165],[39.3795037,41.0413535],[39.3800687,41.0337895],[39.387272,41.0342157],[39.4032323,41.0218558],[39.3951815,41.0048038],[39.3852946,40.9975554],[39.3762551,40.9862548],[39.3756902,40.9824165],[39.37795,40.978258],[39.3850121,40.9733527],[39.3888256,40.9643944],[39.3909443,40.9399662],[39.3956052,40.9329241],[39.3966389,40.9396896],[39.4096331,40.9570997],[39.4097461,40.9612808],[39.4028535,40.9651204],[39.4050004,40.9702396],[39.4164127,40.9757848],[39.4195765,40.9797089],[39.4196895,40.9826092],[39.4072602,40.9958293],[39.4090681,40.9993257],[39.4186726,41.0020546],[39.4348306,41.0125425],[39.4379944,41.0223467],[39.4513276,41.0196187],[39.4553953,41.0216647],[39.4552823,41.0259271],[39.4480508,41.0379453],[39.443531,41.0497057],[39.4238702,41.0656385],[39.4297459,41.0699832],[39.4324577,41.0789271],[39.4367515,41.0826747],[39.4367515,41.0878699],[39.4338136,41.0935756],[39.4347448,41.1010514]]]}},{"type":"Feature","properties":{"code":"61-06","provinceCode":"61","name":"Çaykara"},"geometry":{"type":"Polygon","coordinates":[[[40.0903361,40.5736482],[40.0911712,40.5673503],[40.1033255,40.5414648],[40.1165986,40.5381829],[40.1271772,40.5374654],[40.1287222,40.5395038],[40.1332649,40.5401322],[40.138464,40.5434174],[40.1411032,40.5474285],[40.1502228,40.5489123],[40.1575653,40.5581038],[40.1678042,40.5575036],[40.1789975,40.5636337],[40.1830498,40.5683545],[40.187857,40.5628427],[40.1910607,40.5626321],[40.2062487,40.5505916],[40.214112,40.5509962],[40.2426839,40.5585802],[40.2517012,40.5477512],[40.2548893,40.5195664],[40.2773462,40.5146075],[40.2990523,40.5182835],[40.3254711,40.5206421],[40.3285804,40.5194206],[40.3498006,40.5202263],[40.3584981,40.5180556],[40.3685331,40.5222326],[40.3784425,40.521801],[40.3883741,40.5181311],[40.3922653,40.5152021],[40.4023481,40.5164607],[40.4096246,40.5135382],[40.422132,40.5197236],[40.4457915,40.5179018],[40.4540956,40.5197124],[40.4577112,40.5191823],[40.4592883,40.5170454],[40.4634833,40.5257557],[40.4762464,40.528455],[40.4789285,40.5369098],[40.4764688,40.5426286],[40.4670078,40.5544903],[40.4653299,40.5624029],[40.4698999,40.5698261],[40.4679894,40.5754835],[40.4638604,40.5786449],[40.4649154,40.5831287],[40.4503483,40.5897563],[40.4411459,40.5994702],[40.4405064,40.6053326],[40.4366878,40.6118883],[40.4369865,40.6219741],[40.4265117,40.6241485],[40.4193449,40.6281222],[40.4066343,40.6284305],[40.3963608,40.6436134],[40.3912451,40.6472559],[40.3807425,40.6480036],[40.376912,40.6533004],[40.3645956,40.6560213],[40.352581,40.6624066],[40.3307443,40.6680382],[40.3289504,40.6701944],[40.3266809,40.6878627],[40.3344213,40.6924185],[40.3558174,40.696563],[40.3555512,40.7000077],[40.3615379,40.7074172],[40.3604585,40.708629],[40.3626215,40.7108167],[40.3604704,40.7131467],[40.3614163,40.7160941],[40.3583586,40.7184701],[40.3602379,40.7210407],[40.3565841,40.7341881],[40.3588772,40.7367709],[40.3589201,40.7404615],[40.3630614,40.7397624],[40.365572,40.7418597],[40.3649097,40.74846],[40.3580497,40.7537583],[40.3570962,40.7575708],[40.3606786,40.7613169],[40.3706681,40.7576114],[40.3767943,40.7601307],[40.3804411,40.7599437],[40.3835105,40.7733594],[40.3766441,40.7802815],[40.3683627,40.7848253],[40.3641685,40.7825856],[40.3650141,40.7811914],[40.3625035,40.7793797],[40.3573322,40.7785429],[40.3533196,40.7717669],[40.3305937,40.7661636],[40.3264543,40.76787],[40.3228697,40.7716914],[40.3124106,40.7701174],[40.2971468,40.7762692],[40.2763402,40.7808745],[40.2567669,40.7926127],[40.2526938,40.7899809],[40.2525772,40.7850465],[40.2595702,40.7761742],[40.2566421,40.7746391],[40.2408589,40.7856771],[40.2379221,40.785769],[40.2341829,40.7685292],[40.2310538,40.7649252],[40.2200031,40.7612684],[40.2152334,40.7623207],[40.2107164,40.7591197],[40.2040386,40.7526999],[40.1992511,40.7354175],[40.1859232,40.727215],[40.1689398,40.7185149],[40.1599763,40.7172039],[40.1599763,40.7135089],[40.1536862,40.7065953],[40.1538434,40.7033766],[40.1475533,40.6920503],[40.1190903,40.6710619],[40.1143727,40.6649788],[40.1150017,40.657225],[40.1197194,40.6530495],[40.1211346,40.6431466],[40.1337149,40.6299006],[40.1283683,40.6228589],[40.1165743,40.6130709],[40.1153162,40.5974309],[40.1123284,40.5928935],[40.1112127,40.5805358],[40.1064384,40.5773985],[40.09713,40.5777577],[40.0903361,40.5736482]]]}},{"type":"Feature","properties":{"code":"61-07","provinceCode":"61","name":"Dernekpazarı"},"geometry":{"type":"Polygon","coordinates":[[[40.1859232,40.727215],[40.1992511,40.7354175],[40.2040386,40.7526999],[40.2107164,40.7591197],[40.2152334,40.7623207],[40.2200031,40.7612684],[40.2310538,40.7649252],[40.2341829,40.7685292],[40.2379221,40.785769],[40.2408589,40.7856771],[40.2566421,40.7746391],[40.2595702,40.7761742],[40.2525772,40.7850465],[40.2526938,40.7899809],[40.2567669,40.7926127],[40.2763402,40.7808745],[40.2971468,40.7762692],[40.3124106,40.7701174],[40.3228697,40.7716914],[40.3264543,40.76787],[40.3305937,40.7661636],[40.3533196,40.7717669],[40.3573322,40.7785429],[40.3625035,40.7793797],[40.3650141,40.7811914],[40.3641685,40.7825856],[40.3683627,40.7848253],[40.3684536,40.7870572],[40.3737973,40.7908816],[40.3716981,40.7939419],[40.3470176,40.7879797],[40.3396215,40.7894761],[40.3331637,40.7847998],[40.3338407,40.7819096],[40.3229141,40.7779092],[40.3192234,40.7750818],[40.3105616,40.7815233],[40.3033418,40.7830447],[40.2954912,40.7911994],[40.2947938,40.795618],[40.2836829,40.7968925],[40.2788529,40.7996066],[40.2756536,40.7985988],[40.2725422,40.8019124],[40.2678671,40.8010698],[40.265517,40.8023398],[40.2590255,40.8090939],[40.2609728,40.8131922],[40.2560198,40.8208245],[40.250403,40.8227563],[40.2367723,40.824612],[40.2243483,40.8226838],[40.2121782,40.8179671],[40.2019392,40.816294],[40.19337,40.8176993],[40.1810706,40.8174735],[40.1790081,40.8054135],[40.1832461,40.8018799],[40.1789192,40.7932489],[40.1807006,40.7863553],[40.1773679,40.7829553],[40.1631114,40.7806421],[40.1555624,40.7772126],[40.1555732,40.7706981],[40.1602908,40.7641477],[40.1598191,40.7514022],[40.1643794,40.7480666],[40.1670527,40.7385352],[40.1723994,40.7329349],[40.1845079,40.7330541],[40.1859232,40.727215]]]}},{"type":"Feature","properties":{"code":"61-08","provinceCode":"61","name":"Düzköy"},"geometry":{"type":"Polygon","coordinates":[[[39.4517045,40.8330778],[39.4567078,40.8504687],[39.4495409,40.861617],[39.4487296,40.8690822],[39.4507579,40.8737859],[39.4468364,40.8814542],[39.4484591,40.8915751],[39.4597429,40.8992843],[39.465791,40.8995767],[39.4678305,40.9015701],[39.4733061,40.9011017],[39.4699598,40.9125274],[39.4627929,40.912323],[39.4510284,40.9225413],[39.4410218,40.924687],[39.4322322,40.9240739],[39.4265528,40.9207022],[39.4028085,40.9185174],[39.3934906,40.9177584],[39.394335,40.9142801],[39.3928591,40.9127785],[39.3581827,40.9166352],[39.3536961,40.9155289],[39.3551543,40.9087463],[39.3590758,40.9039429],[39.3581292,40.890655],[39.347176,40.8721499],[39.3413614,40.8700025],[39.3283799,40.8539464],[39.3264738,40.8470901],[39.322641,40.8454887],[39.3213186,40.8389429],[39.3241006,40.8369586],[39.3166334,40.8304406],[39.3180434,40.8269719],[39.3132038,40.8209694],[39.3098955,40.8199158],[39.3122746,40.8171135],[39.3016799,40.8064258],[39.302552,40.7930612],[39.2976839,40.789478],[39.2982248,40.778932],[39.3067439,40.7724807],[39.3144517,40.7720711],[39.3197255,40.7681795],[39.3231061,40.7618296],[39.347176,40.7528157],[39.3578588,40.7549669],[39.3731391,40.7699205],[39.3743561,40.7728903],[39.3781424,40.7749384],[39.3847684,40.7984869],[39.3874729,40.7975656],[39.3931523,40.7858946],[39.39775,40.7856898],[39.4011306,40.7862018],[39.4000488,40.7899899],[39.404603,40.7923919],[39.3965329,40.7988964],[39.4073665,40.8055949],[39.4266017,40.8017358],[39.43101,40.8038422],[39.4406739,40.8040138],[39.4513066,40.8112895],[39.4640905,40.8090112],[39.4648612,40.8185125],[39.4455443,40.8212134],[39.4472421,40.8271433],[39.4454842,40.829906],[39.4473773,40.8323616],[39.4517045,40.8330778]]]}},{"type":"Feature","properties":{"code":"61-09","provinceCode":"61","name":"Hayrat"},"geometry":{"type":"Polygon","coordinates":[[[40.4352187,40.8247132],[40.4279606,40.827157],[40.4242857,40.8309109],[40.4255719,40.8414763],[40.4207945,40.8539859],[40.4195083,40.8638528],[40.4067511,40.8743802],[40.408011,40.88337],[40.4013927,40.8833125],[40.4004564,40.8854744],[40.3987001,40.9011602],[40.3996637,40.9109438],[40.4038899,40.9151095],[40.3941387,40.9216881],[40.3830748,40.9186579],[40.3718357,40.910307],[40.3669759,40.909718],[40.3493244,40.9162404],[40.3377789,40.9174873],[40.335976,40.9156188],[40.3405153,40.9133651],[40.3404237,40.9118498],[40.3307089,40.914108],[40.3284404,40.9136097],[40.3281812,40.9116141],[40.3313216,40.9080162],[40.3316923,40.9045883],[40.3350538,40.9040826],[40.3392756,40.9003078],[40.3383475,40.8852388],[40.3338598,40.8768205],[40.3256906,40.869841],[40.3252466,40.8652424],[40.3186318,40.8584331],[40.3208367,40.8555146],[40.3364551,40.8546808],[40.3410488,40.8512062],[40.3362714,40.8452294],[40.3366389,40.8428664],[40.3434375,40.837584],[40.3480311,40.837584],[40.3526248,40.8320231],[40.3447237,40.8288254],[40.3445399,40.8250714],[40.3416,40.8234029],[40.3384763,40.8143643],[40.3384763,40.8053245],[40.3410488,40.8008736],[40.3396215,40.7894761],[40.3470176,40.7879797],[40.3716981,40.7939419],[40.3737973,40.7908816],[40.3684536,40.7870572],[40.3683627,40.7848253],[40.3766441,40.7802815],[40.3835105,40.7733594],[40.3804411,40.7599437],[40.3767943,40.7601307],[40.3706681,40.7576114],[40.3606786,40.7613169],[40.3570962,40.7575708],[40.3580497,40.7537583],[40.3649097,40.74846],[40.365572,40.7418597],[40.3630614,40.7397624],[40.3589201,40.7404615],[40.3588772,40.7367709],[40.3565841,40.7341881],[40.3602379,40.7210407],[40.3583586,40.7184701],[40.3614163,40.7160941],[40.3604704,40.7131467],[40.3626215,40.7108167],[40.3604585,40.708629],[40.3615379,40.7074172],[40.3555512,40.7000077],[40.3558174,40.696563],[40.3344213,40.6924185],[40.3266809,40.6878627],[40.3289504,40.6701944],[40.3307443,40.6680382],[40.352581,40.6624066],[40.3645956,40.6560213],[40.376912,40.6533004],[40.3807425,40.6480036],[40.3912451,40.6472559],[40.3963608,40.6436134],[40.4066343,40.6284305],[40.4193449,40.6281222],[40.4265117,40.6241485],[40.4369865,40.6219741],[40.4416394,40.6255002],[40.4442022,40.6318695],[40.4545312,40.6368399],[40.4600622,40.6482731],[40.4664053,40.6558944],[40.4801564,40.6632153],[40.491496,40.6843502],[40.5044868,40.6974998],[40.5074515,40.7146281],[40.49621,40.7252883],[40.4952412,40.7291039],[40.4819941,40.7345921],[40.4805704,40.7365957],[40.4777746,40.7369794],[40.4665865,40.7321913],[40.4527916,40.7333859],[40.442027,40.7316716],[40.4358735,40.7384658],[40.4185741,40.7446412],[40.4223358,40.7485893],[40.4184679,40.7511199],[40.416534,40.7564472],[40.4196986,40.758578],[40.4168344,40.760617],[40.4193736,40.7630923],[40.4287593,40.7634171],[40.4307126,40.7656206],[40.4326479,40.7792247],[40.4275274,40.7850415],[40.4302475,40.7954568],[40.4262651,40.7958872],[40.4194294,40.8009677],[40.4186392,40.8050935],[40.4334082,40.8151414],[40.4317346,40.8185049],[40.4347082,40.8209104],[40.4352187,40.8247132]]]}},{"type":"Feature","properties":{"code":"61-10","provinceCode":"61","name":"Köprübaşı"},"geometry":{"type":"Polygon","coordinates":[[[40.0433192,40.6769703],[40.0347375,40.6576247],[40.0396035,40.6512125],[40.0438481,40.634007],[40.0558462,40.6251776],[40.0774195,40.6320157],[40.0800991,40.6242462],[40.0902083,40.6098206],[40.0863894,40.6047039],[40.0765923,40.5999971],[40.0728488,40.5937212],[40.0752026,40.5844295],[40.0850218,40.5788511],[40.0903361,40.5736482],[40.09713,40.5777577],[40.1064384,40.5773985],[40.1112127,40.5805358],[40.1123284,40.5928935],[40.1153162,40.5974309],[40.1165743,40.6130709],[40.1283683,40.6228589],[40.1337149,40.6299006],[40.1211346,40.6431466],[40.1197194,40.6530495],[40.1150017,40.657225],[40.1143727,40.6649788],[40.1190903,40.6710619],[40.1475533,40.6920503],[40.1538434,40.7033766],[40.1536862,40.7065953],[40.1599763,40.7135089],[40.1599763,40.7172039],[40.1689398,40.7185149],[40.1859232,40.727215],[40.1845079,40.7330541],[40.1723994,40.7329349],[40.1670527,40.7385352],[40.1643794,40.7480666],[40.1598191,40.7514022],[40.1602908,40.7641477],[40.1555732,40.7706981],[40.1555624,40.7772126],[40.1631114,40.7806421],[40.1773679,40.7829553],[40.1807006,40.7863553],[40.1789192,40.7932489],[40.1832461,40.8018799],[40.1790081,40.8054135],[40.1810706,40.8174735],[40.1672408,40.8208163],[40.153133,40.8204671],[40.1547723,40.8294327],[40.1399738,40.8231775],[40.1357685,40.8193184],[40.1225171,40.8196009],[40.1139952,40.8307018],[40.0959828,40.8277064],[40.0942013,40.8179702],[40.0885195,40.8186394],[40.0922219,40.8061351],[40.0882632,40.8014904],[40.088659,40.7974447],[40.0953867,40.7717901],[40.0916281,40.7689681],[40.0906384,40.7578739],[40.0957918,40.7371415],[40.0938319,40.713842],[40.0897788,40.7087155],[40.0895404,40.702277],[40.0788116,40.6929715],[40.0753799,40.6824055],[40.0666236,40.6780019],[40.0433192,40.6769703]]]}},{"type":"Feature","properties":{"code":"61-11","provinceCode":"61","name":"Maçka"},"geometry":{"type":"Polygon","coordinates":[[[39.3283659,40.7236808],[39.3336009,40.7166673],[39.332034,40.7007513],[39.3408087,40.6912473],[39.3478597,40.6894652],[39.3661925,40.6829303],[39.3718333,40.6700962],[39.378571,40.6653422],[39.3986273,40.6654611],[39.4091255,40.6633217],[39.41696,40.6583295],[39.4222875,40.6506027],[39.4226009,40.6389514],[39.4249512,40.6334818],[39.4340393,40.6269414],[39.4533121,40.6232547],[39.4770037,40.6154525],[39.483898,40.6155476],[39.5073389,40.6085059],[39.5484543,40.60803],[39.5646247,40.6001309],[39.5790402,40.6048895],[39.5840543,40.608601],[39.5886923,40.6166895],[39.6036092,40.6246818],[39.6145148,40.6265846],[39.6321895,40.6271554],[39.6435965,40.6225887],[39.6538754,40.6240158],[39.6687923,40.6298192],[39.6789458,40.6304851],[39.7070246,40.6201149],[39.729588,40.631817],[39.7275824,40.6382856],[39.7309669,40.6448487],[39.736357,40.6499845],[39.7437528,40.6498894],[39.7487668,40.6552151],[39.7483908,40.6602551],[39.7555359,40.6749924],[39.7580429,40.6858295],[39.7611767,40.6911523],[39.7618035,40.6982804],[39.7650626,40.7022718],[39.7601746,40.7080323],[39.7692934,40.7200501],[39.7696143,40.7241982],[39.7752218,40.7327643],[39.7752218,40.7397404],[39.7815428,40.7443214],[39.7831917,40.7501512],[39.7789436,40.7721815],[39.77568,40.776474],[39.7654055,40.7829379],[39.7554431,40.7886602],[39.7449653,40.8062144],[39.7422171,40.8147948],[39.7439347,40.8181747],[39.7402036,40.8282781],[39.7415778,40.832827],[39.7395166,40.8458218],[39.7336765,40.8611526],[39.7270628,40.8677493],[39.7201891,40.8838902],[39.7094141,40.8901526],[39.7089003,40.8932418],[39.7161247,40.9018076],[39.7193256,40.9098865],[39.7037262,40.9148816],[39.698607,40.9102649],[39.6974367,40.9055238],[39.6903859,40.9025953],[39.6908604,40.8997404],[39.6799811,40.8961871],[39.669929,40.9038588],[39.6655083,40.9113098],[39.6576235,40.9112134],[39.66133,40.916235],[39.6581832,40.9165971],[39.6576815,40.9210934],[39.6498614,40.9142733],[39.6501396,40.9103192],[39.6444478,40.9090411],[39.6210002,40.8885921],[39.6246758,40.8838968],[39.6088326,40.8676047],[39.6043965,40.8676047],[39.6000872,40.8654002],[39.5900743,40.8653043],[39.5761323,40.8604157],[39.5680206,40.8591696],[39.5625705,40.8587861],[39.5536984,40.8626204],[39.5421645,40.860895],[39.5241667,40.8437343],[39.5171957,40.83357],[39.5065491,40.8260896],[39.4986909,40.8299258],[39.4876742,40.8283712],[39.4517045,40.8330778],[39.4473773,40.8323616],[39.4454842,40.829906],[39.4472421,40.8271433],[39.4455443,40.8212134],[39.4648612,40.8185125],[39.4640905,40.8090112],[39.4513066,40.8112895],[39.4406739,40.8040138],[39.43101,40.8038422],[39.4266017,40.8017358],[39.4073665,40.8055949],[39.3965329,40.7988964],[39.404603,40.7923919],[39.4000488,40.7899899],[39.4011306,40.7862018],[39.39775,40.7856898],[39.3931523,40.7858946],[39.3874729,40.7975656],[39.3847684,40.7984869],[39.3781424,40.7749384],[39.3743561,40.7728903],[39.3731391,40.7699205],[39.3578588,40.7549669],[39.347176,40.7528157],[39.3420375,40.7496401],[39.3410909,40.7453374],[39.3310843,40.7326326],[39.3283659,40.7236808]]]}},{"type":"Feature","properties":{"code":"61-12","provinceCode":"61","name":"Of"},"geometry":{"type":"Polygon","coordinates":[[[40.4701013,40.8417184],[40.4711057,40.8438533],[40.4771496,40.8469836],[40.4768107,40.8515754],[40.4736007,40.8576395],[40.4690436,40.8596496],[40.467453,40.8641543],[40.4638159,40.8663775],[40.4641405,40.8694029],[40.4530673,40.8771931],[40.4494749,40.8834723],[40.4448473,40.8873558],[40.4362251,40.8911676],[40.4352797,40.8934551],[40.4227298,40.9005145],[40.418783,40.9047332],[40.4173512,40.9127259],[40.4149405,40.9160258],[40.4147597,40.9323075],[40.4124469,40.9349515],[40.4092834,40.9355034],[40.4058753,40.9461887],[40.4018694,40.9526989],[40.3979631,40.9554395],[40.3987474,40.9614956],[40.37984,40.9674726],[40.3731662,40.9677228],[40.3645948,40.9651671],[40.3529466,40.9669926],[40.3429077,40.9754729],[40.3412822,40.9793533],[40.3297991,40.9883937],[40.3249306,40.9856863],[40.3250979,40.9842445],[40.3118958,40.9725433],[40.3034993,40.9690811],[40.289734,40.9602352],[40.2903501,40.9593579],[40.2825169,40.9555759],[40.283133,40.9547649],[40.2796213,40.9558151],[40.2809679,40.953841],[40.2769017,40.9531696],[40.276576,40.9548115],[40.2797357,40.9574237],[40.2761799,40.9548447],[40.2763824,40.9530433],[40.2684955,40.9493445],[40.2682578,40.9503161],[40.2643315,40.945868],[40.2600084,40.9443973],[40.24985,40.9369162],[40.2429668,40.9353914],[40.2395479,40.9324091],[40.2366224,40.932469],[40.2324281,40.9288475],[40.221304,40.9262951],[40.2208822,40.9211008],[40.2264245,40.9137718],[40.2268204,40.9097329],[40.2159337,40.8986623],[40.2127667,40.8886373],[40.2135585,40.8838487],[40.2226637,40.8712769],[40.2202884,40.8676846],[40.2131626,40.8636429],[40.2040574,40.8631938],[40.1939625,40.8551098],[40.1941605,40.8450781],[40.1977234,40.8357938],[40.1965357,40.829953],[40.1930521,40.8225483],[40.1810706,40.8174735],[40.19337,40.8176993],[40.2019392,40.816294],[40.2121782,40.8179671],[40.2243483,40.8226838],[40.2367723,40.824612],[40.250403,40.8227563],[40.2560198,40.8208245],[40.2609728,40.8131922],[40.2590255,40.8090939],[40.265517,40.8023398],[40.2678671,40.8010698],[40.2725422,40.8019124],[40.2756536,40.7985988],[40.2788529,40.7996066],[40.2836829,40.7968925],[40.2947938,40.795618],[40.2954912,40.7911994],[40.3033418,40.7830447],[40.3105616,40.7815233],[40.3192234,40.7750818],[40.3229141,40.7779092],[40.3338407,40.7819096],[40.3331637,40.7847998],[40.3396215,40.7894761],[40.3410488,40.8008736],[40.3384763,40.8053245],[40.3384763,40.8143643],[40.3416,40.8234029],[40.3445399,40.8250714],[40.3447237,40.8288254],[40.3526248,40.8320231],[40.3480311,40.837584],[40.3434375,40.837584],[40.3366389,40.8428664],[40.3362714,40.8452294],[40.3410488,40.8512062],[40.3364551,40.8546808],[40.3208367,40.8555146],[40.3186318,40.8584331],[40.3252466,40.8652424],[40.3256906,40.869841],[40.3338598,40.8768205],[40.3383475,40.8852388],[40.3392756,40.9003078],[40.3350538,40.9040826],[40.3316923,40.9045883],[40.3313216,40.9080162],[40.3281812,40.9116141],[40.3284404,40.9136097],[40.3307089,40.914108],[40.3404237,40.9118498],[40.3405153,40.9133651],[40.335976,40.9156188],[40.3377789,40.9174873],[40.3493244,40.9162404],[40.3669759,40.909718],[40.3718357,40.910307],[40.3830748,40.9186579],[40.3941387,40.9216881],[40.4038899,40.9151095],[40.3996637,40.9109438],[40.3987001,40.9011602],[40.4004564,40.8854744],[40.4013927,40.8833125],[40.408011,40.88337],[40.4067511,40.8743802],[40.4195083,40.8638528],[40.4207945,40.8539859],[40.4255719,40.8414763],[40.4242857,40.8309109],[40.4279606,40.827157],[40.4352187,40.8247132],[40.440618,40.8277803],[40.4421786,40.8314551],[40.451195,40.8397925],[40.4631339,40.8461462],[40.4701013,40.8417184]]]}},{"type":"Feature","properties":{"code":"61-13","provinceCode":"61","name":"Ortahisar"},"geometry":{"type":"Polygon","coordinates":[[[39.7654055,40.7829379],[39.7719658,40.7938857],[39.7704197,40.8129827],[39.7815198,40.8181905],[39.7828084,40.8247213],[39.7919978,40.8358905],[39.7973226,40.8536921],[39.8201046,40.8733311],[39.8238933,40.8889574],[39.822985,40.8945381],[39.8046125,40.8968581],[39.7994233,40.9073462],[39.7940258,40.9123129],[39.7932596,40.9195293],[39.7973173,40.9271717],[39.7942686,40.9303047],[39.794926,40.9368479],[39.7907838,40.9434292],[39.7915362,40.9458061],[39.796051,40.9479178],[39.7986967,40.9514504],[39.8054585,40.9539716],[39.8084307,40.9578114],[39.8146198,40.9608233],[39.8218087,40.9610894],[39.8263614,40.9662657],[39.8312967,40.9671844],[39.8371327,40.9713211],[39.8333955,40.9758907],[39.8346451,40.9805767],[39.8304239,40.9845845],[39.8247677,40.9856236],[39.8247928,40.9868118],[39.823884,40.985788],[39.8191056,40.9862586],[39.8169431,40.9871887],[39.8176967,40.9880617],[39.8116767,40.9876856],[39.7998836,40.994301],[39.7859668,40.9986299],[39.7839302,41.0000947],[39.7848005,41.0009946],[39.7804401,41.0018551],[39.7825985,41.0029323],[39.7866369,41.0009815],[39.782642,41.0032476],[39.7772823,41.0020254],[39.77472,41.0035555],[39.7674197,41.0017631],[39.7646501,41.0035603],[39.7640689,41.0024857],[39.760692,41.0031162],[39.7618495,41.0047123],[39.7664014,41.0046466],[39.7619057,41.0050904],[39.7569927,41.002562],[39.7493588,41.0022006],[39.747929,41.0039837],[39.7480519,41.0013472],[39.7445924,41.000865],[39.746518,41.0027684],[39.7455567,41.0041014],[39.7424931,41.0025579],[39.7359524,41.0042886],[39.7374249,41.0076873],[39.7500749,41.0070849],[39.7332959,41.0083086],[39.7343819,41.0090151],[39.7308985,41.0091547],[39.732169,41.0102069],[39.7272101,41.0097045],[39.7231265,41.0130054],[39.7188229,41.013335],[39.7110649,41.0103896],[39.7070707,41.010635],[39.7073876,41.0095782],[39.7041482,41.0085612],[39.7046066,41.0104881],[39.7076399,41.0117734],[39.7047543,41.0109119],[39.7030193,41.0082189],[39.6822895,41.0006683],[39.6791888,41.001363],[39.6684452,40.9982153],[39.667267,41.0005227],[39.6727976,41.0019658],[39.6666808,41.0006653],[39.6624708,40.9975109],[39.6591669,40.997307],[39.6597281,40.996376],[39.6360496,41.0039762],[39.6311637,41.007827],[39.6234061,40.9899791],[39.6184484,40.9873614],[39.6112408,40.9777379],[39.6146629,40.971805],[39.6198594,40.9691254],[39.6161838,40.9635746],[39.6174513,40.947685],[39.6158036,40.9402175],[39.6227746,40.9354302],[39.6353224,40.930068],[39.6402654,40.9235562],[39.6444478,40.9090411],[39.6501396,40.9103192],[39.6498614,40.9142733],[39.6576815,40.9210934],[39.6581832,40.9165971],[39.66133,40.916235],[39.6576235,40.9112134],[39.6655083,40.9113098],[39.669929,40.9038588],[39.6799811,40.8961871],[39.6908604,40.8997404],[39.6903859,40.9025953],[39.6974367,40.9055238],[39.698607,40.9102649],[39.7037262,40.9148816],[39.7193256,40.9098865],[39.7161247,40.9018076],[39.7089003,40.8932418],[39.7094141,40.8901526],[39.7201891,40.8838902],[39.7270628,40.8677493],[39.7336765,40.8611526],[39.7395166,40.8458218],[39.7415778,40.832827],[39.7402036,40.8282781],[39.7439347,40.8181747],[39.7422171,40.8147948],[39.7449653,40.8062144],[39.7554431,40.7886602],[39.7654055,40.7829379]]]}},{"type":"Feature","properties":{"code":"61-14","provinceCode":"61","name":"Sürmene"},"geometry":{"type":"Polygon","coordinates":[[[40.1810706,40.8174735],[40.1930521,40.8225483],[40.1965357,40.829953],[40.1977234,40.8357938],[40.1941605,40.8450781],[40.1939625,40.8551098],[40.2040574,40.8631938],[40.2131626,40.8636429],[40.2202884,40.8676846],[40.2226637,40.8712769],[40.2135585,40.8838487],[40.2127667,40.8886373],[40.2159337,40.8986623],[40.2268204,40.9097329],[40.2264245,40.9137718],[40.2208822,40.9211008],[40.221304,40.9262951],[40.2124611,40.924671],[40.2066986,40.922004],[40.205577,40.9238322],[40.2055132,40.9223213],[40.2014184,40.9222357],[40.2060291,40.9255571],[40.2011556,40.9227454],[40.197773,40.9242686],[40.1991922,40.9230202],[40.1982347,40.9213319],[40.1839852,40.9169236],[40.1826889,40.9210564],[40.1991416,40.9263195],[40.1830356,40.9217495],[40.1817046,40.9204078],[40.1833943,40.914553],[40.1638809,40.9147295],[40.15326,40.9127854],[40.1557631,40.9149463],[40.1518781,40.9129365],[40.1453682,40.912214],[40.1333567,40.9132911],[40.136399,40.9148571],[40.1319864,40.9130567],[40.121886,40.9126728],[40.1084835,40.9165674],[40.0955016,40.9172332],[40.0789906,40.9240041],[40.0732009,40.9281397],[40.0573282,40.909213],[40.0543272,40.8979001],[40.0544126,40.8922919],[40.0637629,40.8749577],[40.0625221,40.8674546],[40.0649446,40.8639841],[40.0656591,40.8582612],[40.0588798,40.858203],[40.0488301,40.8470505],[40.0511728,40.8355155],[40.0479391,40.8280322],[40.0380332,40.8175635],[40.0280305,40.8186404],[40.0271621,40.8118292],[40.0279978,40.7949296],[40.029402,40.7922818],[40.0371501,40.7869648],[40.0365504,40.7834458],[40.031603,40.7801537],[40.0313032,40.7750449],[40.027855,40.7705035],[40.0352011,40.7669836],[40.0423974,40.7596027],[40.0428472,40.7441568],[40.0380627,40.7419888],[40.0373126,40.7331293],[40.043106,40.7034808],[40.0433192,40.6769703],[40.0666236,40.6780019],[40.0753799,40.6824055],[40.0788116,40.6929715],[40.0895404,40.702277],[40.0897788,40.7087155],[40.0938319,40.713842],[40.0957918,40.7371415],[40.0906384,40.7578739],[40.0916281,40.7689681],[40.0953867,40.7717901],[40.088659,40.7974447],[40.0882632,40.8014904],[40.0922219,40.8061351],[40.0885195,40.8186394],[40.0942013,40.8179702],[40.0959828,40.8277064],[40.1139952,40.8307018],[40.1225171,40.8196009],[40.1357685,40.8193184],[40.1399738,40.8231775],[40.1547723,40.8294327],[40.153133,40.8204671],[40.1672408,40.8208163],[40.1810706,40.8174735]]]}},{"type":"Feature","properties":{"code":"61-15","provinceCode":"61","name":"Şalpazarı"},"geometry":{"type":"Polygon","coordinates":[[[39.1463469,40.8588762],[39.1458319,40.8564094],[39.1496084,40.8516052],[39.1487501,40.8452425],[39.1446303,40.8427751],[39.1314123,40.8410869],[39.1307257,40.83797],[39.1275021,40.836659],[39.1233252,40.8270892],[39.1235219,40.8177126],[39.1305026,40.8138255],[39.1370772,40.8122503],[39.1386221,40.8065335],[39.142227,40.8019856],[39.1399954,40.798737],[39.1396521,40.7918493],[39.1360472,40.78925],[39.1362189,40.7866506],[39.1387938,40.784441],[39.1373719,40.7763645],[39.1422628,40.7696513],[39.149118,40.753518],[39.1500973,40.7396068],[39.1466697,40.7355256],[39.1474532,40.7309173],[39.1535641,40.7261676],[39.1582648,40.7274738],[39.1720535,40.7392283],[39.1778511,40.7492002],[39.1880359,40.7488441],[39.197594,40.7518117],[39.2008845,40.7465887],[39.202138,40.73721],[39.2076222,40.733292],[39.2173369,40.732817],[39.2171403,40.7444054],[39.2204964,40.7465466],[39.2206731,40.7494906],[39.2242058,40.7514978],[39.232861,40.7635396],[39.2399265,40.7691584],[39.2399265,40.7734391],[39.2441658,40.7809296],[39.2443424,40.7870819],[39.2517611,40.7988499],[39.2560004,40.8156959],[39.2533509,40.8368142],[39.2581201,40.853998],[39.254446,40.8590213],[39.2455435,40.8647923],[39.2441304,40.8684257],[39.2514785,40.8755849],[39.2469566,40.8838117],[39.2410216,40.8889396],[39.240739,40.8946012],[39.243,40.8983397],[39.2319778,40.9101948],[39.2316952,40.916602],[39.2352279,40.9213003],[39.2346627,40.9239696],[39.2277385,40.9314431],[39.225195,40.9376348],[39.2203952,40.9497348],[39.221741,40.955429],[39.2138919,40.9829291],[39.2099336,40.984054],[39.1967379,40.9816451],[39.1950285,40.9832254],[39.1970744,40.993014],[39.1990527,40.9949338],[39.197781,40.996427],[39.1876197,40.9940083],[39.1771619,40.9840039],[39.1722014,40.9679213],[39.1672944,40.9624236],[39.1624536,40.9594079],[39.1512132,40.9595741],[39.1468145,40.9581153],[39.1497785,40.9547336],[39.1496043,40.9510948],[39.1408537,40.9384151],[39.1434286,40.9286887],[39.1389093,40.9146674],[39.1348456,40.9088425],[39.1397676,40.9044543],[39.1506384,40.8985927],[39.154415,40.8865245],[39.1468119,40.8793276],[39.1419026,40.8697881],[39.1420993,40.8650286],[39.147803,40.8611613],[39.1463469,40.8588762]]]}},{"type":"Feature","properties":{"code":"61-16","provinceCode":"61","name":"Tonya"},"geometry":{"type":"Polygon","coordinates":[[[39.347176,40.7528157],[39.3231061,40.7618296],[39.3197255,40.7681795],[39.3144517,40.7720711],[39.3067439,40.7724807],[39.2982248,40.778932],[39.2976839,40.789478],[39.302552,40.7930612],[39.3016799,40.8064258],[39.3122746,40.8171135],[39.3098955,40.8199158],[39.3132038,40.8209694],[39.3180434,40.8269719],[39.3166334,40.8304406],[39.3241006,40.8369586],[39.3213186,40.8389429],[39.322641,40.8454887],[39.3264738,40.8470901],[39.3283799,40.8539464],[39.3413614,40.8700025],[39.347176,40.8721499],[39.3581292,40.890655],[39.3590758,40.9039429],[39.3551543,40.9087463],[39.3536961,40.9155289],[39.3399561,40.9147775],[39.3400465,40.9293942],[39.3416736,40.9317162],[39.3345324,40.943871],[39.3230523,40.9536343],[39.3230523,40.9584813],[39.319075,40.9614166],[39.3019,40.9638057],[39.285177,40.9605292],[39.2811093,40.9584813],[39.2782167,40.954317],[39.2641151,40.9472849],[39.2573208,40.9499033],[39.2488411,40.9566377],[39.2290047,40.9546082],[39.221741,40.955429],[39.2203952,40.9497348],[39.225195,40.9376348],[39.2277385,40.9314431],[39.2346627,40.9239696],[39.2352279,40.9213003],[39.2316952,40.916602],[39.2319778,40.9101948],[39.243,40.8983397],[39.240739,40.8946012],[39.2410216,40.8889396],[39.2469566,40.8838117],[39.2514785,40.8755849],[39.2441304,40.8684257],[39.2455435,40.8647923],[39.254446,40.8590213],[39.2581201,40.853998],[39.2533509,40.8368142],[39.2560004,40.8156959],[39.2517611,40.7988499],[39.2443424,40.7870819],[39.2441658,40.7809296],[39.2399265,40.7734391],[39.2399265,40.7691584],[39.232861,40.7635396],[39.2242058,40.7514978],[39.2206731,40.7494906],[39.2204964,40.7465466],[39.2171403,40.7444054],[39.2173369,40.732817],[39.2254848,40.7318672],[39.2319091,40.7241489],[39.2414672,40.7220114],[39.2601133,40.7216551],[39.2662242,40.7198738],[39.2948985,40.7239114],[39.3283659,40.7236808],[39.3310843,40.7326326],[39.3410909,40.7453374],[39.3420375,40.7496401],[39.347176,40.7528157]]]}},{"type":"Feature","properties":{"code":"61-17","provinceCode":"61","name":"Vakfıkebir"},"geometry":{"type":"Polygon","coordinates":[[[39.3956052,40.9329241],[39.3909443,40.9399662],[39.3888256,40.9643944],[39.3850121,40.9733527],[39.37795,40.978258],[39.3756902,40.9824165],[39.3762551,40.9862548],[39.3852946,40.9975554],[39.3951815,41.0048038],[39.4032323,41.0218558],[39.387272,41.0342157],[39.3800687,41.0337895],[39.3795037,41.0413535],[39.3519616,41.061165],[39.3449437,41.0696946],[39.3376057,41.0678115],[39.3368452,41.066411],[39.3370946,41.0688641],[39.3319958,41.063939],[39.3258624,41.0623129],[39.3177946,41.0624924],[39.3101631,41.0583062],[39.290344,41.0517008],[39.2707981,41.0495011],[39.2703134,41.0507704],[39.269908,41.0496074],[39.2660394,41.0491622],[39.266621,41.0511293],[39.2715295,41.0522989],[39.266524,41.0514882],[39.2656604,41.0483979],[39.2634133,41.0479659],[39.2623822,41.0490758],[39.2617125,41.047946],[39.2598002,41.0489628],[39.2530675,41.048039],[39.2468454,41.0493163],[39.246978,41.0444347],[39.2443122,41.0432548],[39.2467056,41.0394294],[39.2442806,41.0384954],[39.2431736,41.0348827],[39.2456139,41.0297908],[39.2443588,41.0272099],[39.2486356,41.021835],[39.247225,41.0152485],[39.2420175,41.0060183],[39.2450907,40.9990766],[39.2451406,40.9905762],[39.2508607,40.9799091],[39.2488411,40.9566377],[39.2573208,40.9499033],[39.2641151,40.9472849],[39.2782167,40.954317],[39.2811093,40.9584813],[39.285177,40.9605292],[39.3019,40.9638057],[39.319075,40.9614166],[39.3230523,40.9584813],[39.3230523,40.9536343],[39.3345324,40.943871],[39.3416736,40.9317162],[39.3400465,40.9293942],[39.3399561,40.9147775],[39.3536961,40.9155289],[39.3581827,40.9166352],[39.3928591,40.9127785],[39.394335,40.9142801],[39.3934906,40.9177584],[39.4028085,40.9185174],[39.3956052,40.9329241]]]}},{"type":"Feature","properties":{"code":"61-18","provinceCode":"61","name":"Yomra"},"geometry":{"type":"Polygon","coordinates":[[[39.7696143,40.7241982],[39.7715397,40.7254142],[39.7832205,40.7252683],[39.7867504,40.7238091],[39.7964165,40.7233698],[39.8166976,40.727987],[39.8155296,40.7377107],[39.8228817,40.7446746],[39.8326994,40.7452436],[39.841522,40.7430145],[39.8450077,40.7399311],[39.8549362,40.7446033],[39.858377,40.7556528],[39.8673463,40.7631699],[39.869674,40.7709119],[39.8736441,40.7725631],[39.8756933,40.7774705],[39.8743629,40.7871866],[39.879529,40.7947649],[39.8676887,40.8013472],[39.8599945,40.8133942],[39.8640521,40.8213417],[39.874441,40.8328958],[39.8768306,40.838668],[39.8980281,40.851927],[39.8986471,40.8543697],[39.8913032,40.8675033],[39.8910283,40.8709324],[39.8933644,40.8735301],[39.891578,40.8752965],[39.8933644,40.8911917],[39.8921276,40.8964893],[39.9038077,40.9019942],[39.8998228,40.9111333],[39.9010595,40.922244],[39.9035938,40.9259672],[39.9009651,40.9292837],[39.9029118,40.9314664],[39.89858,40.9382337],[39.8976925,40.9436982],[39.9010559,40.9493605],[39.9011718,40.953965],[39.8947779,40.955062],[39.884026,40.9537874],[39.8846227,40.9546953],[39.8748565,40.9546622],[39.8705131,40.9556297],[39.8721627,40.9564116],[39.8560349,40.9587111],[39.8563781,40.9599882],[39.8538249,40.9590397],[39.8513979,40.9620661],[39.8583615,40.9610659],[39.8491226,40.9625052],[39.849866,40.9634804],[39.845274,40.9655372],[39.8430632,40.9694732],[39.8371327,40.9713211],[39.8312967,40.9671844],[39.8263614,40.9662657],[39.8218087,40.9610894],[39.8146198,40.9608233],[39.8084307,40.9578114],[39.8054585,40.9539716],[39.7986967,40.9514504],[39.796051,40.9479178],[39.7915362,40.9458061],[39.7907838,40.9434292],[39.794926,40.9368479],[39.7942686,40.9303047],[39.7973173,40.9271717],[39.7932596,40.9195293],[39.7940258,40.9123129],[39.7994233,40.9073462],[39.8046125,40.8968581],[39.822985,40.8945381],[39.8238933,40.8889574],[39.8201046,40.8733311],[39.7973226,40.8536921],[39.7919978,40.8358905],[39.7828084,40.8247213],[39.7815198,40.8181905],[39.7704197,40.8129827],[39.7719658,40.7938857],[39.7654055,40.7829379],[39.77568,40.776474],[39.7789436,40.7721815],[39.7831917,40.7501512],[39.7815428,40.7443214],[39.7752218,40.7397404],[39.7752218,40.7327643],[39.7696143,40.7241982]]]}}]}