{"type":"FeatureCollection","features":[{"type":"Feature","properties":{"code":"73-01","provinceCode":"73","name":"Beytüşşebap"},"geometry":{"type":"Polygon","coordinates":[[[42.8845218,37.7668903],[42.8407121,37.659676],[42.8318389,37.6158273],[42.7912246,37.591543],[42.7368169,37.5623915],[42.6885396,37.5593542],[42.6433276,37.5380898],[42.6303004,37.5149959],[42.6738689,37.5257948],[42.7467285,37.5153741],[42.8004774,37.5276893],[42.8948366,37.5314782],[42.9605297,37.526742],[43.0178618,37.5030568],[43.0321949,37.4708329],[43.0548888,37.4651449],[43.1313317,37.4566121],[43.1695531,37.4310077],[43.2280797,37.4310077],[43.283023,37.4205738],[43.3419272,37.401767],[43.3156351,37.4635848],[43.3064872,37.4902144],[43.3071205,37.5103768],[43.3078773,37.5360347],[43.3159642,37.542247],[43.3547944,37.5414138],[43.3958997,37.5437928],[43.4324556,37.5909264],[43.4754637,37.6320128],[43.4870128,37.6958689],[43.4991914,37.7417871],[43.4386763,37.7478448],[43.3609592,37.7550213],[43.3072673,37.7496104],[43.2558907,37.7403513],[43.2110549,37.7353051],[43.1280437,37.7425169],[43.0778169,37.7525906],[42.967712,37.7553291],[42.9536153,37.7568391],[42.9354872,37.7602812],[42.908538,37.7698422],[42.8845218,37.7668903]]]}},{"type":"Feature","properties":{"code":"73-02","provinceCode":"73","name":"Cizre"},"geometry":{"type":"Polygon","coordinates":[[[42.1150185,37.4122289],[42.1086373,37.3973383],[42.1000726,37.3904111],[42.0830199,37.3858725],[42.0552342,37.3746164],[42.064129,37.3486939],[42.0457464,37.3284209],[42.0433744,37.2803096],[42.013725,37.272288],[42.012539,37.2524665],[42.0315146,37.2321675],[42.0279567,37.2099741],[42.00757,37.1946319],[41.960356,37.1920256],[41.9299215,37.1587179],[41.9484127,37.1573081],[41.9625473,37.1605025],[41.9653897,37.1615273],[41.9667418,37.1664033],[41.9888812,37.1727384],[42.0026644,37.1814659],[42.0238497,37.1827665],[42.0299002,37.1813598],[42.0349184,37.1820479],[42.0442784,37.1877398],[42.0552491,37.1977289],[42.0792085,37.2077548],[42.0891379,37.2079916],[42.0939664,37.2204676],[42.1046658,37.230078],[42.1236539,37.2437837],[42.1292219,37.2462583],[42.1837353,37.2864236],[42.1902251,37.2945741],[42.1915491,37.2990539],[42.1901135,37.3013269],[42.1946467,37.3060557],[42.1965228,37.3118505],[42.1994168,37.3122098],[42.2069512,37.3184589],[42.2221127,37.3180603],[42.2251441,37.3161149],[42.2258935,37.3134665],[42.2248705,37.3094737],[42.206966,37.2911319],[42.2089815,37.285998],[42.2083354,37.2832863],[42.2048316,37.2805189],[42.2116324,37.2773369],[42.2219217,37.2779931],[42.2342986,37.2831846],[42.2443333,37.2798586],[42.2559241,37.2719201],[42.2607846,37.2713146],[42.2693174,37.27331],[42.2810714,37.2823826],[42.3011412,37.2988976],[42.3241195,37.3083313],[42.3293082,37.3348571],[42.3485803,37.359017],[42.3900895,37.376101],[42.3945369,37.3973033],[42.3611813,37.4102573],[42.2514784,37.4126124],[42.1944033,37.3973033],[42.1465203,37.3988988],[42.1364182,37.4046204],[42.1150185,37.4122289]]]}},{"type":"Feature","properties":{"code":"73-03","provinceCode":"73","name":"Güçlükonak"},"geometry":{"type":"Polygon","coordinates":[[[42.0950994,37.6213495],[42.0770672,37.6278065],[42.0614337,37.6203764],[42.0386903,37.6270648],[42.0153174,37.6248118],[41.9958814,37.6257352],[41.9736314,37.6397592],[41.9607131,37.6437333],[41.9484431,37.6450957],[41.9305724,37.6532929],[41.9108394,37.6656422],[41.8740465,37.6828242],[41.8578574,37.6841168],[41.8387488,37.6938986],[41.8245912,37.6933547],[41.8124738,37.695317],[41.8147588,37.6925785],[41.8140854,37.6854609],[41.8200623,37.6780356],[41.8196392,37.6681777],[41.8251997,37.6590003],[41.823759,37.64589],[41.8365342,37.6373397],[41.8300221,37.6280064],[41.8307972,37.6244113],[41.8380069,37.6200604],[41.8486499,37.6199244],[41.8516626,37.6184405],[41.8546581,37.6136696],[41.8642711,37.6114938],[41.8738842,37.6056463],[41.8766307,37.6006143],[41.8762874,37.5929976],[41.8807506,37.5900052],[41.8903637,37.5870126],[41.8972301,37.5781702],[41.8970527,37.5737782],[41.892902,37.5695171],[41.890707,37.5544945],[41.8874989,37.5548721],[41.8820652,37.5513934],[41.8728623,37.5491881],[41.8678702,37.5458489],[41.8529415,37.5513644],[41.8510532,37.5485063],[41.8553447,37.5380259],[41.855113,37.5304384],[41.8425572,37.5209191],[41.8378806,37.5205327],[41.8381786,37.5170607],[41.8529415,37.4994944],[41.8546581,37.4935018],[41.8534565,37.4851931],[41.8560314,37.4767473],[41.8498516,37.4707529],[41.8486499,37.4670743],[41.8603354,37.4575699],[41.8576746,37.451097],[41.8477612,37.4455435],[41.8464737,37.4414207],[41.8581038,37.4309252],[41.8652661,37.4177752],[41.8706689,37.4154144],[41.8742919,37.4155659],[41.8815097,37.4167762],[41.8846851,37.4159032],[41.8861506,37.4131548],[41.8854178,37.4088218],[41.8880915,37.405717],[41.8934439,37.4047556],[41.906116,37.4112688],[41.9109751,37.4122339],[41.9379896,37.4134559],[41.9438589,37.4203774],[41.9368024,37.4349484],[41.9440081,37.4340605],[41.9525351,37.4265592],[41.9600502,37.4248023],[41.9710916,37.430213],[41.9915906,37.4236028],[42.0140774,37.4254774],[42.0256264,37.4216202],[42.0298554,37.4180774],[42.0402279,37.4167471],[42.0437308,37.4131075],[42.0619251,37.4046939],[42.0713565,37.4031311],[42.0773827,37.3978495],[42.0829576,37.395313],[42.1000726,37.3904111],[42.1086373,37.3973383],[42.1150185,37.4122289],[42.1023754,37.4309544],[42.0645723,37.473322],[42.0393703,37.4944968],[42.0356641,37.5203689],[42.0682785,37.5620983],[42.0950994,37.6213495]]]}},{"type":"Feature","properties":{"code":"73-04","provinceCode":"73","name":"Silopi"},"geometry":{"type":"Polygon","coordinates":[[[42.3945369,37.3973033],[42.3900895,37.376101],[42.3485803,37.359017],[42.3293082,37.3348571],[42.3241195,37.3083313],[42.3011412,37.2988976],[42.2810714,37.2823826],[42.2841238,37.2814702],[42.2884068,37.2749396],[42.289469,37.2646343],[42.2925184,37.2611411],[42.3054522,37.2602522],[42.3111716,37.2564448],[42.3159007,37.2470167],[42.3280053,37.2398405],[42.3385022,37.2370545],[42.3427238,37.2324391],[42.3433128,37.2298009],[42.3398672,37.2213783],[42.3475056,37.2167177],[42.3474349,37.213331],[42.3377265,37.2098341],[42.3281502,37.1995895],[42.3206053,37.1853955],[42.3229802,37.1766577],[42.3310112,37.1642802],[42.3298462,37.1575368],[42.3382372,37.1448574],[42.3525269,37.1303173],[42.3550566,37.1235944],[42.3529752,37.1195365],[42.3515054,37.1052646],[42.3555255,37.1053084],[42.360667,37.1084654],[42.3630534,37.1152802],[42.3709554,37.1123572],[42.3807274,37.1148872],[42.384335,37.1107523],[42.4035582,37.1131232],[42.4124414,37.1214395],[42.4351795,37.1264138],[42.4364137,37.1302302],[42.4480603,37.1369078],[42.4603535,37.1334303],[42.4640588,37.1421592],[42.477826,37.1355518],[42.4839476,37.1347917],[42.4878639,37.1379973],[42.4948916,37.1366185],[42.504132,37.1387477],[42.508131,37.141166],[42.5259905,37.1438669],[42.5336208,37.1419321],[42.5490196,37.1488215],[42.562848,37.1476834],[42.5709777,37.1436214],[42.5788336,37.1458548],[42.5809156,37.1498699],[42.5808296,37.1617335],[42.5859297,37.1698818],[42.601132,37.1809427],[42.6011356,37.189842],[42.6089786,37.1961427],[42.6103404,37.2003803],[42.615535,37.2003602],[42.6174562,37.2019327],[42.6186023,37.2067021],[42.6133521,37.2116778],[42.6127064,37.214627],[42.6178998,37.2153383],[42.6175644,37.2184916],[42.620929,37.2188008],[42.6229666,37.2164298],[42.6246427,37.2192674],[42.6299552,37.2194804],[42.6289039,37.2239329],[42.6338713,37.2260929],[42.6367767,37.2328154],[42.642732,37.2329355],[42.6475006,37.2423207],[42.6527401,37.2433155],[42.6551016,37.246285],[42.6500294,37.2552437],[42.6582139,37.2631218],[42.6536594,37.2651339],[42.6537914,37.2666526],[42.6603474,37.2678181],[42.6609594,37.2719592],[42.6712372,37.2713755],[42.6752875,37.2737677],[42.6771681,37.2732612],[42.6757079,37.2698545],[42.682862,37.2708725],[42.6823629,37.2744148],[42.68524,37.2788038],[42.6814429,37.2811931],[42.6845893,37.2826254],[42.6874511,37.2873606],[42.6907244,37.2869909],[42.6924349,37.290647],[42.6961057,37.2902212],[42.6975793,37.2916888],[42.696141,37.2955486],[42.6939319,37.2961178],[42.6907886,37.2944067],[42.6933349,37.3016931],[42.6888325,37.3042615],[42.6879197,37.3083068],[42.695092,37.3099664],[42.7007572,37.3098551],[42.706639,37.3071412],[42.7132057,37.3083582],[42.7161773,37.3116819],[42.7241094,37.313284],[42.7262728,37.315525],[42.7254779,37.3192237],[42.7276933,37.319996],[42.7316241,37.3171655],[42.7352888,37.3184959],[42.7365485,37.3198683],[42.732979,37.3213425],[42.733037,37.3237618],[42.7360248,37.3302159],[42.7333262,37.3362198],[42.7294381,37.3367593],[42.7249531,37.3406099],[42.7079956,37.3354177],[42.6956251,37.3395029],[42.6724184,37.3589483],[42.668028,37.3863627],[42.6385492,37.3868611],[42.6096977,37.3808806],[42.5581026,37.3856713],[42.5212615,37.3758966],[42.4541944,37.3772385],[42.4478782,37.378887],[42.4252988,37.3933393],[42.3945369,37.3973033]]]}},{"type":"Feature","properties":{"code":"73-05","provinceCode":"73","name":"Şırnak merkez"},"geometry":{"type":"Polygon","coordinates":[[[42.0950994,37.6213495],[42.0682785,37.5620983],[42.0356641,37.5203689],[42.0393703,37.4944968],[42.0645723,37.473322],[42.1023754,37.4309544],[42.1150185,37.4122289],[42.1364182,37.4046204],[42.1465203,37.3988988],[42.1944033,37.3973033],[42.2514784,37.4126124],[42.3611813,37.4102573],[42.3945369,37.3973033],[42.4252988,37.3933393],[42.4478782,37.378887],[42.4541944,37.3772385],[42.5212615,37.3758966],[42.5581026,37.3856713],[42.6096977,37.3808806],[42.6385492,37.3868611],[42.668028,37.3863627],[42.6739798,37.4128107],[42.6826427,37.4219257],[42.6862407,37.4377616],[42.6839418,37.4669619],[42.6632515,37.4888546],[42.6348982,37.4967588],[42.6303004,37.5149959],[42.6433276,37.5380898],[42.6885396,37.5593542],[42.7368169,37.5623915],[42.7912246,37.591543],[42.8318389,37.6158273],[42.8407121,37.659676],[42.8242887,37.6601761],[42.778177,37.6786759],[42.6777418,37.6981708],[42.5848866,37.7191596],[42.5292998,37.7266541],[42.4920314,37.7256549],[42.4629746,37.7166612],[42.4433929,37.70017],[42.4219162,37.6921729],[42.4042103,37.6983782],[42.39064,37.711817],[42.3764639,37.7073324],[42.3625336,37.7097685],[42.3573306,37.6828621],[42.3626476,37.6737614],[42.3528558,37.6669243],[42.3239563,37.6604301],[42.3146339,37.6500973],[42.3158829,37.6397712],[42.3022198,37.6348176],[42.282995,37.6481801],[42.2682082,37.6554115],[42.2572078,37.6558543],[42.2525466,37.6493592],[42.2639199,37.6419777],[42.2696265,37.6240086],[42.2758208,37.6197218],[42.2793456,37.6140592],[42.2788306,37.6102156],[42.2827426,37.6056319],[42.2794449,37.6026458],[42.2629469,37.5975181],[42.2478818,37.5818304],[42.1995481,37.6012269],[42.1536959,37.6066718],[42.1475023,37.6301986],[42.1193907,37.6297947],[42.0950994,37.6213495]]]}},{"type":"Feature","properties":{"code":"73-06","provinceCode":"73","name":"Uludere"},"geometry":{"type":"Polygon","coordinates":[[[42.668028,37.3863627],[42.6724184,37.3589483],[42.6956251,37.3395029],[42.7079956,37.3354177],[42.7249531,37.3406099],[42.7294381,37.3367593],[42.7333262,37.3362198],[42.7406516,37.3389579],[42.7462118,37.347593],[42.75356,37.34769],[42.7567216,37.3498126],[42.760295,37.354512],[42.7734673,37.3650521],[42.7796214,37.375359],[42.7855832,37.3754842],[42.789221,37.380245],[42.7936634,37.3806687],[42.8093535,37.3753221],[42.8172796,37.3749161],[42.8243848,37.3710545],[42.8257792,37.3694709],[42.825892,37.361537],[42.822053,37.360137],[42.827105,37.35385],[42.826802,37.34909],[42.834737,37.344524],[42.8353479,37.3425108],[42.8405737,37.3431599],[42.8471914,37.3475743],[42.8513992,37.3481259],[42.864544,37.344397],[42.871954,37.337651],[42.881182,37.338745],[42.887783,37.333348],[42.897551,37.328715],[42.904556,37.32953],[42.9218,37.327417],[42.928368,37.322223],[42.949822,37.318328],[42.956727,37.312422],[42.959657,37.312422],[42.963463,37.315579],[42.973196,37.326093],[42.98778,37.326093],[42.989868,37.328664],[43.010143,37.332355],[43.020954,37.344066],[43.022714,37.355927],[43.029518,37.356975],[43.034427,37.354045],[43.060057,37.356922],[43.06484,37.359213],[43.0717848,37.3665019],[43.0789931,37.3660738],[43.0814874,37.3677317],[43.1039406,37.3675079],[43.1122869,37.3723733],[43.121456,37.370644],[43.125228,37.372349],[43.132099,37.372731],[43.1363823,37.3700458],[43.1433192,37.3729246],[43.1469378,37.3728965],[43.1510958,37.3708742],[43.1526696,37.3657682],[43.1611755,37.3623544],[43.1599909,37.3600236],[43.1622487,37.3577042],[43.1672424,37.3600452],[43.169573,37.3586388],[43.1692882,37.3570532],[43.1872091,37.3595131],[43.192354,37.35711],[43.1947567,37.357442],[43.20074,37.350125],[43.208418,37.347223],[43.219451,37.345787],[43.2249021,37.3478314],[43.2353595,37.3479576],[43.2420756,37.3451343],[43.242001,37.342914],[43.247212,37.3378833],[43.2477398,37.3334859],[43.250276,37.330154],[43.269248,37.328886],[43.269173,37.314408],[43.288443,37.312155],[43.301488,37.303705],[43.31103,37.303705],[43.317665,37.30624],[43.317441,37.317141],[43.323405,37.321225],[43.325641,37.325281],[43.3313508,37.3270843],[43.3303545,37.3332803],[43.3328939,37.3501138],[43.3329514,37.3675461],[43.3419272,37.401767],[43.283023,37.4205738],[43.2280797,37.4310077],[43.1695531,37.4310077],[43.1313317,37.4566121],[43.0548888,37.4651449],[43.0321949,37.4708329],[43.0178618,37.5030568],[42.9605297,37.526742],[42.8948366,37.5314782],[42.8004774,37.5276893],[42.7467285,37.5153741],[42.6738689,37.5257948],[42.6303004,37.5149959],[42.6348982,37.4967588],[42.6632515,37.4888546],[42.6839418,37.4669619],[42.6862407,37.4377616],[42.6826427,37.4219257],[42.6739798,37.4128107],[42.668028,37.3863627]]]}}]}