{"type":"FeatureCollection","features":[{"type":"Feature","properties":{"code":"07-01","provinceCode":"07","name":"Akseki"},"geometry":{"type":"Polygon","coordinates":[[[31.464689,36.9962615],[31.4975668,36.9642877],[31.5354477,36.9180161],[31.5576045,36.8985851],[31.580476,36.8860094],[31.5990592,36.8814359],[31.6355107,36.8820076],[31.6742677,36.8679803],[31.6956716,36.8574919],[31.715328,36.8406777],[31.7383735,36.8124648],[31.765498,36.7886127],[31.7742436,36.8128533],[31.828995,36.8407429],[31.8906889,36.8669124],[31.9173785,36.8833356],[31.9255907,36.9139829],[31.9687046,36.9539153],[31.989235,36.9839875],[32.0083968,37.0249759],[32.0198071,37.0807799],[31.9841783,37.1024896],[31.9652333,37.1158957],[31.9476225,37.1361067],[31.9324131,37.1669446],[31.9233408,37.2018083],[31.938593,37.2221899],[31.9260479,37.2353798],[31.9104579,37.2479046],[31.8894057,37.2522047],[31.8630416,37.2816685],[31.8419516,37.2904378],[31.842045,37.3016516],[31.8142437,37.3111855],[31.7829264,37.3289863],[31.7718675,37.3368055],[31.7699892,37.3458758],[31.7733433,37.3519703],[31.7663157,37.3581912],[31.7699892,37.3640309],[31.7689792,37.3699984],[31.7398025,37.3696161],[31.7346049,37.372887],[31.7273231,37.3726498],[31.724322,37.3680394],[31.7194865,37.3647528],[31.7193174,37.3593185],[31.7123096,37.3564372],[31.7016299,37.3437172],[31.6932022,37.3452714],[31.6794189,37.3372831],[31.681186,37.3320343],[31.6887726,37.3282561],[31.6893715,37.3242871],[31.6833821,37.3185714],[31.6595986,37.3138647],[31.6474455,37.3060271],[31.6442512,37.3006277],[31.6542335,37.2883981],[31.6498413,37.2850624],[31.6346546,37.2833107],[31.604122,37.2880804],[31.587152,37.2839505],[31.5776447,37.285076],[31.5531539,37.2792591],[31.5495292,37.186695],[31.5699216,37.1687367],[31.6182195,37.1601836],[31.6590044,37.1567621],[31.6879831,37.1464967],[31.7002747,37.1253681],[31.6203661,37.0394823],[31.5806545,37.0137764],[31.5473826,37.0009202],[31.5130374,37.0009202],[31.4915717,37.0060629],[31.464689,36.9962615]]]}},{"type":"Feature","properties":{"code":"07-02","provinceCode":"07","name":"Aksu"},"geometry":{"type":"Polygon","coordinates":[[[30.7721579,37.1473088],[30.7553746,37.1384474],[30.7376232,37.1262854],[30.7441413,37.106269],[30.7539878,37.1020661],[30.7555133,37.0887918],[30.7728487,37.0822646],[30.7904709,37.0798305],[30.7873985,37.0776966],[30.7875349,37.0745423],[30.7843084,37.0707352],[30.7789006,37.0707352],[30.7809455,37.0653687],[30.7839903,37.0652961],[30.7847628,37.063483],[30.7824906,37.0633017],[30.7839903,37.0609083],[30.7828087,37.0597479],[30.7791732,37.0611259],[30.7789915,37.0533651],[30.7742199,37.047816],[30.7795822,37.0451682],[30.7844447,37.0364626],[30.7810819,37.025688],[30.7833995,37.0256517],[30.7838994,37.0224227],[30.790216,37.0115372],[30.7957147,37.0063117],[30.795533,37.0045334],[30.7983959,37.0045334],[30.7983505,37.0061665],[30.8014861,37.0081261],[30.8054851,37.0051141],[30.8090297,37.005985],[30.8185327,37.0034274],[30.8282862,36.9957924],[30.8313985,36.9954832],[30.8329609,36.9928212],[30.8260024,36.9910631],[30.8228071,36.9878871],[30.8166364,36.9867075],[30.8110979,36.9786532],[30.8024352,36.9787667],[30.7917134,36.9815461],[30.7835477,36.9740585],[30.7733939,36.974569],[30.7717608,36.970598],[30.7694176,36.9704846],[30.7673584,36.9611803],[30.7687075,36.9574924],[30.7717608,36.9574924],[30.7734649,36.9501726],[30.7771572,36.9501726],[30.7780093,36.9455762],[30.7861749,36.9423414],[30.7907193,36.9351338],[30.8035003,36.9296282],[30.8177756,36.9290954],[30.8145681,36.9182352],[30.8141907,36.9034509],[30.8102285,36.8803635],[30.8204171,36.8791561],[30.8224925,36.8815708],[30.8202284,36.8903236],[30.8326811,36.8894182],[30.8449451,36.8903236],[30.8466432,36.8951523],[30.8509828,36.8966612],[30.8600393,36.8959067],[30.8600393,36.8939451],[30.8530582,36.8928889],[30.8468319,36.8841364],[30.8364516,36.8802608],[30.8345196,36.8777881],[30.8335535,36.8703694],[30.8360242,36.8699149],[30.8417854,36.8760177],[30.8477365,36.874701],[30.8515984,36.876043],[30.8581509,36.8752074],[30.859702,36.8689019],[30.8661141,36.8640506],[30.8603272,36.8594206],[30.8615637,36.8572045],[30.8669725,36.8559229],[30.8672674,36.8520092],[30.9132703,36.8535945],[30.9205418,36.8526616],[30.920737,36.8539628],[30.9221965,36.8538034],[30.9213793,36.8514287],[30.9231072,36.8539303],[30.944147,36.8551958],[30.9437535,36.8566073],[30.9474383,36.857119],[30.9487558,36.8567803],[30.9447237,36.8560027],[30.9445573,36.8548983],[30.9640651,36.8570464],[30.96186,36.8587741],[30.9639034,36.8620648],[30.9697792,36.8646244],[30.9768007,36.8734049],[30.9761494,36.8800303],[30.9749808,36.883184],[30.9711347,36.8854953],[30.9681061,36.8977527],[30.9671784,36.8991126],[30.9585519,36.9012528],[30.9444939,36.9025821],[30.9381717,36.9057418],[30.9346154,36.9100774],[30.9313208,36.9101183],[30.9303347,36.9196139],[30.9275478,36.9237614],[30.9245465,36.9250639],[30.9218024,36.9306849],[30.9251467,36.9392185],[30.9237318,36.9413089],[30.9242464,36.946586],[30.9221669,36.949807],[30.9276871,36.9596574],[30.9264009,36.9684361],[30.9211486,36.970577],[30.9183752,36.9756958],[30.9287645,36.9822869],[30.9294905,36.9841974],[30.9279967,36.985801],[30.9192339,36.9846728],[30.9191032,36.9903316],[30.9137859,36.9916652],[30.9136466,37.005063],[30.9204902,37.0084358],[30.9150156,37.0203055],[30.9167767,37.0222685],[30.9163556,37.0262927],[30.9081836,37.0321441],[30.9096992,37.0349919],[30.9119825,37.0349665],[30.9129739,37.0414365],[30.9171062,37.0428143],[30.919988,37.0486891],[30.913268,37.0511171],[30.9121024,37.0546886],[30.9013291,37.0631892],[30.8999621,37.0711282],[30.8927656,37.072871],[30.892793,37.0753288],[30.8990228,37.0793592],[30.9007067,37.0837206],[30.8983594,37.0854173],[30.8952385,37.0926984],[30.8866718,37.0925702],[30.8844895,37.0937909],[30.882198,37.1068302],[30.8775736,37.1096555],[30.8751916,37.1094165],[30.8724845,37.1060189],[30.8650878,37.1143837],[30.8575652,37.116705],[30.8555393,37.1145261],[30.8486053,37.1143861],[30.8411337,37.1239956],[30.8365061,37.1262813],[30.8355418,37.1321983],[30.8304003,37.1357469],[30.8245602,37.1498408],[30.8225,37.1507986],[30.821638,37.1581925],[30.8192325,37.1598358],[30.8173427,37.1658676],[30.8196591,37.170919],[30.8254457,37.1758834],[30.8297377,37.18625],[30.8386378,37.1897771],[30.8379707,37.2052285],[30.8343529,37.2135914],[30.8361177,37.2169643],[30.8471475,37.2198453],[30.8459484,37.2386949],[30.8242159,37.2403189],[30.8171607,37.2394922],[30.7979906,37.2322513],[30.7717091,37.2309026],[30.7517889,37.23749],[30.746679,37.2237868],[30.7465427,37.1976078],[30.7546498,37.1794576],[30.7653702,37.1751152],[30.7676085,37.1682522],[30.7572448,37.163703],[30.7549821,37.1572001],[30.7585304,37.1573507],[30.7603303,37.1550965],[30.776529,37.1524324],[30.7721579,37.1473088]]]}},{"type":"Feature","properties":{"code":"07-03","provinceCode":"07","name":"Alanya"},"geometry":{"type":"Polygon","coordinates":[[[32.4697526,36.7531936],[32.437312,36.7574088],[32.4226702,36.7524381],[32.3985983,36.738916],[32.3649174,36.6999909],[32.3539584,36.6904397],[32.3372818,36.682161],[32.3129815,36.6756647],[32.2940813,36.6728622],[32.2648574,36.6718431],[32.2351571,36.6733718],[32.2130803,36.6774481],[32.1466913,36.6940056],[32.0926907,36.6983355],[32.0255076,36.6918406],[31.9924719,36.6857273],[31.9288147,36.6677921],[31.910391,36.6642249],[31.8912557,36.6627165],[31.8722475,36.6630426],[31.843786,36.6682609],[31.8312833,36.6742125],[31.8144096,36.6861145],[31.7917421,36.6949175],[31.7609589,36.6994001],[31.734937,36.6978874],[31.7275657,36.694952],[31.7231429,36.6935407],[31.7225407,36.6907358],[31.7114824,36.6886709],[31.7080446,36.6860585],[31.7084641,36.6826306],[31.6976487,36.6795983],[31.693099,36.6740901],[31.688002,36.6759863],[31.6857599,36.6751473],[31.6831556,36.6727673],[31.6860327,36.6675768],[31.6838916,36.6645785],[31.6758917,36.6646098],[31.6756823,36.6674339],[31.6740761,36.6677674],[31.6702031,36.6626459],[31.6675293,36.6626355],[31.6618718,36.6652272],[31.6628914,36.6680701],[31.6600077,36.6702601],[31.6520343,36.6655597],[31.6461579,36.664896],[31.6528505,36.6611941],[31.6634023,36.651748],[31.6641328,36.6492012],[31.668862,36.6500178],[31.6731065,36.6485793],[31.6744606,36.6463495],[31.672162,36.644092],[31.680572,36.645536],[31.6813662,36.6486497],[31.6829127,36.6477757],[31.6862558,36.6493704],[31.6902525,36.6470813],[31.6947422,36.6473075],[31.701979,36.642816],[31.7099575,36.6421553],[31.7116466,36.6432113],[31.7215057,36.6404553],[31.721806,36.639049],[31.724973,36.6403697],[31.7257817,36.6390474],[31.7243351,36.6384049],[31.7258304,36.6379172],[31.7351389,36.6417425],[31.7392327,36.6396378],[31.7402631,36.6371407],[31.7416348,36.6384017],[31.744774,36.638136],[31.7540976,36.6312212],[31.7534696,36.6269113],[31.7579877,36.6256865],[31.7577407,36.6233275],[31.7620637,36.6241972],[31.7622928,36.6218915],[31.7743106,36.6143857],[31.7753794,36.608288],[31.774177,36.6066432],[31.7708224,36.6069646],[31.7773925,36.603562],[31.7789545,36.6056232],[31.7807147,36.6049495],[31.7843649,36.6071672],[31.7872483,36.6069074],[31.797798,36.600199],[31.8159363,36.5937048],[31.822709,36.5952818],[31.830173,36.595029],[31.8641872,36.5856888],[31.895861,36.572321],[31.9025413,36.5719383],[31.9189234,36.5635734],[31.9244955,36.5638956],[31.9384895,36.558619],[31.9453808,36.5592234],[31.9481998,36.5569412],[31.9516941,36.5574306],[31.9471603,36.5581732],[31.9478998,36.5602591],[31.9501861,36.5581685],[31.9517264,36.5594816],[31.953687,36.5588417],[31.9530211,36.5574655],[31.9575594,36.558983],[31.9642801,36.5574646],[31.9763142,36.5509295],[31.9886304,36.5410372],[31.989119,36.5371093],[31.9872148,36.5346136],[31.9884547,36.5299769],[31.9856813,36.5272755],[31.9895756,36.5298282],[31.9932882,36.5291394],[32.0000765,36.5306524],[31.9984038,36.5358532],[32.0046646,36.5389484],[31.9994491,36.5368014],[31.9992041,36.5397201],[32.0023379,36.5415036],[32.003409,36.5394574],[32.0040945,36.5421759],[32.0097199,36.5431705],[32.0207468,36.540951],[32.0454736,36.5278604],[32.0653344,36.5117435],[32.0770053,36.5042636],[32.1000045,36.4809839],[32.114746,36.469195],[32.123311,36.4554702],[32.1235378,36.4504449],[32.1311136,36.4442338],[32.1345223,36.4374756],[32.1398932,36.4366787],[32.1489588,36.4315028],[32.16524,36.41766],[32.193643,36.376232],[32.1938786,36.3695557],[32.202231,36.359846],[32.2138281,36.338909],[32.217411,36.334767],[32.220596,36.333889],[32.2214325,36.330843],[32.226676,36.329175],[32.2301457,36.3226522],[32.2338192,36.3210254],[32.2336822,36.3189135],[32.2351715,36.3198124],[32.2421523,36.3177232],[32.246031,36.31414],[32.246058,36.311314],[32.249109,36.3075544],[32.2519994,36.3091287],[32.2526,36.3115],[32.2499,36.3154],[32.2553,36.3256],[32.2517,36.3332],[32.2674,36.3357],[32.2696,36.3341],[32.2675,36.3318],[32.2686,36.3295],[32.2652,36.3294],[32.2679,36.3276],[32.2703,36.3303],[32.2688,36.3321],[32.2708,36.3325],[32.2705,36.335],[32.2762,36.3359],[32.2759,36.3346],[32.2789,36.333],[32.2806,36.3348],[32.2795,36.3364],[32.2811,36.3395],[32.2765,36.3469],[32.2791,36.3511],[32.2767,36.3579],[32.2827,36.3685],[32.2808,36.3755],[32.2847,36.3856],[32.2948,36.3885],[32.2943,36.3923],[32.2987138,36.3999755],[32.2970151,36.4021144],[32.298367,36.4049294],[32.3055339,36.409385],[32.3070359,36.4148418],[32.3040533,36.4185198],[32.3087311,36.4230091],[32.3061776,36.4289311],[32.3104477,36.4320646],[32.3146641,36.4319092],[32.3190093,36.4359921],[32.3255539,36.4359575],[32.3337936,36.4381154],[32.3387396,36.4418613],[32.3392009,36.4482825],[32.3414762,36.4480673],[32.3489427,36.4527355],[32.3538673,36.4541594],[32.3709368,36.4541163],[32.3807,36.4557],[32.3836,36.4594],[32.3849,36.4662],[32.3898,36.4648],[32.3953,36.4684],[32.3931,36.4689],[32.3904,36.4738],[32.394,36.4857],[32.3994,36.4918],[32.3961,36.4922],[32.3944,36.4943],[32.3995,36.4974],[32.4031,36.4968],[32.4072,36.5005],[32.4171,36.5013],[32.4276,36.5081],[32.4321,36.5076],[32.4371,36.5109],[32.4464,36.5139],[32.4503946,36.5136718],[32.4524545,36.5160172],[32.456383,36.5168083],[32.4553942,36.5188971],[32.4572611,36.5182936],[32.4578619,36.5198456],[32.4625611,36.5203802],[32.4579263,36.5275362],[32.4594927,36.5316399],[32.4580335,36.5395363],[32.4606014,36.5407923],[32.461338,36.5445013],[32.4702644,36.5486385],[32.4713421,36.5504619],[32.4789332,36.552879],[32.488594,36.5530629],[32.4948978,36.5557748],[32.4997901,36.5601182],[32.4997901,36.5629448],[32.5027083,36.5640478],[32.5027083,36.5683908],[32.5053691,36.5716996],[32.5112914,36.5747326],[32.5013,36.5822],[32.4982,36.5915],[32.5037,36.5982],[32.5106,36.6004],[32.5137,36.618],[32.5188,36.6271],[32.4843,36.6524],[32.4876,36.657],[32.4991,36.6596],[32.4750503,36.7225657],[32.4697526,36.7531936]]]}},{"type":"Feature","properties":{"code":"07-04","provinceCode":"07","name":"Demre"},"geometry":{"type":"Polygon","coordinates":[[[29.9195079,36.4029987],[29.8650011,36.3474468],[29.8703595,36.3334311],[29.8683443,36.3241316],[29.8629274,36.3052176],[29.8468669,36.2911248],[29.8457265,36.2863756],[29.8478693,36.2707861],[29.8359382,36.263468],[29.8145843,36.2453258],[29.8122499,36.2329268],[29.8079115,36.2241495],[29.7934647,36.2122676],[29.7888923,36.1947586],[29.799726,36.1957556],[29.8168097,36.1885294],[29.8203194,36.1781924],[29.8231604,36.1757796],[29.8233367,36.1812587],[29.8215951,36.183328],[29.8311691,36.1776244],[29.8327437,36.1796205],[29.8318668,36.1817337],[29.8344275,36.182661],[29.8374965,36.1873359],[29.8433569,36.1881082],[29.8438319,36.1901189],[29.8466074,36.1889614],[29.8492893,36.1907172],[29.8498686,36.1926776],[29.848401,36.1934643],[29.8319739,36.1859334],[29.8294419,36.1864616],[29.830725,36.187831],[29.8275135,36.1881417],[29.8420992,36.1958975],[29.8486371,36.1972189],[29.8638761,36.196707],[29.8603263,36.1938488],[29.8538451,36.1922773],[29.8572754,36.1922872],[29.8574617,36.1889823],[29.8681915,36.1912298],[29.8692993,36.1932424],[29.8715633,36.1913994],[29.8763096,36.193426],[29.8804818,36.1916364],[29.8802504,36.1939459],[29.8869239,36.1939265],[29.8846865,36.1952703],[29.8877708,36.1955676],[29.8898202,36.1975889],[29.8878589,36.2003137],[29.8940179,36.2008082],[29.8921629,36.2016838],[29.8952222,36.2018182],[29.8945813,36.2029177],[29.8977669,36.2024378],[29.8957453,36.2060668],[29.8897189,36.2046471],[29.894009,36.206993],[29.8881807,36.2123222],[29.8946659,36.2118751],[29.895433,36.2135312],[29.8965414,36.2124231],[29.9030918,36.2159416],[29.9073329,36.2162038],[29.9083096,36.2177412],[29.9065922,36.2195407],[29.9034312,36.2188323],[29.9061446,36.2210863],[29.9039746,36.2223929],[29.9063478,36.2252496],[29.9029076,36.2253363],[29.9059808,36.2274135],[29.908846,36.2254878],[29.9126167,36.2285521],[29.9208152,36.2291908],[29.9236887,36.2308727],[29.9222434,36.2340844],[29.9301602,36.2336369],[29.9388428,36.2279567],[29.9396064,36.2297095],[29.9415966,36.2289608],[29.945169,36.2241837],[29.9404078,36.2232798],[29.9455631,36.2197292],[29.9510903,36.2222865],[29.9565729,36.222226],[29.9564607,36.2201761],[29.9611761,36.2206759],[29.964152,36.2193635],[29.9765894,36.2207259],[29.9813974,36.2180841],[29.9794436,36.215049],[29.9837146,36.2117406],[29.9887728,36.2135366],[29.9834371,36.2121251],[29.9819111,36.2142016],[29.9858219,36.2158224],[29.9869961,36.214031],[29.9860044,36.2165729],[29.9887186,36.2184301],[29.986367,36.2200774],[29.9915546,36.224711],[30.0126555,36.2330953],[30.0509582,36.2544954],[30.0663479,36.2588653],[30.0715172,36.2580389],[30.0701251,36.258573],[30.0697598,36.2601882],[30.0579635,36.2713945],[30.0579307,36.2795696],[30.0542566,36.2959567],[30.0489969,36.309627],[30.0404875,36.3240782],[30.0212642,36.335287],[30.0108626,36.3439873],[29.9894981,36.3512162],[29.9602961,36.4024376],[29.9522134,36.4072642],[29.942827,36.4104117],[29.9195079,36.4029987]]]}},{"type":"Feature","properties":{"code":"07-05","provinceCode":"07","name":"Döşemealtı"},"geometry":{"type":"Polygon","coordinates":[[[30.4269549,37.235923],[30.4228213,37.2213577],[30.4310737,37.2108129],[30.4324052,37.1953551],[30.4237692,37.1847838],[30.4221894,37.1791619],[30.4229266,37.1747145],[30.420399,37.1684205],[30.4191352,37.1529769],[30.4214608,37.1471717],[30.4200365,37.1392666],[30.4155544,37.1350115],[30.4142906,37.1303935],[30.4286138,37.119981],[30.4284032,37.1025957],[30.4624207,37.1010837],[30.4843563,37.104625],[30.4986457,37.1012383],[30.5071386,37.0895179],[30.5093629,37.0788175],[30.5026899,37.0671475],[30.5001286,37.0661256],[30.5012745,37.0608546],[30.4995894,37.0590258],[30.5007352,37.0557446],[30.4981065,37.0463306],[30.4991176,37.0442324],[30.4974325,37.040036],[30.4923098,37.0365495],[30.5000722,37.0279477],[30.4967337,37.0244233],[30.4970306,37.0210192],[30.4883356,37.0123544],[30.4817975,37.0014278],[30.4611997,36.9817469],[30.4566285,36.974534],[30.4578627,36.9663169],[30.455916,36.9589832],[30.4496347,36.9538252],[30.4399669,36.9370568],[30.4321448,36.927986],[30.4312173,36.922761],[30.4441093,36.9161607],[30.4465575,36.9180942],[30.4468784,36.9224143],[30.4561682,36.9300367],[30.4688506,36.930066],[30.4743375,36.9258258],[30.4760197,36.921111],[30.4809031,36.9208479],[30.483491,36.9177116],[30.4892524,36.9200659],[30.4965039,36.9260967],[30.5069651,36.9281069],[30.5164203,36.9279461],[30.5181303,36.9305996],[30.5240469,36.9306285],[30.5407926,36.9396997],[30.5585322,36.9448739],[30.5665326,36.9488826],[30.5840537,36.9446002],[30.5980811,36.9442265],[30.6038676,36.9466513],[30.6250532,36.9508841],[30.643929,36.9576624],[30.643868,36.9658348],[30.6469891,36.9696632],[30.6438391,36.9766701],[30.6441024,36.9818186],[30.6505531,36.9888689],[30.6512195,36.9931996],[30.6620914,36.9964526],[30.6628079,37.0078047],[30.6549579,37.0131719],[30.6417253,37.0257733],[30.6451837,37.0360456],[30.6494999,37.0418477],[30.6471303,37.043634],[30.6459454,37.0515144],[30.6406796,37.0546126],[30.6387249,37.0599916],[30.6351525,37.0617128],[30.6169843,37.0622061],[30.6164388,37.0717292],[30.6221935,37.0711013],[30.6272115,37.0682364],[30.6329034,37.0683418],[30.6318161,37.0735876],[30.6227007,37.0912725],[30.6240734,37.1003596],[30.6395274,37.1118028],[30.6420299,37.1149044],[30.6428013,37.1200302],[30.6530862,37.1190051],[30.661057,37.1235155],[30.6646568,37.1231055],[30.6664566,37.1167498],[30.6731418,37.1062924],[30.6775129,37.1028063],[30.6829125,37.104857],[30.679827,37.1112137],[30.6841981,37.1175699],[30.6811126,37.1235155],[30.6793128,37.1433992],[30.6880549,37.1433992],[30.6942259,37.1468834],[30.6939688,37.1505724],[30.7065678,37.1501626],[30.7065678,37.1534415],[30.71531,37.1497527],[30.729966,37.1495477],[30.7335657,37.1542613],[30.7423079,37.1573352],[30.7474741,37.1518176],[30.7539022,37.1516127],[30.7572448,37.1485386],[30.7721579,37.1473088],[30.776529,37.1524324],[30.7603303,37.1550965],[30.7585304,37.1573507],[30.7549821,37.1572001],[30.7572448,37.163703],[30.7676085,37.1682522],[30.7653702,37.1751152],[30.7546498,37.1794576],[30.7465427,37.1976078],[30.746679,37.2237868],[30.7517889,37.23749],[30.7420508,37.2443768],[30.7297369,37.242139],[30.7150207,37.2457478],[30.6739527,37.2510908],[30.6072324,37.2459261],[30.5996621,37.2423692],[30.5763748,37.243326],[30.5637025,37.2367042],[30.5435271,37.2366277],[30.5359892,37.2340736],[30.514419,37.2360109],[30.5035999,37.2405603],[30.4785343,37.2456746],[30.4606199,37.2452523],[30.4409359,37.2354457],[30.4269549,37.235923]]]}},{"type":"Feature","properties":{"code":"07-06","provinceCode":"07","name":"Elmalı"},"geometry":{"type":"Polygon","coordinates":[[[29.6674329,36.6191853],[29.6724309,36.6152972],[29.6924395,36.6104541],[29.7047708,36.6017532],[29.7237724,36.5834445],[29.731482,36.5729704],[29.7398456,36.5507753],[29.7638139,36.5252492],[29.7585983,36.5132235],[29.7876761,36.4919723],[29.836618,36.5317587],[29.8686755,36.5437582],[29.87385,36.5422887],[29.9054336,36.546148],[29.9158721,36.541837],[29.9260785,36.5419387],[29.9348267,36.5449993],[29.974627,36.5437059],[29.9983482,36.5459486],[30.003432,36.5580513],[30.0112197,36.562212],[30.0156788,36.5587066],[30.052227,36.5644536],[30.0746952,36.5698507],[30.0805535,36.5732303],[30.0975545,36.5988448],[30.1210252,36.6057153],[30.1337732,36.6202175],[30.1385686,36.6363969],[30.181147,36.708552],[30.1808102,36.7494362],[30.1897973,36.7604731],[30.1952254,36.8001919],[30.230355,36.8356848],[30.208098,36.8380826],[30.1894753,36.848771],[30.157706,36.8607336],[30.1275719,36.8797951],[30.0978082,36.904075],[30.0874439,36.9163076],[30.0625888,36.926833],[30.0183156,36.925292],[29.9961706,36.9216708],[29.9790586,36.9166411],[29.9368832,36.8808991],[29.8969825,36.8674379],[29.8665723,36.8616647],[29.8293311,36.8706825],[29.8100752,36.8692185],[29.7799564,36.8792668],[29.771756,36.878964],[29.7671208,36.8414701],[29.7592656,36.8160402],[29.7500529,36.8032938],[29.7424036,36.7662766],[29.7396869,36.7426244],[29.6952766,36.7041804],[29.6934483,36.6870299],[29.6848702,36.6527115],[29.6674329,36.6191853]]]}},{"type":"Feature","properties":{"code":"07-07","provinceCode":"07","name":"Finike"},"geometry":{"type":"Polygon","coordinates":[[[29.7876761,36.4919723],[29.8422103,36.4555747],[29.8426622,36.4503295],[29.8494852,36.4496351],[29.8551483,36.4439705],[29.854263,36.4394211],[29.8651324,36.4297023],[29.8753325,36.4346552],[29.896052,36.4288342],[29.9038238,36.4143896],[29.9195079,36.4029987],[29.942827,36.4104117],[29.9522134,36.4072642],[29.9602961,36.4024376],[29.9894981,36.3512162],[30.0108626,36.3439873],[30.0212642,36.335287],[30.0404875,36.3240782],[30.0489969,36.309627],[30.0542566,36.2959567],[30.0579307,36.2795696],[30.0579635,36.2713945],[30.0697598,36.2601882],[30.0705014,36.2586975],[30.0713131,36.2597387],[30.0733148,36.2592768],[30.0756018,36.2567552],[30.0795464,36.2565629],[30.079127,36.254241],[30.0819988,36.2537348],[30.0818043,36.2521856],[30.0840688,36.253509],[30.0850064,36.2500076],[30.0906986,36.2508834],[30.0968113,36.2474599],[30.1002607,36.2468332],[30.1012432,36.248863],[30.1047425,36.246344],[30.1073728,36.2469547],[30.1092041,36.2499543],[30.111834,36.2466739],[30.1143718,36.2469362],[30.1172549,36.2483786],[30.1175051,36.251992],[30.1198462,36.2509702],[30.1198395,36.2570282],[30.1221051,36.2585275],[30.1212522,36.2630592],[30.1280442,36.2622301],[30.1285119,36.2640891],[30.1314117,36.2653255],[30.1303136,36.2684417],[30.1337778,36.2719841],[30.1330573,36.2732872],[30.1388119,36.2788499],[30.1412259,36.2788239],[30.143735,36.2763156],[30.1400406,36.2712683],[30.1400203,36.26751],[30.1418265,36.2663263],[30.1446118,36.2670249],[30.1512188,36.272646],[30.1486326,36.2749268],[30.1525799,36.2746065],[30.1536247,36.2781999],[30.1511793,36.2797548],[30.150439,36.2833267],[30.1524199,36.2867715],[30.1493806,36.2893713],[30.149636,36.2915828],[30.1534077,36.2946653],[30.1501167,36.2922811],[30.1513792,36.2936818],[30.14812,36.2933838],[30.1486588,36.2956658],[30.1520025,36.2948441],[30.1471111,36.2966833],[30.149817,36.3016766],[30.166882,36.309264],[30.1863357,36.3141043],[30.2522827,36.3159192],[30.2522805,36.3267797],[30.2489883,36.3343779],[30.2455309,36.3376264],[30.2449593,36.3477822],[30.2428013,36.3524914],[30.2400237,36.3563055],[30.2340822,36.3576383],[30.2053387,36.380028],[30.1961458,36.3952522],[30.1947095,36.4037258],[30.2082827,36.4248855],[30.2213611,36.4521629],[30.2214901,36.4661007],[30.2069642,36.4833136],[30.1900214,36.4921325],[30.1336217,36.5327019],[30.12214,36.5355505],[30.0594376,36.5424716],[30.052227,36.5644536],[30.0156788,36.5587066],[30.0112197,36.562212],[30.003432,36.5580513],[29.9983482,36.5459486],[29.974627,36.5437059],[29.9348267,36.5449993],[29.9260785,36.5419387],[29.9158721,36.541837],[29.9054336,36.546148],[29.87385,36.5422887],[29.8686755,36.5437582],[29.836618,36.5317587],[29.7876761,36.4919723]]]}},{"type":"Feature","properties":{"code":"07-08","provinceCode":"07","name":"Gazipaşa"},"geometry":{"type":"Polygon","coordinates":[[[32.5112914,36.5747326],[32.5053691,36.5716996],[32.5027083,36.5683908],[32.5027083,36.5640478],[32.4997901,36.5629448],[32.4997901,36.5601182],[32.4948978,36.5557748],[32.488594,36.5530629],[32.4789332,36.552879],[32.4713421,36.5504619],[32.4702644,36.5486385],[32.461338,36.5445013],[32.4606014,36.5407923],[32.4580335,36.5395363],[32.4594927,36.5316399],[32.4579263,36.5275362],[32.4625611,36.5203802],[32.4578619,36.5198456],[32.4572611,36.5182936],[32.4553942,36.5188971],[32.456383,36.5168083],[32.4524545,36.5160172],[32.4503946,36.5136718],[32.4464,36.5139],[32.4371,36.5109],[32.4321,36.5076],[32.4276,36.5081],[32.4171,36.5013],[32.4072,36.5005],[32.4031,36.4968],[32.3995,36.4974],[32.3944,36.4943],[32.3961,36.4922],[32.3994,36.4918],[32.394,36.4857],[32.3904,36.4738],[32.3931,36.4689],[32.3953,36.4684],[32.3898,36.4648],[32.3849,36.4662],[32.3836,36.4594],[32.3807,36.4557],[32.3709368,36.4541163],[32.3538673,36.4541594],[32.3489427,36.4527355],[32.3414762,36.4480673],[32.3392009,36.4482825],[32.3387396,36.4418613],[32.3337936,36.4381154],[32.3255539,36.4359575],[32.3190093,36.4359921],[32.3146641,36.4319092],[32.3104477,36.4320646],[32.3061776,36.4289311],[32.3087311,36.4230091],[32.3040533,36.4185198],[32.3070359,36.4148418],[32.3055339,36.409385],[32.298367,36.4049294],[32.2970151,36.4021144],[32.2987138,36.3999755],[32.2943,36.3923],[32.2948,36.3885],[32.2847,36.3856],[32.2808,36.3755],[32.2827,36.3685],[32.2767,36.3579],[32.2791,36.3511],[32.2765,36.3469],[32.2811,36.3395],[32.2795,36.3364],[32.2806,36.3348],[32.2789,36.333],[32.2759,36.3346],[32.2762,36.3359],[32.2705,36.335],[32.2708,36.3325],[32.2688,36.3321],[32.2703,36.3303],[32.2679,36.3276],[32.2652,36.3294],[32.2686,36.3295],[32.2675,36.3318],[32.2696,36.3341],[32.2674,36.3357],[32.2517,36.3332],[32.2553,36.3256],[32.2499,36.3154],[32.2526,36.3115],[32.2519994,36.3091287],[32.2555793,36.307562],[32.2750915,36.2888119],[32.2765246,36.2855989],[32.2740078,36.2837452],[32.2781749,36.2766009],[32.2797993,36.2677602],[32.2783051,36.265472],[32.2801797,36.2645136],[32.27971,36.2628475],[32.2782469,36.26311],[32.2771396,36.2663363],[32.2782652,36.2623426],[32.2755804,36.2629789],[32.285629,36.2542716],[32.2970886,36.2368275],[32.2953286,36.2351445],[32.3065301,36.2296673],[32.3111831,36.2290974],[32.3204847,36.2231408],[32.3294547,36.2219388],[32.3330591,36.218654],[32.3328613,36.2162065],[32.335593,36.216521],[32.33656,36.214728],[32.339083,36.216283],[32.351514,36.208386],[32.3519538,36.2057173],[32.3603483,36.2007841],[32.3644008,36.1936736],[32.366856,36.193052],[32.371345,36.186652],[32.374525,36.185384],[32.3748306,36.1815154],[32.3797849,36.1753877],[32.3798346,36.1729647],[32.388905,36.170299],[32.390844,36.165426],[32.389591,36.163622],[32.397816,36.165333],[32.400371,36.162648],[32.402896,36.164074],[32.40481,36.162285],[32.409554,36.163465],[32.411469,36.161676],[32.412729,36.16271],[32.415443,36.159896],[32.4128028,36.1570658],[32.4176189,36.1548903],[32.4161964,36.1535203],[32.4214057,36.1532638],[32.4234696,36.150207],[32.4319109,36.1469563],[32.4365748,36.1420687],[32.4401789,36.1427598],[32.442058,36.1415694],[32.441737,36.138182],[32.4452453,36.1394518],[32.460452,36.134541],[32.462693,36.131083],[32.466824,36.129046],[32.467795,36.125967],[32.472236,36.124959],[32.472248,36.12316],[32.478592,36.121646],[32.477972,36.119588],[32.482424,36.116781],[32.482123,36.114467],[32.488558,36.1135605],[32.488489,36.109355],[32.49576,36.111313],[32.501499,36.105042],[32.511945,36.105599],[32.517058,36.097912],[32.520868,36.096128],[32.52625,36.096149],[32.526576,36.094609],[32.534498,36.093483],[32.549692,36.093798],[32.554095,36.098954],[32.5623691,36.1007266],[32.5632181,36.1105888],[32.5681329,36.1131594],[32.5685406,36.1162969],[32.5783467,36.1223462],[32.584548,36.1233515],[32.588346,36.1348421],[32.5856555,36.1408922],[32.5896549,36.1431773],[32.5899982,36.145118],[32.5928735,36.1455685],[32.5928,36.1481],[32.5884,36.1516],[32.5772,36.1558],[32.5733,36.1641],[32.5798,36.1732],[32.581,36.1793],[32.5726,36.1903],[32.564,36.1929],[32.5563,36.1976],[32.553,36.2043],[32.5465,36.2065],[32.5461,36.2116],[32.5396,36.2169],[32.5405,36.2179],[32.5375,36.2254],[32.5503,36.2321],[32.5551,36.2331],[32.5582,36.2318],[32.5678,36.2375],[32.5789,36.2392],[32.5873,36.2462],[32.6023,36.2511],[32.6067,36.2505],[32.615,36.2643],[32.6203,36.2695],[32.6186,36.2735],[32.6215,36.2772],[32.6167,36.2818],[32.6182,36.2876],[32.6145,36.2994],[32.6,36.3085],[32.5951,36.3101],[32.5906,36.3151],[32.5762,36.3563],[32.5697,36.3591],[32.5666,36.3572],[32.5312,36.3638],[32.5237,36.3632],[32.5237,36.3688],[32.5178,36.3884],[32.5109,36.3983],[32.5264,36.4061],[32.5267,36.4116],[32.5353,36.4185],[32.5398,36.4191],[32.5422,36.4224],[32.5556,36.4246],[32.583,36.4426],[32.6126,36.4547],[32.6236,36.471],[32.6036,36.5014],[32.5899122,36.5075667],[32.5854,36.5127],[32.5585,36.5167],[32.5508,36.5227],[32.5388,36.5287],[32.5188,36.5284],[32.5161,36.5299],[32.5144,36.5347],[32.5103,36.5381],[32.5087,36.5473],[32.5135,36.5601],[32.5112914,36.5747326]]]}},{"type":"Feature","properties":{"code":"07-09","provinceCode":"07","name":"Gündoğmuş"},"geometry":{"type":"Polygon","coordinates":[[[32.1832366,36.9857765],[32.1386737,37.0107116],[32.0983822,37.0256251],[32.0626268,37.0416006],[32.0372778,37.0622572],[32.0198071,37.0807799],[32.0083968,37.0249759],[31.989235,36.9839875],[31.9687046,36.9539153],[31.9255907,36.9139829],[31.9173785,36.8833356],[31.8906889,36.8669124],[31.828995,36.8407429],[31.7742436,36.8128533],[31.765498,36.7886127],[31.7567523,36.7692147],[31.7511462,36.7467572],[31.7518243,36.7378091],[31.7541842,36.734486],[31.7532566,36.732008],[31.7479282,36.726472],[31.7414192,36.724293],[31.7323095,36.7138091],[31.7296211,36.7074727],[31.7298886,36.7016934],[31.7260106,36.6981457],[31.7275657,36.694952],[31.734937,36.6978874],[31.7609589,36.6994001],[31.7917421,36.6949175],[31.8144096,36.6861145],[31.8312833,36.6742125],[31.843786,36.6682609],[31.8722475,36.6630426],[31.8912557,36.6627165],[31.910391,36.6642249],[31.9288147,36.6677921],[31.9924719,36.6857273],[32.0255076,36.6918406],[32.0926907,36.6983355],[32.1466913,36.6940056],[32.2130803,36.6774481],[32.2351571,36.6733718],[32.2648574,36.6718431],[32.2940813,36.6728622],[32.3129815,36.6756647],[32.3372818,36.682161],[32.3539584,36.6904397],[32.3649174,36.6999909],[32.3985983,36.738916],[32.4226702,36.7524381],[32.437312,36.7574088],[32.4697526,36.7531936],[32.4371699,36.7769213],[32.3958991,36.7969148],[32.3657471,36.8073839],[32.3492036,36.8155017],[32.3339942,36.8293856],[32.3193185,36.8492458],[32.3003735,36.8823347],[32.271022,36.9162625],[32.236334,36.9456971],[32.1832366,36.9857765]]]}},{"type":"Feature","properties":{"code":"07-10","provinceCode":"07","name":"Hadim"},"geometry":{"type":"Polygon","coordinates":[[[32.1832366,36.9857765],[32.236334,36.9456971],[32.271022,36.9162625],[32.3003735,36.8823347],[32.3193185,36.8492458],[32.3339942,36.8293856],[32.3492036,36.8155017],[32.3657471,36.8073839],[32.3958991,36.7969148],[32.4371699,36.7769213],[32.4498294,36.7930383],[32.460642,36.8176254],[32.4651833,36.8313007],[32.4645346,36.846012],[32.4591283,36.8550104],[32.4483156,36.8614124],[32.4204189,36.8856317],[32.3917956,36.8908966],[32.3881972,36.8947707],[32.3883356,36.9130316],[32.3931797,36.9202241],[32.3999614,36.9239861],[32.4357643,36.9532871],[32.4699855,36.9548389],[32.4664664,36.9566136],[32.4680489,36.9594384],[32.4649322,36.9616374],[32.4687195,36.9636434],[32.4759614,36.9628633],[32.4847054,36.9652893],[32.5036955,36.9619974],[32.5213766,36.9615688],[32.5206041,36.9594256],[32.5265694,36.9621003],[32.5304317,36.9660779],[32.534337,36.9663179],[32.5412035,36.9641577],[32.5481558,36.9591169],[32.5502586,36.9543845],[32.5542068,36.9524297],[32.5519243,36.9504448],[32.5592494,36.9507149],[32.5648069,36.9471137],[32.5696135,36.9477311],[32.5726175,36.9460162],[32.5751495,36.9461877],[32.5783253,36.9497546],[32.5837326,36.9507492],[32.6004267,36.9601114],[32.6060486,36.965975],[32.6241803,36.9669351],[32.6420331,36.9460848],[32.6544142,36.9426206],[32.653807,36.9373987],[32.6325292,36.9240535],[32.6398546,36.9185225],[32.6650864,36.917221],[32.7086316,36.9191732],[32.7281659,36.9142926],[32.7363052,36.9087609],[32.7493281,36.8924889],[32.7639789,36.8823985],[32.791315,36.8750676],[32.804093,36.8917652],[32.8006776,36.9142278],[32.8045022,36.9534014],[32.8113267,36.9783119],[32.8057631,36.9838383],[32.7949786,37.005707],[32.764648,37.0398348],[32.7502615,37.0507556],[32.746242,37.044814],[32.7366904,37.043054],[32.7306481,37.0383418],[32.712073,37.0361254],[32.7053708,37.0299794],[32.7015435,37.0285533],[32.6924007,37.0287312],[32.6740864,37.0378147],[32.6681929,37.0486389],[32.6667532,37.0643415],[32.6705925,37.0748719],[32.6446772,37.0932487],[32.6223613,37.1024355],[32.6021171,37.1130758],[32.5865191,37.1027795],[32.5379466,37.0893038],[32.523613,37.0878273],[32.5136481,37.0899471],[32.4940504,37.1008099],[32.483864,37.1099051],[32.4745633,37.114055],[32.465152,37.1160858],[32.4206419,37.1167921],[32.3774604,37.1084041],[32.3409223,37.0951579],[32.3278571,37.0832344],[32.3244248,37.0766094],[32.3174493,37.0524011],[32.3111381,37.0430338],[32.2833972,37.0487674],[32.2598689,37.0573278],[32.2455096,37.0592606],[32.2318424,37.0588464],[32.2257366,37.0571449],[32.2229248,37.0519693],[32.2188163,37.0264852],[32.196499,36.9967841],[32.1832366,36.9857765]]]}},{"type":"Feature","properties":{"code":"07-11","provinceCode":"07","name":"İbradi"},"geometry":{"type":"Polygon","coordinates":[[[31.4124492,37.3471048],[31.378206,37.3163967],[31.3531903,37.2868325],[31.3303188,37.2379126],[31.3238861,37.2077484],[31.3224567,37.1855444],[31.3267451,37.1661817],[31.340325,37.1439655],[31.3438987,37.1302907],[31.3446135,37.1040739],[31.3660555,37.0653019],[31.3903565,37.0436265],[31.4318111,37.020233],[31.464689,36.9962615],[31.4915717,37.0060629],[31.5130374,37.0009202],[31.5473826,37.0009202],[31.5806545,37.0137764],[31.6203661,37.0394823],[31.7002747,37.1253681],[31.6879831,37.1464967],[31.6590044,37.1567621],[31.6182195,37.1601836],[31.5699216,37.1687367],[31.5495292,37.186695],[31.5531539,37.2792591],[31.5329181,37.2861884],[31.5315597,37.2965469],[31.4747973,37.3260382],[31.4507825,37.3307061],[31.4124492,37.3471048]]]}},{"type":"Feature","properties":{"code":"07-12","provinceCode":"07","name":"Kaş"},"geometry":{"type":"Polygon","coordinates":[[[29.2620365,36.2932422],[29.3140686,36.250706],[29.3154132,36.2485756],[29.3138173,36.2468929],[29.3302077,36.2479679],[29.3329303,36.2434539],[29.3391822,36.2418824],[29.3471348,36.2368423],[29.353323,36.2300553],[29.3584996,36.2309834],[29.3604666,36.2333682],[29.362871,36.2330818],[29.3690824,36.2382425],[29.3703248,36.2443941],[29.3748236,36.2511735],[29.3734463,36.2564286],[29.3681572,36.2594719],[29.3676343,36.2612452],[29.3695759,36.2632486],[29.3870679,36.2612136],[29.3897273,36.2645939],[29.3923277,36.2650264],[29.3955149,36.2642698],[29.4013598,36.2583747],[29.4065534,36.2600695],[29.4088536,36.2624944],[29.4147658,36.260973],[29.4140982,36.2631147],[29.4175644,36.2596776],[29.4152339,36.2517024],[29.4138685,36.2497005],[29.411665,36.2499851],[29.408779,36.243567],[29.4050753,36.2447718],[29.4047481,36.243703],[29.4062414,36.2357116],[29.4127338,36.2243889],[29.4235813,36.2318932],[29.4303308,36.2325614],[29.431523,36.23052],[29.437888,36.2311011],[29.4388787,36.2298918],[29.4512156,36.2279305],[29.455356,36.2256039],[29.454098,36.2206948],[29.4595501,36.2214419],[29.4705238,36.2143089],[29.477631,36.2118626],[29.482201,36.2127748],[29.500418,36.2093749],[29.5124557,36.2094306],[29.5134566,36.2112005],[29.5173452,36.209706],[29.5439613,36.2118148],[29.5504545,36.2102109],[29.5679338,36.2099014],[29.5717341,36.2088039],[29.5702566,36.2051518],[29.573599,36.20263],[29.5787661,36.2026843],[29.5797417,36.2014129],[29.5834577,36.2031147],[29.5856866,36.2010593],[29.5921417,36.2031139],[29.5954391,36.2025561],[29.601896,36.2056198],[29.6022577,36.2070329],[29.6111593,36.2084523],[29.6249337,36.2066771],[29.6242301,36.2047954],[29.6250584,36.2066485],[29.6314845,36.2050982],[29.6344202,36.2028146],[29.6315298,36.2010604],[29.6285291,36.2022511],[29.6244482,36.2007431],[29.6160718,36.2046533],[29.6115797,36.2038413],[29.603595,36.1969279],[29.5935449,36.1949574],[29.5918072,36.1917983],[29.5856211,36.1906646],[29.584318,36.1863211],[29.5899907,36.1843276],[29.5962937,36.1880659],[29.6092948,36.1878295],[29.6088961,36.1917111],[29.6124489,36.1972644],[29.6170951,36.1969534],[29.6247206,36.1998569],[29.6309768,36.1975908],[29.637556,36.1988213],[29.6425729,36.1965077],[29.6410237,36.1990998],[29.6439896,36.1975042],[29.6473045,36.1925882],[29.6515888,36.1917436],[29.6503723,36.1904058],[29.6512121,36.1738348],[29.6499857,36.1724405],[29.6469097,36.1735696],[29.6468138,36.1754022],[29.6435546,36.174077],[29.6402945,36.1786835],[29.6413371,36.1832359],[29.63073,36.171977],[29.6312578,36.1693032],[29.6418289,36.1654196],[29.6443027,36.1593186],[29.6508831,36.1604626],[29.6506295,36.158464],[29.6565281,36.1542156],[29.6543047,36.1540126],[29.6576806,36.1529252],[29.6526141,36.1504648],[29.655216,36.147663],[29.6651422,36.1464521],[29.665279,36.1504493],[29.66774,36.1519203],[29.678131,36.1535688],[29.675772,36.1493246],[29.6796158,36.1469155],[29.6779107,36.1438553],[29.6806583,36.1415651],[29.6790544,36.1400343],[29.6836959,36.1347524],[29.6836103,36.1310266],[29.693238,36.143033],[29.6936713,36.1484902],[29.6951746,36.1493794],[29.7003476,36.1444551],[29.7002595,36.1486238],[29.7097535,36.1485672],[29.7130561,36.1520406],[29.7137009,36.1574844],[29.7197607,36.1629756],[29.7238165,36.1637257],[29.7292802,36.1633891],[29.7317102,36.1601534],[29.7335401,36.1610421],[29.7318229,36.159033],[29.7362234,36.156432],[29.7411591,36.1572266],[29.741641,36.159212],[29.7456435,36.1591533],[29.7464213,36.1624947],[29.7511554,36.1598123],[29.7526918,36.1562769],[29.7556494,36.1545246],[29.762304,36.1556334],[29.7665387,36.1589905],[29.7715601,36.1605583],[29.7763889,36.1603511],[29.7800482,36.1584572],[29.7880857,36.1589972],[29.7706491,36.1532774],[29.7566664,36.142258],[29.7689811,36.1402515],[29.7708876,36.1383809],[29.7773982,36.137188],[29.7839464,36.1403917],[29.7807385,36.1412523],[29.7847195,36.1423565],[29.7847784,36.1443237],[29.7930952,36.1433746],[29.7943847,36.147106],[29.8037121,36.1496753],[29.8073458,36.1514951],[29.8072744,36.1532186],[29.810566,36.1533423],[29.8120014,36.1557648],[29.8107907,36.1566956],[29.8136377,36.1571654],[29.8157036,36.1599988],[29.8178803,36.1594383],[29.8164938,36.162346],[29.819837,36.162532],[29.8201942,36.163974],[29.8231518,36.1618336],[29.8236836,36.1646715],[29.8255071,36.1646414],[29.8243212,36.1655914],[29.8293554,36.1677505],[29.828781,36.1693101],[29.8218057,36.1685296],[29.8183686,36.1664219],[29.811873,36.1673102],[29.7999168,36.1626774],[29.8014826,36.1662854],[29.8091696,36.171138],[29.812,36.1710642],[29.8161536,36.1734924],[29.8151646,36.1760146],[29.8231604,36.1757796],[29.8203194,36.1781924],[29.8168097,36.1885294],[29.799726,36.1957556],[29.7888923,36.1947586],[29.7934647,36.2122676],[29.8079115,36.2241495],[29.8122499,36.2329268],[29.8145843,36.2453258],[29.8359382,36.263468],[29.8478693,36.2707861],[29.8457265,36.2863756],[29.8468669,36.2911248],[29.8629274,36.3052176],[29.8683443,36.3241316],[29.8703595,36.3334311],[29.8650011,36.3474468],[29.9195079,36.4029987],[29.9038238,36.4143896],[29.896052,36.4288342],[29.8753325,36.4346552],[29.8651324,36.4297023],[29.854263,36.4394211],[29.8551483,36.4439705],[29.8494852,36.4496351],[29.8426622,36.4503295],[29.8422103,36.4555747],[29.7876761,36.4919723],[29.7585983,36.5132235],[29.7638139,36.5252492],[29.7398456,36.5507753],[29.731482,36.5729704],[29.7237724,36.5834445],[29.7047708,36.6017532],[29.6924395,36.6104541],[29.6724309,36.6152972],[29.6674329,36.6191853],[29.6594159,36.6125217],[29.6552773,36.6061734],[29.6438878,36.6017294],[29.6425187,36.5981174],[29.6243228,36.5896264],[29.611276,36.5650663],[29.5999914,36.5632692],[29.5798619,36.5459244],[29.5374569,36.520546],[29.5115943,36.5019241],[29.4972428,36.4824765],[29.4892721,36.4752125],[29.4724995,36.4677654],[29.4669415,36.4680403],[29.4537804,36.4616113],[29.4383421,36.4628884],[29.4264301,36.467501],[29.4084117,36.4685614],[29.4075672,36.4723945],[29.401433,36.4740592],[29.3933371,36.4736079],[29.3734908,36.466027],[29.3681251,36.4660281],[29.3628583,36.4627904],[29.3582641,36.4585555],[29.3575733,36.4546536],[29.3506792,36.4499969],[29.3491513,36.4463976],[29.3440475,36.4439566],[29.3389546,36.4368661],[29.3361097,36.4361255],[29.3333285,36.4385984],[29.321925,36.4385509],[29.3165421,36.4295247],[29.324283,36.4236419],[29.3261752,36.4195582],[29.3238538,36.4042927],[29.3313746,36.4042017],[29.3293544,36.4010666],[29.3355043,36.395568],[29.3341503,36.3937914],[29.3253489,36.3925871],[29.3243885,36.3877429],[29.3149744,36.3889539],[29.3129324,36.3878614],[29.3163974,36.3853647],[29.3153233,36.3793853],[29.3182196,36.3779354],[29.3133318,36.3755522],[29.3132532,36.3717844],[29.3106647,36.3703324],[29.3191893,36.3652128],[29.3152676,36.3617074],[29.3173052,36.3492917],[29.3120294,36.3427956],[29.3124813,36.3381251],[29.3151853,36.334558],[29.3133357,36.3312804],[29.3149681,36.3289213],[29.3149085,36.3204591],[29.3057243,36.3135254],[29.3051212,36.3087662],[29.2988573,36.3114375],[29.294087,36.3106181],[29.2877023,36.3065293],[29.2867869,36.3103448],[29.2845737,36.3111671],[29.281865,36.3058565],[29.2774676,36.3072608],[29.2757194,36.3063756],[29.2761567,36.3044238],[29.2837375,36.3026497],[29.285026,36.296423],[29.2830301,36.2941576],[29.2651514,36.294541],[29.2620365,36.2932422]]]}},{"type":"Feature","properties":{"code":"07-13","provinceCode":"07","name":"Kemer"},"geometry":{"type":"Polygon","coordinates":[[[30.4034709,36.6830081],[30.4004812,36.6756949],[30.4202135,36.6567495],[30.4226982,36.6480996],[30.4305466,36.5902353],[30.4301328,36.5760577],[30.4263654,36.565582],[30.4084766,36.5340703],[30.4007177,36.5136327],[30.4108474,36.4880886],[30.4240894,36.4630214],[30.4298122,36.4437163],[30.4363802,36.4295105],[30.4403577,36.4259319],[30.4500484,36.4247972],[30.4633371,36.4128902],[30.4762867,36.398088],[30.4864119,36.4205808],[30.4881509,36.4223886],[30.491674,36.4218032],[30.4882772,36.4234722],[30.4883601,36.4262211],[30.4863919,36.4262636],[30.4873102,36.4302783],[30.481888,36.431524],[30.4809611,36.4348616],[30.4844053,36.4374659],[30.4875543,36.4357229],[30.4866816,36.4374751],[30.4894786,36.4393541],[30.4971895,36.4359773],[30.4995436,36.4384327],[30.5050968,36.4369331],[30.509278,36.4401776],[30.5111274,36.445553],[30.5091198,36.4478719],[30.5113446,36.4488496],[30.5114334,36.4544441],[30.5173366,36.4565743],[30.5099075,36.4593197],[30.5113092,36.4622226],[30.506566,36.46492],[30.5065279,36.467644],[30.5077247,36.4692503],[30.5171321,36.4700663],[30.5171596,36.4715555],[30.514749,36.47254],[30.5154583,36.4740245],[30.5211804,36.4741491],[30.5169707,36.4756173],[30.5164575,36.479345],[30.519414,36.480857],[30.5226209,36.4790301],[30.5215295,36.4818332],[30.5280806,36.4920266],[30.5407177,36.5094662],[30.544039,36.51021],[30.5411951,36.5217523],[30.548908,36.523977],[30.55269,36.520074],[30.555011,36.522176],[30.5512531,36.5273409],[30.556208,36.52965],[30.555767,36.5307551],[30.5626447,36.5314207],[30.565645,36.533182],[30.556878,36.5348106],[30.5573149,36.5362687],[30.5605891,36.5371226],[30.5576549,36.5387975],[30.5577129,36.5410676],[30.5885183,36.5793099],[30.5853421,36.5849703],[30.58866,36.5854067],[30.5899147,36.5901858],[30.5923025,36.5912727],[30.5892574,36.5988636],[30.5842644,36.5957319],[30.5778945,36.5958215],[30.5749944,36.5993882],[30.5779981,36.6006218],[30.572133,36.6023693],[30.5741189,36.6008063],[30.5710146,36.5997951],[30.5724431,36.6012611],[30.570379,36.6005934],[30.5684505,36.601732],[30.5597995,36.6123348],[30.5566122,36.6219019],[30.5582622,36.6302613],[30.5558849,36.6328755],[30.5605524,36.6439469],[30.5560963,36.6438406],[30.5546885,36.6482612],[30.5700999,36.6756714],[30.571774,36.693075],[30.5754341,36.7024505],[30.5653804,36.7180498],[30.5643612,36.7268213],[30.5618516,36.7270026],[30.5636741,36.7270206],[30.5660341,36.73672],[30.5704125,36.7453076],[30.5678852,36.7514182],[30.573108,36.7651178],[30.5737335,36.7785027],[30.5671318,36.7784625],[30.5642871,36.7769193],[30.5626524,36.7623437],[30.5542196,36.7613123],[30.5435122,36.7490029],[30.5413029,36.7423454],[30.5366895,36.7407979],[30.5347154,36.7351061],[30.5294583,36.731512],[30.5216477,36.7296203],[30.5211971,36.720591],[30.5157039,36.7166522],[30.5170772,36.7099953],[30.5124849,36.7033688],[30.5012099,36.6982935],[30.4860111,36.7008061],[30.4731627,36.705831],[30.4615677,36.7035698],[30.4593525,36.6916982],[30.4444798,36.6855588],[30.4378989,36.6866955],[30.4289666,36.6827589],[30.4215149,36.6818585],[30.4173816,36.6840958],[30.4034709,36.6830081]]]}},{"type":"Feature","properties":{"code":"07-14","provinceCode":"07","name":"Kepez"},"geometry":{"type":"Polygon","coordinates":[[[30.6250532,36.9508841],[30.6222488,36.9454683],[30.6048427,36.9303145],[30.6062345,36.9134468],[30.5979321,36.8989237],[30.5973408,36.8937603],[30.6015179,36.8923372],[30.6094766,36.8972649],[30.6133885,36.8966262],[30.6246899,36.8996989],[30.6454203,36.9014343],[30.6557755,36.9003791],[30.6653378,36.9012924],[30.7011811,36.9118035],[30.7211662,36.9135095],[30.735505,36.9116298],[30.7464709,36.908295],[30.7627218,36.9001301],[30.774104,36.9126551],[30.8035003,36.9296282],[30.7907193,36.9351338],[30.7861749,36.9423414],[30.7780093,36.9455762],[30.7771572,36.9501726],[30.7734649,36.9501726],[30.7717608,36.9574924],[30.7687075,36.9574924],[30.7673584,36.9611803],[30.7694176,36.9704846],[30.7717608,36.970598],[30.7733939,36.974569],[30.7835477,36.9740585],[30.7917134,36.9815461],[30.8024352,36.9787667],[30.8110979,36.9786532],[30.8166364,36.9867075],[30.8228071,36.9878871],[30.8260024,36.9910631],[30.8329609,36.9928212],[30.8313985,36.9954832],[30.8282862,36.9957924],[30.8185327,37.0034274],[30.8090297,37.005985],[30.8054851,37.0051141],[30.8014861,37.0081261],[30.7983505,37.0061665],[30.7983959,37.0045334],[30.795533,37.0045334],[30.7957147,37.0063117],[30.790216,37.0115372],[30.7838994,37.0224227],[30.7833995,37.0256517],[30.7810819,37.025688],[30.7844447,37.0364626],[30.7795822,37.0451682],[30.7742199,37.047816],[30.7789915,37.0533651],[30.7791732,37.0611259],[30.7828087,37.0597479],[30.7839903,37.0609083],[30.7824906,37.0633017],[30.7847628,37.063483],[30.7839903,37.0652961],[30.7809455,37.0653687],[30.7789006,37.0707352],[30.7843084,37.0707352],[30.7875349,37.0745423],[30.7873985,37.0776966],[30.7904709,37.0798305],[30.7728487,37.0822646],[30.7555133,37.0887918],[30.7539878,37.1020661],[30.7441413,37.106269],[30.7376232,37.1262854],[30.7553746,37.1384474],[30.7721579,37.1473088],[30.7572448,37.1485386],[30.7539022,37.1516127],[30.7474741,37.1518176],[30.7423079,37.1573352],[30.7335657,37.1542613],[30.729966,37.1495477],[30.71531,37.1497527],[30.7065678,37.1534415],[30.7065678,37.1501626],[30.6939688,37.1505724],[30.6942259,37.1468834],[30.6880549,37.1433992],[30.6793128,37.1433992],[30.6811126,37.1235155],[30.6841981,37.1175699],[30.679827,37.1112137],[30.6829125,37.104857],[30.6775129,37.1028063],[30.6731418,37.1062924],[30.6664566,37.1167498],[30.6646568,37.1231055],[30.661057,37.1235155],[30.6530862,37.1190051],[30.6428013,37.1200302],[30.6420299,37.1149044],[30.6395274,37.1118028],[30.6240734,37.1003596],[30.6227007,37.0912725],[30.6318161,37.0735876],[30.6329034,37.0683418],[30.6272115,37.0682364],[30.6221935,37.0711013],[30.6164388,37.0717292],[30.6169843,37.0622061],[30.6351525,37.0617128],[30.6387249,37.0599916],[30.6406796,37.0546126],[30.6459454,37.0515144],[30.6471303,37.043634],[30.6494999,37.0418477],[30.6451837,37.0360456],[30.6417253,37.0257733],[30.6549579,37.0131719],[30.6628079,37.0078047],[30.6620914,36.9964526],[30.6512195,36.9931996],[30.6505531,36.9888689],[30.6441024,36.9818186],[30.6438391,36.9766701],[30.6469891,36.9696632],[30.643868,36.9658348],[30.643929,36.9576624],[30.6250532,36.9508841]]]}},{"type":"Feature","properties":{"code":"07-15","provinceCode":"07","name":"Konyaaltı"},"geometry":{"type":"MultiPolygon","coordinates":[[[[30.4312173,36.922761],[30.414565,36.9284971],[30.3925132,36.9274449],[30.3647558,36.9048478],[30.3517463,36.889997],[30.3461113,36.8893159],[30.341328,36.8907442],[30.334316,36.8839245],[30.327355,36.8812982],[30.3160803,36.865744],[30.3125767,36.8656058],[30.3052897,36.8622187],[30.3012421,36.8564139],[30.3086617,36.8473215],[30.3119209,36.8434885],[30.3184191,36.8410488],[30.3282867,36.8301334],[30.3367103,36.824932],[30.3379939,36.8149134],[30.3486335,36.8104533],[30.3554526,36.8030023],[30.3568967,36.7785889],[30.3543295,36.7750547],[30.3553724,36.7705564],[30.3681136,36.7574285],[30.3644377,36.749861],[30.36524,36.7416327],[30.362753,36.7338536],[30.3618706,36.725302],[30.3635602,36.7136835],[30.3683304,36.7070581],[30.3719434,36.7055148],[30.3802825,36.7108144],[30.3901935,36.7072808],[30.3933738,36.6980003],[30.3913931,36.697905],[30.3891469,36.6907647],[30.3895124,36.6842141],[30.3926936,36.6820897],[30.4034709,36.6830081],[30.4173816,36.6840958],[30.4215149,36.6818585],[30.4289666,36.6827589],[30.4378989,36.6866955],[30.4444798,36.6855588],[30.4593525,36.6916982],[30.4615677,36.7035698],[30.4731627,36.705831],[30.4860111,36.7008061],[30.5012099,36.6982935],[30.5124849,36.7033688],[30.5170772,36.7099953],[30.5157039,36.7166522],[30.5211971,36.720591],[30.5216477,36.7296203],[30.5294583,36.731512],[30.5347154,36.7351061],[30.5366895,36.7407979],[30.5413029,36.7423454],[30.5435122,36.7490029],[30.5542196,36.7613123],[30.5626524,36.7623437],[30.5642871,36.7769193],[30.5671318,36.7784625],[30.5737335,36.7785027],[30.575477,36.7833428],[30.5729649,36.7856229],[30.5763649,36.7986289],[30.5777798,36.7999336],[30.580755,36.7984353],[30.5849392,36.8017858],[30.5807051,36.7987291],[30.5783394,36.8004353],[30.5817817,36.8035481],[30.583634,36.802513],[30.5824625,36.8051025],[30.596586,36.823034],[30.6042306,36.8294604],[30.6103712,36.8283828],[30.6170406,36.8339574],[30.6105121,36.8289514],[30.6088514,36.828658],[30.6086151,36.8304756],[30.6080048,36.8292438],[30.6052177,36.8301397],[30.6070723,36.8325998],[30.6048667,36.8325434],[30.6061656,36.8342122],[30.6078755,36.8325949],[30.6085622,36.8345911],[30.6044198,36.8375649],[30.6057902,36.839352],[30.6102719,36.8378667],[30.6108596,36.8361156],[30.6130984,36.8381547],[30.6128093,36.8345016],[30.6143025,36.8365859],[30.6139843,36.8415521],[30.622297,36.849717],[30.6339143,36.858675],[30.6596162,36.8743483],[30.6652606,36.8954554],[30.6653378,36.9012924],[30.6557755,36.9003791],[30.6454203,36.9014343],[30.6246899,36.8996989],[30.6133885,36.8966262],[30.6094766,36.8972649],[30.6015179,36.8923372],[30.5973408,36.8937603],[30.5979321,36.8989237],[30.6062345,36.9134468],[30.6048427,36.9303145],[30.6222488,36.9454683],[30.6250532,36.9508841],[30.6038676,36.9466513],[30.5980811,36.9442265],[30.5840537,36.9446002],[30.5665326,36.9488826],[30.5585322,36.9448739],[30.5407926,36.9396997],[30.5240469,36.9306285],[30.5181303,36.9305996],[30.5164203,36.9279461],[30.5069651,36.9281069],[30.4965039,36.9260967],[30.4892524,36.9200659],[30.483491,36.9177116],[30.4809031,36.9208479],[30.4760197,36.921111],[30.4743375,36.9258258],[30.4688506,36.930066],[30.4561682,36.9300367],[30.4468784,36.9224143],[30.4465575,36.9180942],[30.4441093,36.9161607],[30.4312173,36.922761]]],[[[30.5885728,36.8024201],[30.5896752,36.8005028],[30.589847,36.803634],[30.5885728,36.8024201]]]]}},{"type":"Feature","properties":{"code":"07-16","provinceCode":"07","name":"Korkuteli"},"geometry":{"type":"Polygon","coordinates":[[[29.771756,36.878964],[29.7799564,36.8792668],[29.8100752,36.8692185],[29.8293311,36.8706825],[29.8665723,36.8616647],[29.8969825,36.8674379],[29.9368832,36.8808991],[29.9790586,36.9166411],[29.9961706,36.9216708],[30.0183156,36.925292],[30.0625888,36.926833],[30.0874439,36.9163076],[30.0978082,36.904075],[30.1275719,36.8797951],[30.157706,36.8607336],[30.1894753,36.848771],[30.208098,36.8380826],[30.230355,36.8356848],[30.2527804,36.8431629],[30.282053,36.8451682],[30.2999914,36.843613],[30.3086617,36.8473215],[30.3012421,36.8564139],[30.3052897,36.8622187],[30.3125767,36.8656058],[30.3160803,36.865744],[30.327355,36.8812982],[30.334316,36.8839245],[30.341328,36.8907442],[30.3461113,36.8893159],[30.3517463,36.889997],[30.3647558,36.9048478],[30.3925132,36.9274449],[30.414565,36.9284971],[30.4312173,36.922761],[30.4321448,36.927986],[30.4399669,36.9370568],[30.4496347,36.9538252],[30.455916,36.9589832],[30.4578627,36.9663169],[30.4566285,36.974534],[30.4611997,36.9817469],[30.4817975,37.0014278],[30.4883356,37.0123544],[30.4970306,37.0210192],[30.4967337,37.0244233],[30.5000722,37.0279477],[30.4923098,37.0365495],[30.4974325,37.040036],[30.4991176,37.0442324],[30.4981065,37.0463306],[30.5007352,37.0557446],[30.4995894,37.0590258],[30.5012745,37.0608546],[30.5001286,37.0661256],[30.5026899,37.0671475],[30.5093629,37.0788175],[30.5071386,37.0895179],[30.4986457,37.1012383],[30.4843563,37.104625],[30.4624207,37.1010837],[30.4284032,37.1025957],[30.4286138,37.119981],[30.4142906,37.1303935],[30.4155544,37.1350115],[30.4200365,37.1392666],[30.4214608,37.1471717],[30.4191352,37.1529769],[30.420399,37.1684205],[30.4229266,37.1747145],[30.4221894,37.1791619],[30.4237692,37.1847838],[30.4324052,37.1953551],[30.4310737,37.2108129],[30.4228213,37.2213577],[30.4269549,37.235923],[30.4160271,37.2402232],[30.4229273,37.2560269],[30.4144282,37.2822844],[30.3710365,37.2912188],[30.3631329,37.3018877],[30.3548079,37.3058706],[30.3425448,37.3067585],[30.3345822,37.3094423],[30.3235535,37.3091087],[30.3119043,37.306535],[30.2981325,37.3011001],[30.2885067,37.3022389],[30.2830505,37.2999873],[30.2685332,37.3061246],[30.2481092,37.3095182],[30.2129622,37.3101428],[30.2002671,37.3184064],[30.1722487,37.3195097],[30.1454095,37.3171015],[30.1149064,37.2999162],[30.1048847,37.2893133],[30.0933748,37.2636466],[30.0772772,37.2565546],[30.0673355,37.2453316],[30.048404,37.2405566],[30.0187747,37.235714],[29.9714414,37.2226855],[29.955766,37.2158085],[29.9173526,37.2194935],[29.8866146,37.2083506],[29.8488722,37.185956],[29.8400745,37.1691329],[29.8338178,37.1328513],[29.8286477,37.1230736],[29.8118135,37.1069409],[29.8123012,37.0990004],[29.8161606,37.0898131],[29.8285526,37.0776181],[29.8427164,37.0676138],[29.8716089,37.0549117],[29.8780564,37.0500917],[29.8813598,37.0438724],[29.8809946,37.0389524],[29.876077,37.0368421],[29.8730429,37.0309236],[29.8656272,37.0245529],[29.8426371,37.0170044],[29.834292,37.0122776],[29.8006158,36.9855894],[29.7943803,36.981717],[29.7795791,36.976023],[29.7735565,36.9703611],[29.7585433,36.9633571],[29.7465255,36.9635086],[29.7308239,36.9588651],[29.7462024,36.9514462],[29.7604599,36.9392682],[29.7695263,36.9086556],[29.771756,36.878964]]]}},{"type":"Feature","properties":{"code":"07-17","provinceCode":"07","name":"Kumluca"},"geometry":{"type":"MultiPolygon","coordinates":[[[[30.3086617,36.8473215],[30.2999914,36.843613],[30.282053,36.8451682],[30.2527804,36.8431629],[30.230355,36.8356848],[30.1952254,36.8001919],[30.1897973,36.7604731],[30.1808102,36.7494362],[30.181147,36.708552],[30.1385686,36.6363969],[30.1337732,36.6202175],[30.1210252,36.6057153],[30.0975545,36.5988448],[30.0805535,36.5732303],[30.0746952,36.5698507],[30.052227,36.5644536],[30.0594376,36.5424716],[30.12214,36.5355505],[30.1336217,36.5327019],[30.1900214,36.4921325],[30.2069642,36.4833136],[30.2214901,36.4661007],[30.2213611,36.4521629],[30.2082827,36.4248855],[30.1947095,36.4037258],[30.1961458,36.3952522],[30.2053387,36.380028],[30.2340822,36.3576383],[30.2400237,36.3563055],[30.2428013,36.3524914],[30.2449593,36.3477822],[30.2455309,36.3376264],[30.2489883,36.3343779],[30.2522805,36.3267797],[30.2522827,36.3159192],[30.2727626,36.314379],[30.2741675,36.3182003],[30.2737601,36.315591],[30.300724,36.3092742],[30.3264203,36.2972343],[30.3693733,36.2693019],[30.3718992,36.2723203],[30.3792274,36.2735186],[30.3812409,36.2763821],[30.3868184,36.2741697],[30.3872189,36.2779507],[30.3920647,36.2791948],[30.3937734,36.2785549],[30.3957166,36.273545],[30.4021252,36.2736951],[30.4049629,36.2758792],[30.4087497,36.2745924],[30.4138019,36.2680181],[30.4137605,36.2644277],[30.4091558,36.2552377],[30.4047177,36.255276],[30.399245,36.2500033],[30.3986973,36.2466023],[30.4010591,36.2427793],[30.4052398,36.2428022],[30.4074231,36.2406497],[30.4049957,36.2370261],[30.405913,36.2356242],[30.4011056,36.2326713],[30.4040703,36.2320977],[30.4053336,36.2284499],[30.4026198,36.2160689],[30.4045646,36.209746],[30.4077674,36.2133917],[30.4092132,36.2127637],[30.4141849,36.2153241],[30.4141822,36.2191261],[30.4166284,36.2223049],[30.4176879,36.2207188],[30.419754,36.2211826],[30.4211184,36.2288977],[30.4259089,36.2303062],[30.4273798,36.228263],[30.4333907,36.2320411],[30.4358771,36.2365196],[30.4336453,36.2389548],[30.4339221,36.2415414],[30.4377954,36.2454278],[30.441661,36.2459524],[30.4476489,36.2529654],[30.4521799,36.2511656],[30.4497545,36.2564315],[30.4508809,36.2580641],[30.4605293,36.2570399],[30.4598907,36.2609751],[30.463114,36.265833],[30.4722372,36.2721271],[30.4788083,36.2722003],[30.4812932,36.2756465],[30.4875465,36.2793239],[30.4842923,36.2879857],[30.4881951,36.2992189],[30.4824847,36.3012854],[30.475916,36.2971523],[30.4712835,36.2968699],[30.465835,36.304293],[30.4668195,36.3141436],[30.4758704,36.314038],[30.4783043,36.3162911],[30.4876935,36.3165083],[30.4904102,36.3189067],[30.490666,36.3238902],[30.4967862,36.3274649],[30.5015203,36.3232791],[30.5066077,36.3236286],[30.5085576,36.3324421],[30.5171674,36.3296649],[30.5250728,36.3319119],[30.5249434,36.3337901],[30.5291243,36.3346755],[30.529486,36.338762],[30.5270402,36.3411487],[30.5273778,36.3437261],[30.5246594,36.3427633],[30.5262127,36.3418682],[30.5208825,36.3410945],[30.511368,36.344422],[30.5108346,36.3478154],[30.5092243,36.3484182],[30.508457,36.356049],[30.505695,36.353037],[30.5030735,36.3535493],[30.5021751,36.3573361],[30.5040976,36.3589013],[30.5036688,36.3616926],[30.5055918,36.3617931],[30.5073471,36.3595059],[30.5083054,36.360319],[30.5048355,36.3662507],[30.5048856,36.369927],[30.5010475,36.3693821],[30.5021197,36.364651],[30.498251,36.3648416],[30.4935522,36.3711641],[30.4935822,36.3746626],[30.4852209,36.3817827],[30.4841745,36.3866933],[30.4875769,36.3893654],[30.485754,36.3922723],[30.4768736,36.395106],[30.4762867,36.398088],[30.4633371,36.4128902],[30.4500484,36.4247972],[30.4403577,36.4259319],[30.4363802,36.4295105],[30.4298122,36.4437163],[30.4240894,36.4630214],[30.4108474,36.4880886],[30.4007177,36.5136327],[30.4084766,36.5340703],[30.4263654,36.565582],[30.4301328,36.5760577],[30.4305466,36.5902353],[30.4226982,36.6480996],[30.4202135,36.6567495],[30.4004812,36.6756949],[30.4034709,36.6830081],[30.3926936,36.6820897],[30.3895124,36.6842141],[30.3891469,36.6907647],[30.3913931,36.697905],[30.3933738,36.6980003],[30.3901935,36.7072808],[30.3802825,36.7108144],[30.3719434,36.7055148],[30.3683304,36.7070581],[30.3635602,36.7136835],[30.3618706,36.725302],[30.362753,36.7338536],[30.36524,36.7416327],[30.3644377,36.749861],[30.3681136,36.7574285],[30.3553724,36.7705564],[30.3543295,36.7750547],[30.3568967,36.7785889],[30.3554526,36.8030023],[30.3486335,36.8104533],[30.3379939,36.8149134],[30.3367103,36.824932],[30.3282867,36.8301334],[30.3184191,36.8410488],[30.3119209,36.8434885],[30.3086617,36.8473215]]],[[[30.3995098,36.1975276],[30.4035535,36.197644],[30.4044693,36.2024086],[30.4034222,36.2007631],[30.4018615,36.201763],[30.3995098,36.1975276]]],[[[30.4030105,36.1838517],[30.4058676,36.1789403],[30.4050525,36.1772788],[30.4077861,36.1755441],[30.4084448,36.1797778],[30.4060488,36.1819709],[30.4073579,36.1820905],[30.4059911,36.1831073],[30.4068886,36.1923909],[30.4055136,36.191022],[30.4031587,36.1922779],[30.4049866,36.1905303],[30.4057112,36.18542],[30.4030105,36.1838517]]]]}},{"type":"Feature","properties":{"code":"07-18","provinceCode":"07","name":"Manavgat"},"geometry":{"type":"Polygon","coordinates":[[[31.4124492,37.3471048],[31.3736048,37.3680458],[31.3154902,37.4157522],[31.3051877,37.4176176],[31.2863846,37.4244313],[31.2761075,37.4261014],[31.2488825,37.4261014],[31.2369385,37.4216533],[31.2177736,37.4047093],[31.2055545,37.3961104],[31.1905516,37.3899914],[31.1569406,37.3811034],[31.1377715,37.3797153],[31.1152726,37.3805463],[31.0961035,37.3783183],[31.0231809,37.3518959],[31.0316931,37.3229513],[31.0502762,37.2865662],[31.0559941,37.2439051],[31.0774361,37.1909717],[31.0767214,37.1613583],[31.0781509,37.147117],[31.096734,37.1180564],[31.1224644,37.0941158],[31.1725103,37.0535438],[31.1837135,37.0315714],[31.1963054,37.0237816],[31.1995781,37.0171023],[31.1984625,37.013466],[31.1950158,37.0120639],[31.194163,37.0093649],[31.197107,37.0076574],[31.1999293,36.9986731],[31.190083,36.9943902],[31.1927352,36.9900269],[31.2012306,36.9918793],[31.2030953,36.9904575],[31.1993252,36.9785687],[31.1995169,36.9717801],[31.196482,36.9703647],[31.1929876,36.9741761],[31.1853449,36.9727584],[31.1830768,36.9704359],[31.1751445,36.9519795],[31.1827455,36.9460347],[31.1817985,36.9364025],[31.1717709,36.9323434],[31.1716307,36.9296753],[31.1756059,36.9270029],[31.1750197,36.9244413],[31.1680912,36.9218418],[31.1607121,36.911154],[31.1460063,36.8997889],[31.153425,36.8875299],[31.1629162,36.8842732],[31.1742053,36.8765838],[31.1709119,36.8711703],[31.1698841,36.8651695],[31.1781241,36.8537437],[31.1804681,36.8443797],[31.1778717,36.8399209],[31.1787913,36.8345238],[31.1727629,36.8289816],[31.2021653,36.8272215],[31.2143796,36.8243872],[31.2222844,36.820669],[31.2274342,36.8227071],[31.2449361,36.8212038],[31.2468239,36.8220492],[31.2467697,36.8246218],[31.247231,36.821916],[31.2465497,36.8212998],[31.2599537,36.8203401],[31.2653984,36.8169342],[31.2692859,36.8173231],[31.2681091,36.8192826],[31.2729982,36.8174012],[31.2932829,36.8165049],[31.326965,36.809742],[31.3375272,36.8063951],[31.338672,36.8045196],[31.3405715,36.8065163],[31.3396005,36.8043532],[31.3378973,36.8040518],[31.3394566,36.8040039],[31.3411806,36.8052216],[31.362771,36.7970925],[31.3717156,36.7893855],[31.388477,36.77861],[31.3914808,36.7720429],[31.3870196,36.7673407],[31.3827422,36.7667637],[31.3841296,36.7650599],[31.3853641,36.7659269],[31.3859961,36.7645157],[31.38436,36.7647028],[31.3862325,36.7635996],[31.3892792,36.7638059],[31.3920853,36.7661865],[31.397225,36.764984],[31.405912,36.761761],[31.4125039,36.7568699],[31.4319736,36.7548762],[31.448912,36.751026],[31.4828073,36.741086],[31.4936061,36.7369135],[31.4933228,36.7353406],[31.4943234,36.7367608],[31.4940466,36.7352821],[31.515409,36.729524],[31.581993,36.701306],[31.601718,36.686768],[31.635146,36.672384],[31.6461579,36.664896],[31.6520343,36.6655597],[31.6600077,36.6702601],[31.6628914,36.6680701],[31.6618718,36.6652272],[31.6675293,36.6626355],[31.6702031,36.6626459],[31.6740761,36.6677674],[31.6756823,36.6674339],[31.6758917,36.6646098],[31.6838916,36.6645785],[31.6860327,36.6675768],[31.6831556,36.6727673],[31.6857599,36.6751473],[31.688002,36.6759863],[31.693099,36.6740901],[31.6976487,36.6795983],[31.7084641,36.6826306],[31.7080446,36.6860585],[31.7114824,36.6886709],[31.7225407,36.6907358],[31.7231429,36.6935407],[31.7275657,36.694952],[31.7260106,36.6981457],[31.7298886,36.7016934],[31.7296211,36.7074727],[31.7323095,36.7138091],[31.7414192,36.724293],[31.7479282,36.726472],[31.7532566,36.732008],[31.7541842,36.734486],[31.7518243,36.7378091],[31.7511462,36.7467572],[31.7567523,36.7692147],[31.765498,36.7886127],[31.7383735,36.8124648],[31.715328,36.8406777],[31.6956716,36.8574919],[31.6742677,36.8679803],[31.6355107,36.8820076],[31.5990592,36.8814359],[31.580476,36.8860094],[31.5576045,36.8985851],[31.5354477,36.9180161],[31.4975668,36.9642877],[31.464689,36.9962615],[31.4318111,37.020233],[31.3903565,37.0436265],[31.3660555,37.0653019],[31.3446135,37.1040739],[31.3438987,37.1302907],[31.340325,37.1439655],[31.3267451,37.1661817],[31.3224567,37.1855444],[31.3238861,37.2077484],[31.3303188,37.2379126],[31.3531903,37.2868325],[31.378206,37.3163967],[31.4124492,37.3471048]]]}},{"type":"Feature","properties":{"code":"07-19","provinceCode":"07","name":"Muratpaşa"},"geometry":{"type":"Polygon","coordinates":[[[30.6596162,36.8743483],[30.6788007,36.8838989],[30.6925058,36.8835466],[30.7025021,36.885137],[30.7032957,36.8839917],[30.7013948,36.8837869],[30.707503,36.8748],[30.7154886,36.8730171],[30.7182087,36.8682136],[30.724066,36.866128],[30.730711,36.85765],[30.740427,36.853341],[30.7446354,36.8547115],[30.746564,36.851145],[30.7579557,36.8453808],[30.7610199,36.8470701],[30.7761762,36.8484936],[30.7795999,36.8503603],[30.7821907,36.8497161],[30.7890934,36.8528173],[30.7953677,36.850826],[30.795643,36.8483161],[30.7981406,36.8484141],[30.7992806,36.8452892],[30.80179,36.8476358],[30.806971,36.846231],[30.8672674,36.8520092],[30.8669725,36.8559229],[30.8615637,36.8572045],[30.8603272,36.8594206],[30.8661141,36.8640506],[30.859702,36.8689019],[30.8581509,36.8752074],[30.8515984,36.876043],[30.8477365,36.874701],[30.8417854,36.8760177],[30.8360242,36.8699149],[30.8335535,36.8703694],[30.8345196,36.8777881],[30.8364516,36.8802608],[30.8468319,36.8841364],[30.8530582,36.8928889],[30.8600393,36.8939451],[30.8600393,36.8959067],[30.8509828,36.8966612],[30.8466432,36.8951523],[30.8449451,36.8903236],[30.8326811,36.8894182],[30.8202284,36.8903236],[30.8224925,36.8815708],[30.8204171,36.8791561],[30.8102285,36.8803635],[30.8141907,36.9034509],[30.8145681,36.9182352],[30.8177756,36.9290954],[30.8035003,36.9296282],[30.774104,36.9126551],[30.7627218,36.9001301],[30.7464709,36.908295],[30.735505,36.9116298],[30.7211662,36.9135095],[30.7011811,36.9118035],[30.6653378,36.9012924],[30.6652606,36.8954554],[30.6596162,36.8743483]]]}},{"type":"Feature","properties":{"code":"07-20","provinceCode":"07","name":"Serik"},"geometry":{"type":"Polygon","coordinates":[[[30.9640651,36.8570464],[31.0004758,36.8578083],[31.0321584,36.8543902],[31.0604189,36.8493689],[31.0800172,36.8412536],[31.093218,36.8407048],[31.1215033,36.8365604],[31.1290419,36.8340741],[31.1727629,36.8289816],[31.1787913,36.8345238],[31.1778717,36.8399209],[31.1804681,36.8443797],[31.1781241,36.8537437],[31.1698841,36.8651695],[31.1709119,36.8711703],[31.1742053,36.8765838],[31.1629162,36.8842732],[31.153425,36.8875299],[31.1460063,36.8997889],[31.1607121,36.911154],[31.1680912,36.9218418],[31.1750197,36.9244413],[31.1756059,36.9270029],[31.1716307,36.9296753],[31.1717709,36.9323434],[31.1817985,36.9364025],[31.1827455,36.9460347],[31.1751445,36.9519795],[31.1830768,36.9704359],[31.1853449,36.9727584],[31.1929876,36.9741761],[31.196482,36.9703647],[31.1995169,36.9717801],[31.1993252,36.9785687],[31.2030953,36.9904575],[31.2012306,36.9918793],[31.1927352,36.9900269],[31.190083,36.9943902],[31.1999293,36.9986731],[31.197107,37.0076574],[31.194163,37.0093649],[31.1950158,37.0120639],[31.1984625,37.013466],[31.1995781,37.0171023],[31.1963054,37.0237816],[31.1837135,37.0315714],[31.1725103,37.0535438],[31.1224644,37.0941158],[31.096734,37.1180564],[31.0781509,37.147117],[31.0767214,37.1613583],[31.0774361,37.1909717],[31.0559941,37.2439051],[31.0502762,37.2865662],[31.0316931,37.3229513],[31.0231809,37.3518959],[31.0091625,37.3466563],[30.9922216,37.3424984],[30.9863816,37.3427654],[30.9738845,37.3472134],[30.9474946,37.3630443],[30.9399986,37.3708263],[30.9137764,37.372441],[30.9031459,37.321742],[30.8939269,37.2985957],[30.8790319,37.2777497],[30.8645309,37.2628334],[30.8513258,37.2545701],[30.8459484,37.2386949],[30.8471475,37.2198453],[30.8361177,37.2169643],[30.8343529,37.2135914],[30.8379707,37.2052285],[30.8386378,37.1897771],[30.8297377,37.18625],[30.8254457,37.1758834],[30.8196591,37.170919],[30.8173427,37.1658676],[30.8192325,37.1598358],[30.821638,37.1581925],[30.8225,37.1507986],[30.8245602,37.1498408],[30.8304003,37.1357469],[30.8355418,37.1321983],[30.8365061,37.1262813],[30.8411337,37.1239956],[30.8486053,37.1143861],[30.8555393,37.1145261],[30.8575652,37.116705],[30.8650878,37.1143837],[30.8724845,37.1060189],[30.8751916,37.1094165],[30.8775736,37.1096555],[30.882198,37.1068302],[30.8844895,37.0937909],[30.8866718,37.0925702],[30.8952385,37.0926984],[30.8983594,37.0854173],[30.9007067,37.0837206],[30.8990228,37.0793592],[30.892793,37.0753288],[30.8927656,37.072871],[30.8999621,37.0711282],[30.9013291,37.0631892],[30.9121024,37.0546886],[30.913268,37.0511171],[30.919988,37.0486891],[30.9171062,37.0428143],[30.9129739,37.0414365],[30.9119825,37.0349665],[30.9096992,37.0349919],[30.9081836,37.0321441],[30.9163556,37.0262927],[30.9167767,37.0222685],[30.9150156,37.0203055],[30.9204902,37.0084358],[30.9136466,37.005063],[30.9137859,36.9916652],[30.9191032,36.9903316],[30.9192339,36.9846728],[30.9279967,36.985801],[30.9294905,36.9841974],[30.9287645,36.9822869],[30.9183752,36.9756958],[30.9211486,36.970577],[30.9264009,36.9684361],[30.9276871,36.9596574],[30.9221669,36.949807],[30.9242464,36.946586],[30.9237318,36.9413089],[30.9251467,36.9392185],[30.9218024,36.9306849],[30.9245465,36.9250639],[30.9275478,36.9237614],[30.9303347,36.9196139],[30.9313208,36.9101183],[30.9346154,36.9100774],[30.9381717,36.9057418],[30.9444939,36.9025821],[30.9585519,36.9012528],[30.9671784,36.8991126],[30.9681061,36.8977527],[30.9711347,36.8854953],[30.9749808,36.883184],[30.9761494,36.8800303],[30.9768007,36.8734049],[30.9697792,36.8646244],[30.9639034,36.8620648],[30.96186,36.8587741],[30.9640651,36.8570464]]]}}]}