{"type":"FeatureCollection","features":[{"type":"Feature","properties":{"code":"30-01","provinceCode":"30","name":"Çukurca"},"geometry":{"type":"Polygon","coordinates":[[[43.3419272,37.401767],[43.3329514,37.3675461],[43.3328939,37.3501138],[43.3303545,37.3332803],[43.3313508,37.3270843],[43.340699,37.326802],[43.344762,37.328492],[43.361088,37.327591],[43.36392,37.322183],[43.371077,37.317676],[43.369213,37.312944],[43.371673,37.308099],[43.389378,37.305846],[43.389378,37.298494],[43.404138,37.291621],[43.408088,37.292889],[43.414499,37.283255],[43.443237,37.273509],[43.459189,37.271143],[43.469328,37.264271],[43.476223,37.263087],[43.47462,37.25306],[43.486436,37.2503],[43.497994,37.242537],[43.50684,37.243051],[43.513385,37.239574],[43.5237836,37.2476384],[43.52628,37.247109],[43.53031,37.249502],[43.540382,37.249015],[43.548109,37.25125],[43.556003,37.251448],[43.56595,37.257579],[43.572876,37.254508],[43.578099,37.250037],[43.584393,37.240923],[43.584474,37.238424],[43.595843,37.232635],[43.605034,37.238058],[43.609953,37.238241],[43.618096,37.230319],[43.620515,37.221483],[43.639544,37.218984],[43.642527,37.217217],[43.644382,37.2213],[43.651111,37.225525],[43.652042,37.223311],[43.677843,37.227028],[43.682762,37.230989],[43.68639,37.231355],[43.689132,37.235255],[43.69405,37.235316],[43.703322,37.231233],[43.706225,37.231599],[43.706548,37.233975],[43.712434,37.233671],[43.721142,37.235986],[43.726221,37.233793],[43.734284,37.233305],[43.741622,37.230136],[43.74525,37.230624],[43.747508,37.235133],[43.776373,37.228125],[43.789677,37.2291],[43.806368,37.225931],[43.810318,37.223798],[43.8152712,37.2117199],[43.81822,37.210574],[43.823622,37.203018],[43.828218,37.200275],[43.830395,37.193085],[43.840071,37.201799],[43.842812,37.208868],[43.841764,37.21417],[43.843377,37.216546],[43.848456,37.218984],[43.854262,37.224408],[43.861841,37.223189],[43.86676,37.224469],[43.873129,37.223494],[43.885708,37.224712],[43.889175,37.22069],[43.894738,37.219533],[43.902479,37.222519],[43.913046,37.223016],[43.9110324,37.2284535],[43.8984466,37.242892],[43.8990871,37.2788322],[43.9016492,37.291318],[43.9115774,37.3043113],[43.9151003,37.3127175],[43.9147801,37.3208681],[43.9007678,37.3497955],[43.8807628,37.3606139],[43.8738758,37.366218],[43.8607577,37.3664787],[43.8573143,37.3699973],[43.8514111,37.3713005],[43.8355055,37.3693457],[43.8264868,37.3759916],[43.8192719,37.376122],[43.8094333,37.3729945],[43.7674555,37.3776856],[43.7600766,37.3763826],[43.7481064,37.3805522],[43.7399076,37.3806825],[43.7299051,37.3840702],[43.7215423,37.3819855],[43.7121957,37.3874577],[43.6951422,37.3869366],[43.6889111,37.3899331],[43.6798925,37.3913662],[43.6234848,37.3864154],[43.5967568,37.3793795],[43.5810151,37.369476],[43.5637976,37.3643935],[43.5570746,37.3570948],[43.547728,37.3550094],[43.5393652,37.3491437],[43.5164086,37.3492741],[43.5042093,37.3558343],[43.5105506,37.3665619],[43.5135435,37.3675628],[43.5188798,37.3760262],[43.4934821,37.3955035],[43.4943634,37.3984127],[43.4984197,37.3987424],[43.5010003,37.4051329],[43.4957045,37.4170147],[43.4915435,37.4215484],[43.4910401,37.4270157],[43.4970806,37.4358957],[43.4985736,37.445669],[43.5033127,37.4531326],[43.49165,37.4565815],[43.4804541,37.4665916],[43.4621176,37.4667507],[43.4251546,37.4625587],[43.3875221,37.4678469],[43.3071205,37.5103768],[43.3064872,37.4902144],[43.3156351,37.4635848],[43.3419272,37.401767]]]}},{"type":"Feature","properties":{"code":"30-02","provinceCode":"30","name":"Derecik"},"geometry":{"type":"Polygon","coordinates":[[[44.2756029,37.1966546],[44.2760607,37.1942161],[44.2804509,37.1912127],[44.2815523,37.1873386],[44.278495,37.1818995],[44.2808924,37.1769399],[44.2764973,37.1648706],[44.2726428,37.1648118],[44.266336,37.161165],[44.2507062,37.1576333],[44.2459555,37.1573935],[44.2349857,37.16135],[44.2227314,37.1589462],[44.2141207,37.1378295],[44.2049719,37.131238],[44.2021582,37.1210826],[44.1982682,37.1156066],[44.1876692,37.1099286],[44.1859252,37.1072926],[44.1851202,37.0978625],[44.1951822,37.0931985],[44.1938412,37.0798135],[44.1967922,37.0760625],[44.2004142,37.0756565],[44.2123542,37.0691675],[44.2169162,37.0655175],[44.2187942,37.0598395],[44.2293922,37.0530454],[44.2347592,37.0418914],[44.2328505,37.0385917],[44.2269683,37.0350001],[44.2182942,37.0354399],[44.2273503,37.0292363],[44.2307517,37.0242052],[44.2288331,37.0196754],[44.2333941,37.0171404],[44.2360781,37.0103473],[44.2434561,37.0100433],[44.2468101,37.0011202],[44.2515081,36.9983172],[44.2565081,36.9923671],[44.2511551,36.98532],[44.2510911,36.982849],[44.2561201,36.980605],[44.2598391,36.981284],[44.2640641,36.979441],[44.2662401,36.98052],[44.2680561,36.9758519],[44.2896361,36.9756309],[44.2957643,36.9703171],[44.2988365,36.9698265],[44.3095259,36.962863],[44.3120711,36.966327],[44.3055197,36.9714611],[44.3102286,36.9755987],[44.3116476,36.979983],[44.3147158,36.9817593],[44.3148074,36.984447],[44.3209571,36.9844846],[44.3256292,36.9887622],[44.32924,36.9881768],[44.3297735,36.9979829],[44.337947,37.0083865],[44.342525,37.0099123],[44.3513684,37.0201673],[44.3608933,37.0226791],[44.361456,37.0247087],[44.3673331,37.0246436],[44.3629973,37.028567],[44.3621301,37.0314939],[44.3569107,37.0317766],[44.3494849,37.040228],[44.3491749,37.0443819],[44.3556501,37.0463812],[44.3586021,37.0522637],[44.3639071,37.0520607],[44.3691451,37.0555628],[44.3739801,37.0551568],[44.3786811,37.0586588],[44.3831811,37.0591158],[44.3907691,37.0545478],[44.3933881,37.0498777],[44.3959401,37.0500807],[44.3995046,37.056495],[44.4001711,37.0516547],[44.4144081,37.0524157],[44.4185711,37.0561208],[44.419749,37.0610199],[44.4235538,37.0613411],[44.4344871,37.0660699],[44.4415391,37.0651559],[44.4484561,37.0712969],[44.4536261,37.0708909],[44.4606111,37.073835],[44.4667891,37.074089],[44.4712211,37.078758],[44.4781702,37.0800179],[44.4831377,37.0881917],[44.4914351,37.0877421],[44.5093713,37.097728],[44.51199,37.1015756],[44.5169772,37.1022933],[44.5157072,37.1052102],[44.5169059,37.1079416],[44.5140297,37.1127535],[44.5245348,37.1161217],[44.525555,37.1218439],[44.5311947,37.1213942],[44.5334728,37.1251676],[44.5387324,37.1211738],[44.5408325,37.1220798],[44.5445426,37.1207003],[44.5525272,37.1247631],[44.5488151,37.130212],[44.5496931,37.1343356],[44.5584691,37.1395397],[44.5576591,37.1424487],[44.5605621,37.1449487],[44.5594821,37.1497958],[44.5693179,37.1560484],[44.5695539,37.1584683],[44.5739281,37.1598469],[44.5760575,37.1635133],[44.5821085,37.1625825],[44.5870265,37.1655513],[44.5928545,37.1649585],[44.6008165,37.1668379],[44.6002628,37.1707233],[44.6045869,37.1742494],[44.6073451,37.1743784],[44.6146621,37.1795103],[44.6164353,37.1787212],[44.6202026,37.1807455],[44.6226757,37.1879866],[44.6016944,37.2042898],[44.5580924,37.1974361],[44.5465697,37.1931117],[44.5365704,37.18465],[44.5235027,37.1662534],[44.5082892,37.1694509],[44.4713152,37.1693282],[44.4502577,37.171201],[44.44624,37.1761895],[44.44733,37.1826494],[44.4404924,37.1910517],[44.4401305,37.1976324],[44.4362971,37.2048148],[44.436081,37.2120115],[44.429602,37.2155276],[44.4169696,37.2093887],[44.4172369,37.2060575],[44.4109283,37.2041775],[44.4027958,37.2046048],[44.3997703,37.2028615],[44.3940626,37.2034426],[44.3906937,37.2015113],[44.3830114,37.2024276],[44.3802467,37.1992286],[44.3731857,37.1959551],[44.3618283,37.1960443],[44.3580041,37.1931052],[44.353711,37.1950872],[44.3500521,37.1947633],[44.3456614,37.1973929],[44.3307167,37.1979759],[44.3289279,37.192587],[44.3242609,37.1917926],[44.3238542,37.1884152],[44.3203664,37.1859705],[44.3191587,37.1827892],[44.3170597,37.1830204],[44.3123303,37.1794862],[44.2950948,37.1848594],[44.290574,37.1888626],[44.2856141,37.1906504],[44.2819227,37.1950419],[44.2781833,37.1970426],[44.2756029,37.1966546]]]}},{"type":"Feature","properties":{"code":"30-03","provinceCode":"30","name":"Hakkari merkez"},"geometry":{"type":"Polygon","coordinates":[[[43.3071205,37.5103768],[43.3875221,37.4678469],[43.4251546,37.4625587],[43.4621176,37.4667507],[43.4804541,37.4665916],[43.49165,37.4565815],[43.5033127,37.4531326],[43.4985736,37.445669],[43.4970806,37.4358957],[43.4910401,37.4270157],[43.4915435,37.4215484],[43.4957045,37.4170147],[43.5010003,37.4051329],[43.4984197,37.3987424],[43.4943634,37.3984127],[43.4934821,37.3955035],[43.5188798,37.3760262],[43.5135435,37.3675628],[43.5105506,37.3665619],[43.5042093,37.3558343],[43.5164086,37.3492741],[43.5393652,37.3491437],[43.547728,37.3550094],[43.5570746,37.3570948],[43.5637976,37.3643935],[43.5810151,37.369476],[43.5967568,37.3793795],[43.6234848,37.3864154],[43.6798925,37.3913662],[43.6889111,37.3899331],[43.6951422,37.3869366],[43.7121957,37.3874577],[43.7215423,37.3819855],[43.7299051,37.3840702],[43.7399076,37.3806825],[43.7481064,37.3805522],[43.7600766,37.3763826],[43.7674555,37.3776856],[43.8094333,37.3729945],[43.8192719,37.376122],[43.8264868,37.3759916],[43.8355055,37.3693457],[43.8514111,37.3713005],[43.8573143,37.3699973],[43.8607577,37.3664787],[43.8738758,37.366218],[43.8807628,37.3606139],[43.9007678,37.3497955],[43.9075823,37.3726509],[43.9176507,37.3912118],[43.9240944,37.4081686],[43.9297327,37.429599],[43.9587296,37.4702041],[43.9655761,37.492895],[43.9796718,37.5117456],[43.9917538,37.5376174],[43.9921566,37.5462394],[43.9985681,37.5635569],[43.9996636,37.5784192],[43.989418,37.5988436],[43.967187,37.6149238],[43.9550728,37.6185478],[43.9529463,37.6452882],[43.94966,37.6548797],[43.956078,37.6685812],[43.9650992,37.6785778],[43.9650992,37.6824536],[43.9723163,37.6875531],[43.9800035,37.6967304],[43.9850813,37.6953423],[43.9893127,37.697106],[43.9945437,37.6947166],[44.0077194,37.6975693],[44.0116334,37.7066093],[44.0185808,37.7086457],[44.0203246,37.7104982],[44.0304711,37.7058788],[44.0339238,37.7064535],[44.0405434,37.7048501],[44.0470089,37.7065661],[44.0489492,37.7093745],[44.0545329,37.7120735],[44.0576535,37.7108643],[44.0630948,37.7128528],[44.0689247,37.7121029],[44.0767994,37.7214739],[44.0854789,37.7280777],[44.0864062,37.7335301],[44.0819786,37.7395889],[44.0805295,37.7484626],[44.0826214,37.7522647],[44.0808125,37.7551449],[44.0819646,37.7581093],[44.0805567,37.7627371],[44.0830507,37.7697983],[44.0864799,37.7700929],[44.0902548,37.7774105],[44.0891009,37.7806743],[44.081013,37.7843418],[44.068763,37.792726],[44.0682833,37.7996914],[44.0537531,37.8105835],[44.0378193,37.8093123],[44.0130155,37.8032525],[43.9950994,37.7941074],[43.9394983,37.7794928],[43.9033837,37.7722049],[43.8627206,37.7601394],[43.8531266,37.7541274],[43.8454205,37.7516703],[43.8229656,37.7519473],[43.7759593,37.7616156],[43.7185191,37.7702876],[43.6782142,37.7728367],[43.6246889,37.7667882],[43.5345149,37.742301],[43.4991914,37.7417871],[43.4870128,37.6958689],[43.4754637,37.6320128],[43.4324556,37.5909264],[43.3958997,37.5437928],[43.3547944,37.5414138],[43.3159642,37.542247],[43.3078773,37.5360347],[43.3071205,37.5103768]]]}},{"type":"Feature","properties":{"code":"30-04","provinceCode":"30","name":"Şemdinli"},"geometry":{"type":"Polygon","coordinates":[[[44.6226757,37.1879866],[44.627106,37.1898602],[44.6354248,37.1894085],[44.6372488,37.1928251],[44.6404241,37.1875022],[44.6474451,37.1895432],[44.6494031,37.1854102],[44.6594683,37.1808577],[44.6613638,37.1816472],[44.6648028,37.1770591],[44.6722523,37.1743074],[44.6721654,37.1723094],[44.6744018,37.1711364],[44.6778346,37.1737646],[44.6828842,37.1718585],[44.6866999,37.1759324],[44.6942469,37.1771382],[44.7000199,37.1718525],[44.7049662,37.1742609],[44.710067,37.1732439],[44.7179218,37.175623],[44.7268329,37.1713371],[44.7301281,37.171338],[44.7341696,37.1680206],[44.7439073,37.1651948],[44.7523296,37.1650378],[44.7533131,37.163059],[44.7561693,37.1640449],[44.7571121,37.16701],[44.759577,37.1669203],[44.7693221,37.1636089],[44.7729152,37.1511602],[44.7817804,37.1442279],[44.7843055,37.1438498],[44.785984,37.149896],[44.783452,37.154961],[44.785817,37.159492],[44.784992,37.1671],[44.780371,37.173627],[44.772725,37.176911],[44.77135,37.179905],[44.766125,37.183106],[44.76805,37.192626],[44.761944,37.204973],[44.760459,37.211916],[44.7606121,37.219223],[44.762648,37.2234991],[44.7575679,37.2283412],[44.7607645,37.2348668],[44.7664531,37.2384022],[44.7683538,37.2446406],[44.786257,37.255943],[44.794453,37.256983],[44.799844,37.259477],[44.802979,37.269829],[44.812826,37.275649],[44.815191,37.280472],[44.809415,37.288869],[44.805015,37.300053],[44.800999,37.303628],[44.798524,37.310654],[44.776631,37.322793],[44.770635,37.328406],[44.76695,37.330069],[44.761394,37.329486],[44.751713,37.331357],[44.743215,37.334624],[44.738869,37.339738],[44.732434,37.342232],[44.732776,37.3463923],[44.7273043,37.3503668],[44.7240689,37.355904],[44.7244289,37.3635171],[44.720774,37.3726801],[44.7214731,37.3756933],[44.7162054,37.3769079],[44.7110653,37.3801957],[44.7025156,37.3810977],[44.69267,37.3842643],[44.686629,37.3847342],[44.6824285,37.3822521],[44.6748582,37.384536],[44.6692297,37.3832283],[44.6573683,37.3859048],[44.6533641,37.3928092],[44.655265,37.3980762],[44.657252,37.3991879],[44.6559968,37.4022666],[44.6519494,37.4027744],[44.636392,37.41644],[44.634522,37.420847],[44.636612,37.424298],[44.630891,37.431615],[44.6190122,37.4371387],[44.6064364,37.4363167],[44.587315,37.439619],[44.5798293,37.4476059],[44.5862519,37.451861],[44.5876071,37.4616644],[44.5864544,37.4654318],[44.5805643,37.464398],[44.576447,37.4700426],[44.5682124,37.4703397],[44.5453801,37.4599415],[44.533964,37.4588696],[44.4766961,37.4427071],[44.4591085,37.4346804],[44.4059849,37.4225092],[44.3919712,37.4157551],[44.3629555,37.3979396],[44.3581644,37.3929439],[44.3431924,37.3922301],[44.3148299,37.3872489],[44.2954131,37.3820442],[44.2778678,37.3718197],[44.254708,37.3348138],[44.2299107,37.3137924],[44.2179799,37.3061637],[44.1988982,37.2882243],[44.2097952,37.280609],[44.2290282,37.282356],[44.2378992,37.271988],[44.2418899,37.270016],[44.2407845,37.2691411],[44.2425952,37.264551],[44.2465462,37.262071],[44.2455022,37.2583529],[44.2474402,37.2566619],[44.2462482,37.2552539],[44.2509442,37.2522109],[44.2506752,37.2503139],[44.2563862,37.2501819],[44.2683682,37.2443999],[44.2703012,37.2395929],[44.2692542,37.2307679],[44.2716702,37.2215169],[44.2691742,37.2168308],[44.2718312,37.2122058],[44.2647452,37.2038678],[44.2657922,37.1978428],[44.2693352,37.1954088],[44.2734774,37.1942385],[44.2756029,37.1966546],[44.2781833,37.1970426],[44.2819227,37.1950419],[44.2856141,37.1906504],[44.290574,37.1888626],[44.2950948,37.1848594],[44.3123303,37.1794862],[44.3170597,37.1830204],[44.3191587,37.1827892],[44.3203664,37.1859705],[44.3238542,37.1884152],[44.3242609,37.1917926],[44.3289279,37.192587],[44.3307167,37.1979759],[44.3456614,37.1973929],[44.3500521,37.1947633],[44.353711,37.1950872],[44.3580041,37.1931052],[44.3618283,37.1960443],[44.3731857,37.1959551],[44.3802467,37.1992286],[44.3830114,37.2024276],[44.3906937,37.2015113],[44.3940626,37.2034426],[44.3997703,37.2028615],[44.4027958,37.2046048],[44.4109283,37.2041775],[44.4172369,37.2060575],[44.4169696,37.2093887],[44.429602,37.2155276],[44.436081,37.2120115],[44.4362971,37.2048148],[44.4401305,37.1976324],[44.4404924,37.1910517],[44.44733,37.1826494],[44.44624,37.1761895],[44.4502577,37.171201],[44.4713152,37.1693282],[44.5082892,37.1694509],[44.5235027,37.1662534],[44.5365704,37.18465],[44.5465697,37.1931117],[44.5580924,37.1974361],[44.6016944,37.2042898],[44.6226757,37.1879866]]]}},{"type":"Feature","properties":{"code":"30-05","provinceCode":"30","name":"Yüksekova"},"geometry":{"type":"Polygon","coordinates":[[[43.9007678,37.3497955],[43.9147801,37.3208681],[43.9151003,37.3127175],[43.9115774,37.3043113],[43.9016492,37.291318],[43.8990871,37.2788322],[43.8984466,37.242892],[43.9110324,37.2284535],[43.913046,37.223016],[43.919411,37.224773],[43.926103,37.237997],[43.93844,37.242385],[43.930882,37.246259],[43.942781,37.249807],[43.944462,37.255723],[43.947071,37.258259],[43.944239,37.268458],[43.957806,37.2715],[43.957359,37.279952],[43.9546,37.282431],[43.95542,37.292855],[43.968168,37.292292],[43.971075,37.295166],[43.98576,37.296067],[43.990084,37.298772],[43.993066,37.298828],[43.99806,37.308914],[44.020424,37.328579],[44.0239621,37.3225168],[44.0236232,37.3175648],[44.028325,37.320071],[44.031754,37.326156],[44.033767,37.323395],[44.040402,37.325705],[44.0412873,37.3221916],[44.0484681,37.321961],[44.055683,37.319394],[44.0620107,37.3208683],[44.0667851,37.3171045],[44.068579,37.313478],[44.074767,37.315563],[44.083638,37.314323],[44.084756,37.316239],[44.088036,37.317197],[44.091092,37.315563],[44.100559,37.31545],[44.104883,37.316239],[44.108088,37.318944],[44.112188,37.317873],[44.118152,37.321592],[44.125738,37.3228684],[44.1270719,37.3186098],[44.1409578,37.3141359],[44.146255,37.310266],[44.15289,37.302096],[44.163773,37.303843],[44.172346,37.297701],[44.186807,37.29494],[44.194337,37.289475],[44.1988982,37.2882243],[44.2179799,37.3061637],[44.2299107,37.3137924],[44.254708,37.3348138],[44.2778678,37.3718197],[44.2954131,37.3820442],[44.3148299,37.3872489],[44.3431924,37.3922301],[44.3581644,37.3929439],[44.3629555,37.3979396],[44.3919712,37.4157551],[44.4059849,37.4225092],[44.4591085,37.4346804],[44.4766961,37.4427071],[44.533964,37.4588696],[44.5453801,37.4599415],[44.5682124,37.4703397],[44.576447,37.4700426],[44.5805643,37.464398],[44.5864544,37.4654318],[44.5856885,37.4776739],[44.582373,37.4840103],[44.5850189,37.5073768],[44.5871453,37.5103724],[44.593648,37.510459],[44.601454,37.514202],[44.601474,37.524249],[44.606127,37.532091],[44.607144,37.539474],[44.610407,37.541593],[44.609523,37.543133],[44.612588,37.544878],[44.613441,37.547753],[44.612222,37.549463],[44.605389,37.550839],[44.6012501,37.5560898],[44.602922,37.5600387],[44.6072489,37.5598485],[44.609784,37.56182],[44.6127572,37.5619157],[44.613664,37.566483],[44.607941,37.57],[44.6128461,37.5713523],[44.6059682,37.576717],[44.6023151,37.5766007],[44.5989035,37.580766],[44.6107332,37.5882625],[44.614409,37.602176],[44.607988,37.608084],[44.607569,37.610862],[44.6001412,37.6167702],[44.5952714,37.6162937],[44.5932365,37.617728],[44.5833253,37.6313572],[44.5809446,37.6373944],[44.5715627,37.6383411],[44.568625,37.640894],[44.56816,37.644762],[44.574395,37.658371],[44.574348,37.665861],[44.589563,37.671031],[44.5910324,37.6757111],[44.5976419,37.6771439],[44.6110747,37.6877401],[44.6172028,37.6904321],[44.6280768,37.7021432],[44.6304124,37.7063482],[44.6259479,37.7078567],[44.6241474,37.7102333],[44.6211367,37.7187112],[44.6206225,37.7270202],[44.615314,37.7314294],[44.6104113,37.7328991],[44.6074088,37.7387596],[44.602782,37.7402396],[44.6005231,37.7446308],[44.5947731,37.7478413],[44.5870796,37.7640076],[44.5685997,37.7688077],[44.5639154,37.7716207],[44.5618504,37.7760868],[44.5549506,37.7805011],[44.5482032,37.7795088],[44.5401907,37.7819577],[44.527361,37.7827882],[44.5193388,37.780246],[44.5177444,37.7767431],[44.4979236,37.773743],[44.4939492,37.7704602],[44.4802692,37.7717443],[44.4774346,37.7703729],[44.4727237,37.7638062],[44.4580229,37.7671354],[44.4524826,37.7666873],[44.4491856,37.7697901],[44.4449506,37.7709171],[44.4431344,37.7746622],[44.4499409,37.785845],[44.4475246,37.7986552],[44.4483769,37.8065854],[44.4297506,37.7987169],[44.4237529,37.799449],[44.4215712,37.8043708],[44.3995075,37.79737],[44.3760296,37.7852428],[44.3507458,37.7787322],[44.3111098,37.7772804],[44.2903669,37.7641662],[44.2653039,37.7575605],[44.2503931,37.7492995],[44.2332412,37.7368434],[44.2119205,37.7298594],[44.1803153,37.7289226],[44.1573595,37.7301898],[44.1454824,37.7337124],[44.1320937,37.7335281],[44.1210478,37.7297487],[44.1126659,37.7234212],[44.1028402,37.7203014],[44.0953426,37.7200905],[44.0864062,37.7335301],[44.0854789,37.7280777],[44.0767994,37.7214739],[44.0689247,37.7121029],[44.0630948,37.7128528],[44.0576535,37.7108643],[44.0545329,37.7120735],[44.0489492,37.7093745],[44.0470089,37.7065661],[44.0405434,37.7048501],[44.0339238,37.7064535],[44.0304711,37.7058788],[44.0203246,37.7104982],[44.0185808,37.7086457],[44.0116334,37.7066093],[44.0077194,37.6975693],[43.9945437,37.6947166],[43.9893127,37.697106],[43.9850813,37.6953423],[43.9800035,37.6967304],[43.9723163,37.6875531],[43.9650992,37.6824536],[43.9650992,37.6785778],[43.956078,37.6685812],[43.94966,37.6548797],[43.9529463,37.6452882],[43.9550728,37.6185478],[43.967187,37.6149238],[43.989418,37.5988436],[43.9996636,37.5784192],[43.9985681,37.5635569],[43.9921566,37.5462394],[43.9917538,37.5376174],[43.9796718,37.5117456],[43.9655761,37.492895],[43.9587296,37.4702041],[43.9297327,37.429599],[43.9240944,37.4081686],[43.9176507,37.3912118],[43.9075823,37.3726509],[43.9007678,37.3497955]]]}}]}