{"type":"FeatureCollection","features":[{"type":"Feature","properties":{"code":"56-01","provinceCode":"56","name":"Baykan"},"geometry":{"type":"Polygon","coordinates":[[[41.6606902,38.267337],[41.6473018,38.2535561],[41.6412834,38.2397179],[41.6309573,38.2273069],[41.6288423,38.2150892],[41.6436473,38.1872253],[41.643274,38.1576877],[41.6407858,38.1451649],[41.6308329,38.1323463],[41.6170232,38.1231468],[41.6074435,38.1108138],[41.610927,38.0970101],[41.6096829,38.0838893],[41.6276424,38.0638751],[41.6442972,38.0552321],[41.6647373,38.0519535],[41.7177299,38.050165],[41.772281,38.0501091],[41.7806478,38.0517644],[41.7923685,38.0493607],[41.8015999,38.0511066],[41.8164114,38.0500286],[41.8388559,38.0510593],[41.8577818,38.0364524],[41.8721655,38.0295951],[41.9032041,38.0254208],[41.9077463,38.040328],[41.9058537,38.0492708],[41.890713,38.0635771],[41.8876848,38.0704312],[41.8895774,38.0769867],[41.9069893,38.0817539],[41.9138026,38.089798],[41.9164522,38.108564],[41.92213,38.1180941],[41.9202374,38.1300049],[41.9232656,38.1439977],[41.930836,38.1502489],[41.9435741,38.1752033],[41.9313513,38.185063],[41.9148703,38.1898082],[41.8545508,38.1913099],[41.8427048,38.1981974],[41.8240244,38.2028061],[41.8178515,38.211418],[41.785283,38.235676],[41.7440946,38.237095],[41.7145832,38.2417871],[41.6828224,38.2436999],[41.6606902,38.267337]]]}},{"type":"Feature","properties":{"code":"56-02","provinceCode":"56","name":"Eruh"},"geometry":{"type":"Polygon","coordinates":[[[42.3625336,37.7097685],[42.3455843,37.7288854],[42.3274266,37.7349806],[42.3228471,37.7422834],[42.3075339,37.7468971],[42.2992664,37.7581868],[42.2979023,37.7718833],[42.3053306,37.789703],[42.2979805,37.796857],[42.2952443,37.8145915],[42.2894652,37.8291898],[42.2605699,37.8444906],[42.237584,37.8523983],[42.2243024,37.8539537],[42.1877333,37.8656551],[42.1728526,37.8754826],[42.1669237,37.8764186],[42.1601647,37.8803496],[42.1506784,37.8905505],[42.1502041,37.8862457],[42.1317059,37.8676198],[42.1243847,37.8652493],[42.115306,37.8586669],[42.0795473,37.8482801],[42.0699128,37.8421351],[42.0686158,37.8373065],[42.0547199,37.8332093],[42.0513849,37.830868],[42.0321159,37.8304289],[42.0189612,37.832185],[42.0004333,37.8393551],[41.9731018,37.8387802],[41.9624512,37.8441835],[41.9387355,37.8503283],[41.9255807,37.8507672],[41.907794,37.8484264],[41.9017909,37.8448858],[41.8992712,37.8413743],[41.9006052,37.8351702],[41.907127,37.8287314],[41.9235797,37.8200675],[41.9288292,37.8133276],[41.9280703,37.8089508],[41.9095391,37.7972889],[41.9052966,37.7903329],[41.8964609,37.786382],[41.8900997,37.7860708],[41.8838532,37.7810653],[41.8805703,37.7748965],[41.8767299,37.7742601],[41.8661768,37.7682537],[41.8554242,37.7590274],[41.8499698,37.7579443],[41.8440548,37.7589047],[41.8127173,37.745539],[41.8067434,37.7197815],[41.7768832,37.7282841],[41.7731363,37.7180474],[41.7747929,37.7155012],[41.7926031,37.7116934],[41.8100927,37.7146081],[41.8173825,37.7145802],[41.8202283,37.7127122],[41.8214485,37.7061707],[41.8197485,37.7030197],[41.8131431,37.699638],[41.8124738,37.695317],[41.8245912,37.6933547],[41.8387488,37.6938986],[41.8578574,37.6841168],[41.8740465,37.6828242],[41.9108394,37.6656422],[41.9305724,37.6532929],[41.9484431,37.6450957],[41.9607131,37.6437333],[41.9736314,37.6397592],[41.9958814,37.6257352],[42.0153174,37.6248118],[42.0386903,37.6270648],[42.0614337,37.6203764],[42.0770672,37.6278065],[42.0950994,37.6213495],[42.1193907,37.6297947],[42.1475023,37.6301986],[42.1536959,37.6066718],[42.1995481,37.6012269],[42.2478818,37.5818304],[42.2629469,37.5975181],[42.2794449,37.6026458],[42.2827426,37.6056319],[42.2788306,37.6102156],[42.2793456,37.6140592],[42.2758208,37.6197218],[42.2696265,37.6240086],[42.2639199,37.6419777],[42.2525466,37.6493592],[42.2572078,37.6558543],[42.2682082,37.6554115],[42.282995,37.6481801],[42.3022198,37.6348176],[42.3158829,37.6397712],[42.3146339,37.6500973],[42.3239563,37.6604301],[42.3528558,37.6669243],[42.3626476,37.6737614],[42.3573306,37.6828621],[42.3625336,37.7097685]]]}},{"type":"Feature","properties":{"code":"56-03","provinceCode":"56","name":"Kurtalan"},"geometry":{"type":"Polygon","coordinates":[[[41.6096829,38.0838893],[41.5923897,38.0797763],[41.5739768,38.0788949],[41.5468551,38.0610691],[41.5405101,38.0497053],[41.5370266,38.0202101],[41.5319257,38.0142312],[41.5222216,38.0098202],[41.5106513,38.0179558],[41.5067488,38.0257526],[41.4949645,38.0400518],[41.4816556,38.0396734],[41.4777048,38.0373383],[41.4754793,38.0345836],[41.4769845,38.0315435],[41.476102,38.0286095],[41.4658947,38.0282805],[41.4611834,38.0189999],[41.4569956,38.0163363],[41.4456135,38.0162719],[41.4469306,38.0126794],[41.4454413,38.0103957],[41.4429921,38.0085754],[41.4360808,38.0088972],[41.4354924,38.0032576],[41.4276958,38.0030939],[41.4238446,37.9970337],[41.4185394,37.9969577],[41.4175595,37.9945967],[41.4072352,37.9899659],[41.4037781,37.9897973],[41.4004388,37.9852536],[41.3835943,37.982502],[41.382084,37.9790863],[41.3718252,37.9779217],[41.3634127,37.9732716],[41.3615168,37.9677614],[41.3626647,37.9605138],[41.3692001,37.9475663],[41.4006466,37.9324044],[41.4398784,37.8971777],[41.4884427,37.8750215],[41.5226179,37.8623029],[41.5539427,37.8758873],[41.5900848,37.8806017],[41.6063433,37.8713011],[41.6212087,37.8737926],[41.644827,37.8803621],[41.6562121,37.8773171],[41.6566605,37.8686369],[41.6806065,37.8616187],[41.692399,37.8423588],[41.7028027,37.8309828],[41.6973465,37.8198835],[41.6975397,37.8143005],[41.6938836,37.800796],[41.6850877,37.7923084],[41.6823812,37.7876076],[41.6816354,37.7776733],[41.6776076,37.7710596],[41.6800692,37.7627692],[41.674885,37.7554956],[41.6748291,37.7502347],[41.6729036,37.7464838],[41.6646905,37.7428431],[41.6674175,37.7394866],[41.6756694,37.7351088],[41.674094,37.7302474],[41.6761309,37.7267349],[41.6779437,37.725639],[41.678568,37.7278198],[41.6826803,37.7293505],[41.695898,37.7280965],[41.7004533,37.7237229],[41.7023787,37.7155508],[41.7098588,37.7135497],[41.7118205,37.709719],[41.7156788,37.7079665],[41.7211267,37.7108792],[41.7212346,37.717298],[41.7185915,37.7214514],[41.7195085,37.7266294],[41.7274376,37.7267912],[41.7406979,37.7317922],[41.7596801,37.7293235],[41.7664898,37.7318773],[41.77459,37.7328302],[41.7773661,37.7318915],[41.7768832,37.7282841],[41.7847462,37.7322512],[41.7957373,37.7345084],[41.7927213,37.7411308],[41.7969339,37.7447909],[41.7940946,37.7552471],[41.7951281,37.7585015],[41.8031926,37.7636613],[41.8101406,37.7734693],[41.8086858,37.7789945],[41.8119289,37.7872802],[41.8109865,37.7921885],[41.8182989,37.7994791],[41.8340946,37.8057074],[41.8354527,37.8105516],[41.8333355,37.8159526],[41.8288467,37.8140096],[41.8271905,37.816029],[41.8321099,37.8277225],[41.8252126,37.8339268],[41.8220159,37.8349451],[41.8225218,37.8438677],[41.820935,37.8457656],[41.81483,37.8459868],[41.8120343,37.8514258],[41.8077136,37.8541046],[41.8068494,37.861277],[41.8006708,37.8688816],[41.8019238,37.8728134],[41.7960476,37.877307],[41.7975167,37.8807636],[41.7928503,37.8808933],[41.7898258,37.8779119],[41.7807522,37.8849115],[41.7885295,37.8891026],[41.7860667,37.8932937],[41.7866284,37.900423],[41.7852458,37.9025833],[41.7922454,37.9071633],[41.7942585,37.9128015],[41.7986788,37.9131364],[41.799449,37.9150452],[41.7934548,37.9213761],[41.7925171,37.9247901],[41.7966696,37.9286411],[41.7946268,37.9358744],[41.79677,37.937013],[41.7944893,37.9469461],[41.7912075,37.9506297],[41.7879737,37.9516419],[41.7885459,37.9570845],[41.7858988,37.9579646],[41.7901685,37.9628138],[41.7896448,37.9655815],[41.7857923,37.968295],[41.7848203,37.9722618],[41.7787529,37.9730335],[41.776817,37.977702],[41.7726461,37.9799576],[41.7766979,37.9878267],[41.7752459,37.9916524],[41.7788419,37.9933654],[41.7769956,37.9983683],[41.7808073,38.0065872],[41.7783655,38.011471],[41.7735601,38.0139592],[41.7788132,38.0207867],[41.7820226,38.031293],[41.7813332,38.0408078],[41.7776007,38.043748],[41.7806478,38.0517644],[41.772281,38.0501091],[41.7177299,38.050165],[41.6647373,38.0519535],[41.6442972,38.0552321],[41.6276424,38.0638751],[41.6096829,38.0838893]]]}},{"type":"Feature","properties":{"code":"56-04","provinceCode":"56","name":"Pervari"},"geometry":{"type":"Polygon","coordinates":[[[42.1298393,37.9023719],[42.1427337,37.8965394],[42.1506784,37.8905505],[42.1601647,37.8803496],[42.1669237,37.8764186],[42.1728526,37.8754826],[42.1877333,37.8656551],[42.2243024,37.8539537],[42.237584,37.8523983],[42.2605699,37.8444906],[42.2894652,37.8291898],[42.2952443,37.8145915],[42.2979805,37.796857],[42.3053306,37.789703],[42.2979023,37.7718833],[42.2992664,37.7581868],[42.3075339,37.7468971],[42.3228471,37.7422834],[42.3274266,37.7349806],[42.3455843,37.7288854],[42.3625336,37.7097685],[42.3764639,37.7073324],[42.39064,37.711817],[42.4042103,37.6983782],[42.4219162,37.6921729],[42.4433929,37.70017],[42.4629746,37.7166612],[42.4920314,37.7256549],[42.5292998,37.7266541],[42.5848866,37.7191596],[42.6777418,37.6981708],[42.778177,37.6786759],[42.8242887,37.6601761],[42.8407121,37.659676],[42.8845218,37.7668903],[42.8654331,37.7994026],[42.8392943,37.8242426],[42.8246475,37.8501403],[42.8179453,37.8671538],[42.8044711,37.891668],[42.788319,37.9029645],[42.7888094,37.9095805],[42.7869549,37.9132372],[42.7809539,37.9167776],[42.7819042,37.9192765],[42.7784199,37.920276],[42.7795602,37.9232245],[42.770236,37.9360233],[42.7640068,37.9371072],[42.7560021,37.9363585],[42.7488494,37.9380495],[42.7463469,37.9402153],[42.7439095,37.9442353],[42.745319,37.9534049],[42.7422045,37.9610115],[42.7360479,37.9990545],[42.7098881,38.0194446],[42.6832876,38.0304943],[42.6631905,38.0244853],[42.6542178,38.0166553],[42.654682,37.9990488],[42.6495266,37.9943449],[42.6314508,37.9883955],[42.626481,37.9896691],[42.6172434,37.9825948],[42.6140569,37.9811463],[42.6119326,37.9828872],[42.6081973,37.9802068],[42.6065153,37.9823579],[42.5962023,37.9846243],[42.5892287,37.9831089],[42.5880228,37.978649],[42.5828958,37.9767613],[42.5675386,37.98242],[42.5656699,37.9786421],[42.562065,37.9779656],[42.5623225,37.9752593],[42.559061,37.9751916],[42.5554561,37.9730265],[42.5535678,37.9743121],[42.5521087,37.971335],[42.5483321,37.9692375],[42.5413798,37.9718086],[42.5327833,37.9710912],[42.5019321,37.981597],[42.4913406,37.9894662],[42.48353,37.9995446],[42.4896239,38.0203059],[42.4862765,38.0219963],[42.4847316,38.0252418],[42.4705695,38.0295688],[42.4658391,38.0335543],[42.4591098,38.0256713],[42.4364672,38.0064222],[42.4255572,38.00173],[42.3933805,37.9830765],[42.3888919,37.9749338],[42.3815252,37.9760479],[42.3782637,37.9738828],[42.3559477,37.9697554],[42.3404123,37.9728002],[42.3362024,37.9710364],[42.3331093,37.972303],[42.3198988,37.9670488],[42.3103413,37.9683382],[42.2932681,37.9625474],[42.2832838,37.965343],[42.2737987,37.9640451],[42.2703041,37.962148],[42.2594212,37.9618485],[42.2569252,37.9546598],[42.2535305,37.951964],[42.2505352,37.946273],[42.2458426,37.9428783],[42.2401515,37.9412808],[42.2354589,37.9294993],[42.2276711,37.9250064],[42.2125948,37.9285009],[42.2049305,37.926044],[42.2002138,37.9301932],[42.1949937,37.931962],[42.190288,37.9369625],[42.189903,37.9436102],[42.1850465,37.9459713],[42.1706293,37.9439402],[42.1551173,37.9519325],[42.1598544,37.9231288],[42.1572605,37.9149437],[42.1428088,37.9045648],[42.1298393,37.9023719]]]}},{"type":"Feature","properties":{"code":"56-05","provinceCode":"56","name":"Siirt (merkez)"},"geometry":{"type":"Polygon","coordinates":[[[41.9652812,38.0111071],[41.9420531,38.0230822],[41.9362785,38.023574],[41.9303999,38.0218117],[41.9251582,38.0227372],[41.9204635,38.025746],[41.9099548,38.0264836],[41.9032041,38.0254208],[41.8721655,38.0295951],[41.8577818,38.0364524],[41.8388559,38.0510593],[41.8164114,38.0500286],[41.8015999,38.0511066],[41.7923685,38.0493607],[41.7806478,38.0517644],[41.7776007,38.043748],[41.7813332,38.0408078],[41.7820226,38.031293],[41.7788132,38.0207867],[41.7735601,38.0139592],[41.7783655,38.011471],[41.7808073,38.0065872],[41.7769956,37.9983683],[41.7788419,37.9933654],[41.7752459,37.9916524],[41.7766979,37.9878267],[41.7726461,37.9799576],[41.776817,37.977702],[41.7787529,37.9730335],[41.7848203,37.9722618],[41.7857923,37.968295],[41.7896448,37.9655815],[41.7901685,37.9628138],[41.7858988,37.9579646],[41.7885459,37.9570845],[41.7879737,37.9516419],[41.7912075,37.9506297],[41.7944893,37.9469461],[41.79677,37.937013],[41.7946268,37.9358744],[41.7966696,37.9286411],[41.7925171,37.9247901],[41.7934548,37.9213761],[41.799449,37.9150452],[41.7986788,37.9131364],[41.7942585,37.9128015],[41.7922454,37.9071633],[41.7852458,37.9025833],[41.7866284,37.900423],[41.7860667,37.8932937],[41.7885295,37.8891026],[41.7807522,37.8849115],[41.7898258,37.8779119],[41.7928503,37.8808933],[41.7975167,37.8807636],[41.7960476,37.877307],[41.8019238,37.8728134],[41.8006708,37.8688816],[41.8068494,37.861277],[41.8077136,37.8541046],[41.8120343,37.8514258],[41.81483,37.8459868],[41.820935,37.8457656],[41.8225218,37.8438677],[41.8220159,37.8349451],[41.8252126,37.8339268],[41.8321099,37.8277225],[41.8271905,37.816029],[41.8288467,37.8140096],[41.8333355,37.8159526],[41.8354527,37.8105516],[41.8340946,37.8057074],[41.8182989,37.7994791],[41.8109865,37.7921885],[41.8119289,37.7872802],[41.8086858,37.7789945],[41.8101406,37.7734693],[41.8031926,37.7636613],[41.7951281,37.7585015],[41.7940946,37.7552471],[41.7969339,37.7447909],[41.7927213,37.7411308],[41.7957373,37.7345084],[41.7847462,37.7322512],[41.7768832,37.7282841],[41.8067434,37.7197815],[41.8127173,37.745539],[41.8440548,37.7589047],[41.8499698,37.7579443],[41.8554242,37.7590274],[41.8661768,37.7682537],[41.8767299,37.7742601],[41.8805703,37.7748965],[41.8838532,37.7810653],[41.8900997,37.7860708],[41.8964609,37.786382],[41.9052966,37.7903329],[41.9095391,37.7972889],[41.9280703,37.8089508],[41.9288292,37.8133276],[41.9235797,37.8200675],[41.907127,37.8287314],[41.9006052,37.8351702],[41.8992712,37.8413743],[41.9017909,37.8448858],[41.907794,37.8484264],[41.9255807,37.8507672],[41.9387355,37.8503283],[41.9624512,37.8441835],[41.9731018,37.8387802],[42.0004333,37.8393551],[42.0189612,37.832185],[42.0321159,37.8304289],[42.0513849,37.830868],[42.0547199,37.8332093],[42.0686158,37.8373065],[42.0699128,37.8421351],[42.0795473,37.8482801],[42.115306,37.8586669],[42.1243847,37.8652493],[42.1317059,37.8676198],[42.1502041,37.8862457],[42.1506784,37.8905505],[42.1427337,37.8965394],[42.1298393,37.9023719],[42.1080505,37.9120845],[42.1075762,37.9154523],[42.113268,37.925929],[42.1120822,37.931728],[42.1024773,37.9418283],[42.0896327,37.9497329],[42.0750328,37.9494123],[42.0686025,37.9457103],[42.0658596,37.9421267],[42.0653262,37.9368757],[42.0608852,37.9285534],[42.0631056,37.9227305],[42.0514038,37.9175501],[42.0443625,37.9077167],[42.0442576,37.8935758],[42.0361043,37.88756],[42.0386977,37.8842817],[42.0381827,37.881572],[42.025119,37.8854406],[42.0181406,37.8835685],[42.0145291,37.8852378],[42.0000102,37.8977115],[41.9981642,37.9035838],[41.9985908,37.9242703],[41.992156,37.93472],[41.9902634,37.9475562],[41.9834501,37.9657619],[41.9732301,37.9699396],[41.9558182,37.9815762],[41.952033,37.989333],[41.952033,37.998282],[41.9580893,38.0081247],[41.9652812,38.0111071]]]}},{"type":"Feature","properties":{"code":"56-06","provinceCode":"56","name":"Şirvan"},"geometry":{"type":"Polygon","coordinates":[[[42.1551173,37.9519325],[42.1706293,37.9439402],[42.1850465,37.9459713],[42.189903,37.9436102],[42.190288,37.9369625],[42.1949937,37.931962],[42.2002138,37.9301932],[42.2049305,37.926044],[42.2125948,37.9285009],[42.2276711,37.9250064],[42.2354589,37.9294993],[42.2401515,37.9412808],[42.2458426,37.9428783],[42.2505352,37.946273],[42.2535305,37.951964],[42.2569252,37.9546598],[42.2594212,37.9618485],[42.2703041,37.962148],[42.2737987,37.9640451],[42.2832838,37.965343],[42.2932681,37.9625474],[42.3103413,37.9683382],[42.3198988,37.9670488],[42.3331093,37.972303],[42.3362024,37.9710364],[42.3404123,37.9728002],[42.3559477,37.9697554],[42.3782637,37.9738828],[42.3815252,37.9760479],[42.3888919,37.9749338],[42.3933805,37.9830765],[42.4255572,38.00173],[42.4364672,38.0064222],[42.4591098,38.0256713],[42.4658391,38.0335543],[42.4614283,38.0409678],[42.4539325,38.0437905],[42.4514293,38.0500513],[42.4403571,38.056945],[42.4483313,38.0660946],[42.4489402,38.0701901],[42.4168395,38.0648518],[42.4113463,38.0665412],[42.406969,38.06546],[42.39148,38.0691268],[42.3878287,38.076609],[42.3748166,38.0888374],[42.3718036,38.1047533],[42.3885065,38.120418],[42.3896785,38.1273519],[42.3838953,38.1294064],[42.3314529,38.109953],[42.2870706,38.1193931],[42.2713162,38.1403221],[42.256441,38.1523298],[42.2363234,38.1802386],[42.2407432,38.1896995],[42.2459616,38.232564],[42.2232992,38.2367071],[42.2023217,38.2328696],[42.1708799,38.2227827],[42.1321748,38.2160406],[42.1162845,38.2167347],[42.0981371,38.2031199],[42.0407329,38.1730673],[42.016236,38.1724983],[41.9815076,38.1669383],[41.976486,38.1685454],[41.9703071,38.1577338],[41.9539924,38.1632864],[41.9435741,38.1752033],[41.930836,38.1502489],[41.9232656,38.1439977],[41.9202374,38.1300049],[41.92213,38.1180941],[41.9164522,38.108564],[41.9138026,38.089798],[41.9069893,38.0817539],[41.8895774,38.0769867],[41.8876848,38.0704312],[41.890713,38.0635771],[41.9058537,38.0492708],[41.9077463,38.040328],[41.9032041,38.0254208],[41.9099548,38.0264836],[41.9204635,38.025746],[41.9251582,38.0227372],[41.9303999,38.0218117],[41.9362785,38.023574],[41.9420531,38.0230822],[41.9652812,38.0111071],[41.9789078,38.0033527],[41.9917775,37.9985803],[41.9989693,37.9973872],[42.0140199,37.9988404],[42.0410496,37.994862],[42.0593336,37.9874233],[42.0663498,37.9862567],[42.0717361,37.9830986],[42.0818119,37.9805804],[42.1042763,37.9686839],[42.1356311,37.9677693],[42.152672,37.9559918],[42.1551173,37.9519325]]]}},{"type":"Feature","properties":{"code":"56-07","provinceCode":"56","name":"Tillo"},"geometry":{"type":"Polygon","coordinates":[[[41.9652812,38.0111071],[41.9580893,38.0081247],[41.952033,37.998282],[41.952033,37.989333],[41.9558182,37.9815762],[41.9732301,37.9699396],[41.9834501,37.9657619],[41.9902634,37.9475562],[41.992156,37.93472],[41.9985908,37.9242703],[41.9981642,37.9035838],[42.0000102,37.8977115],[42.0145291,37.8852378],[42.0181406,37.8835685],[42.025119,37.8854406],[42.0381827,37.881572],[42.0386977,37.8842817],[42.0361043,37.88756],[42.0442576,37.8935758],[42.0443625,37.9077167],[42.0514038,37.9175501],[42.0631056,37.9227305],[42.0608852,37.9285534],[42.0653262,37.9368757],[42.0658596,37.9421267],[42.0686025,37.9457103],[42.0750328,37.9494123],[42.0896327,37.9497329],[42.1024773,37.9418283],[42.1120822,37.931728],[42.113268,37.925929],[42.1075762,37.9154523],[42.1080505,37.9120845],[42.1298393,37.9023719],[42.1428088,37.9045648],[42.1572605,37.9149437],[42.1598544,37.9231288],[42.1551173,37.9519325],[42.152672,37.9559918],[42.1356311,37.9677693],[42.1042763,37.9686839],[42.0818119,37.9805804],[42.0717361,37.9830986],[42.0663498,37.9862567],[42.0593336,37.9874233],[42.0410496,37.994862],[42.0140199,37.9988404],[41.9989693,37.9973872],[41.9917775,37.9985803],[41.9789078,38.0033527],[41.9652812,38.0111071]]]}}]}