{"type":"FeatureCollection","features":[{"type":"Feature","properties":{"code":"24-01","provinceCode":"24","name":"Çayırlı"},"geometry":{"type":"Polygon","coordinates":[[[40.278858,39.9323052],[40.2631245,39.9405289],[40.2460417,39.9603341],[40.2586041,39.984378],[40.2753277,39.991388],[40.290805,40.0024449],[40.2976408,40.010299],[40.29955,40.0224459],[40.2809203,40.0207196],[40.2534971,40.0107067],[40.246163,40.0058218],[40.2203341,39.9992267],[40.1791992,39.9843243],[40.131368,39.9611092],[40.1093656,39.9474208],[40.0887416,39.9378196],[40.0493735,39.9085945],[40.0322428,39.913777],[40.0160975,39.9262212],[40.0080946,39.9442353],[39.9997056,39.9491045],[39.9839863,39.943512],[39.966063,39.9402786],[39.9531169,39.9415535],[39.9314334,39.9354412],[39.9158086,39.9349522],[39.904648,39.9391086],[39.8708472,39.9567096],[39.8476209,39.9620244],[39.8385004,39.9615741],[39.8289113,39.955508],[39.8103384,39.9416806],[39.804707,39.9307085],[39.8167176,39.9194755],[39.798187,39.8970799],[39.7713724,39.8894161],[39.6943284,39.8860244],[39.6531187,39.8626693],[39.6421829,39.8619321],[39.6326235,39.8652118],[39.6225583,39.8925501],[39.6134962,39.897523],[39.5919537,39.8917509],[39.5589335,39.8855779],[39.5612634,39.8788522],[39.5973534,39.8361941],[39.6122925,39.8186584],[39.6208883,39.8049244],[39.6349855,39.791716],[39.6418621,39.7827329],[39.6490826,39.7782409],[39.6635236,39.7761269],[39.6782427,39.7782073],[39.693437,39.7803548],[39.7014733,39.7837851],[39.7154698,39.7861653],[39.7255688,39.7917506],[39.7446681,39.7856393],[39.757209,39.783588],[39.7606922,39.7782343],[39.783027,39.7763566],[39.8014004,39.7769196],[39.8103142,39.7669732],[39.8516197,39.7759719],[39.8704278,39.7717803],[39.8911071,39.7618135],[39.9120316,39.7460031],[39.9121145,39.7340979],[39.9158966,39.7253717],[39.9324006,39.7139995],[39.9451224,39.7081805],[39.9709098,39.70289],[40.0242309,39.7027897],[40.0364925,39.6989988],[40.0507135,39.6919517],[40.0524174,39.6770274],[40.0624303,39.6713322],[40.079897,39.6695532],[40.0877596,39.7034175],[40.1105254,39.7220183],[40.1591233,39.732242],[40.1815687,39.7435794],[40.2022537,39.7498396],[40.2376822,39.7486552],[40.246108,39.7508055],[40.2463183,39.7556088],[40.240778,39.7583059],[40.235818,39.765286],[40.2352509,39.7691472],[40.2260734,39.7746065],[40.2260682,39.7774041],[40.217447,39.7848704],[40.2081008,39.7893611],[40.2002893,39.7887213],[40.1964944,39.7959181],[40.1886026,39.7954495],[40.1790569,39.8047915],[40.1699684,39.8070448],[40.162459,39.8119339],[40.1643205,39.8168289],[40.1567053,39.8301358],[40.1498244,39.8334224],[40.1491505,39.8423485],[40.1415394,39.8479986],[40.1366131,39.8495229],[40.1325754,39.8557306],[40.125216,39.8574498],[40.122774,39.8598488],[40.1243723,39.8617009],[40.1335949,39.8635124],[40.1339655,39.8683496],[40.1372306,39.8680792],[40.1358344,39.8722652],[40.1396762,39.8776131],[40.1435436,39.8779319],[40.1496669,39.8842374],[40.1508224,39.8885791],[40.1560633,39.8908768],[40.1616335,39.8891501],[40.1645355,39.8909721],[40.1662207,39.8927009],[40.166001,39.8982734],[40.1745044,39.9033139],[40.18297,39.9139528],[40.1972115,39.9113081],[40.203679,39.911859],[40.2123483,39.9201921],[40.2173888,39.9208479],[40.2220245,39.9162884],[40.2233063,39.9190234],[40.22941,39.9213303],[40.2318203,39.9201566],[40.2345071,39.9224172],[40.2407198,39.9229269],[40.2524677,39.9281214],[40.2546565,39.9277619],[40.2566512,39.9321669],[40.2703218,39.9289527],[40.278858,39.9323052]]]}},{"type":"Feature","properties":{"code":"24-02","provinceCode":"24","name":"Erzincan merkez"},"geometry":{"type":"Polygon","coordinates":[[[39.4023493,39.4864127],[39.4285442,39.5015735],[39.440802,39.5049421],[39.4497016,39.5066263],[39.4690119,39.4976864],[39.4933597,39.5000187],[39.5264455,39.5100332],[39.5370242,39.5165103],[39.5477708,39.5179352],[39.5568382,39.5232459],[39.5600286,39.5189715],[39.5549912,39.5114582],[39.5450841,39.5058875],[39.5390392,39.4992798],[39.5363525,39.4902093],[39.5423975,39.4734907],[39.5501216,39.4667503],[39.5551591,39.4589721],[39.5714469,39.4447097],[39.5820256,39.4412085],[39.601168,39.4475624],[39.6140975,39.4467844],[39.625012,39.4492481],[39.6431405,39.458026],[39.6577491,39.4695636],[39.6867985,39.4842096],[39.7208854,39.4925033],[39.7403637,39.5022213],[39.7820067,39.5171195],[39.8053785,39.5271417],[39.8080337,39.5311242],[39.7972031,39.5549742],[39.7887914,39.5791542],[39.7959208,39.5893515],[39.7940274,39.6027075],[39.8019051,39.6149985],[39.7975417,39.6164018],[39.7950157,39.6148809],[39.7809853,39.6206724],[39.7734327,39.6340253],[39.7522538,39.645717],[39.7396816,39.6436144],[39.7266503,39.6476763],[39.708372,39.6479486],[39.6979443,39.6421292],[39.6852349,39.6430562],[39.673639,39.6419546],[39.6695317,39.6486753],[39.6635456,39.6497384],[39.6608393,39.6533216],[39.6535894,39.6540303],[39.6425085,39.6603251],[39.6307037,39.6632011],[39.6300748,39.6715291],[39.6333343,39.6737051],[39.6399843,39.6749051],[39.6434431,39.6817672],[39.6386971,39.6867511],[39.6351691,39.698071],[39.6358123,39.7220705],[39.6510654,39.73043],[39.657378,39.7361777],[39.6782427,39.7782073],[39.6635236,39.7761269],[39.6490826,39.7782409],[39.6418621,39.7827329],[39.6349855,39.791716],[39.6208883,39.8049244],[39.6122925,39.8186584],[39.5973534,39.8361941],[39.5864854,39.8371388],[39.5538814,39.8361941],[39.5434235,39.8409177],[39.5436285,39.8539846],[39.5407577,39.8665769],[39.5280442,39.8733443],[39.5243601,39.8792265],[39.513075,39.8810552],[39.5088134,39.874124],[39.4849822,39.8615403],[39.4693936,39.8589893],[39.4471407,39.8623058],[39.3726102,39.8849255],[39.3152465,39.8930112],[39.3043719,39.8903949],[39.2941257,39.8930112],[39.2914599,39.9010345],[39.2857183,39.908113],[39.277311,39.9136181],[39.2715694,39.9217963],[39.2492182,39.9290299],[39.2153838,39.9302879],[39.1794988,39.9372062],[39.1612488,39.9416085],[39.140538,39.9493117],[39.1377435,39.9523813],[39.1354554,39.9441003],[39.1431028,39.9138526],[39.1394804,39.901194],[39.130223,39.8928565],[39.1342479,39.868456],[39.130223,39.8604235],[39.1420883,39.8550554],[39.1508904,39.8530282],[39.1539712,39.8506631],[39.153091,39.8444121],[39.1458292,39.835457],[39.1456092,39.8204165],[39.1568319,39.8068942],[39.1653655,39.7725172],[39.1857798,39.7658539],[39.2065882,39.7421835],[39.2243881,39.7466875],[39.2423774,39.7354893],[39.2588953,39.7274822],[39.2773929,39.7209085],[39.2838613,39.7077492],[39.3042832,39.6836986],[39.3371706,39.6808698],[39.3429965,39.67542],[39.3498182,39.6650877],[39.3669591,39.6574939],[39.403291,39.6598363],[39.4111897,39.6557704],[39.4150597,39.6449794],[39.4101275,39.6140813],[39.4149687,39.5847483],[39.4376193,39.5620193],[39.432558,39.5433557],[39.4252963,39.5287606],[39.4136335,39.514502],[39.4023493,39.4864127]]]}},{"type":"Feature","properties":{"code":"24-03","provinceCode":"24","name":"Ilıç"},"geometry":{"type":"Polygon","coordinates":[[[38.6820656,39.7024693],[38.6642904,39.7149911],[38.6464818,39.7235164],[38.6351188,39.7328622],[38.6331837,39.7374422],[38.6165336,39.7477749],[38.5907351,39.750605],[38.5477219,39.7420693],[38.5071423,39.7401009],[38.4862385,39.73738],[38.4758604,39.7396966],[38.4640518,39.7455489],[38.4561202,39.7628387],[38.4123028,39.772468],[38.4029307,39.7804951],[38.3982882,39.7810102],[38.3834314,39.7748456],[38.3683024,39.7726597],[38.3566005,39.7638384],[38.3636289,39.7413204],[38.3620723,39.735686],[38.3630287,39.7315259],[38.3528794,39.7178844],[38.3550531,39.712185],[38.3508086,39.7048801],[38.3520401,39.7024711],[38.3453347,39.696745],[38.3430071,39.6871174],[38.3396561,39.683723],[38.3356739,39.6826244],[38.3341268,39.6805415],[38.3276554,39.6791987],[38.3235779,39.6743205],[38.3273214,39.6714849],[38.3286215,39.6660605],[38.3177996,39.6486363],[38.3104793,39.6467319],[38.3114865,39.6453587],[38.3156225,39.6455064],[38.3152998,39.6421762],[38.317583,39.6417187],[38.3159959,39.6349197],[38.3247075,39.6311082],[38.3274464,39.6258468],[38.3265717,39.6233545],[38.3326528,39.6190089],[38.3310287,39.6161993],[38.3318964,39.6130329],[38.3373507,39.6101035],[38.3390403,39.6074671],[38.3381429,39.6012731],[38.3466601,39.5965513],[38.3454446,39.5895408],[38.3479056,39.5878372],[38.3437403,39.5807684],[38.3402145,39.5805118],[38.3348047,39.5706091],[38.3307127,39.5670507],[38.3242121,39.5668659],[38.3159086,39.5576441],[38.2965893,39.5511113],[38.278643,39.5429318],[38.2772508,39.5347747],[38.2935435,39.5096253],[38.3000848,39.4912283],[38.3220128,39.4814317],[38.3278542,39.4763814],[38.3573101,39.4606345],[38.3787472,39.4447919],[38.3952021,39.4186126],[38.3946817,39.4095225],[38.3921476,39.4048511],[38.4062716,39.4052032],[38.4232536,39.3986209],[38.4340544,39.393069],[38.4439308,39.3814766],[38.4619521,39.3791344],[38.4791338,39.3856337],[38.5009486,39.3849476],[38.5171054,39.379468],[38.5422764,39.3649498],[38.5671746,39.3590519],[38.6323354,39.3591418],[38.649855,39.3559979],[38.6831669,39.3413822],[38.7111662,39.3220311],[38.7187907,39.3086212],[38.7344812,39.2935962],[38.7511883,39.2840115],[38.7947891,39.2756839],[38.8038687,39.2811381],[38.7947093,39.2856564],[38.785901,39.3012196],[38.7892734,39.3216023],[38.7977991,39.3363748],[38.8134865,39.3479795],[38.8316387,39.3531382],[38.8671468,39.3479183],[38.8526664,39.3762341],[38.7984465,39.4033378],[38.7813993,39.4205671],[38.7635215,39.427026],[38.7446463,39.4554771],[38.7387176,39.4607576],[38.7365029,39.4688453],[38.7290242,39.4774892],[38.7061974,39.4877387],[38.6754488,39.4984931],[38.6669555,39.5075263],[38.6614586,39.5240528],[38.6746672,39.5413707],[38.6564456,39.5583265],[38.659189,39.5598648],[38.6576926,39.5650562],[38.6529539,39.5692859],[38.655448,39.579667],[38.662207,39.593371],[38.6622613,39.6071817],[38.6512135,39.6283573],[38.6507784,39.6469387],[38.665824,39.6711138],[38.6821981,39.6928659],[38.6820656,39.7024693]]]}},{"type":"Feature","properties":{"code":"24-04","provinceCode":"24","name":"Kemah"},"geometry":{"type":"Polygon","coordinates":[[[38.6820656,39.7024693],[38.6821981,39.6928659],[38.665824,39.6711138],[38.6507784,39.6469387],[38.6512135,39.6283573],[38.6622613,39.6071817],[38.662207,39.593371],[38.655448,39.579667],[38.6529539,39.5692859],[38.6576926,39.5650562],[38.659189,39.5598648],[38.6564456,39.5583265],[38.6746672,39.5413707],[38.6614586,39.5240528],[38.6669555,39.5075263],[38.6754488,39.4984931],[38.7061974,39.4877387],[38.7290242,39.4774892],[38.7365029,39.4688453],[38.7387176,39.4607576],[38.7446463,39.4554771],[38.7635215,39.427026],[38.7813993,39.4205671],[38.7984465,39.4033378],[38.8526664,39.3762341],[38.8671468,39.3479183],[38.9062466,39.3250319],[38.933529,39.3242405],[38.9553549,39.3524626],[38.9802501,39.3382211],[39.0041221,39.3503529],[39.0435602,39.384147],[39.055653,39.409596],[39.0543633,39.4204553],[39.0630196,39.427828],[39.0750096,39.4529127],[39.0948957,39.455433],[39.1014444,39.4612671],[39.1227697,39.4682673],[39.1581999,39.4689154],[39.1692823,39.4703413],[39.1785177,39.4680081],[39.1969884,39.4676192],[39.2208325,39.4722856],[39.2443407,39.4799328],[39.2646585,39.4884862],[39.2759088,39.4892637],[39.2844725,39.4868015],[39.2822726,39.4739113],[39.2880561,39.4605299],[39.298496,39.4544365],[39.3091561,39.4567295],[39.3299273,39.4583446],[39.3393121,39.4636599],[39.3470772,39.4635062],[39.3564964,39.4666896],[39.3683812,39.474419],[39.3809247,39.4791832],[39.3932691,39.4779538],[39.4023493,39.4864127],[39.4136335,39.514502],[39.4252963,39.5287606],[39.432558,39.5433557],[39.4376193,39.5620193],[39.4149687,39.5847483],[39.4101275,39.6140813],[39.4150597,39.6449794],[39.4111897,39.6557704],[39.403291,39.6598363],[39.3669591,39.6574939],[39.3498182,39.6650877],[39.3429965,39.67542],[39.3371706,39.6808698],[39.3042832,39.6836986],[39.2838613,39.7077492],[39.2773929,39.7209085],[39.2588953,39.7274822],[39.2423774,39.7354893],[39.2243881,39.7466875],[39.2065882,39.7421835],[39.1857798,39.7658539],[39.1653655,39.7725172],[39.1568319,39.8068942],[39.1456092,39.8204165],[39.1458292,39.835457],[39.153091,39.8444121],[39.1539712,39.8506631],[39.1508904,39.8530282],[39.1420883,39.8550554],[39.130223,39.8604235],[39.1229781,39.8570249],[39.1088907,39.8570249],[39.0819235,39.8594966],[39.0505289,39.8591877],[39.0372465,39.863513],[39.0203417,39.8579518],[39.0050469,39.8421925],[38.9998145,39.8323025],[39.0014245,39.7930375],[38.9905844,39.7812383],[38.9885446,39.7726232],[38.9736523,39.7698389],[38.9432639,39.757057],[38.9162212,39.738199],[38.8613119,39.7111998],[38.8189004,39.7005061],[38.7715744,39.6985318],[38.748934,39.7053059],[38.7137157,39.7086926],[38.6820656,39.7024693]]]}},{"type":"Feature","properties":{"code":"24-05","provinceCode":"24","name":"Kemaliye"},"geometry":{"type":"Polygon","coordinates":[[[38.8038687,39.2811381],[38.7947891,39.2756839],[38.7511883,39.2840115],[38.7344812,39.2935962],[38.7187907,39.3086212],[38.7111662,39.3220311],[38.6831669,39.3413822],[38.649855,39.3559979],[38.6323354,39.3591418],[38.5671746,39.3590519],[38.5422764,39.3649498],[38.5171054,39.379468],[38.5009486,39.3849476],[38.4791338,39.3856337],[38.4619521,39.3791344],[38.4439308,39.3814766],[38.4340544,39.393069],[38.4232536,39.3986209],[38.4062716,39.4052032],[38.3921476,39.4048511],[38.3874271,39.4021247],[38.3786909,39.4011174],[38.3719615,39.3957034],[38.3663583,39.3943098],[38.3670161,39.3918645],[38.3778631,39.3826297],[38.3760881,39.3769582],[38.3801799,39.3745261],[38.3806063,39.3716909],[38.3738571,39.3716889],[38.3736365,39.3679737],[38.3718081,39.3669303],[38.3649264,39.3712568],[38.3621543,39.3748558],[38.3601641,39.3749382],[38.3583461,39.3714087],[38.3510809,39.3726656],[38.346549,39.370599],[38.3396917,39.3716779],[38.3364808,39.3685588],[38.3371063,39.3634593],[38.3328615,39.361608],[38.3306448,39.3587373],[38.3280907,39.3485436],[38.3299137,39.3391043],[38.3424575,39.3229407],[38.3522926,39.3156716],[38.3620643,39.3109659],[38.3658151,39.3036467],[38.3664413,39.289735],[38.3645401,39.2796915],[38.367868,39.2514933],[38.3616876,39.2182432],[38.3492429,39.1905272],[38.3445352,39.1889403],[38.3372193,39.1728377],[38.3242273,39.1527896],[38.3320768,39.151549],[38.3624192,39.1231843],[38.3736796,39.1186774],[38.388764,39.1153751],[38.4054243,39.1155657],[38.4199965,39.1204919],[38.4684003,39.1427549],[38.4996022,39.1430157],[38.5099562,39.1408352],[38.5235576,39.1338085],[38.5376046,39.120907],[38.5627745,39.1133409],[38.5674723,39.1148778],[38.5787333,39.1114209],[38.5859799,39.1110307],[38.5883487,39.1128022],[38.5959365,39.1116655],[38.5980882,39.1130314],[38.6069884,39.1090852],[38.6161821,39.1022546],[38.6164215,39.0973155],[38.6376993,39.0798609],[38.6370361,39.0775859],[38.6388062,39.0785199],[38.6428829,39.0752294],[38.6412203,39.0740146],[38.6431253,39.0672954],[38.6499964,39.0621106],[38.6497092,39.0588124],[38.6593142,39.054498],[38.661955,39.0549537],[38.6698,39.0523],[38.6722,39.0492],[38.6763,39.0476],[38.6762,39.0441],[38.6823,39.0372],[38.6853,39.0363],[38.689,39.0288],[38.6957,39.0261],[38.6963,39.0229],[38.7011,39.0209],[38.7084,39.0133],[38.7158,39.0149],[38.7271,39.0125],[38.7275,39.0097],[38.7299,39.0106],[38.7318,39.0092],[38.7347,39.0121],[38.7405,39.0114],[38.7443,39.0145],[38.7568,39.0164],[38.7598,39.0133],[38.7656,39.0124],[38.7499996,39.0449904],[38.7477127,39.0686693],[38.7430656,39.0762342],[38.741443,39.0933757],[38.745765,39.1026926],[38.7448193,39.1086968],[38.7335568,39.116168],[38.7346745,39.1231716],[38.7319234,39.1286405],[38.7339867,39.1382435],[38.7476697,39.1407267],[38.7522335,39.14431],[38.7590229,39.1459705],[38.7599705,39.1489869],[38.7628227,39.1502778],[38.768184,39.1688513],[38.7734802,39.175205],[38.7730759,39.1805176],[38.7697017,39.1855034],[38.7649212,39.1860428],[38.751811,39.183942],[38.7467335,39.1963532],[38.7487053,39.204053],[38.7575693,39.2111498],[38.7670812,39.2134147],[38.8622642,39.2216718],[38.8847459,39.2259285],[38.9259593,39.2393598],[38.9389621,39.2488062],[38.9425356,39.2579082],[38.9394141,39.2671388],[38.8888541,39.2698743],[38.8599162,39.2848618],[38.8038687,39.2811381]]]}},{"type":"Feature","properties":{"code":"24-06","provinceCode":"24","name":"Otlukbeli"},"geometry":{"type":"Polygon","coordinates":[[[39.9666276,40.0508655],[39.9493531,40.0410473],[39.9179058,40.0363658],[39.8942007,40.0200818],[39.8836292,40.0107979],[39.8762321,39.9993291],[39.8643943,39.9861941],[39.8516328,39.9754859],[39.8476209,39.9620244],[39.8708472,39.9567096],[39.904648,39.9391086],[39.9158086,39.9349522],[39.9314334,39.9354412],[39.9531169,39.9415535],[39.966063,39.9402786],[39.9839863,39.943512],[39.9997056,39.9491045],[40.0080946,39.9442353],[40.0160975,39.9262212],[40.0322428,39.913777],[40.0493735,39.9085945],[40.0887416,39.9378196],[40.1093656,39.9474208],[40.131368,39.9611092],[40.1791992,39.9843243],[40.2203341,39.9992267],[40.246163,40.0058218],[40.2534971,40.0107067],[40.2809203,40.0207196],[40.29955,40.0224459],[40.3010958,40.0322798],[40.2439796,40.0257428],[40.2183452,40.0317623],[40.1740587,40.0377795],[40.1406239,40.0288616],[40.1175444,40.0465547],[40.1125085,40.0761023],[40.095966,40.0829892],[40.0613592,40.0830928],[40.0416143,40.0759354],[40.0207777,40.0634451],[39.9666276,40.0508655]]]}},{"type":"Feature","properties":{"code":"24-07","provinceCode":"24","name":"Refahiye"},"geometry":{"type":"Polygon","coordinates":[[[39.130223,39.8604235],[39.1342479,39.868456],[39.130223,39.8928565],[39.1394804,39.901194],[39.1431028,39.9138526],[39.1354554,39.9441003],[39.1377435,39.9523813],[39.1228408,39.967062],[39.1262045,39.9862421],[39.1073129,39.9895509],[39.0974312,39.9994786],[39.0891684,40.00984],[39.0598387,40.0178961],[39.0442128,40.0251563],[39.0263007,40.028665],[39.0239969,40.0363665],[39.0135363,40.0436909],[38.9997308,40.0465058],[38.9927425,40.0506219],[38.9827549,40.0497974],[38.9570477,40.0557747],[38.9539366,40.0588931],[38.9413833,40.0570523],[38.9368342,40.0517965],[38.921403,40.0457644],[38.9000129,40.0544244],[38.8873052,40.0548894],[38.8758057,40.0600173],[38.8669681,40.0581034],[38.8512163,40.0622353],[38.8404706,40.0562306],[38.8281014,40.0555634],[38.8189887,40.0585633],[38.8007926,40.069993],[38.7889501,40.0692087],[38.7834548,40.0651323],[38.7747859,40.0646725],[38.7722399,40.067079],[38.7680211,40.0665349],[38.7672836,40.0605668],[38.7689111,40.0566309],[38.7659655,40.0542583],[38.7670246,40.0466593],[38.7642179,40.0326432],[38.7657953,40.0272121],[38.7602558,40.0230582],[38.7629604,40.0149431],[38.7603792,40.0147315],[38.7603201,40.0130512],[38.7420593,40.0040125],[38.7301374,39.9934548],[38.7161432,39.9878307],[38.708736,39.9876731],[38.6941009,40.0057554],[38.6866533,40.0098727],[38.6434033,40.0030303],[38.6201557,39.9937668],[38.6007319,39.9811703],[38.5783645,39.9736724],[38.5499283,39.9567773],[38.5386154,39.9570256],[38.5191796,39.9619933],[38.510076,39.9671116],[38.4995173,39.9759053],[38.4831638,39.983949],[38.4696699,39.9872623],[38.4581408,39.9857334],[38.4271401,39.9544391],[38.3975377,39.9330074],[38.3889442,39.9179738],[38.3896762,39.8987208],[38.4067309,39.8708404],[38.4315644,39.8587824],[38.4375146,39.8440761],[38.4453534,39.8385748],[38.4514507,39.8266596],[38.437238,39.8133082],[38.4333231,39.8118252],[38.4314087,39.8059401],[38.4190491,39.7965949],[38.4029307,39.7804951],[38.4123028,39.772468],[38.4561202,39.7628387],[38.4640518,39.7455489],[38.4758604,39.7396966],[38.4862385,39.73738],[38.5071423,39.7401009],[38.5477219,39.7420693],[38.5907351,39.750605],[38.6165336,39.7477749],[38.6331837,39.7374422],[38.6351188,39.7328622],[38.6464818,39.7235164],[38.6642904,39.7149911],[38.6820656,39.7024693],[38.7137157,39.7086926],[38.748934,39.7053059],[38.7715744,39.6985318],[38.8189004,39.7005061],[38.8613119,39.7111998],[38.9162212,39.738199],[38.9432639,39.757057],[38.9736523,39.7698389],[38.9885446,39.7726232],[38.9905844,39.7812383],[39.0014245,39.7930375],[38.9998145,39.8323025],[39.0050469,39.8421925],[39.0203417,39.8579518],[39.0372465,39.863513],[39.0505289,39.8591877],[39.0819235,39.8594966],[39.1088907,39.8570249],[39.1229781,39.8570249],[39.130223,39.8604235]]]}},{"type":"Feature","properties":{"code":"24-08","provinceCode":"24","name":"Tercan"},"geometry":{"type":"Polygon","coordinates":[[[40.079897,39.6695532],[40.0657174,39.6481334],[40.0667075,39.6425544],[40.057184,39.6372022],[40.0345712,39.629461],[40.0323181,39.619787],[40.0148832,39.6038223],[40.0151565,39.5984526],[40.0247221,39.5927665],[40.0412569,39.5923453],[40.0578254,39.5948282],[40.0653075,39.5984526],[40.0828852,39.5958409],[40.0873083,39.5879224],[40.0950974,39.5857109],[40.1028396,39.5904538],[40.135747,39.5982975],[40.1471419,39.5977266],[40.1629958,39.6045513],[40.1869437,39.6100751],[40.1826423,39.6050316],[40.1835496,39.597245],[40.1795918,39.5938204],[40.178494,39.5886676],[40.1743274,39.5868602],[40.1718408,39.5802209],[40.1882408,39.5753448],[40.2209905,39.5690016],[40.2410942,39.5698239],[40.2896187,39.5754405],[40.3113648,39.579362],[40.32889,39.584501],[40.3502781,39.5869435],[40.3626124,39.5901138],[40.3854213,39.5852197],[40.4001383,39.5722157],[40.4038294,39.5650207],[40.4135185,39.5539577],[40.4168522,39.5436754],[40.417334,39.5318538],[40.4244319,39.5273634],[40.4250888,39.523037],[40.4355413,39.5196544],[40.4487198,39.5110894],[40.4719756,39.5178579],[40.4799728,39.5155921],[40.5157497,39.5169458],[40.520039,39.5273231],[40.5443677,39.5298676],[40.5609332,39.5258594],[40.5967484,39.5263495],[40.6115047,39.5229962],[40.6340048,39.527561],[40.6653675,39.5303051],[40.6965953,39.5260358],[40.7415394,39.5299157],[40.7454228,39.5259988],[40.755878,39.5269204],[40.7531895,39.5324501],[40.7531895,39.5389007],[40.7475138,39.5391311],[40.7490074,39.5428169],[40.7534882,39.5467329],[40.7519946,39.5520306],[40.743033,39.5591704],[40.7074854,39.559631],[40.701511,39.5577885],[40.6847827,39.5713754],[40.6832891,39.5769015],[40.6749249,39.5840387],[40.6632748,39.586571],[40.6531302,39.5964472],[40.6637356,39.6162008],[40.6797698,39.6303063],[40.6765764,39.642968],[40.6799037,39.6469797],[40.6757513,39.6477411],[40.6769308,39.6568557],[40.680046,39.65783],[40.6799486,39.6607528],[40.6724528,39.6594787],[40.6710818,39.6610731],[40.6580481,39.679456],[40.6195936,39.7029233],[40.5666018,39.7308753],[40.5531743,39.7435276],[40.5393682,39.7652222],[40.5405102,39.7759278],[40.5288356,39.7850518],[40.5292313,39.7905257],[40.5260653,39.7940227],[40.5360891,39.7977659],[40.5351116,39.8031894],[40.5319869,39.807776],[40.5521849,39.8089208],[40.5550877,39.810605],[40.5539159,39.8150198],[40.5579855,39.8220376],[40.5529764,39.8233597],[40.5591106,39.8300462],[40.5650923,39.8326593],[40.568015,39.8382515],[40.5697455,39.8496832],[40.5443985,39.8437254],[40.5437067,39.848718],[40.5341093,39.8520594],[40.5278084,39.8758871],[40.5196622,39.8824251],[40.5204944,39.8843508],[40.4962942,39.8901634],[40.4771944,39.9025883],[40.4057372,39.9153518],[40.3926394,39.9162125],[40.3794377,39.9227976],[40.3697059,39.9333037],[40.3677286,39.9329596],[40.3644374,39.9350292],[40.3566839,39.9296569],[40.3426105,39.9333836],[40.3411261,39.9315835],[40.3297273,39.9320881],[40.3258492,39.9307292],[40.3061092,39.9339198],[40.3043336,39.9315981],[40.296528,39.9281295],[40.2919821,39.9279195],[40.2911827,39.9254539],[40.278858,39.9323052],[40.2703218,39.9289527],[40.2566512,39.9321669],[40.2546565,39.9277619],[40.2524677,39.9281214],[40.2407198,39.9229269],[40.2345071,39.9224172],[40.2318203,39.9201566],[40.22941,39.9213303],[40.2233063,39.9190234],[40.2220245,39.9162884],[40.2173888,39.9208479],[40.2123483,39.9201921],[40.203679,39.911859],[40.1972115,39.9113081],[40.18297,39.9139528],[40.1745044,39.9033139],[40.166001,39.8982734],[40.1662207,39.8927009],[40.1645355,39.8909721],[40.1616335,39.8891501],[40.1560633,39.8908768],[40.1508224,39.8885791],[40.1496669,39.8842374],[40.1435436,39.8779319],[40.1396762,39.8776131],[40.1358344,39.8722652],[40.1372306,39.8680792],[40.1339655,39.8683496],[40.1335949,39.8635124],[40.1243723,39.8617009],[40.122774,39.8598488],[40.125216,39.8574498],[40.1325754,39.8557306],[40.1366131,39.8495229],[40.1415394,39.8479986],[40.1491505,39.8423485],[40.1498244,39.8334224],[40.1567053,39.8301358],[40.1643205,39.8168289],[40.162459,39.8119339],[40.1699684,39.8070448],[40.1790569,39.8047915],[40.1886026,39.7954495],[40.1964944,39.7959181],[40.2002893,39.7887213],[40.2081008,39.7893611],[40.217447,39.7848704],[40.2260682,39.7774041],[40.2260734,39.7746065],[40.2352509,39.7691472],[40.235818,39.765286],[40.240778,39.7583059],[40.2463183,39.7556088],[40.246108,39.7508055],[40.2376822,39.7486552],[40.2022537,39.7498396],[40.1815687,39.7435794],[40.1591233,39.732242],[40.1105254,39.7220183],[40.0877596,39.7034175],[40.079897,39.6695532]]]}},{"type":"Feature","properties":{"code":"24-09","provinceCode":"24","name":"Üzümlü"},"geometry":{"type":"Polygon","coordinates":[[[40.079897,39.6695532],[40.0624303,39.6713322],[40.0524174,39.6770274],[40.0507135,39.6919517],[40.0364925,39.6989988],[40.0242309,39.7027897],[39.9709098,39.70289],[39.9451224,39.7081805],[39.9324006,39.7139995],[39.9158966,39.7253717],[39.9121145,39.7340979],[39.9120316,39.7460031],[39.8911071,39.7618135],[39.8704278,39.7717803],[39.8516197,39.7759719],[39.8103142,39.7669732],[39.8014004,39.7769196],[39.783027,39.7763566],[39.7606922,39.7782343],[39.757209,39.783588],[39.7446681,39.7856393],[39.7255688,39.7917506],[39.7154698,39.7861653],[39.7014733,39.7837851],[39.693437,39.7803548],[39.6782427,39.7782073],[39.657378,39.7361777],[39.6510654,39.73043],[39.6358123,39.7220705],[39.6351691,39.698071],[39.6386971,39.6867511],[39.6434431,39.6817672],[39.6399843,39.6749051],[39.6333343,39.6737051],[39.6300748,39.6715291],[39.6307037,39.6632011],[39.6425085,39.6603251],[39.6535894,39.6540303],[39.6608393,39.6533216],[39.6635456,39.6497384],[39.6695317,39.6486753],[39.673639,39.6419546],[39.6852349,39.6430562],[39.6979443,39.6421292],[39.708372,39.6479486],[39.7266503,39.6476763],[39.7396816,39.6436144],[39.7522538,39.645717],[39.7734327,39.6340253],[39.7809853,39.6206724],[39.7950157,39.6148809],[39.7975417,39.6164018],[39.8019051,39.6149985],[39.805322,39.6147054],[39.8173696,39.6069518],[39.8214497,39.6070246],[39.8255174,39.6045205],[39.8283355,39.6042305],[39.8367978,39.6086436],[39.8471987,39.6069092],[39.8488796,39.6055927],[39.8485928,39.6014349],[39.8579816,39.5993141],[39.8611835,39.595245],[39.8719071,39.5936796],[39.873122,39.5891241],[39.8908679,39.5886613],[39.8992008,39.5851937],[39.9045778,39.5855891],[39.9141984,39.5828138],[39.9208861,39.5831426],[39.9242709,39.5807111],[39.9463896,39.5763554],[39.9495995,39.5743142],[39.9671022,39.5726621],[39.978916,39.5671509],[39.9884995,39.5648575],[40.0130745,39.5680582],[40.0401113,39.5566608],[40.0449621,39.5559628],[40.0490272,39.5521569],[40.0552103,39.5548303],[40.0564059,39.5530129],[40.0633063,39.5505634],[40.0750393,39.5525278],[40.0850588,39.5561254],[40.1023599,39.5563623],[40.1086163,39.5606525],[40.1152648,39.5616241],[40.1197647,39.5607075],[40.1235321,39.5640216],[40.1369325,39.5647123],[40.1545388,39.5775289],[40.1658361,39.57748],[40.170532,39.5784468],[40.1718408,39.5802209],[40.1743274,39.5868602],[40.178494,39.5886676],[40.1795918,39.5938204],[40.1835496,39.597245],[40.1826423,39.6050316],[40.1869437,39.6100751],[40.1629958,39.6045513],[40.1471419,39.5977266],[40.135747,39.5982975],[40.1028396,39.5904538],[40.0950974,39.5857109],[40.0873083,39.5879224],[40.0828852,39.5958409],[40.0653075,39.5984526],[40.0578254,39.5948282],[40.0412569,39.5923453],[40.0247221,39.5927665],[40.0151565,39.5984526],[40.0148832,39.6038223],[40.0323181,39.619787],[40.0345712,39.629461],[40.057184,39.6372022],[40.0667075,39.6425544],[40.0657174,39.6481334],[40.079897,39.6695532]]]}}]}