{"type":"FeatureCollection","features":[{"type":"Feature","properties":{"code":"33-01","provinceCode":"33","name":"Akdeniz"},"geometry":{"type":"Polygon","coordinates":[[[34.6124622,36.7911882],[34.614744,36.7881162],[34.6183479,36.7876697],[34.6209208,36.7848797],[34.6239087,36.7869247],[34.6305381,36.7877977],[34.6352248,36.7838625],[34.6420842,36.784704],[34.6353134,36.7840528],[34.6281281,36.7901386],[34.6264174,36.7889999],[34.6242318,36.7899182],[34.6257512,36.7917737],[34.6270532,36.7908843],[34.6362719,36.7998796],[34.637597,36.7996333],[34.6381765,36.7956759],[34.6443956,36.8042734],[34.6453464,36.8015843],[34.6488252,36.8016148],[34.6492276,36.7991906],[34.6499771,36.8060867],[34.6516611,36.8061233],[34.6519599,36.8038143],[34.6542662,36.8083788],[34.6578927,36.805954],[34.6548518,36.8044248],[34.6554764,36.8033493],[34.6605477,36.8059709],[34.6608622,36.8018783],[34.6503095,36.7963632],[34.6426271,36.7870271],[34.6503601,36.7963196],[34.6612283,36.801924],[34.6627394,36.8061293],[34.6669241,36.8062139],[34.6672897,36.8074167],[34.6676668,36.806258],[34.6724363,36.8063717],[34.6761308,36.8084064],[34.688428,36.80824],[34.6922726,36.8074655],[34.6926801,36.8053089],[34.6969137,36.8045778],[34.6928317,36.8054207],[34.6925482,36.8076857],[34.6969684,36.8075375],[34.6965853,36.8055157],[34.6975047,36.8077966],[34.716416,36.8082937],[34.723958,36.811327],[34.740871,36.810439],[34.746646,36.811509],[34.770853,36.808326],[34.79501,36.803083],[34.8145002,36.7962112],[34.8135283,36.8163581],[34.8084283,36.8387029],[34.8014494,36.8516986],[34.7798417,36.8712417],[34.7631997,36.881226],[34.7495104,36.8930338],[34.7432025,36.9047324],[34.7487721,36.9489448],[34.7374944,36.9499571],[34.7270097,36.9472321],[34.7162781,36.9494976],[34.7136287,36.9546192],[34.7164806,36.963898],[34.7124428,36.9682651],[34.7047035,36.9717509],[34.6911722,36.9745279],[34.6691285,36.9776718],[34.6616124,36.981088],[34.658891,36.9796387],[34.6511157,36.9801563],[34.6482647,36.9788105],[34.6366017,36.9549964],[34.6258458,36.9128376],[34.5983729,36.9028901],[34.6083761,36.8754069],[34.6114548,36.8740906],[34.6101808,36.8709484],[34.6112955,36.8700991],[34.6163912,36.8733688],[34.6174528,36.8809691],[34.6223892,36.8813087],[34.6235569,36.8843656],[34.6327928,36.8826673],[34.6341198,36.8785065],[34.6435149,36.8683581],[34.6484513,36.8658102],[34.6530162,36.8605018],[34.6530692,36.8579536],[34.6567317,36.8554902],[34.6663922,36.8598647],[34.6685685,36.8563821],[34.6737172,36.8554053],[34.6749912,36.8524747],[34.672868,36.850266],[34.6788129,36.8413883],[34.6774328,36.8392643],[34.6744604,36.8390519],[34.6588549,36.8438946],[34.6529631,36.8386696],[34.6474428,36.8362056],[34.6375622,36.8355383],[34.6297528,36.8210418],[34.6289014,36.811458],[34.622301,36.8110423],[34.6163973,36.8076035],[34.6124622,36.7911882]]]}},{"type":"Feature","properties":{"code":"33-02","provinceCode":"33","name":"Anamur"},"geometry":{"type":"Polygon","coordinates":[[[32.6777926,36.5180774],[32.6264724,36.5201876],[32.5888215,36.5235495],[32.5585,36.5167],[32.5854,36.5127],[32.5899122,36.5075667],[32.6036,36.5014],[32.6236,36.471],[32.6126,36.4547],[32.583,36.4426],[32.5556,36.4246],[32.5422,36.4224],[32.5398,36.4191],[32.5353,36.4185],[32.5267,36.4116],[32.5264,36.4061],[32.5109,36.3983],[32.5178,36.3884],[32.5237,36.3688],[32.5237,36.3632],[32.5312,36.3638],[32.5666,36.3572],[32.5697,36.3591],[32.5762,36.3563],[32.5906,36.3151],[32.5951,36.3101],[32.6,36.3085],[32.6145,36.2994],[32.6182,36.2876],[32.6167,36.2818],[32.6215,36.2772],[32.6186,36.2735],[32.6203,36.2695],[32.615,36.2643],[32.6067,36.2505],[32.6023,36.2511],[32.5873,36.2462],[32.5789,36.2392],[32.5678,36.2375],[32.5582,36.2318],[32.5551,36.2331],[32.5503,36.2321],[32.5375,36.2254],[32.5405,36.2179],[32.5396,36.2169],[32.5461,36.2116],[32.5465,36.2065],[32.553,36.2043],[32.5563,36.1976],[32.564,36.1929],[32.5726,36.1903],[32.581,36.1793],[32.5798,36.1732],[32.5733,36.1641],[32.5772,36.1558],[32.5884,36.1516],[32.5928,36.1481],[32.5928735,36.1455685],[32.5899982,36.145118],[32.5896549,36.1431773],[32.5856555,36.1408922],[32.588346,36.1348421],[32.584548,36.1233515],[32.5783467,36.1223462],[32.5685406,36.1162969],[32.5681329,36.1131594],[32.5632181,36.1105888],[32.5623691,36.1007266],[32.5659647,36.0997574],[32.5778424,36.091155],[32.581693,36.0902107],[32.5926642,36.0791839],[32.5977666,36.078659],[32.6011293,36.0766329],[32.608348,36.076275],[32.619445,36.072457],[32.630873,36.06517],[32.642281,36.061864],[32.6476411,36.0566196],[32.6581173,36.0530263],[32.6670048,36.0443708],[32.6713064,36.0446987],[32.6727778,36.0429103],[32.6781249,36.0425608],[32.6803019,36.0403071],[32.6860344,36.0430638],[32.702188,36.03659],[32.708514,36.036862],[32.709152,36.035579],[32.717056,36.036882],[32.716111,36.035852],[32.729397,36.03614],[32.7355563,36.0318397],[32.7406621,36.0335476],[32.7482113,36.0311181],[32.7534323,36.0311954],[32.7545946,36.0291916],[32.757888,36.030162],[32.7653204,36.0284745],[32.768327,36.030183],[32.772758,36.02942],[32.7818537,36.0259238],[32.7911692,36.0254897],[32.7985306,36.0205184],[32.7996972,36.0176531],[32.8029936,36.0167224],[32.8049009,36.0170432],[32.8039902,36.0214747],[32.8136682,36.0334414],[32.8210436,36.0383259],[32.836726,36.0425058],[32.8436863,36.0472301],[32.8558211,36.0599742],[32.869616,36.0711991],[32.8754559,36.0738082],[32.8799104,36.0737926],[32.8881565,36.0790929],[32.8947998,36.0800857],[32.907133,36.086386],[32.9163764,36.08765],[32.9209713,36.0855788],[32.923278,36.086527],[32.92296,36.087811],[32.930557,36.088843],[32.93546,36.0927],[32.9356526,36.0964531],[32.9392806,36.0951228],[32.9423173,36.0976623],[32.9393662,36.0953762],[32.9366752,36.0966309],[32.9381223,36.0996329],[32.9406832,36.0977739],[32.9394397,36.1002601],[32.9435075,36.1023973],[32.951947,36.1040689],[32.9606187,36.1026506],[32.9621118,36.1074853],[32.9585016,36.1195043],[32.9528053,36.1252298],[32.9498061,36.1343073],[32.9443372,36.1360089],[32.9383588,36.1572438],[32.9330561,36.1579677],[32.9244497,36.1737427],[32.9283662,36.1822405],[32.9308674,36.1936794],[32.9363461,36.2005035],[32.9393236,36.2079036],[32.931582,36.2150148],[32.9296764,36.2224135],[32.9261033,36.2211644],[32.926937,36.2177053],[32.9228875,36.2121319],[32.9259842,36.2099217],[32.9227684,36.2090568],[32.9184808,36.2104022],[32.9185999,36.2158796],[32.9220538,36.221837],[32.9190763,36.2221253],[32.9168133,36.2202036],[32.9147886,36.2124202],[32.912883,36.2198192],[32.9163369,36.2254881],[32.916456,36.2304841],[32.9099054,36.2244312],[32.9077616,36.2270254],[32.9087144,36.2335583],[32.9051414,36.235864],[32.9051414,36.237305],[32.9074043,36.2376892],[32.9133594,36.2357679],[32.9169324,36.2361522],[32.9272943,36.2432607],[32.9314629,36.2496003],[32.9330112,36.2541145],[32.9237213,36.2593967],[32.9299146,36.262758],[32.930391,36.2671754],[32.9266988,36.2699601],[32.9298111,36.2847144],[32.9236178,36.2935465],[32.9236178,36.3004579],[32.9279055,36.3069847],[32.943627,36.316582],[32.948391,36.3227237],[32.9340988,36.3269458],[32.8874109,36.3296325],[32.8612084,36.3472855],[32.8540623,36.3618654],[32.8354824,36.3898665],[32.8178553,36.4044384],[32.7983226,36.4251412],[32.7854596,36.4531195],[32.7796368,36.4870623],[32.7520043,36.4945481],[32.7276736,36.5062247],[32.7095164,36.5120624],[32.6902697,36.5173159],[32.6777926,36.5180774]]]}},{"type":"Feature","properties":{"code":"33-03","provinceCode":"33","name":"Aydıncık"},"geometry":{"type":"Polygon","coordinates":[[[33.1766606,36.2310489],[33.1815832,36.2157752],[33.1875672,36.1848709],[33.1944487,36.1703804],[33.2019287,36.1645834],[33.1983383,36.155404],[33.1794933,36.133458],[33.1956001,36.1278327],[33.2078964,36.1300084],[33.2182638,36.1276312],[33.224175,36.1300419],[33.2312086,36.1267851],[33.2343762,36.1303105],[33.2439954,36.1293369],[33.245708,36.1312238],[33.2550778,36.1326876],[33.265836,36.1321504],[33.2679976,36.1293234],[33.2698433,36.1303038],[33.2705666,36.1286519],[33.2813701,36.1316383],[33.2885637,36.1307653],[33.2869533,36.129639],[33.2891668,36.1294563],[33.2893295,36.132615],[33.2922471,36.1327154],[33.2952327,36.1356917],[33.2982327,36.1332136],[33.295409,36.13141],[33.297939,36.130504],[33.303645,36.131517],[33.316023,36.137781],[33.3252598,36.1436686],[33.3262984,36.1454403],[33.3239761,36.1442152],[33.3236027,36.1451764],[33.3251548,36.1463166],[33.335403,36.151347],[33.3423659,36.1496092],[33.3435417,36.1528023],[33.3482603,36.1515566],[33.3509153,36.1546041],[33.356951,36.152055],[33.36006,36.1481703],[33.359773,36.145623],[33.357711,36.145115],[33.357694,36.141518],[33.365128,36.139183],[33.3669921,36.1415543],[33.3734552,36.1421249],[33.376213,36.138763],[33.3787128,36.1404148],[33.383508,36.140538],[33.389198,36.138079],[33.392342,36.133444],[33.393884,36.12496],[33.3968253,36.1296945],[33.399293,36.129824],[33.3989692,36.1275049],[33.4014702,36.1303313],[33.4045098,36.1306722],[33.4061815,36.1327649],[33.4037637,36.1371612],[33.4075687,36.1358663],[33.4123579,36.1391922],[33.4137005,36.1384867],[33.4166264,36.1417504],[33.4212814,36.142675],[33.421068,36.144652],[33.423446,36.144901],[33.425683,36.14849],[33.429178,36.150404],[33.430913,36.149242],[33.431054,36.145901],[33.433909,36.146533],[33.437725,36.149218],[33.441524,36.14869],[33.4426979,36.1553607],[33.4474009,36.1532926],[33.4622107,36.1596182],[33.4650961,36.1710298],[33.4685994,36.1753284],[33.4664273,36.1797964],[33.4676184,36.1823978],[33.4627839,36.1870916],[33.4568983,36.1896929],[33.4553357,36.1935106],[33.4590814,36.200324],[33.457613,36.2080019],[33.4541237,36.2122451],[33.4518432,36.2204047],[33.4419385,36.2234509],[33.4415295,36.2278524],[33.4360777,36.2355219],[33.4316157,36.2366416],[33.4304232,36.2422531],[33.4319132,36.2439191],[33.4297318,36.2470378],[33.4312191,36.2591916],[33.4271959,36.2615465],[33.4279771,36.2678681],[33.4178455,36.2679055],[33.4039556,36.2736896],[33.385587,36.2711004],[33.3788703,36.2782214],[33.3545294,36.2834601],[33.3350826,36.2956161],[33.3100794,36.2994544],[33.2910294,36.2984949],[33.1892114,36.2855893],[33.1864332,36.2798306],[33.1864332,36.2411088],[33.1883412,36.238294],[33.1766606,36.2310489]]]}},{"type":"Feature","properties":{"code":"33-04","provinceCode":"33","name":"Bozyazı"},"geometry":{"type":"Polygon","coordinates":[[[33.0153487,36.4662631],[33.0124966,36.4610974],[32.9974976,36.4560544],[32.9401188,36.4519209],[32.8833258,36.4814847],[32.8606225,36.4897734],[32.7796368,36.4870623],[32.7854596,36.4531195],[32.7983226,36.4251412],[32.8178553,36.4044384],[32.8354824,36.3898665],[32.8540623,36.3618654],[32.8612084,36.3472855],[32.8874109,36.3296325],[32.9340988,36.3269458],[32.948391,36.3227237],[32.943627,36.316582],[32.9279055,36.3069847],[32.9236178,36.3004579],[32.9236178,36.2935465],[32.9298111,36.2847144],[32.9266988,36.2699601],[32.930391,36.2671754],[32.9299146,36.262758],[32.9237213,36.2593967],[32.9330112,36.2541145],[32.9314629,36.2496003],[32.9272943,36.2432607],[32.9169324,36.2361522],[32.9133594,36.2357679],[32.9074043,36.2376892],[32.9051414,36.237305],[32.9051414,36.235864],[32.9087144,36.2335583],[32.9077616,36.2270254],[32.9099054,36.2244312],[32.916456,36.2304841],[32.9163369,36.2254881],[32.912883,36.2198192],[32.9147886,36.2124202],[32.9168133,36.2202036],[32.9190763,36.2221253],[32.9220538,36.221837],[32.9185999,36.2158796],[32.9184808,36.2104022],[32.9227684,36.2090568],[32.9259842,36.2099217],[32.9228875,36.2121319],[32.926937,36.2177053],[32.9261033,36.2211644],[32.9296764,36.2224135],[32.931582,36.2150148],[32.9393236,36.2079036],[32.9363461,36.2005035],[32.9308674,36.1936794],[32.9283662,36.1822405],[32.9244497,36.1737427],[32.9330561,36.1579677],[32.9383588,36.1572438],[32.9443372,36.1360089],[32.9498061,36.1343073],[32.9528053,36.1252298],[32.9585016,36.1195043],[32.9621118,36.1074853],[32.9606187,36.1026506],[32.976524,36.097529],[32.9807808,36.0983939],[32.9906121,36.0960353],[32.997907,36.0974288],[32.9996757,36.0994126],[33.0026257,36.0984232],[33.0038254,36.0951051],[33.0113951,36.0940157],[33.0156933,36.0965093],[33.0177217,36.0937908],[33.0201708,36.0943356],[33.0211417,36.0912022],[33.0236031,36.0906425],[33.0261016,36.0918868],[33.0256577,36.0939654],[33.0284531,36.0963191],[33.0419783,36.0943702],[33.0509698,36.0954013],[33.0543449,36.0933261],[33.0528188,36.090669],[33.0602519,36.0915396],[33.0643162,36.0900174],[33.0654795,36.0913607],[33.0710107,36.0872857],[33.0687153,36.0837817],[33.0700057,36.0823468],[33.078651,36.0827869],[33.082443,36.0807192],[33.0811079,36.0776545],[33.0823314,36.0751795],[33.0781637,36.0705995],[33.0811661,36.0699562],[33.0889976,36.078768],[33.0858974,36.0827233],[33.0866792,36.0852935],[33.0888866,36.0856254],[33.087893,36.087804],[33.092007,36.086259],[33.095017,36.08934],[33.093917,36.095764],[33.099931,36.094732],[33.097719,36.09756],[33.100568,36.097301],[33.10374,36.101666],[33.108808,36.102946],[33.110552,36.105771],[33.1095598,36.1088759],[33.1124321,36.1135655],[33.1242227,36.1295313],[33.129438,36.1336829],[33.1502145,36.1385964],[33.1610226,36.1383815],[33.174965,36.1336881],[33.1794933,36.133458],[33.1983383,36.155404],[33.2019287,36.1645834],[33.1944487,36.1703804],[33.1875672,36.1848709],[33.1815832,36.2157752],[33.1766606,36.2310489],[33.1720089,36.2534233],[33.1626859,36.2689696],[33.1542605,36.2722116],[33.1305162,36.2705134],[33.1247716,36.2728291],[33.1199844,36.2796215],[33.1171121,36.2890371],[33.097389,36.2888828],[33.0916444,36.292587],[33.0849424,36.3211345],[33.0864743,36.3291568],[33.0922189,36.340109],[33.0889636,36.3691016],[33.0927933,36.3993165],[33.0889636,36.4096424],[33.0788148,36.4158064],[33.0604321,36.4370686],[33.0468366,36.4492378],[33.0153487,36.4662631]]]}},{"type":"Feature","properties":{"code":"33-05","provinceCode":"33","name":"Çamlıyayla"},"geometry":{"type":"Polygon","coordinates":[[[34.551478,37.0928668],[34.6127509,37.0953061],[34.6493901,37.0925227],[34.6905924,37.0752851],[34.6991818,37.0732506],[34.7331368,37.0838509],[34.7401157,37.0885616],[34.7438736,37.0994809],[34.7493914,37.1456499],[34.7320232,37.1488181],[34.7272376,37.1541052],[34.727228,37.1587912],[34.7232576,37.1610722],[34.7195044,37.1662832],[34.717714,37.1674534],[34.7156529,37.1666416],[34.7138653,37.1702325],[34.7100619,37.1723994],[34.6953997,37.1734817],[34.6831866,37.1798978],[34.6720472,37.1885587],[34.6591631,37.2028843],[34.6433264,37.2319549],[34.6325897,37.2901692],[34.6711078,37.2911302],[34.6980839,37.299031],[34.7207653,37.3086389],[34.7454598,37.3130154],[34.756465,37.3121615],[34.7627728,37.3134424],[34.7694833,37.3178186],[34.7787786,37.3308687],[34.7872577,37.3493016],[34.7875428,37.3758109],[34.7731858,37.4003734],[34.7696835,37.4139628],[34.7747918,37.4208587],[34.7641164,37.4262364],[34.7174675,37.4356009],[34.7019781,37.432312],[34.6855951,37.4256618],[34.6687476,37.408371],[34.6218765,37.4010007],[34.566241,37.3748467],[34.5429135,37.3514447],[34.4851131,37.3435889],[34.4505044,37.3324195],[34.436517,37.3314242],[34.4310654,37.3070989],[34.3837546,37.3315742],[34.3643329,37.3277298],[34.3450099,37.326523],[34.316191,37.3033579],[34.2980816,37.281363],[34.2591903,37.2467141],[34.2575456,37.1786063],[34.4556841,37.1188666],[34.5167106,37.098207],[34.551478,37.0928668]]]}},{"type":"Feature","properties":{"code":"33-06","provinceCode":"33","name":"Erdemli"},"geometry":{"type":"Polygon","coordinates":[[[34.2135481,37.149051],[34.1719185,37.1210758],[34.1325381,37.1074786],[34.0630415,37.1316523],[34.0355526,37.1327664],[34.0027696,37.1288753],[33.9822156,37.1230543],[33.9477766,37.1099934],[33.9224925,37.0938793],[33.9041595,37.0758283],[33.8922196,37.0669323],[33.8666535,37.0561063],[33.8541565,37.0527723],[33.8408275,37.0513844],[33.8740991,37.001709],[33.8945202,36.9790152],[33.9012503,36.95806],[33.9268212,36.9294484],[33.9401748,36.9174102],[33.9640409,36.9074147],[33.9677345,36.8992356],[33.9683027,36.8910556],[33.9626203,36.8744658],[33.950119,36.8615096],[33.9163087,36.8380919],[33.8901696,36.8274038],[33.8799413,36.8201259],[33.8759636,36.8135297],[33.8751112,36.8017007],[33.8782366,36.7937378],[33.8836349,36.7860016],[33.8967044,36.7780371],[33.9285259,36.7723477],[33.9664298,36.7551884],[33.9780037,36.7445743],[33.9807676,36.7357148],[33.98615,36.7300022],[33.9876047,36.7254551],[33.9851317,36.7179926],[33.9876047,36.713095],[34.007825,36.6904685],[34.0433196,36.6763527],[34.050593,36.6691189],[34.0520477,36.660484],[34.0492838,36.6492805],[34.0546662,36.6420441],[34.0695496,36.63345],[34.0804598,36.6292182],[34.0986435,36.6251322],[34.1080365,36.625842],[34.1112019,36.6165017],[34.1089806,36.5953371],[34.1053438,36.5892053],[34.1054369,36.5824655],[34.0934356,36.5690309],[34.0932538,36.5490208],[34.0981634,36.5294438],[34.1008909,36.5262292],[34.1123467,36.5219915],[34.1252571,36.5075234],[34.1316214,36.4848658],[34.129041,36.461435],[34.132281,36.4587802],[34.134279,36.459894],[34.1411657,36.4568416],[34.1441039,36.4578423],[34.1487474,36.463129],[34.1500331,36.4621271],[34.152954,36.464468],[34.154998,36.463316],[34.1574881,36.4656845],[34.1624026,36.4652768],[34.164922,36.467215],[34.167782,36.467022],[34.1701551,36.4756687],[34.174025,36.4798437],[34.1769093,36.4791219],[34.1784863,36.480503],[34.17743,36.4843106],[34.1801137,36.4863514],[34.1830763,36.495298],[34.189097,36.498412],[34.1884342,36.5001343],[34.1954249,36.5021059],[34.1954876,36.5050546],[34.197608,36.5055456],[34.1968735,36.5069346],[34.1990025,36.5090328],[34.2028331,36.5097609],[34.206409,36.5168403],[34.2093459,36.5173136],[34.2129086,36.520471],[34.216474,36.51946],[34.2204848,36.5244333],[34.2220295,36.5239932],[34.2261897,36.5274973],[34.2296962,36.5275301],[34.2322219,36.5311294],[34.2286418,36.527563],[34.2283721,36.5305777],[34.2303011,36.5304791],[34.2275466,36.5318846],[34.2308569,36.5340651],[34.2336078,36.5338257],[34.2326306,36.5343409],[34.2343961,36.5348992],[34.2368648,36.5403883],[34.2360748,36.5423234],[34.2426066,36.5518154],[34.2524716,36.562844],[34.2578217,36.5644124],[34.2538349,36.5634757],[34.254935,36.5656148],[34.2567547,36.5648043],[34.2562392,36.5663009],[34.2590148,36.5697349],[34.2707836,36.5797677],[34.2995668,36.5972924],[34.3198859,36.6032506],[34.3209988,36.6051132],[34.3236584,36.6041541],[34.3267927,36.6073008],[34.3235029,36.6043906],[34.321678,36.6052774],[34.3233965,36.6075898],[34.3247959,36.6070183],[34.3242897,36.6090087],[34.3263671,36.611229],[34.3283475,36.6111633],[34.3269727,36.6124048],[34.3288631,36.6128252],[34.3304834,36.6164511],[34.350825,36.630925],[34.361603,36.6357101],[34.3612429,36.6368458],[34.373469,36.6418719],[34.3771033,36.6419458],[34.3768605,36.6429805],[34.3775555,36.6421406],[34.3861473,36.6483556],[34.4032554,36.6557524],[34.4297052,36.6638018],[34.4461518,36.6870726],[34.4348192,36.6955647],[34.4147647,36.7192798],[34.4147272,36.7281139],[34.4203387,36.731896],[34.4091143,36.7607229],[34.3895032,36.7786235],[34.3572429,36.8170706],[34.3496332,36.833314],[34.3487154,36.8465442],[34.3367391,36.8573344],[34.3094712,36.8678198],[34.273114,36.8722165],[34.2551468,36.878642],[34.2185782,36.8874338],[34.2094889,36.8919984],[34.2061068,36.8979151],[34.1963834,36.9036623],[34.1853917,36.9073808],[34.1748227,36.9244499],[34.1712293,36.9454009],[34.1756683,36.9484417],[34.1864486,36.9511445],[34.2014565,36.9514823],[34.2075865,36.9551985],[34.2124482,36.9622926],[34.2116027,36.9675283],[34.2050499,36.9744523],[34.2041596,36.9805295],[34.2037313,36.9890827],[34.2003905,36.9992084],[34.2016754,37.0048864],[34.2170779,37.010926],[34.240919,37.0346358],[34.2413373,37.036973],[34.2584862,37.0439842],[34.2687336,37.0461541],[34.272498,37.0516623],[34.2689428,37.061676],[34.2507901,37.0737909],[34.2487824,37.077128],[34.2506228,37.0954127],[34.2459382,37.1198298],[34.2135481,37.149051]]]}},{"type":"Feature","properties":{"code":"33-07","provinceCode":"33","name":"Gülnar"},"geometry":{"type":"MultiPolygon","coordinates":[[[[33.2202018,36.528258],[33.2136406,36.5257441],[33.206804,36.5254881],[33.2025913,36.5263682],[33.1997215,36.5293161],[33.1941728,36.5284095],[33.1862946,36.5303774],[33.1671036,36.5419318],[33.1609612,36.5502888],[33.1527384,36.5533131],[33.1458366,36.5627564],[33.1410216,36.5629424],[33.1356602,36.5723862],[33.1257454,36.5827231],[33.1152695,36.5817616],[33.1101612,36.5768594],[33.0951812,36.5714511],[33.0823958,36.5742298],[33.0724998,36.5726063],[33.071361,36.5558434],[33.0646242,36.5388721],[33.0560735,36.5292776],[33.0539515,36.5193201],[33.0427128,36.5079195],[33.0348735,36.5028331],[33.0271702,36.5007018],[33.024582,36.4963634],[33.0171827,36.4919748],[33.0159624,36.4796622],[33.0142759,36.4782335],[33.0153487,36.4662631],[33.0468366,36.4492378],[33.0604321,36.4370686],[33.0788148,36.4158064],[33.0889636,36.4096424],[33.0927933,36.3993165],[33.0889636,36.3691016],[33.0922189,36.340109],[33.0864743,36.3291568],[33.0849424,36.3211345],[33.0916444,36.292587],[33.097389,36.2888828],[33.1171121,36.2890371],[33.1199844,36.2796215],[33.1247716,36.2728291],[33.1305162,36.2705134],[33.1542605,36.2722116],[33.1626859,36.2689696],[33.1720089,36.2534233],[33.1766606,36.2310489],[33.1883412,36.238294],[33.1864332,36.2411088],[33.1864332,36.2798306],[33.1892114,36.2855893],[33.2910294,36.2984949],[33.3100794,36.2994544],[33.3350826,36.2956161],[33.3545294,36.2834601],[33.3788703,36.2782214],[33.385587,36.2711004],[33.4039556,36.2736896],[33.4178455,36.2679055],[33.4279771,36.2678681],[33.4271959,36.2615465],[33.4312191,36.2591916],[33.4297318,36.2470378],[33.4319132,36.2439191],[33.4304232,36.2422531],[33.4316157,36.2366416],[33.4360777,36.2355219],[33.4415295,36.2278524],[33.4419385,36.2234509],[33.4518432,36.2204047],[33.4541237,36.2122451],[33.457613,36.2080019],[33.4590814,36.200324],[33.4553357,36.1935106],[33.4568983,36.1896929],[33.4627839,36.1870916],[33.4676184,36.1823978],[33.4664273,36.1797964],[33.4685994,36.1753284],[33.4650961,36.1710298],[33.4622107,36.1596182],[33.4678102,36.1578993],[33.472636,36.159491],[33.478018,36.158698],[33.4865586,36.1535198],[33.4930592,36.1529532],[33.4990659,36.1491011],[33.4999854,36.1502663],[33.504898,36.150495],[33.511856,36.148667],[33.511214,36.147385],[33.5152399,36.1470831],[33.5169351,36.143857],[33.5257001,36.1440638],[33.5258781,36.1417247],[33.5282263,36.1409225],[33.5353585,36.1420252],[33.5421984,36.1404572],[33.544112,36.1371616],[33.5352156,36.1340248],[33.538052,36.134163],[33.536593,36.129288],[33.540212,36.125802],[33.548454,36.126921],[33.548778,36.127948],[33.554467,36.126251],[33.560176,36.127381],[33.561116,36.125835],[33.562551,36.12737],[33.561465,36.130458],[33.563049,36.130451],[33.563062,36.132249],[33.566065,36.131464],[33.564047,36.137127],[33.567842,36.136338],[33.571686,36.142229],[33.575662,36.144523],[33.5732532,36.1543664],[33.5749629,36.1566278],[33.5701925,36.1594528],[33.5702927,36.1628243],[33.5780033,36.1999101],[33.6054655,36.2332296],[33.6250059,36.2438787],[33.6298646,36.2482231],[33.6287028,36.2537597],[33.6225766,36.2630433],[33.6195135,36.2719],[33.6195135,36.2856941],[33.6168729,36.2944631],[33.6036699,36.3091894],[33.5961706,36.3233173],[33.5762535,36.3497841],[33.5710171,36.3602393],[33.5531191,36.3782238],[33.54694,36.3914318],[33.5490707,36.3981208],[33.5891448,36.4380556],[33.6066049,36.4591162],[33.5913934,36.4678518],[33.5801062,36.4638804],[33.5710361,36.4732816],[33.5521339,36.4729379],[33.5314663,36.4786359],[33.5231993,36.4773697],[33.5043032,36.4694557],[33.4793053,36.4810099],[33.4590314,36.4740459],[33.4090355,36.4729379],[33.3824628,36.474679],[33.3645509,36.4659732],[33.3596301,36.4662898],[33.3566776,36.4688225],[33.3545124,36.4795855],[33.3391593,36.4931954],[33.3297113,36.4966766],[33.3263651,36.5004741],[33.3230189,36.5110745],[33.3129804,36.5124983],[33.2883761,36.5056954],[33.2783375,36.5075939],[33.2677085,36.5132893],[33.2582605,36.5242043],[33.2484187,36.5409692],[33.2411359,36.5498247],[33.2379319,36.5418987],[33.2336381,36.5402623],[33.2321004,36.5329071],[33.2202018,36.528258]]],[[[33.5294032,36.1203501],[33.5344488,36.1218043],[33.5326539,36.1251131],[33.5294032,36.1203501]]],[[[33.5296132,36.1279218],[33.5322423,36.1251945],[33.5301424,36.1289056],[33.5296132,36.1279218]]]]}},{"type":"Feature","properties":{"code":"33-08","provinceCode":"33","name":"Mezitli"},"geometry":{"type":"Polygon","coordinates":[[[34.2041596,36.9805295],[34.2050499,36.9744523],[34.2116027,36.9675283],[34.2124482,36.9622926],[34.2075865,36.9551985],[34.2014565,36.9514823],[34.1864486,36.9511445],[34.1756683,36.9484417],[34.1712293,36.9454009],[34.1748227,36.9244499],[34.1853917,36.9073808],[34.1963834,36.9036623],[34.2061068,36.8979151],[34.2094889,36.8919984],[34.2185782,36.8874338],[34.2551468,36.878642],[34.273114,36.8722165],[34.3094712,36.8678198],[34.3367391,36.8573344],[34.3487154,36.8465442],[34.3496332,36.833314],[34.3572429,36.8170706],[34.3895032,36.7786235],[34.4091143,36.7607229],[34.4203387,36.731896],[34.4147272,36.7281139],[34.4147647,36.7192798],[34.4348192,36.6955647],[34.4461518,36.6870726],[34.479264,36.7123587],[34.5034288,36.7223217],[34.5136979,36.730525],[34.529879,36.7363326],[34.5403407,36.7390604],[34.5414719,36.7382825],[34.5416037,36.7409346],[34.5452795,36.7444045],[34.5455963,36.7480202],[34.5495052,36.7511731],[34.5484791,36.7557687],[34.5554676,36.7629003],[34.5518455,36.7680709],[34.5408608,36.7658397],[34.5387565,36.7666598],[34.535657,36.7691427],[34.5355149,36.7714433],[34.5288984,36.7737906],[34.523751,36.7814566],[34.5189253,36.7818431],[34.5118476,36.7783645],[34.5084697,36.7806836],[34.5084905,36.7862975],[34.5057179,36.7859683],[34.5046745,36.7917951],[34.5024275,36.7933712],[34.5035182,36.7973048],[34.5003861,36.7982246],[34.5115848,36.8082926],[34.5071943,36.812841],[34.5031728,36.8137424],[34.4970603,36.812841],[34.4809747,36.8042121],[34.4722884,36.8093638],[34.4547551,36.8266193],[34.4536291,36.8429698],[34.4377043,36.86099],[34.4348089,36.8793919],[34.4349697,36.8898134],[34.4397954,36.8967602],[34.4369,36.9094945],[34.4422083,36.9119382],[34.4518596,36.9200405],[34.4590982,36.9166968],[34.4747013,36.9313565],[34.4788733,36.9317924],[34.4805865,36.9371331],[34.4795585,36.9401456],[34.4815287,36.9433634],[34.4811861,36.9508939],[34.4832419,36.9516469],[34.4817857,36.9548643],[34.4852121,36.9584237],[34.4834989,36.9634888],[34.4698789,36.9707435],[34.4575438,36.9883985],[34.458486,36.9912721],[34.4560875,36.9942141],[34.4504339,36.9969507],[34.4471788,36.9935299],[34.4351007,36.996335],[34.4068327,37.0065966],[34.3921847,37.0093327],[34.3373619,37.0026973],[34.330252,37.011248],[34.3221999,37.0114532],[34.3194588,37.0102904],[34.3187735,37.0078963],[34.3112354,37.006665],[34.3092652,37.0044075],[34.3025837,37.0043391],[34.2995855,37.0061177],[34.2858975,37.0036152],[34.2639507,36.9923668],[34.245191,36.9912037],[34.2413363,36.9898353],[34.2387665,36.9806664],[34.2332842,36.976629],[34.2268596,36.9787503],[34.2190645,36.9766974],[34.2116977,36.9849089],[34.2041596,36.9805295]]]}},{"type":"Feature","properties":{"code":"33-09","provinceCode":"33","name":"Mut"},"geometry":{"type":"Polygon","coordinates":[[[33.6066049,36.4591162],[33.6133817,36.4665483],[33.6298628,36.4755031],[33.6387726,36.4783436],[33.6433195,36.4913755],[33.6458814,36.5111514],[33.6560496,36.5297958],[33.6709709,36.5355385],[33.7036451,36.5599613],[33.7269877,36.5707131],[33.7413448,36.5679501],[33.7522837,36.5641124],[33.7818156,36.5658316],[33.7909345,36.5819345],[33.7916861,36.6012618],[33.7975043,36.6139803],[33.7903451,36.623666],[33.7770379,36.6281626],[33.7728159,36.6451817],[33.7581812,36.6543814],[33.7555181,36.6681198],[33.7593876,36.6751854],[33.770088,36.6848061],[33.7677208,36.7003923],[33.7598768,36.7060952],[33.7508228,36.694975],[33.7418675,36.6925717],[33.7348361,36.6863808],[33.7279715,36.6900122],[33.7251954,36.7019533],[33.7132607,36.7080658],[33.7073183,36.7173311],[33.7087478,36.7275783],[33.703007,36.7351733],[33.7053006,36.7456143],[33.7194426,36.7512974],[33.7295702,36.7600454],[33.7484581,36.7676241],[33.7554443,36.7787231],[33.7451869,36.7882539],[33.7429862,36.7981503],[33.738142,36.801715],[33.7293979,36.8035921],[33.7244238,36.8125716],[33.7392043,36.8292563],[33.7454005,36.8398158],[33.7439829,36.8538431],[33.7377497,36.8624307],[33.7387545,36.8738111],[33.7446882,36.8915001],[33.739431,36.9066417],[33.7476474,36.9141042],[33.7271234,36.9276427],[33.6956149,36.9267084],[33.6687214,36.9282009],[33.6520918,36.9340269],[33.629091,36.9394351],[33.6209664,36.9362928],[33.6075422,36.9401625],[33.5941179,36.9412179],[33.584655,36.9452633],[33.5682082,36.9489719],[33.5464404,36.9492563],[33.5425143,36.9528674],[33.5380292,36.952773],[33.527368,36.9518514],[33.5144202,36.9399881],[33.4980954,36.9464645],[33.4666857,36.9353459],[33.4526274,36.9354601],[33.4423662,36.9304725],[33.4156055,36.9361618],[33.3986148,36.9326323],[33.3818415,36.9334053],[33.3710018,36.9258301],[33.3635699,36.9183507],[33.3398321,36.9273331],[33.3242254,36.9266417],[33.3137052,36.9159178],[33.3007312,36.9119012],[33.2886741,36.9102321],[33.2170653,36.9226582],[33.2003859,36.9216294],[33.1850249,36.9171594],[33.1722615,36.9183787],[33.1483599,36.8930897],[33.1512669,36.8838648],[33.1528338,36.8664649],[33.1278965,36.8421656],[33.1227403,36.8405242],[33.123006,36.8477144],[33.1147682,36.8498409],[33.1146686,36.8542531],[33.1107157,36.8560073],[33.1114133,36.8575489],[33.1091877,36.8586651],[33.1110797,36.8634213],[33.1100846,36.8646449],[33.1031754,36.8649903],[33.1039394,36.8687639],[33.1024173,36.8724712],[33.0988572,36.8732017],[33.0989236,36.8771609],[33.0962667,36.8812224],[33.0635397,36.8794142],[33.0331909,36.8622282],[33.0185708,36.8641985],[32.9903109,36.8626641],[32.9745422,36.855447],[32.9619784,36.8551017],[32.9579759,36.8455277],[32.9504324,36.8364139],[32.9477991,36.8305085],[32.9538686,36.8281959],[32.9766371,36.8286053],[32.9956109,36.822136],[32.9842503,36.8060787],[33.0069055,36.7865052],[33.005269,36.7800532],[33.0123479,36.7646694],[32.9973226,36.7459733],[32.9972034,36.7307901],[33.0043846,36.7097339],[33.0140993,36.7033115],[33.0379861,36.7012878],[33.0399522,36.6916922],[33.0372086,36.6766583],[33.0416566,36.6710963],[33.0628326,36.6289024],[33.0771223,36.6142115],[33.1037654,36.6151791],[33.1281934,36.6119712],[33.1353818,36.6087567],[33.1457354,36.5961334],[33.1643147,36.5875688],[33.1700007,36.575329],[33.1810234,36.5700176],[33.1939357,36.560532],[33.2114146,36.5373823],[33.2202018,36.528258],[33.2321004,36.5329071],[33.2336381,36.5402623],[33.2379319,36.5418987],[33.2411359,36.5498247],[33.2484187,36.5409692],[33.2582605,36.5242043],[33.2677085,36.5132893],[33.2783375,36.5075939],[33.2883761,36.5056954],[33.3129804,36.5124983],[33.3230189,36.5110745],[33.3263651,36.5004741],[33.3297113,36.4966766],[33.3391593,36.4931954],[33.3545124,36.4795855],[33.3566776,36.4688225],[33.3596301,36.4662898],[33.3645509,36.4659732],[33.3824628,36.474679],[33.4090355,36.4729379],[33.4590314,36.4740459],[33.4793053,36.4810099],[33.5043032,36.4694557],[33.5231993,36.4773697],[33.5314663,36.4786359],[33.5521339,36.4729379],[33.5710361,36.4732816],[33.5801062,36.4638804],[33.5913934,36.4678518],[33.6066049,36.4591162]]]}},{"type":"Feature","properties":{"code":"33-10","provinceCode":"33","name":"Silifke"},"geometry":{"type":"MultiPolygon","coordinates":[[[[33.5749629,36.1566278],[33.578143,36.158771],[33.582252,36.157338],[33.591412,36.174766],[33.602406,36.182547],[33.6094723,36.1855869],[33.614461,36.184027],[33.623046,36.187452],[33.638593,36.189426],[33.6478516,36.1941665],[33.6573713,36.1898025],[33.6568901,36.1872668],[33.6590943,36.188905],[33.6613904,36.1868141],[33.659548,36.1847092],[33.6547858,36.1874055],[33.6576163,36.1834842],[33.653245,36.1808651],[33.659883,36.1839765],[33.658869,36.169274],[33.660571,36.164383],[33.662155,36.164374],[33.660211,36.159246],[33.671314,36.160726],[33.67606,36.159929],[33.67635,36.156844],[33.67888,36.156316],[33.6815475,36.1582631],[33.6839059,36.1572741],[33.6835881,36.1559277],[33.676953,36.153243],[33.6731,36.147355],[33.6728488,36.1450868],[33.6749633,36.1444695],[33.6748901,36.1418557],[33.6773298,36.1401284],[33.6778097,36.1359513],[33.6791596,36.1377115],[33.6813636,36.1366935],[33.6832503,36.1384208],[33.6857144,36.1378034],[33.6823313,36.1341976],[33.6837528,36.1338326],[33.689783,36.135055],[33.698694,36.139757],[33.69928,36.152344],[33.6919554,36.1549353],[33.695834,36.156732],[33.6945532,36.1578729],[33.6888255,36.1570114],[33.6872245,36.1594425],[33.694499,36.167017],[33.695489,36.17138],[33.710496,36.183882],[33.723244,36.191514],[33.725186,36.19587],[33.735675,36.198889],[33.736981,36.202992],[33.742723,36.206682],[33.748113,36.206777],[33.749096,36.210111],[33.752291,36.21266],[33.765977,36.217969],[33.77236,36.222167],[33.783157,36.223768],[33.788576,36.226559],[33.78987,36.229119],[33.796872,36.231642],[33.797535,36.234464],[33.802152,36.236232],[33.80202,36.238802],[33.808696,36.240299],[33.809341,36.241322],[33.804911,36.24238],[33.807139,36.243136],[33.8086875,36.2460378],[33.8075199,36.2479576],[33.8107397,36.2504159],[33.808109,36.2520315],[33.8081789,36.2540762],[33.8106222,36.2546592],[33.8110078,36.256231],[33.815198,36.255542],[33.818542,36.2567699],[33.822055,36.2641597],[33.821901,36.2664247],[33.81548,36.267488],[33.8140904,36.2715993],[33.8156839,36.2739121],[33.8130037,36.2734564],[33.8221789,36.2769019],[33.8331013,36.2760594],[33.8365626,36.2738066],[33.841432,36.276172],[33.842781,36.2779379],[33.8366402,36.2762561],[33.838018,36.2793727],[33.8357494,36.2805383],[33.8415646,36.2837713],[33.8336343,36.2805334],[33.8320084,36.2829452],[33.83265,36.285869],[33.8393811,36.2920986],[33.847483,36.292959],[33.8473851,36.2967363],[33.8520922,36.2994923],[33.8547341,36.3053888],[33.8687697,36.3163399],[33.877098,36.3170706],[33.8770408,36.314346],[33.877378,36.3157029],[33.8825247,36.3144775],[33.8778995,36.3159512],[33.8794642,36.3174331],[33.8821356,36.3173679],[33.882242,36.3157999],[33.8838901,36.3171976],[33.888815,36.3160503],[33.8928567,36.314055],[33.8925613,36.3105873],[33.894211,36.3135483],[33.8982178,36.310851],[33.9013159,36.3113377],[33.8978122,36.3067828],[33.8896432,36.309192],[33.897261,36.3065962],[33.8985863,36.3069762],[33.9015621,36.3110817],[33.903186,36.3107526],[33.9171453,36.3026119],[33.9349866,36.2891077],[33.9409472,36.2826727],[33.9511983,36.2647033],[33.9508147,36.2576667],[33.9476751,36.2515128],[33.9511178,36.2407162],[33.9564904,36.233867],[33.964943,36.2341247],[33.9639118,36.2358819],[33.9704362,36.2548347],[33.9781898,36.2660554],[34.0011464,36.2883528],[34.0120727,36.2966739],[34.019118,36.299712],[34.0172286,36.3029896],[34.0195676,36.300034],[34.0172029,36.3054725],[34.013367,36.309139],[34.015173,36.313748],[34.018482,36.311922],[34.015783,36.311816],[34.014971,36.31041],[34.020627,36.305994],[34.019004,36.303182],[34.0200154,36.3005716],[34.0290921,36.3006763],[34.0352592,36.2991037],[34.039453,36.296586],[34.0398525,36.2938273],[34.0432427,36.2929452],[34.0635399,36.3091111],[34.074317,36.320682],[34.0788,36.33503],[34.0797598,36.3588363],[34.0784764,36.3596547],[34.07892,36.3971348],[34.0777068,36.3973407],[34.0789365,36.3974138],[34.08081,36.4117084],[34.0854235,36.4170616],[34.0906807,36.4157665],[34.0926862,36.4185426],[34.0905404,36.4199837],[34.0979847,36.4207342],[34.0990989,36.4263125],[34.1043589,36.4222919],[34.1079012,36.4266985],[34.110419,36.425948],[34.11045,36.428131],[34.115278,36.4316872],[34.113903,36.4338512],[34.111323,36.433647],[34.111223,36.437759],[34.118539,36.437948],[34.12018,36.441529],[34.1137505,36.4438633],[34.1169489,36.4452563],[34.1166895,36.4474688],[34.120557,36.445636],[34.1215995,36.4510262],[34.1263248,36.4463666],[34.1292338,36.4500527],[34.128634,36.454424],[34.1348488,36.4534916],[34.131986,36.455291],[34.13328,36.456821],[34.132281,36.4587802],[34.129041,36.461435],[34.1316214,36.4848658],[34.1252571,36.5075234],[34.1123467,36.5219915],[34.1008909,36.5262292],[34.0981634,36.5294438],[34.0932538,36.5490208],[34.0934356,36.5690309],[34.1054369,36.5824655],[34.1053438,36.5892053],[34.1089806,36.5953371],[34.1112019,36.6165017],[34.1080365,36.625842],[34.0986435,36.6251322],[34.0804598,36.6292182],[34.0695496,36.63345],[34.0546662,36.6420441],[34.0492838,36.6492805],[34.0520477,36.660484],[34.050593,36.6691189],[34.0433196,36.6763527],[34.007825,36.6904685],[33.9876047,36.713095],[33.9851317,36.7179926],[33.9876047,36.7254551],[33.98615,36.7300022],[33.9807676,36.7357148],[33.9780037,36.7445743],[33.9664298,36.7551884],[33.9285259,36.7723477],[33.8967044,36.7780371],[33.8836349,36.7860016],[33.8782366,36.7937378],[33.8751112,36.8017007],[33.8759636,36.8135297],[33.8799413,36.8201259],[33.8901696,36.8274038],[33.9163087,36.8380919],[33.950119,36.8615096],[33.9626203,36.8744658],[33.9683027,36.8910556],[33.9677345,36.8992356],[33.9640409,36.9074147],[33.9401748,36.9174102],[33.9268212,36.9294484],[33.9012503,36.95806],[33.8945202,36.9790152],[33.8740991,37.001709],[33.8408275,37.0513844],[33.8147125,37.0511014],[33.7974925,37.0472103],[33.7722165,37.0363843],[33.7599946,37.0269314],[33.7522126,37.0244373],[33.7413785,37.0247114],[33.7280426,37.0283283],[33.7113876,37.0347134],[33.6655424,37.0463863],[33.6499935,37.0460964],[33.6333236,37.0416563],[33.5719375,37.0138784],[33.5380292,36.952773],[33.5425143,36.9528674],[33.5464404,36.9492563],[33.5682082,36.9489719],[33.584655,36.9452633],[33.5941179,36.9412179],[33.6075422,36.9401625],[33.6209664,36.9362928],[33.629091,36.9394351],[33.6520918,36.9340269],[33.6687214,36.9282009],[33.6956149,36.9267084],[33.7271234,36.9276427],[33.7476474,36.9141042],[33.739431,36.9066417],[33.7446882,36.8915001],[33.7387545,36.8738111],[33.7377497,36.8624307],[33.7439829,36.8538431],[33.7454005,36.8398158],[33.7392043,36.8292563],[33.7244238,36.8125716],[33.7293979,36.8035921],[33.738142,36.801715],[33.7429862,36.7981503],[33.7451869,36.7882539],[33.7554443,36.7787231],[33.7484581,36.7676241],[33.7295702,36.7600454],[33.7194426,36.7512974],[33.7053006,36.7456143],[33.703007,36.7351733],[33.7087478,36.7275783],[33.7073183,36.7173311],[33.7132607,36.7080658],[33.7251954,36.7019533],[33.7279715,36.6900122],[33.7348361,36.6863808],[33.7418675,36.6925717],[33.7508228,36.694975],[33.7598768,36.7060952],[33.7677208,36.7003923],[33.770088,36.6848061],[33.7593876,36.6751854],[33.7555181,36.6681198],[33.7581812,36.6543814],[33.7728159,36.6451817],[33.7770379,36.6281626],[33.7903451,36.623666],[33.7975043,36.6139803],[33.7916861,36.6012618],[33.7909345,36.5819345],[33.7818156,36.5658316],[33.7522837,36.5641124],[33.7413448,36.5679501],[33.7269877,36.5707131],[33.7036451,36.5599613],[33.6709709,36.5355385],[33.6560496,36.5297958],[33.6458814,36.5111514],[33.6433195,36.4913755],[33.6387726,36.4783436],[33.6298628,36.4755031],[33.6133817,36.4665483],[33.6066049,36.4591162],[33.5891448,36.4380556],[33.5490707,36.3981208],[33.54694,36.3914318],[33.5531191,36.3782238],[33.5710171,36.3602393],[33.5762535,36.3497841],[33.5961706,36.3233173],[33.6036699,36.3091894],[33.6168729,36.2944631],[33.6195135,36.2856941],[33.6195135,36.2719],[33.6225766,36.2630433],[33.6287028,36.2537597],[33.6298646,36.2482231],[33.6250059,36.2438787],[33.6054655,36.2332296],[33.5780033,36.1999101],[33.5702927,36.1628243],[33.5701925,36.1594528],[33.5749629,36.1566278]]],[[[33.691904,36.1603642],[33.6978168,36.1597551],[33.692864,36.161245],[33.691904,36.1603642]]],[[[33.7571751,36.1827386],[33.7616589,36.179402],[33.7663949,36.1821015],[33.7744429,36.1826532],[33.7733606,36.184026],[33.7765098,36.184177],[33.7783001,36.1868107],[33.7767051,36.18863],[33.7790487,36.1891948],[33.7788046,36.1911782],[33.7837359,36.1971871],[33.7789755,36.2005624],[33.7756472,36.2000634],[33.7722783,36.1962086],[33.7619437,36.1896283],[33.7571751,36.1827386]]]]}},{"type":"Feature","properties":{"code":"33-11","provinceCode":"33","name":"Tarsus"},"geometry":{"type":"Polygon","coordinates":[[[34.6911722,36.9745279],[34.7047035,36.9717509],[34.7124428,36.9682651],[34.7164806,36.963898],[34.7136287,36.9546192],[34.7162781,36.9494976],[34.7270097,36.9472321],[34.7374944,36.9499571],[34.7487721,36.9489448],[34.7432025,36.9047324],[34.7495104,36.8930338],[34.7631997,36.881226],[34.7798417,36.8712417],[34.8014494,36.8516986],[34.8084283,36.8387029],[34.8135283,36.8163581],[34.8145002,36.7962112],[34.833975,36.789387],[34.834263,36.788098],[34.855096,36.777885],[34.87271,36.76682],[34.885678,36.755312],[34.9074858,36.7297958],[34.9114609,36.728669],[34.9230927,36.7375378],[34.9270125,36.7379771],[34.9258974,36.7417618],[34.9271477,36.7451071],[34.9297834,36.7452761],[34.9325206,36.7406804],[34.9353591,36.740106],[34.9385355,36.7410859],[34.943638,36.7458843],[34.9452488,36.7417415],[34.9476248,36.7405271],[34.9579206,36.7412663],[34.9598214,36.7432727],[34.9566328,36.7517827],[34.9577141,36.7539183],[34.9607148,36.7545401],[34.9652023,36.7518097],[34.9688518,36.7516475],[34.9690843,36.7591791],[34.9711821,36.7596549],[34.9756155,36.7575355],[34.9815733,36.7607536],[34.9932652,36.760855],[34.9980663,36.7596655],[35.0029107,36.7522051],[35.0084886,36.7511808],[35.0105371,36.7558868],[35.0011901,36.7652746],[35.005267,36.7679218],[35.0114039,36.7658247],[35.0198582,36.7577108],[35.025566,36.7569199],[35.0283984,36.7580203],[35.0310162,36.7622492],[35.0244073,36.7695719],[35.0244931,36.7746939],[35.0266818,36.778372],[35.0292567,36.7793688],[35.034149,36.778647],[35.0370673,36.7737314],[35.0375394,36.765309],[35.0421742,36.7642432],[35.0477103,36.7678186],[35.0496415,36.7785782],[35.056465,36.7829091],[35.0693396,36.7873429],[35.0738457,36.7985808],[35.0817422,36.7972062],[35.0877932,36.7876522],[35.0956467,36.7832184],[35.1190356,36.7919139],[35.1305798,36.7926012],[35.1293782,36.78968],[35.1326398,36.788099],[35.1403792,36.7908298],[35.1444508,36.7983382],[35.1470746,36.799052],[35.143273,36.8026195],[35.1465679,36.8045367],[35.1449275,36.8068319],[35.1464908,36.8077033],[35.1414174,36.8127871],[35.1253682,36.8154032],[35.1244182,36.8223629],[35.1390627,36.830352],[35.1439819,36.8367316],[35.1418354,36.8376988],[35.1463857,36.84517],[35.1438348,36.8464945],[35.1516494,36.8579385],[35.1515373,36.8590795],[35.1371361,36.862098],[35.1401501,36.865522],[35.1402477,36.8709169],[35.1437823,36.8757398],[35.1401675,36.8792344],[35.141294,36.8847525],[35.1379152,36.8868438],[35.1438443,36.8958713],[35.1453388,36.9102092],[35.1401299,36.9106596],[35.1395881,36.9095273],[35.1341164,36.9115904],[35.1307904,36.9076485],[35.1279258,36.911333],[35.1289129,36.9133318],[35.1305973,36.9128428],[35.131166,36.9153004],[35.1236021,36.9164199],[35.1267511,36.9250744],[35.1200294,36.9413515],[35.1159954,36.9419518],[35.1145041,36.9469937],[35.1108777,36.9450644],[35.1087212,36.9464021],[35.107917,36.9494985],[35.0962398,36.9477387],[35.098419,36.9522845],[35.0991511,36.9628718],[35.0984216,36.9645692],[35.0962436,36.9640806],[35.0961041,36.9663865],[35.0882077,36.967038],[35.0881251,36.9695794],[35.0915766,36.971264],[35.093776,36.9754897],[35.0891411,36.9778981],[35.0941837,36.9778382],[35.0939391,36.9803981],[35.1208019,36.984806],[35.1209843,36.9919103],[35.1142359,37.0002564],[35.1160382,37.0000679],[35.1158129,37.0024071],[35.118227,37.0024242],[35.1196646,37.0057571],[35.1171648,37.0081046],[35.1215637,37.0101351],[35.1208234,37.0123197],[35.117138,37.0127823],[35.1167679,37.0139903],[35.1200241,37.0170229],[35.1208609,37.0210705],[35.1188167,37.0236403],[35.118565,37.0281585],[35.1213211,37.0326384],[35.1225013,37.0406508],[35.0983054,37.0436355],[35.0810383,37.0508336],[35.0814782,37.0646132],[35.0660808,37.0573287],[35.0533229,37.0675093],[35.046834,37.0657541],[35.041005,37.0682991],[35.0374855,37.0682991],[35.0327563,37.0658418],[35.0210983,37.0668949],[35.0118598,37.0647887],[35.0065807,37.0769864],[34.9997043,37.0840983],[34.9816055,37.120896],[34.9645066,37.1339549],[34.9528802,37.1470524],[34.9505122,37.1546421],[34.954639,37.1661495],[34.9513348,37.174799],[34.9377624,37.1866776],[34.9308191,37.1985686],[34.9308795,37.2054238],[34.9374539,37.2096921],[34.9568239,37.2156264],[34.9623193,37.2188807],[34.9637762,37.2251677],[34.9688144,37.2303255],[34.971331,37.2379302],[34.9691156,37.248685],[34.9745713,37.2676679],[34.9551286,37.2832491],[34.9349448,37.2918434],[34.906095,37.2967214],[34.8715757,37.2960167],[34.8174441,37.3090027],[34.8043837,37.3150165],[34.7787786,37.3308687],[34.7694833,37.3178186],[34.7627728,37.3134424],[34.756465,37.3121615],[34.7454598,37.3130154],[34.7207653,37.3086389],[34.6980839,37.299031],[34.6711078,37.2911302],[34.6325897,37.2901692],[34.6433264,37.2319549],[34.6591631,37.2028843],[34.6720472,37.1885587],[34.6831866,37.1798978],[34.6953997,37.1734817],[34.7100619,37.1723994],[34.7138653,37.1702325],[34.7156529,37.1666416],[34.717714,37.1674534],[34.7195044,37.1662832],[34.7232576,37.1610722],[34.727228,37.1587912],[34.7272376,37.1541052],[34.7320232,37.1488181],[34.7493914,37.1456499],[34.7438736,37.0994809],[34.7401157,37.0885616],[34.7331368,37.0838509],[34.6991818,37.0732506],[34.6905924,37.0752851],[34.6493901,37.0925227],[34.6127509,37.0953061],[34.551478,37.0928668],[34.55944,37.0830474],[34.5721705,37.0808456],[34.5963774,37.0664501],[34.6260489,37.0450586],[34.6321734,37.0361149],[34.6365976,37.0254774],[34.6462182,37.012626],[34.651198,37.0014197],[34.6699465,36.9905617],[34.6911722,36.9745279]]]}},{"type":"Feature","properties":{"code":"33-12","provinceCode":"33","name":"Toroslar"},"geometry":{"type":"Polygon","coordinates":[[[34.2135481,37.149051],[34.2459382,37.1198298],[34.2506228,37.0954127],[34.2487824,37.077128],[34.2507901,37.0737909],[34.2689428,37.061676],[34.272498,37.0516623],[34.2687336,37.0461541],[34.2584862,37.0439842],[34.2413373,37.036973],[34.240919,37.0346358],[34.2170779,37.010926],[34.2016754,37.0048864],[34.2003905,36.9992084],[34.2037313,36.9890827],[34.2041596,36.9805295],[34.2116977,36.9849089],[34.2190645,36.9766974],[34.2268596,36.9787503],[34.2332842,36.976629],[34.2387665,36.9806664],[34.2413363,36.9898353],[34.245191,36.9912037],[34.2639507,36.9923668],[34.2858975,37.0036152],[34.2995855,37.0061177],[34.3025837,37.0043391],[34.3092652,37.0044075],[34.3112354,37.006665],[34.3187735,37.0078963],[34.3194588,37.0102904],[34.3221999,37.0114532],[34.330252,37.011248],[34.3373619,37.0026973],[34.3921847,37.0093327],[34.4068327,37.0065966],[34.4351007,36.996335],[34.4471788,36.9935299],[34.4504339,36.9969507],[34.4560875,36.9942141],[34.458486,36.9912721],[34.4575438,36.9883985],[34.4698789,36.9707435],[34.4834989,36.9634888],[34.4852121,36.9584237],[34.4817857,36.9548643],[34.4832419,36.9516469],[34.4811861,36.9508939],[34.4815287,36.9433634],[34.4795585,36.9401456],[34.4805865,36.9371331],[34.4788733,36.9317924],[34.4817857,36.9286425],[34.4793016,36.9272045],[34.4833276,36.9220686],[34.4906944,36.918439],[34.4876106,36.9109053],[34.4907801,36.9084395],[34.497376,36.9064532],[34.5018303,36.9067956],[34.5091971,36.9004938],[34.5202473,36.8967947],[34.5231598,36.8974112],[34.5257296,36.8957671],[34.5306979,36.8975482],[34.5396067,36.8970687],[34.5471448,36.890766],[34.5473161,36.8871349],[34.5384451,36.8693255],[34.5515581,36.8513704],[34.548523,36.8424075],[34.5497948,36.8393707],[34.5610073,36.8342328],[34.5643347,36.8301016],[34.5703215,36.8272075],[34.5821077,36.8292236],[34.5818274,36.8267723],[34.5904301,36.8104282],[34.5992726,36.8061909],[34.6029469,36.7988293],[34.6083918,36.7940354],[34.6112991,36.7937046],[34.6124622,36.7911882],[34.6163973,36.8076035],[34.622301,36.8110423],[34.6289014,36.811458],[34.6297528,36.8210418],[34.6375622,36.8355383],[34.6474428,36.8362056],[34.6529631,36.8386696],[34.6588549,36.8438946],[34.6744604,36.8390519],[34.6774328,36.8392643],[34.6788129,36.8413883],[34.672868,36.850266],[34.6749912,36.8524747],[34.6737172,36.8554053],[34.6685685,36.8563821],[34.6663922,36.8598647],[34.6567317,36.8554902],[34.6530692,36.8579536],[34.6530162,36.8605018],[34.6484513,36.8658102],[34.6435149,36.8683581],[34.6341198,36.8785065],[34.6327928,36.8826673],[34.6235569,36.8843656],[34.6223892,36.8813087],[34.6174528,36.8809691],[34.6163912,36.8733688],[34.6112955,36.8700991],[34.6101808,36.8709484],[34.6114548,36.8740906],[34.6083761,36.8754069],[34.5983729,36.9028901],[34.6258458,36.9128376],[34.6366017,36.9549964],[34.6482647,36.9788105],[34.6511157,36.9801563],[34.658891,36.9796387],[34.6616124,36.981088],[34.6691285,36.9776718],[34.6911722,36.9745279],[34.6699465,36.9905617],[34.651198,37.0014197],[34.6462182,37.012626],[34.6365976,37.0254774],[34.6321734,37.0361149],[34.6260489,37.0450586],[34.5963774,37.0664501],[34.5721705,37.0808456],[34.55944,37.0830474],[34.551478,37.0928668],[34.5167106,37.098207],[34.4556841,37.1188666],[34.2575456,37.1786063],[34.2135481,37.149051]]]}},{"type":"Feature","properties":{"code":"33-13","provinceCode":"33","name":"Yenişehir"},"geometry":{"type":"Polygon","coordinates":[[[34.4788733,36.9317924],[34.4747013,36.9313565],[34.4590982,36.9166968],[34.4518596,36.9200405],[34.4422083,36.9119382],[34.4369,36.9094945],[34.4397954,36.8967602],[34.4349697,36.8898134],[34.4348089,36.8793919],[34.4377043,36.86099],[34.4536291,36.8429698],[34.4547551,36.8266193],[34.4722884,36.8093638],[34.4809747,36.8042121],[34.4970603,36.812841],[34.5031728,36.8137424],[34.5071943,36.812841],[34.5115848,36.8082926],[34.5003861,36.7982246],[34.5035182,36.7973048],[34.5024275,36.7933712],[34.5046745,36.7917951],[34.5057179,36.7859683],[34.5084905,36.7862975],[34.5084697,36.7806836],[34.5118476,36.7783645],[34.5189253,36.7818431],[34.523751,36.7814566],[34.5288984,36.7737906],[34.5355149,36.7714433],[34.535657,36.7691427],[34.5387565,36.7666598],[34.5408608,36.7658397],[34.5518455,36.7680709],[34.5554676,36.7629003],[34.5647268,36.7694777],[34.5693789,36.7673546],[34.5710645,36.7675124],[34.5754268,36.7709102],[34.5703767,36.7675799],[34.5677829,36.7693525],[34.5720441,36.7720157],[34.5740075,36.7709637],[34.5730387,36.7730694],[34.5764418,36.774716],[34.5945006,36.7791739],[34.6073169,36.7800088],[34.6209208,36.7848797],[34.6183479,36.7876697],[34.614744,36.7881162],[34.6124622,36.7911882],[34.6112991,36.7937046],[34.6083918,36.7940354],[34.6029469,36.7988293],[34.5992726,36.8061909],[34.5904301,36.8104282],[34.5818274,36.8267723],[34.5821077,36.8292236],[34.5703215,36.8272075],[34.5643347,36.8301016],[34.5610073,36.8342328],[34.5497948,36.8393707],[34.548523,36.8424075],[34.5515581,36.8513704],[34.5384451,36.8693255],[34.5473161,36.8871349],[34.5471448,36.890766],[34.5396067,36.8970687],[34.5306979,36.8975482],[34.5257296,36.8957671],[34.5231598,36.8974112],[34.5202473,36.8967947],[34.5091971,36.9004938],[34.5018303,36.9067956],[34.497376,36.9064532],[34.4907801,36.9084395],[34.4876106,36.9109053],[34.4906944,36.918439],[34.4833276,36.9220686],[34.4793016,36.9272045],[34.4817857,36.9286425],[34.4788733,36.9317924]]]}}]}