{"type":"FeatureCollection","features":[{"type":"Feature","properties":{"code":"54-01","provinceCode":"54","name":"Adapazarı"},"geometry":{"type":"Polygon","coordinates":[[[30.3750096,40.7348787],[30.3814634,40.7351971],[30.3859842,40.7392991],[30.386453,40.7458179],[30.3903604,40.7461032],[30.3931028,40.7485046],[30.39498,40.7550936],[30.3921586,40.7569206],[30.3972655,40.7600982],[30.3955758,40.7649509],[30.3984626,40.7676108],[30.3995991,40.765559],[30.4015446,40.766135],[30.4020378,40.765071],[30.4059112,40.7672921],[30.40837,40.7659516],[30.4119587,40.7663025],[30.4126222,40.7630136],[30.4236799,40.7645595],[30.4236854,40.760724],[30.432365,40.7551082],[30.4317635,40.7496841],[30.4270744,40.7472626],[30.4346752,40.7470069],[30.453473,40.7504246],[30.4660822,40.7600153],[30.4678393,40.7647906],[30.4822572,40.7679609],[30.4824639,40.7710136],[30.4913524,40.7717963],[30.4917142,40.7735966],[30.4959001,40.7750054],[30.502308,40.7741836],[30.511765,40.778997],[30.5225655,40.7815014],[30.5230306,40.7803666],[30.5281984,40.7814623],[30.5278366,40.7782144],[30.5323842,40.7806014],[30.5347086,40.780023],[30.5408353,40.7848525],[30.5508248,40.8180449],[30.5670289,40.8352178],[30.5883725,40.8571978],[30.5944518,40.8884183],[30.586922,40.8851147],[30.5875419,40.8792019],[30.5813907,40.8798218],[30.5753587,40.8741713],[30.576074,40.8680916],[30.5735706,40.8679128],[30.5701731,40.8703566],[30.5624841,40.86833],[30.5559636,40.8721971],[30.552797,40.8720564],[30.5473081,40.8650897],[30.5418895,40.8627675],[30.5386525,40.85756],[30.530771,40.8560823],[30.5260562,40.8501711],[30.5218235,40.852561],[30.5250601,40.8575036],[30.5212716,40.8605395],[30.5166551,40.8557222],[30.5098056,40.8550699],[30.5063319,40.8525822],[30.5022114,40.8535259],[30.49791,40.857366],[30.4897304,40.857366],[30.477743,40.8548593],[30.4714672,40.8510725],[30.4647905,40.8508524],[30.4499881,40.8468993],[30.4420003,40.8477528],[30.4397438,40.8501083],[30.4406915,40.855604],[30.4298606,40.8509275],[30.4268821,40.8512006],[30.4241292,40.8559112],[30.4275139,40.8579251],[30.4262502,40.8619868],[30.4381643,40.8668167],[30.4337742,40.8735219],[30.4291241,40.8767541],[30.4286066,40.8809748],[30.4316868,40.8858397],[30.4360939,40.8867726],[30.4375042,40.8959011],[30.4273678,40.897167],[30.419435,40.893236],[30.4158211,40.8939023],[30.413265,40.8947685],[30.4094748,40.8995655],[30.4035693,40.9015642],[30.4013657,40.9054947],[30.395372,40.9046287],[30.391053,40.9090254],[30.3823431,40.9092592],[30.3748348,40.9076931],[30.3717498,40.9097581],[30.3710446,40.9138214],[30.3644339,40.921481],[30.3653154,40.9254769],[30.3875026,40.9462845],[30.38282,40.9601184],[30.3741435,40.9612625],[30.3700118,40.9601184],[30.3679459,40.9613665],[30.3584431,40.9601184],[30.3521078,40.9573103],[30.3467366,40.9579343],[30.2949528,40.948469],[30.2851892,40.9488171],[30.2793664,40.944694],[30.277205,40.9381782],[30.2850683,40.9342695],[30.2898987,40.929334],[30.2788385,40.9249547],[30.275626,40.9206447],[30.2766895,40.9189243],[30.2747101,40.9182555],[30.2806316,40.9177009],[30.2824411,40.9121631],[30.2891387,40.9119197],[30.2916857,40.9082067],[30.2917168,40.9057071],[30.2864248,40.9053667],[30.284539,40.9027928],[30.2823831,40.8935888],[30.2708959,40.8973599],[30.2628761,40.9058503],[30.2540624,40.9080153],[30.240419,40.9056005],[30.2363442,40.9028254],[30.2331841,40.8967193],[30.2339102,40.8934647],[30.2361035,40.8953435],[30.2465951,40.8934347],[30.2569381,40.8883733],[30.2596521,40.8827527],[30.2577102,40.8798162],[30.2670443,40.8678825],[30.2674734,40.865984],[30.2622485,40.861286],[30.2577282,40.8601925],[30.2587295,40.8586895],[30.255979,40.8598725],[30.2526773,40.8575818],[30.2565819,40.8536221],[30.256884,40.8456129],[30.2551639,40.8341405],[30.2567158,40.8338559],[30.2586909,40.8278425],[30.2623119,40.8263124],[30.2617006,40.8227538],[30.2550699,40.8235011],[30.2431252,40.8118634],[30.2444419,40.8070227],[30.2488624,40.8051361],[30.2676259,40.8110092],[30.2656508,40.8127176],[30.2662151,40.8179494],[30.2723286,40.812077],[30.2740215,40.8127176],[30.2792885,40.8098702],[30.2832387,40.8141769],[30.303366,40.8182342],[30.2959829,40.8234299],[30.2959358,40.82617],[30.2986634,40.8266682],[30.3042125,40.824711],[30.3290894,40.8264903],[30.3322872,40.8306891],[30.3376953,40.8318989],[30.340705,40.8352791],[30.3446552,40.8349233],[30.3642502,40.807005],[30.3770192,40.7802193],[30.3869176,40.7732538],[30.3861934,40.7685858],[30.3816746,40.7655518],[30.3756981,40.7555491],[30.3770959,40.7482794],[30.374043,40.7410793],[30.3750096,40.7348787]]]}},{"type":"Feature","properties":{"code":"54-02","provinceCode":"54","name":"Akyazı"},"geometry":{"type":"Polygon","coordinates":[[[30.895036,40.6446056],[30.8932612,40.6461523],[30.8908001,40.6451054],[30.8868848,40.6458976],[30.8846102,40.6438039],[30.8747006,40.641024],[30.8633974,40.6398745],[30.8163762,40.6463662],[30.8033274,40.6502228],[30.7835177,40.6514936],[30.7791479,40.6549194],[30.7767445,40.6665766],[30.7742683,40.6702777],[30.7528563,40.6735367],[30.7479039,40.67547],[30.7433156,40.6797782],[30.7426601,40.6842518],[30.7365424,40.6853564],[30.7326096,40.6880072],[30.7319541,40.6910445],[30.7283855,40.6931981],[30.7278757,40.6992721],[30.724307,40.7014255],[30.7001275,40.7026402],[30.6873823,40.715393],[30.6672812,40.7192571],[30.6633484,40.7216858],[30.6591243,40.7265981],[30.6577405,40.7332761],[30.650676,40.7438712],[30.6440485,40.7463542],[30.6389504,40.7540784],[30.6406255,40.7580506],[30.6386591,40.7617466],[30.6329784,40.766656],[30.6163732,40.7752603],[30.6093815,40.774047],[30.5989668,40.7761979],[30.5930676,40.7886059],[30.5937959,40.7917488],[30.5987483,40.7957187],[30.598894,40.7981998],[30.5935774,40.8032718],[30.5835269,40.8079025],[30.5797397,40.811706],[30.5670289,40.8352178],[30.5508248,40.8180449],[30.5408353,40.7848525],[30.5347086,40.780023],[30.5233919,40.7708592],[30.521389,40.762999],[30.5151985,40.755069],[30.5153806,40.7476207],[30.5096452,40.7331356],[30.5111929,40.7310661],[30.516382,40.7296863],[30.5248484,40.7184404],[30.5222994,40.7076066],[30.5230277,40.7008432],[30.5252983,40.6990987],[30.5250372,40.6945753],[30.5220495,40.6922622],[30.5238393,40.6886714],[30.5287615,40.6853632],[30.5315954,40.6763142],[30.535026,40.6724397],[30.5417753,40.6708276],[30.552067,40.6712802],[30.5550874,40.6735992],[30.5595621,40.6850239],[30.5667588,40.6886431],[30.5727981,40.6881907],[30.5758268,40.6809304],[30.5825388,40.6753651],[30.5805401,40.6561542],[30.5740966,40.6469881],[30.5686375,40.6416463],[30.5604041,40.6397901],[30.5584353,40.63687],[30.5518128,40.6346741],[30.5543186,40.6316405],[30.5730227,40.6301689],[30.56819,40.6190746],[30.5753495,40.6162441],[30.5741264,40.6071164],[30.5758044,40.595013],[30.5694187,40.5830137],[30.5717493,40.5802879],[30.5673678,40.575898],[30.5735671,40.5664447],[30.5757745,40.5587015],[30.5804115,40.5544305],[30.5815715,40.5488212],[30.5781968,40.5472185],[30.5784203,40.5443418],[30.5643273,40.5392126],[30.5622452,40.5369757],[30.560894,40.5278236],[30.5641338,40.5231611],[30.573162,40.5212237],[30.5732484,40.5175787],[30.5919095,40.5093686],[30.595538,40.50927],[30.5956244,40.5058215],[30.5998145,40.5040807],[30.6014992,40.4993836],[30.5999009,40.4951462],[30.6017584,40.4900871],[30.6002809,40.4848528],[30.608673,40.4850213],[30.6117271,40.4889522],[30.6219402,40.4903238],[30.630235,40.5018169],[30.6385587,40.507341],[30.6566445,40.5067109],[30.6853064,40.4989234],[30.7101451,40.5009814],[30.7280674,40.500021],[30.7667364,40.5044368],[30.7742807,40.5036466],[30.7824408,40.5073926],[30.7903699,40.5078902],[30.7992613,40.5140649],[30.8213046,40.5165393],[30.8317693,40.5143904],[30.8376633,40.5157163],[30.8532472,40.514944],[30.8559905,40.512343],[30.8640163,40.5110919],[30.8674189,40.5150343],[30.8656098,40.5189846],[30.8726537,40.5248657],[30.8766213,40.532429],[30.8825582,40.5385137],[30.8716698,40.5441485],[30.8711525,40.5515424],[30.8746506,40.563951],[30.8723021,40.5647465],[30.872248,40.5672109],[30.8746897,40.5684977],[30.8751276,40.5709412],[30.8785969,40.570401],[30.8853277,40.5720894],[30.8867711,40.575342],[30.8842296,40.5786615],[30.8825829,40.5764111],[30.8712699,40.574694],[30.8734953,40.5854112],[30.8709033,40.5912695],[30.8704798,40.5986097],[30.8856039,40.6208509],[30.8914771,40.6244172],[30.8964969,40.6303137],[30.895036,40.6446056]]]}},{"type":"Feature","properties":{"code":"54-03","provinceCode":"54","name":"Arifiye"},"geometry":{"type":"Polygon","coordinates":[[[30.3096394,40.7094134],[30.3185438,40.6963565],[30.3186564,40.6901669],[30.3162918,40.6855991],[30.3196698,40.6800916],[30.3347526,40.6768175],[30.3378285,40.6718585],[30.3405308,40.6733858],[30.3420514,40.6715682],[30.3442916,40.6717474],[30.3419029,40.6654431],[30.3374735,40.6636832],[30.3535497,40.6611485],[30.3731205,40.6557691],[30.3892088,40.6545629],[30.395161,40.6509243],[30.3979944,40.6471217],[30.3996958,40.6392795],[30.4049116,40.6354285],[30.4078182,40.6510432],[30.4119918,40.6526915],[30.4174396,40.6501866],[30.4236138,40.6523158],[30.4228874,40.6531675],[30.4252316,40.6544449],[30.4233497,40.6551964],[30.4231185,40.6622847],[30.4271466,40.6653652],[30.4224318,40.6763136],[30.4163793,40.6790273],[30.416284,40.6830005],[30.4131695,40.6868372],[30.4208566,40.6884867],[30.4245605,40.6926704],[30.4298762,40.6904674],[30.4302394,40.6921447],[30.4361421,40.6913809],[30.4452656,40.6993896],[30.443446,40.7013687],[30.4331875,40.7053934],[30.4294773,40.7168828],[30.4196417,40.7182371],[30.4174564,40.7240232],[30.4279971,40.7313611],[30.427337,40.7350191],[30.4218415,40.7380567],[30.4219927,40.7395119],[30.3814634,40.7351971],[30.3750096,40.7348787],[30.3704925,40.7338087],[30.3705382,40.7320479],[30.3635194,40.7328735],[30.3623473,40.7307155],[30.3610682,40.7323063],[30.3528409,40.7317654],[30.3486713,40.7298735],[30.347727,40.7259999],[30.3280974,40.7305808],[30.3219764,40.7301222],[30.3156223,40.7266828],[30.3096394,40.7094134]]]}},{"type":"Feature","properties":{"code":"54-04","provinceCode":"54","name":"Cumayeri"},"geometry":{"type":"Polygon","coordinates":[[[30.9839543,40.9460346],[30.9741383,40.9498005],[30.9378951,40.9688972],[30.9359041,40.968955],[30.9318457,40.9647919],[30.9315394,40.9619586],[30.9160713,40.9536891],[30.9169137,40.9491202],[30.91163,40.9462284],[30.9106346,40.941659],[30.9021348,40.9381883],[30.8968512,40.9338498],[30.896094,40.9310725],[30.8994771,40.9280239],[30.9080792,40.9255446],[30.9080639,40.923826],[30.9015742,40.9213863],[30.9015802,40.9192856],[30.8980342,40.918297],[30.8992827,40.9166814],[30.8854012,40.9162436],[30.8838874,40.9143129],[30.8781789,40.9140759],[30.8728834,40.9118633],[30.8663853,40.911949],[30.862699,40.9138887],[30.8577033,40.9114818],[30.8460058,40.90978],[30.8446274,40.9082754],[30.8603325,40.8965468],[30.8667986,40.8934845],[30.872252,40.8930134],[30.8849504,40.8777589],[30.8895468,40.8754616],[30.9037255,40.8761685],[30.9108927,40.8745191],[30.9129962,40.8726341],[30.913931,40.8643274],[30.9186832,40.8594371],[30.9424442,40.8596139],[30.9781245,40.8699831],[30.9953415,40.8701598],[30.9899661,40.879526],[30.9885638,40.89955],[30.9958089,40.9213927],[31.0006259,40.9285557],[30.998912,40.9330289],[30.9839543,40.9460346]]]}},{"type":"Feature","properties":{"code":"54-05","provinceCode":"54","name":"Erenler"},"geometry":{"type":"Polygon","coordinates":[[[30.4265885,40.6079016],[30.4505283,40.6174286],[30.4617906,40.6320183],[30.4751331,40.6424526],[30.4754244,40.6455915],[30.4801437,40.6524875],[30.4764149,40.6626535],[30.4836396,40.6729064],[30.5057216,40.6798438],[30.5220495,40.6922622],[30.5250372,40.6945753],[30.5252983,40.6990987],[30.5230277,40.7008432],[30.5222994,40.7076066],[30.5248484,40.7184404],[30.516382,40.7296863],[30.5111929,40.7310661],[30.5096452,40.7331356],[30.5153806,40.7476207],[30.5151985,40.755069],[30.521389,40.762999],[30.5233919,40.7708592],[30.5347086,40.780023],[30.5323842,40.7806014],[30.5278366,40.7782144],[30.5281984,40.7814623],[30.5230306,40.7803666],[30.5225655,40.7815014],[30.511765,40.778997],[30.502308,40.7741836],[30.4959001,40.7750054],[30.4917142,40.7735966],[30.4913524,40.7717963],[30.4824639,40.7710136],[30.4822572,40.7679609],[30.4678393,40.7647906],[30.4660822,40.7600153],[30.453473,40.7504246],[30.4346752,40.7470069],[30.4270744,40.7472626],[30.4317635,40.7496841],[30.432365,40.7551082],[30.4236854,40.760724],[30.4236799,40.7645595],[30.4126222,40.7630136],[30.4119587,40.7663025],[30.40837,40.7659516],[30.4059112,40.7672921],[30.4020378,40.765071],[30.4015446,40.766135],[30.3995991,40.765559],[30.3984626,40.7676108],[30.3955758,40.7649509],[30.3972655,40.7600982],[30.3921586,40.7569206],[30.39498,40.7550936],[30.3931028,40.7485046],[30.3903604,40.7461032],[30.386453,40.7458179],[30.3859842,40.7392991],[30.3814634,40.7351971],[30.4219927,40.7395119],[30.4218415,40.7380567],[30.427337,40.7350191],[30.4279971,40.7313611],[30.4174564,40.7240232],[30.4196417,40.7182371],[30.4294773,40.7168828],[30.4331875,40.7053934],[30.443446,40.7013687],[30.4452656,40.6993896],[30.4361421,40.6913809],[30.4302394,40.6921447],[30.4298762,40.6904674],[30.4245605,40.6926704],[30.4208566,40.6884867],[30.4131695,40.6868372],[30.416284,40.6830005],[30.4163793,40.6790273],[30.4224318,40.6763136],[30.4271466,40.6653652],[30.4231185,40.6622847],[30.4233497,40.6551964],[30.4252316,40.6544449],[30.4228874,40.6531675],[30.4236138,40.6523158],[30.4174396,40.6501866],[30.4119918,40.6526915],[30.4078182,40.6510432],[30.4049116,40.6354285],[30.4201554,40.6191097],[30.4214209,40.6113443],[30.4265885,40.6079016]]]}},{"type":"Feature","properties":{"code":"54-06","provinceCode":"54","name":"Ferizli"},"geometry":{"type":"Polygon","coordinates":[[[30.4774341,41.0811177],[30.4779629,41.0690245],[30.4710878,41.0611162],[30.4715285,41.056929],[30.4636838,41.0452302],[30.4498454,41.0450973],[30.4349493,41.0415739],[30.4258706,41.0331969],[30.4266639,41.0266807],[30.4249892,41.0256832],[30.4271046,41.0236883],[30.424901,41.0211613],[30.4253417,41.0117176],[30.4232263,41.008525],[30.4246366,41.006463],[30.4155579,40.9983476],[30.4137069,40.987703],[30.4151188,40.9825129],[30.4202295,40.9829123],[30.4245485,40.9854408],[30.4346849,40.9840435],[30.4412863,40.9689891],[30.4472359,40.961751],[30.4467952,40.9533472],[30.4447018,40.9510172],[30.4524634,40.9456695],[30.4618355,40.9449929],[30.4587235,40.9429307],[30.46069,40.9334263],[30.4653219,40.9330485],[30.4718009,40.9279775],[30.4736653,40.9288227],[30.4784196,40.9245615],[30.4841994,40.9231175],[30.4853181,40.9205465],[30.490958,40.9260406],[30.5031235,40.9156155],[30.511094,40.918398],[30.5205095,40.9248784],[30.5315097,40.9274141],[30.5386412,40.9316751],[30.5466117,40.9327668],[30.5542093,40.9315695],[30.5649765,40.9321329],[30.5716885,40.9430131],[30.5734597,40.9502656],[30.5760233,40.9529763],[30.5833794,40.9543574],[30.58505,40.9571081],[30.5819914,40.9611305],[30.5708821,40.9615483],[30.5634108,40.9598757],[30.5546808,40.9630974],[30.5550878,40.967633],[30.5583972,40.9710821],[30.5563463,40.9772758],[30.5503242,40.984084],[30.5456407,40.9859531],[30.5378806,40.9928229],[30.543074,40.9971326],[30.5473915,40.9980762],[30.5483801,41.0002485],[30.5445277,41.0085752],[30.5454145,41.0107253],[30.5500228,41.0104181],[30.5566517,41.0069845],[30.5695752,41.0122281],[30.5720029,41.0083339],[30.5704038,41.0044614],[30.5757098,41.0006654],[30.5847519,40.9977251],[30.599478,40.9994586],[30.6035855,41.0065663],[30.5673003,41.0311916],[30.5641272,41.0473601],[30.5484279,41.0558411],[30.5412355,41.0551498],[30.5353123,41.0660494],[30.5202928,41.0716314],[30.5145069,41.0776627],[30.5105757,41.079058],[30.4992935,41.0819814],[30.4836041,41.0803204],[30.4774341,41.0811177]]]}},{"type":"Feature","properties":{"code":"54-07","provinceCode":"54","name":"Geyve"},"geometry":{"type":"Polygon","coordinates":[[[30.3947266,40.3829185],[30.3902158,40.3907303],[30.3935062,40.3980555],[30.3890346,40.4112259],[30.385238,40.41341],[30.3839724,40.4195123],[30.3908907,40.435183],[30.4070052,40.4420539],[30.4118143,40.4504649],[30.4098738,40.4545095],[30.3999182,40.4583613],[30.3996651,40.4602229],[30.4065834,40.4628548],[30.4083551,40.4654223],[30.4113924,40.4657433],[30.4192388,40.4767184],[30.4216855,40.4861518],[30.4270007,40.4878843],[30.4543364,40.4899376],[30.4642919,40.4951347],[30.4754287,40.4978294],[30.4955086,40.4982143],[30.5030174,40.5029618],[30.5183726,40.5184206],[30.5333903,40.5290665],[30.5359335,40.5402317],[30.5417597,40.5448796],[30.5356729,40.5468274],[30.5324442,40.550171],[30.5276526,40.5512207],[30.5283726,40.5550656],[30.5334802,40.5588847],[30.5263465,40.5574985],[30.5249815,40.55456],[30.5201156,40.5592672],[30.5061364,40.5643276],[30.4933701,40.5640984],[30.4756053,40.5689386],[30.4611883,40.5774695],[30.4428296,40.591166],[30.4313343,40.6006153],[30.4265885,40.6079016],[30.4214209,40.6113443],[30.4201554,40.6191097],[30.4049116,40.6354285],[30.3996958,40.6392795],[30.3979944,40.6471217],[30.395161,40.6509243],[30.3892088,40.6545629],[30.3731205,40.6557691],[30.3535497,40.6611485],[30.3374735,40.6636832],[30.3157236,40.6577143],[30.3128235,40.6508135],[30.3134826,40.643812],[30.3090005,40.6385104],[30.3083413,40.6340087],[30.3050457,40.6322079],[30.2976634,40.6223028],[30.2926539,40.6202015],[30.287482,40.6113143],[30.2719173,40.6016924],[30.2468436,40.6010791],[30.2340195,40.5965308],[30.2208479,40.5965374],[30.2161826,40.5982167],[30.2130033,40.5960126],[30.2005626,40.5955665],[30.1961737,40.5935459],[30.1971414,40.5795907],[30.2127355,40.5669912],[30.2129515,40.5647926],[30.219755,40.5603623],[30.235036,40.5571215],[30.2390857,40.5549882],[30.2382217,40.5524446],[30.2415155,40.5494495],[30.2471311,40.5477263],[30.2585244,40.5387402],[30.263438,40.5371808],[30.2690536,40.5287678],[30.2664078,40.5253202],[30.2676229,40.5188722],[30.2641556,40.5155092],[30.2567633,40.5141976],[30.2544384,40.5102631],[30.2472347,40.5095032],[30.2459021,40.5066421],[30.2403319,40.5028751],[30.2352782,40.5028748],[30.2290969,40.4970222],[30.2223737,40.4966086],[30.2212829,40.4917889],[30.2168771,40.4867749],[30.2079392,40.4801469],[30.2025134,40.4781649],[30.1877881,40.4781229],[30.1812015,40.4753541],[30.1706715,40.4764448],[30.1645884,40.471033],[30.1565041,40.4676849],[30.1356551,40.4658248],[30.1346548,40.461924],[30.1324663,40.4607384],[30.126322,40.462529],[30.1234662,40.4564551],[30.1185341,40.4598672],[30.1088336,40.4610902],[30.1048831,40.4598446],[30.1004649,40.4604297],[30.0937307,40.4663343],[30.0832426,40.4668063],[30.0772314,40.4642899],[30.0759413,40.4593259],[30.0709492,40.458092],[30.0739206,40.4475628],[30.0858037,40.43362],[30.0845189,40.4298479],[30.0874555,40.4280317],[30.0896888,40.4229007],[30.0961481,40.4228483],[30.101669,40.4194501],[30.1007293,40.4139053],[30.104958,40.4083601],[30.1131806,40.4063028],[30.120346,40.4019198],[30.118584,40.3995941],[30.1214031,40.3936003],[30.1246922,40.3896638],[30.1356164,40.3824166],[30.1380832,40.3767792],[30.1498297,40.3667562],[30.150417,40.3615651],[30.1764147,40.3520756],[30.1901202,40.3547623],[30.1929394,40.3535091],[30.1952887,40.3471532],[30.1984742,40.3456486],[30.1968779,40.3445971],[30.1996739,40.3425649],[30.209937,40.3375795],[30.2149816,40.3375],[30.2169299,40.3355641],[30.22049,40.3371315],[30.2269042,40.3447915],[30.2269402,40.3503347],[30.2248369,40.3519937],[30.2312413,40.3555162],[30.2301999,40.3588574],[30.2349785,40.3576527],[30.2379606,40.3591585],[30.2405695,40.3640822],[30.2453021,40.3616877],[30.2468355,40.3629653],[30.2492147,40.362143],[30.2547396,40.3633473],[30.2606567,40.366754],[30.266625,40.3667533],[30.2679208,40.3648832],[30.2693884,40.3668015],[30.2728221,40.3675706],[30.2738857,40.3653576],[30.277352,40.3648441],[30.2769974,40.3660625],[30.2807347,40.3669437],[30.2830333,40.3716699],[30.2859539,40.3701422],[30.2863782,40.3726948],[30.2904044,40.3744048],[30.2937017,40.3724731],[30.2952362,40.3745004],[30.3014984,40.3764097],[30.3022543,40.3791043],[30.3085356,40.3781715],[30.3069673,40.3812111],[30.3205029,40.3809062],[30.3274183,40.384502],[30.33212,40.3826007],[30.3364255,40.3847269],[30.3401968,40.3834907],[30.3434621,40.3854064],[30.3433093,40.3817859],[30.3490721,40.3820271],[30.3501435,40.3832292],[30.3520686,40.3808835],[30.362154,40.3772728],[30.3689147,40.379311],[30.3763464,40.3779468],[30.3779478,40.3798249],[30.3900044,40.3802025],[30.3947266,40.3829185]]]}},{"type":"Feature","properties":{"code":"54-08","provinceCode":"54","name":"Gölyaka"},"geometry":{"type":"Polygon","coordinates":[[[31.011362,40.8376796],[31.0021992,40.8353092],[30.9944081,40.8248211],[30.987774,40.8241714],[30.9787367,40.820944],[30.9612899,40.8037535],[30.9503833,40.7974139],[30.9152287,40.7935803],[30.9014006,40.7938015],[30.8684859,40.7900415],[30.859332,40.7877559],[30.8406455,40.786459],[30.836434,40.783618],[30.8290828,40.7843718],[30.8223443,40.7738765],[30.8283171,40.7697012],[30.830308,40.7596096],[30.8329115,40.7572895],[30.8301549,40.7514309],[30.8375826,40.7412786],[30.8394969,40.7398861],[30.8439382,40.7398861],[30.8651494,40.7474282],[30.8787796,40.7474862],[30.8857479,40.7494586],[30.8922567,40.7452237],[30.893099,40.7422068],[30.8908784,40.7344902],[30.8924099,40.7293258],[30.9101751,40.7253218],[30.9168371,40.7171388],[30.9258729,40.714527],[30.9257963,40.7105221],[30.9381248,40.7127277],[30.9410346,40.7110445],[30.9414941,40.7039047],[30.9385842,40.7011763],[30.9390437,40.6970544],[30.9354447,40.6921194],[30.9355978,40.683584],[30.9254134,40.6733632],[30.92549,40.66953],[30.9186354,40.6599218],[30.9230317,40.6549652],[30.9407908,40.6504102],[30.9398746,40.6316276],[30.9692544,40.6248374],[31.0118329,40.6304536],[31.0358569,40.6393729],[31.0509803,40.6549293],[31.0557669,40.6748717],[31.061488,40.6820722],[31.0584448,40.7085598],[31.0627053,40.7333766],[31.0573493,40.7535599],[31.0504688,40.7664003],[31.0442364,40.786449],[31.0345876,40.8076872],[31.0224494,40.8266708],[31.0165774,40.8293687],[31.011362,40.8376796]]]}},{"type":"Feature","properties":{"code":"54-09","provinceCode":"54","name":"Hendek"},"geometry":{"type":"Polygon","coordinates":[[[30.5833794,40.9543574],[30.5805842,40.9502747],[30.5833731,40.9449159],[30.593761,40.9401317],[30.5887137,40.9343772],[30.5911363,40.9279693],[30.5902023,40.9250642],[30.5955374,40.9244601],[30.6003169,40.9173146],[30.6001738,40.9154072],[30.5865363,40.911831],[30.5839137,40.9085408],[30.5868224,40.9022466],[30.5910663,40.8982411],[30.5872993,40.8955708],[30.5883006,40.892233],[30.5907802,40.8905641],[30.5945472,40.8907071],[30.5944518,40.8884183],[30.5883725,40.8571978],[30.5670289,40.8352178],[30.5797397,40.811706],[30.5835269,40.8079025],[30.5935774,40.8032718],[30.598894,40.7981998],[30.5987483,40.7957187],[30.5937959,40.7917488],[30.5930676,40.7886059],[30.5989668,40.7761979],[30.6093815,40.774047],[30.6163732,40.7752603],[30.6329784,40.766656],[30.6386591,40.7617466],[30.6406255,40.7580506],[30.6389504,40.7540784],[30.6440485,40.7463542],[30.650676,40.7438712],[30.6577405,40.7332761],[30.6591243,40.7265981],[30.6633484,40.7216858],[30.6672812,40.7192571],[30.6873823,40.715393],[30.7001275,40.7026402],[30.724307,40.7014255],[30.7278757,40.6992721],[30.7283855,40.6931981],[30.7319541,40.6910445],[30.7326096,40.6880072],[30.7365424,40.6853564],[30.7426601,40.6842518],[30.7433156,40.6797782],[30.7479039,40.67547],[30.7528563,40.6735367],[30.7742683,40.6702777],[30.7767445,40.6665766],[30.7791479,40.6549194],[30.7835177,40.6514936],[30.8033274,40.6502228],[30.8163762,40.6463662],[30.8633974,40.6398745],[30.8747006,40.641024],[30.8846102,40.6438039],[30.8868848,40.6458976],[30.8908001,40.6451054],[30.8932612,40.6461523],[30.895036,40.6446056],[30.9017973,40.6540834],[30.9186354,40.6599218],[30.92549,40.66953],[30.9254134,40.6733632],[30.9355978,40.683584],[30.9354447,40.6921194],[30.9390437,40.6970544],[30.9385842,40.7011763],[30.9414941,40.7039047],[30.9410346,40.7110445],[30.9381248,40.7127277],[30.9257963,40.7105221],[30.9258729,40.714527],[30.9168371,40.7171388],[30.9101751,40.7253218],[30.8924099,40.7293258],[30.8908784,40.7344902],[30.893099,40.7422068],[30.8922567,40.7452237],[30.8857479,40.7494586],[30.8787796,40.7474862],[30.8651494,40.7474282],[30.8439382,40.7398861],[30.8394969,40.7398861],[30.8375826,40.7412786],[30.8301549,40.7514309],[30.8329115,40.7572895],[30.830308,40.7596096],[30.8283171,40.7697012],[30.8223443,40.7738765],[30.8290828,40.7843718],[30.836434,40.783618],[30.8406455,40.786459],[30.8362042,40.8005462],[30.8394969,40.8044878],[30.8641539,40.8150361],[30.8780904,40.8186871],[30.893635,40.8172963],[30.8945539,40.8236706],[30.896698,40.8254669],[30.914157,40.8283061],[30.9179091,40.831319],[30.9194406,40.8375182],[30.915229,40.8404728],[30.9035131,40.8411679],[30.8981529,40.835085],[30.8921801,40.8378079],[30.882302,40.8374024],[30.8684421,40.8405886],[30.8670637,40.8432534],[30.8702798,40.8514208],[30.8816894,40.8620776],[30.8793922,40.8699531],[30.8646133,40.8773067],[30.8490687,40.8770751],[30.840569,40.8821121],[30.8237992,40.8839069],[30.8242586,40.9000571],[30.8283936,40.9008095],[30.8323492,40.9097573],[30.822706,40.9111989],[30.7819212,40.9093413],[30.7638048,40.9216555],[30.7614379,40.92537],[30.7564308,40.9251636],[30.7536997,40.9276398],[30.7526983,40.9310788],[30.7546741,40.9355804],[30.7496648,40.9430463],[30.7543131,40.946046],[30.7555428,40.9525883],[30.736363,40.9507776],[30.7174426,40.9513975],[30.6987141,40.9492842],[30.6929376,40.9503409],[30.679444,40.9486025],[30.6738931,40.9516361],[30.6711402,40.9501704],[30.65882,40.9503068],[30.6428894,40.9560328],[30.636436,40.9555216],[30.6275907,40.9586911],[30.6072826,40.9538856],[30.5879715,40.9528017],[30.5833794,40.9543574]]]}},{"type":"Feature","properties":{"code":"54-10","provinceCode":"54","name":"Karapürçek"},"geometry":{"type":"Polygon","coordinates":[[[30.5334802,40.5588847],[30.5641109,40.5526947],[30.5804115,40.5544305],[30.5757745,40.5587015],[30.5735671,40.5664447],[30.5673678,40.575898],[30.5717493,40.5802879],[30.5694187,40.5830137],[30.5758044,40.595013],[30.5741264,40.6071164],[30.5753495,40.6162441],[30.56819,40.6190746],[30.5730227,40.6301689],[30.5543186,40.6316405],[30.5518128,40.6346741],[30.5584353,40.63687],[30.5604041,40.6397901],[30.5686375,40.6416463],[30.5740966,40.6469881],[30.5805401,40.6561542],[30.5825388,40.6753651],[30.5758268,40.6809304],[30.5727981,40.6881907],[30.5667588,40.6886431],[30.5595621,40.6850239],[30.5550874,40.6735992],[30.552067,40.6712802],[30.5417753,40.6708276],[30.535026,40.6724397],[30.5315954,40.6763142],[30.5287615,40.6853632],[30.5238393,40.6886714],[30.5220495,40.6922622],[30.5057216,40.6798438],[30.4836396,40.6729064],[30.4764149,40.6626535],[30.4801437,40.6524875],[30.4754244,40.6455915],[30.4751331,40.6424526],[30.4617906,40.6320183],[30.4505283,40.6174286],[30.4265885,40.6079016],[30.4313343,40.6006153],[30.4428296,40.591166],[30.4611883,40.5774695],[30.4756053,40.5689386],[30.4933701,40.5640984],[30.5061364,40.5643276],[30.5201156,40.5592672],[30.5249815,40.55456],[30.5263465,40.5574985],[30.5334802,40.5588847]]]}},{"type":"Feature","properties":{"code":"54-11","provinceCode":"54","name":"Karasu"},"geometry":{"type":"Polygon","coordinates":[[[30.4560544,41.1541892],[30.4508614,41.1511927],[30.4437786,41.1380774],[30.4404545,41.1361325],[30.4482865,41.1344841],[30.4517197,41.1279385],[30.4522253,41.1201065],[30.448964,41.1157903],[30.4492284,41.1082861],[30.4542525,41.1057624],[30.4562798,41.1023087],[30.4671214,41.0932751],[30.4680909,41.0902858],[30.4763764,41.0843068],[30.4774341,41.0811177],[30.4836041,41.0803204],[30.4992935,41.0819814],[30.5105757,41.079058],[30.5145069,41.0776627],[30.5202928,41.0716314],[30.5353123,41.0660494],[30.5412355,41.0551498],[30.5484279,41.0558411],[30.5641272,41.0473601],[30.5673003,41.0311916],[30.6035855,41.0065663],[30.599478,40.9994586],[30.5847519,40.9977251],[30.5757098,41.0006654],[30.5704038,41.0044614],[30.5720029,41.0083339],[30.5695752,41.0122281],[30.5566517,41.0069845],[30.5500228,41.0104181],[30.5454145,41.0107253],[30.5445277,41.0085752],[30.5483801,41.0002485],[30.5473915,40.9980762],[30.543074,40.9971326],[30.5378806,40.9928229],[30.5456407,40.9859531],[30.5503242,40.984084],[30.5563463,40.9772758],[30.5583972,40.9710821],[30.5550878,40.967633],[30.5546808,40.9630974],[30.5634108,40.9598757],[30.5708821,40.9615483],[30.5819914,40.9611305],[30.58505,40.9571081],[30.5833794,40.9543574],[30.5879715,40.9528017],[30.6072826,40.9538856],[30.6275907,40.9586911],[30.636436,40.9555216],[30.6428894,40.9560328],[30.65882,40.9503068],[30.6711402,40.9501704],[30.6738931,40.9516361],[30.679444,40.9486025],[30.6929376,40.9503409],[30.6987141,40.9492842],[30.7174426,40.9513975],[30.736363,40.9507776],[30.7555428,40.9525883],[30.7572352,40.9564226],[30.7592096,40.9579669],[30.7613955,40.9572747],[30.7649212,40.9604165],[30.7604833,40.9648575],[30.755914,40.9664762],[30.7560268,40.9678392],[30.7607654,40.9696708],[30.7713143,40.9776318],[30.76674,40.9789681],[30.7678633,40.9838965],[30.7698375,40.9838012],[30.7653275,40.9918164],[30.7696591,40.9994561],[30.7745262,40.9992435],[30.7767816,41.0013765],[30.7754418,41.0034519],[30.7672622,41.0052612],[30.7647237,41.0096777],[30.7733264,41.015371],[30.7755123,41.0208509],[30.7750187,41.02516],[30.7827753,41.031171],[30.8109104,41.0288837],[30.8118271,41.031171],[30.8156349,41.0325008],[30.8287505,41.0448933],[30.8205004,41.057177],[30.8224557,41.0599555],[30.8151986,41.0815554],[30.7553908,41.0862151],[30.7251822,41.0996415],[30.6816656,41.1153366],[30.6793035,41.1173543],[30.6802373,41.1193433],[30.6769361,41.1181614],[30.671641,41.1204384],[30.6750386,41.125886],[30.6845178,41.1239509],[30.6761659,41.1261751],[30.6738233,41.125808],[30.670642,41.1217294],[30.6690697,41.1217421],[30.6497731,41.1280438],[30.6260612,41.1291235],[30.535262,41.1398457],[30.5009278,41.1450419],[30.4560544,41.1541892]]]}},{"type":"Feature","properties":{"code":"54-12","provinceCode":"54","name":"Kaynarca"},"geometry":{"type":"Polygon","coordinates":[[[30.4560544,41.1541892],[30.4036805,41.1672386],[30.3671418,41.1791986],[30.3622198,41.1738249],[30.3657536,41.1711221],[30.365706,41.1684112],[30.3559005,41.1649651],[30.3487509,41.1654214],[30.3396785,41.1621139],[30.3321701,41.1556247],[30.3286171,41.1450123],[30.3259469,41.1427659],[30.3271867,41.1386428],[30.3233694,41.1228533],[30.3147769,41.1184098],[30.3087902,41.1126628],[30.3066347,41.1125181],[30.3057861,41.1092596],[30.2955557,41.1027919],[30.2910125,41.0961061],[30.2870965,41.0946992],[30.2816357,41.0890074],[30.2663147,41.0904946],[30.2625062,41.0897973],[30.2620164,41.0864199],[30.2577843,41.0869657],[30.2577873,41.0852566],[30.2440309,41.0851657],[30.2472711,41.0734794],[30.2522385,41.0681087],[30.2542448,41.0626],[30.2554289,41.0575496],[30.2539873,41.0556346],[30.2661905,41.0509854],[30.2644868,41.0481391],[30.2573315,41.0466946],[30.2620541,41.0380909],[30.2577915,41.0399548],[30.2585513,41.0387825],[30.2508935,41.0374251],[30.2497288,41.0311355],[30.246048,41.0270372],[30.2459085,41.0286884],[30.2435589,41.0286884],[30.2368641,41.0231602],[30.2352076,41.0195983],[30.2308345,41.0183439],[30.2282335,41.0196134],[30.2269149,41.0152916],[30.2311817,41.010378],[30.2308559,41.0082569],[30.235008,41.0052369],[30.2341236,41.0035496],[30.2385398,40.9962624],[30.2355726,40.9928976],[30.2378726,40.9902324],[30.2366173,40.9808538],[30.2453838,40.9767201],[30.2482214,40.977863],[30.2510442,40.9828782],[30.2606285,40.9870051],[30.2605641,40.9783429],[30.2641875,40.975468],[30.2670955,40.9756594],[30.2670336,40.9719762],[30.2690506,40.9698416],[30.2713412,40.9741147],[30.2719828,40.9716584],[30.2768183,40.9680635],[30.2774727,40.9562632],[30.2838457,40.9570127],[30.2852848,40.9577119],[30.2841235,40.9590862],[30.2880124,40.9588762],[30.2904634,40.9555597],[30.2825689,40.9521834],[30.2831141,40.9490903],[30.284637,40.9498461],[30.2851892,40.9488171],[30.2949528,40.948469],[30.3467366,40.9579343],[30.3521078,40.9573103],[30.3584431,40.9601184],[30.3679459,40.9613665],[30.3700118,40.9601184],[30.3741435,40.9612625],[30.38282,40.9601184],[30.3974021,40.9627476],[30.4019855,40.9656096],[30.4151188,40.9825129],[30.4137069,40.987703],[30.4155579,40.9983476],[30.4246366,41.006463],[30.4232263,41.008525],[30.4253417,41.0117176],[30.424901,41.0211613],[30.4271046,41.0236883],[30.4249892,41.0256832],[30.4266639,41.0266807],[30.4258706,41.0331969],[30.4349493,41.0415739],[30.4498454,41.0450973],[30.4636838,41.0452302],[30.4715285,41.056929],[30.4710878,41.0611162],[30.4779629,41.0690245],[30.4774341,41.0811177],[30.4763764,41.0843068],[30.4680909,41.0902858],[30.4671214,41.0932751],[30.4562798,41.1023087],[30.4542525,41.1057624],[30.4492284,41.1082861],[30.448964,41.1157903],[30.4522253,41.1201065],[30.4517197,41.1279385],[30.4482865,41.1344841],[30.4404545,41.1361325],[30.4437786,41.1380774],[30.4508614,41.1511927],[30.4560544,41.1541892]]]}},{"type":"Feature","properties":{"code":"54-13","provinceCode":"54","name":"Kocaali"},"geometry":{"type":"Polygon","coordinates":[[[30.7555428,40.9525883],[30.7543131,40.946046],[30.7496648,40.9430463],[30.7546741,40.9355804],[30.7526983,40.9310788],[30.7536997,40.9276398],[30.7564308,40.9251636],[30.7614379,40.92537],[30.7638048,40.9216555],[30.7819212,40.9093413],[30.822706,40.9111989],[30.8323492,40.9097573],[30.8388309,40.9107557],[30.8446274,40.9082754],[30.8460058,40.90978],[30.8577033,40.9114818],[30.862699,40.9138887],[30.8663853,40.911949],[30.8728834,40.9118633],[30.8781789,40.9140759],[30.8838874,40.9143129],[30.8854012,40.9162436],[30.8992827,40.9166814],[30.8980342,40.918297],[30.9015802,40.9192856],[30.9015742,40.9213863],[30.9080639,40.923826],[30.9080792,40.9255446],[30.8994771,40.9280239],[30.896094,40.9310725],[30.8968512,40.9338498],[30.9021348,40.9381883],[30.9106346,40.941659],[30.91163,40.9462284],[30.9169137,40.9491202],[30.9160713,40.9536891],[30.9315394,40.9619586],[30.9318457,40.9647919],[30.9359041,40.968955],[30.9378951,40.9688972],[30.9410346,40.977396],[30.9427192,40.9782054],[30.9454759,40.9769913],[30.948156,40.9794772],[30.9542469,40.9805006],[30.9567698,40.9834953],[30.9627052,40.9859515],[30.9597022,40.9907271],[30.9614034,40.9940982],[30.9588372,40.996032],[30.9559666,40.9943903],[30.9526739,40.9957196],[30.9514278,41.0010815],[30.9536735,41.0025273],[30.9616331,41.0017878],[30.9650024,41.004215],[30.9611737,41.00826],[30.9623895,41.0091511],[30.968678,41.0085489],[30.9762588,41.0099357],[30.9816947,41.0143848],[30.9860023,41.0214757],[30.9841979,41.0275692],[30.9877066,41.0278818],[30.9896588,41.0264643],[30.9948389,41.030773],[31.0040698,41.0301723],[31.0073498,41.0349166],[31.0055525,41.0368132],[31.0086779,41.0366769],[31.0084403,41.0386717],[31.0105642,41.0391095],[31.0094921,41.041131],[31.0118356,41.0424472],[31.0115912,41.0464228],[31.0071776,41.0485929],[31.0006531,41.0451915],[30.997219,41.0450548],[30.9982263,41.0423263],[30.9947235,41.0420287],[30.9939232,41.0406344],[30.9861353,41.0438848],[30.9847424,41.0425881],[30.979799,41.0473764],[30.9847831,41.0503565],[30.9825759,41.055419],[30.9848653,41.0570683],[30.9807234,41.0574248],[30.9800451,41.0603387],[30.9738991,41.0609277],[30.971453,41.059463],[30.9709802,41.0623768],[30.9664683,41.0620126],[30.96801,41.0646783],[30.9666533,41.0655152],[30.9631333,41.063546],[30.9632617,41.0616174],[30.9548443,41.062679],[30.9580003,41.0678778],[30.9666328,41.0721712],[30.9675331,41.0748135],[30.96579,41.0729278],[30.961052,41.072678],[30.9106503,41.0735206],[30.8151986,41.0815554],[30.8224557,41.0599555],[30.8205004,41.057177],[30.8287505,41.0448933],[30.8156349,41.0325008],[30.8118271,41.031171],[30.8109104,41.0288837],[30.7827753,41.031171],[30.7750187,41.02516],[30.7755123,41.0208509],[30.7733264,41.015371],[30.7647237,41.0096777],[30.7672622,41.0052612],[30.7754418,41.0034519],[30.7767816,41.0013765],[30.7745262,40.9992435],[30.7696591,40.9994561],[30.7653275,40.9918164],[30.7698375,40.9838012],[30.7678633,40.9838965],[30.76674,40.9789681],[30.7713143,40.9776318],[30.7607654,40.9696708],[30.7560268,40.9678392],[30.755914,40.9664762],[30.7604833,40.9648575],[30.7649212,40.9604165],[30.7613955,40.9572747],[30.7592096,40.9579669],[30.7572352,40.9564226],[30.7555428,40.9525883]]]}},{"type":"Feature","properties":{"code":"54-14","provinceCode":"54","name":"Pamukova"},"geometry":{"type":"Polygon","coordinates":[[[29.9669815,40.551366],[29.9875839,40.5245198],[29.9920238,40.5163303],[29.9772462,40.5012952],[29.9848307,40.4792931],[29.9828308,40.4745408],[29.9882137,40.4688278],[29.9909953,40.4686562],[29.9944535,40.4652246],[29.9992648,40.464767],[29.9984214,40.4595845],[30.0036757,40.4544419],[30.0023387,40.4470669],[30.0114095,40.4301595],[30.0188098,40.4252416],[30.0386942,40.4211548],[30.0456434,40.4263702],[30.0481535,40.4325096],[30.0547719,40.4383677],[30.0565004,40.4418799],[30.0546522,40.4471017],[30.0581324,40.4538852],[30.0642183,40.4572226],[30.0709492,40.458092],[30.0759413,40.4593259],[30.0772314,40.4642899],[30.0832426,40.4668063],[30.0937307,40.4663343],[30.1004649,40.4604297],[30.1048831,40.4598446],[30.1088336,40.4610902],[30.1185341,40.4598672],[30.1234662,40.4564551],[30.126322,40.462529],[30.1324663,40.4607384],[30.1346548,40.461924],[30.1356551,40.4658248],[30.1565041,40.4676849],[30.1645884,40.471033],[30.1706715,40.4764448],[30.1812015,40.4753541],[30.1877881,40.4781229],[30.2025134,40.4781649],[30.2079392,40.4801469],[30.2168771,40.4867749],[30.2212829,40.4917889],[30.2223737,40.4966086],[30.2290969,40.4970222],[30.2352782,40.5028748],[30.2403319,40.5028751],[30.2459021,40.5066421],[30.2472347,40.5095032],[30.2544384,40.5102631],[30.2567633,40.5141976],[30.2641556,40.5155092],[30.2676229,40.5188722],[30.2664078,40.5253202],[30.2690536,40.5287678],[30.263438,40.5371808],[30.2585244,40.5387402],[30.2471311,40.5477263],[30.2415155,40.5494495],[30.2382217,40.5524446],[30.2390857,40.5549882],[30.235036,40.5571215],[30.219755,40.5603623],[30.2129515,40.5647926],[30.2127355,40.5669912],[30.1971414,40.5795907],[30.1961737,40.5935459],[30.1904986,40.5941726],[30.1849838,40.598205],[30.1776307,40.6008414],[30.1484226,40.6016168],[30.1322867,40.6045633],[30.1273847,40.6030125],[30.1152167,40.6078617],[30.1033973,40.6012297],[30.093987,40.6004078],[30.0615711,40.592494],[30.0534242,40.5936054],[30.0466444,40.5899424],[30.0381932,40.5781134],[30.0309624,40.574763],[29.9989429,40.5662219],[29.9820595,40.5572329],[29.9669815,40.551366]]]}},{"type":"Feature","properties":{"code":"54-15","provinceCode":"54","name":"Serdivan"},"geometry":{"type":"Polygon","coordinates":[[[30.256884,40.8456129],[30.2531285,40.8474933],[30.2481462,40.8444882],[30.2404161,40.8458416],[30.2386987,40.8444551],[30.2350658,40.8477105],[30.2290749,40.8477989],[30.2300237,40.8394755],[30.2272548,40.8339001],[30.2266996,40.8371672],[30.2249114,40.8371414],[30.2207799,40.8279638],[30.2171714,40.8276876],[30.2175791,40.8217316],[30.2153171,40.8206996],[30.2175629,40.8185836],[30.2156377,40.817178],[30.2171146,40.8126159],[30.2261567,40.8038128],[30.2230403,40.8028477],[30.2181918,40.798053],[30.2169312,40.7946681],[30.2190898,40.7906055],[30.2270825,40.7838539],[30.2369731,40.7828284],[30.2378726,40.7790303],[30.2433228,40.7739931],[30.2454735,40.7677096],[30.2415204,40.7621217],[30.2446386,40.7600693],[30.2412138,40.7557378],[30.2436053,40.7490481],[30.2475929,40.7468262],[30.2518523,40.7420873],[30.2521634,40.7393153],[30.2542663,40.7388194],[30.2517112,40.726506],[30.2993283,40.7160529],[30.3096394,40.7094134],[30.3156223,40.7266828],[30.3219764,40.7301222],[30.3280974,40.7305808],[30.347727,40.7259999],[30.3486713,40.7298735],[30.3528409,40.7317654],[30.3610682,40.7323063],[30.3623473,40.7307155],[30.3635194,40.7328735],[30.3705382,40.7320479],[30.3704925,40.7338087],[30.3750096,40.7348787],[30.374043,40.7410793],[30.3770959,40.7482794],[30.3756981,40.7555491],[30.3816746,40.7655518],[30.3861934,40.7685858],[30.3869176,40.7732538],[30.3770192,40.7802193],[30.3642502,40.807005],[30.3446552,40.8349233],[30.340705,40.8352791],[30.3376953,40.8318989],[30.3322872,40.8306891],[30.3290894,40.8264903],[30.3042125,40.824711],[30.2986634,40.8266682],[30.2959358,40.82617],[30.2959829,40.8234299],[30.303366,40.8182342],[30.2832387,40.8141769],[30.2792885,40.8098702],[30.2740215,40.8127176],[30.2723286,40.812077],[30.2662151,40.8179494],[30.2656508,40.8127176],[30.2676259,40.8110092],[30.2488624,40.8051361],[30.2444419,40.8070227],[30.2431252,40.8118634],[30.2550699,40.8235011],[30.2617006,40.8227538],[30.2623119,40.8263124],[30.2586909,40.8278425],[30.2567158,40.8338559],[30.2551639,40.8341405],[30.256884,40.8456129]]]}},{"type":"Feature","properties":{"code":"54-16","provinceCode":"54","name":"Söğütlü"},"geometry":{"type":"Polygon","coordinates":[[[30.5833794,40.9543574],[30.5760233,40.9529763],[30.5734597,40.9502656],[30.5716885,40.9430131],[30.5649765,40.9321329],[30.5542093,40.9315695],[30.5466117,40.9327668],[30.5386412,40.9316751],[30.5315097,40.9274141],[30.5205095,40.9248784],[30.511094,40.918398],[30.5031235,40.9156155],[30.490958,40.9260406],[30.4853181,40.9205465],[30.4841994,40.9231175],[30.4784196,40.9245615],[30.4736653,40.9288227],[30.4718009,40.9279775],[30.4653219,40.9330485],[30.46069,40.9334263],[30.4587235,40.9429307],[30.4618355,40.9449929],[30.4524634,40.9456695],[30.4447018,40.9510172],[30.4467952,40.9533472],[30.4472359,40.961751],[30.4412863,40.9689891],[30.4346849,40.9840435],[30.4245485,40.9854408],[30.4202295,40.9829123],[30.4151188,40.9825129],[30.4019855,40.9656096],[30.3974021,40.9627476],[30.38282,40.9601184],[30.3875026,40.9462845],[30.3653154,40.9254769],[30.3644339,40.921481],[30.3710446,40.9138214],[30.3717498,40.9097581],[30.3748348,40.9076931],[30.3823431,40.9092592],[30.391053,40.9090254],[30.395372,40.9046287],[30.4013657,40.9054947],[30.4035693,40.9015642],[30.4094748,40.8995655],[30.413265,40.8947685],[30.4158211,40.8939023],[30.419435,40.893236],[30.4273678,40.897167],[30.4375042,40.8959011],[30.4360939,40.8867726],[30.4316868,40.8858397],[30.4286066,40.8809748],[30.4291241,40.8767541],[30.4337742,40.8735219],[30.4381643,40.8668167],[30.4262502,40.8619868],[30.4275139,40.8579251],[30.4241292,40.8559112],[30.4268821,40.8512006],[30.4298606,40.8509275],[30.4406915,40.855604],[30.4397438,40.8501083],[30.4420003,40.8477528],[30.4499881,40.8468993],[30.4647905,40.8508524],[30.4714672,40.8510725],[30.477743,40.8548593],[30.4897304,40.857366],[30.49791,40.857366],[30.5022114,40.8535259],[30.5063319,40.8525822],[30.5098056,40.8550699],[30.5166551,40.8557222],[30.5212716,40.8605395],[30.5250601,40.8575036],[30.5218235,40.852561],[30.5260562,40.8501711],[30.530771,40.8560823],[30.5386525,40.85756],[30.5418895,40.8627675],[30.5473081,40.8650897],[30.552797,40.8720564],[30.5559636,40.8721971],[30.5624841,40.86833],[30.5701731,40.8703566],[30.5735706,40.8679128],[30.576074,40.8680916],[30.5753587,40.8741713],[30.5813907,40.8798218],[30.5875419,40.8792019],[30.586922,40.8851147],[30.5944518,40.8884183],[30.5945472,40.8907071],[30.5907802,40.8905641],[30.5883006,40.892233],[30.5872993,40.8955708],[30.5910663,40.8982411],[30.5868224,40.9022466],[30.5839137,40.9085408],[30.5865363,40.911831],[30.6001738,40.9154072],[30.6003169,40.9173146],[30.5955374,40.9244601],[30.5902023,40.9250642],[30.5911363,40.9279693],[30.5887137,40.9343772],[30.593761,40.9401317],[30.5833731,40.9449159],[30.5805842,40.9502747],[30.5833794,40.9543574]]]}},{"type":"Feature","properties":{"code":"54-17","provinceCode":"54","name":"Taraklı"},"geometry":{"type":"Polygon","coordinates":[[[30.5880482,40.2860894],[30.5852664,40.2966475],[30.5813511,40.3016558],[30.5666885,40.3086857],[30.5716611,40.3136368],[30.5707897,40.3266101],[30.5758027,40.3287251],[30.5880536,40.3269922],[30.5961115,40.3242034],[30.607557,40.3265208],[30.6085985,40.3366819],[30.6023989,40.3421725],[30.5873815,40.3455106],[30.5761564,40.3448626],[30.567661,40.3501966],[30.5647636,40.3570814],[30.5719803,40.367365],[30.5790617,40.3708725],[30.5820285,40.3797678],[30.5741136,40.3872003],[30.5785303,40.3948586],[30.5836988,40.3987948],[30.5815374,40.4002261],[30.5835108,40.4046628],[30.5785303,40.4093855],[30.5767448,40.4181145],[30.5772147,40.423337],[30.5791881,40.42441],[30.5790941,40.4302043],[30.5850144,40.4369279],[30.5841228,40.4429284],[30.5797766,40.449901],[30.5914056,40.4629504],[30.590231,40.4709039],[30.5789543,40.4730485],[30.571554,40.4763546],[30.5683825,40.4821623],[30.568265,40.4873441],[30.571789,40.4909175],[30.5739033,40.4910069],[30.5864721,40.4858254],[30.6002809,40.4848528],[30.6017584,40.4900871],[30.5999009,40.4951462],[30.6014992,40.4993836],[30.5998145,40.5040807],[30.5956244,40.5058215],[30.595538,40.50927],[30.5919095,40.5093686],[30.5732484,40.5175787],[30.573162,40.5212237],[30.5641338,40.5231611],[30.560894,40.5278236],[30.5622452,40.5369757],[30.5643273,40.5392126],[30.5784203,40.5443418],[30.5781968,40.5472185],[30.5815715,40.5488212],[30.5804115,40.5544305],[30.5641109,40.5526947],[30.5334802,40.5588847],[30.5283726,40.5550656],[30.5276526,40.5512207],[30.5324442,40.550171],[30.5356729,40.5468274],[30.5417597,40.5448796],[30.5359335,40.5402317],[30.5333903,40.5290665],[30.5183726,40.5184206],[30.5030174,40.5029618],[30.4955086,40.4982143],[30.4754287,40.4978294],[30.4642919,40.4951347],[30.4543364,40.4899376],[30.4270007,40.4878843],[30.4216855,40.4861518],[30.4192388,40.4767184],[30.4113924,40.4657433],[30.4083551,40.4654223],[30.4065834,40.4628548],[30.3996651,40.4602229],[30.3999182,40.4583613],[30.4098738,40.4545095],[30.4118143,40.4504649],[30.4070052,40.4420539],[30.3908907,40.435183],[30.3839724,40.4195123],[30.385238,40.41341],[30.3890346,40.4112259],[30.3935062,40.3980555],[30.3902158,40.3907303],[30.3947266,40.3829185],[30.3968784,40.3848205],[30.4005089,40.3842401],[30.4039843,40.3866664],[30.4122948,40.385095],[30.4178497,40.3901685],[30.4272136,40.3940754],[30.4314599,40.3926018],[30.4364634,40.3931897],[30.439714,40.3905026],[30.4432761,40.3904684],[30.4410368,40.3837024],[30.4423732,40.3819515],[30.4545173,40.3879288],[30.4622147,40.3825019],[30.4700838,40.3811418],[30.4744215,40.3833524],[30.4789187,40.3768509],[30.4817003,40.3638493],[30.4756109,40.3582355],[30.4777911,40.3570897],[30.4762875,40.3538816],[30.4769641,40.3483815],[30.4811741,40.3442562],[30.472092,40.3319869],[30.4783184,40.3253647],[30.4824917,40.3174922],[30.4898384,40.3116016],[30.5038835,40.3128081],[30.5085408,40.3102022],[30.5084523,40.3011165],[30.5115475,40.2956775],[30.5264929,40.2944101],[30.5606361,40.2952317],[30.569564,40.2905993],[30.5832184,40.2888882],[30.5880482,40.2860894]]]}}]}