{"type":"FeatureCollection","features":[{"type":"Feature","properties":{"code":"80-01","provinceCode":"80","name":"Bahçe"},"geometry":{"type":"Polygon","coordinates":[[[36.4205434,37.176687],[36.4455107,37.1707188],[36.4505107,37.1706668],[36.4846152,37.1663138],[36.5086055,37.1593066],[36.5124049,37.1593931],[36.5375893,37.1689954],[36.5472549,37.1690888],[36.553577,37.1660439],[36.5619139,37.1553581],[36.5774761,37.1477165],[36.59537,37.1432136],[36.6180332,37.1410695],[36.6216911,37.1445394],[36.6256856,37.1537221],[36.6462247,37.1578684],[36.6479138,37.1619606],[36.6565253,37.1710982],[36.6795332,37.1839792],[36.6931381,37.2161761],[36.6965365,37.2202735],[36.691983,37.2265055],[36.6927209,37.2328371],[36.6892423,37.2406733],[36.6767323,37.2428659],[36.6711336,37.24207],[36.6762641,37.2548116],[36.6743049,37.25902],[36.6757177,37.2632346],[36.6850609,37.270477],[36.6880281,37.2782119],[36.65937,37.2724258],[36.6369381,37.2919761],[36.6142026,37.2893029],[36.6064953,37.2861937],[36.5974854,37.2803205],[36.5798997,37.2563912],[36.5639424,37.2443804],[36.4801392,37.2130052],[36.4642904,37.2030627],[36.4577772,37.1968371],[36.4418199,37.1909569],[36.4205434,37.176687]]]}},{"type":"Feature","properties":{"code":"80-02","provinceCode":"80","name":"Düziçi"},"geometry":{"type":"Polygon","coordinates":[[[36.6369381,37.2919761],[36.6305018,37.2979077],[36.6350548,37.3060682],[36.6421556,37.3102926],[36.6502911,37.3187523],[36.6697005,37.3302386],[36.6913618,37.3583128],[36.6855595,37.3640842],[36.6712595,37.360961],[36.6527596,37.3521038],[36.640468,37.3490603],[36.628243,37.3452151],[36.6120563,37.3480992],[36.5783986,37.3469706],[36.5527031,37.3492855],[36.5301156,37.3527353],[36.5247054,37.355107],[36.5582077,37.3808251],[36.5628924,37.3876494],[36.5733027,37.3942663],[36.5850144,37.406258],[36.5860554,37.4118396],[36.5503999,37.4265154],[36.5402498,37.4327155],[36.5251548,37.4360221],[36.5186484,37.440155],[36.5139637,37.440155],[36.5045944,37.4283755],[36.4788288,37.4168008],[36.4653279,37.4140848],[36.471028,37.4076253],[36.4750802,37.3950312],[36.4744887,37.383952],[36.4686042,37.376091],[36.4631587,37.3724177],[36.460191,37.3727656],[36.4538057,37.3692279],[36.4304667,37.3689052],[36.426297,37.3629539],[36.4212395,37.3626739],[36.4196945,37.3658119],[36.4141686,37.3658663],[36.4119189,37.3632681],[36.4125706,37.3572844],[36.4039017,37.3520992],[36.3881675,37.352621],[36.3759209,37.3477325],[36.3671661,37.351144],[36.3575531,37.3635608],[36.3525218,37.3645373],[36.3465668,37.3591947],[36.3422086,37.3577723],[36.3356906,37.3644025],[36.3192726,37.3656073],[36.3022781,37.3613778],[36.285112,37.3526451],[36.2534005,37.2902789],[36.2547364,37.2801212],[36.2643869,37.280172],[36.2673051,37.2783964],[36.2699961,37.2718475],[36.2763999,37.2663937],[36.2782056,37.2564703],[36.2755019,37.2554797],[36.2703092,37.2595786],[36.2662322,37.2594419],[36.2647802,37.2574816],[36.2644722,37.2456881],[36.2645156,37.2411319],[36.2742574,37.2393211],[36.2768187,37.2362566],[36.2704379,37.2343328],[36.2635413,37.2279897],[36.2565215,37.2271084],[36.2495603,37.2210476],[36.2510334,37.2080207],[36.2406456,37.2040366],[36.2419911,37.2002748],[36.2362796,37.1943299],[36.236108,37.1922787],[36.2437008,37.1853608],[36.2401211,37.180287],[36.2393773,37.1755937],[36.2522387,37.1751415],[36.3054086,37.180785],[36.3274284,37.1836916],[36.3519239,37.1907501],[36.3581202,37.1911621],[36.3927538,37.184298],[36.4205434,37.176687],[36.4418199,37.1909569],[36.4577772,37.1968371],[36.4642904,37.2030627],[36.4801392,37.2130052],[36.5639424,37.2443804],[36.5798997,37.2563912],[36.5974854,37.2803205],[36.6064953,37.2861937],[36.6142026,37.2893029],[36.6369381,37.2919761]]]}},{"type":"Feature","properties":{"code":"80-03","provinceCode":"80","name":"Osmaniye (merkez)"},"geometry":{"type":"Polygon","coordinates":[[[36.4205434,37.176687],[36.3927538,37.184298],[36.3581202,37.1911621],[36.3519239,37.1907501],[36.3274284,37.1836916],[36.3054086,37.180785],[36.2522387,37.1751415],[36.2393773,37.1755937],[36.2401211,37.180287],[36.2437008,37.1853608],[36.236108,37.1922787],[36.2362796,37.1943299],[36.2419911,37.2002748],[36.2406456,37.2040366],[36.2510334,37.2080207],[36.2495603,37.2210476],[36.2565215,37.2271084],[36.2635413,37.2279897],[36.2704379,37.2343328],[36.2768187,37.2362566],[36.2742574,37.2393211],[36.2645156,37.2411319],[36.2644722,37.2456881],[36.2426441,37.2413145],[36.2142326,37.2408413],[36.2114984,37.2419769],[36.2049026,37.2498875],[36.1984015,37.2545078],[36.1956153,37.2548774],[36.1853993,37.2507192],[36.1783178,37.24462],[36.1714684,37.2436959],[36.163226,37.2436035],[36.1456963,37.2496103],[36.1380343,37.2507192],[36.12132,37.251783],[36.1105074,37.2505603],[36.0771569,37.2403991],[36.0638614,37.2349395],[36.0406592,37.2175271],[36.03544,37.211833],[36.0736975,37.1999082],[36.0724488,37.1790489],[36.0767706,37.1655173],[36.0831514,37.1616548],[36.0856055,37.1583788],[36.0961582,37.1549804],[36.0965447,37.1434541],[36.0940849,37.134693],[36.0828998,37.1221819],[36.1182015,37.1196678],[36.1494646,37.1155416],[36.1624011,37.1023018],[36.1699473,37.0799438],[36.1761999,37.0448454],[36.1731814,37.0419199],[36.1721034,37.0369289],[36.1727502,37.021954],[36.1705946,36.993537],[36.1866097,36.9941396],[36.1970841,36.9982688],[36.2058292,37.0045991],[36.2159432,37.0044304],[36.2175473,36.9982443],[36.2149417,36.9899851],[36.2060466,36.9780535],[36.2259351,36.9774658],[36.2353925,36.9647451],[36.2463559,36.963008],[36.2699201,36.9626118],[36.3038486,36.9531917],[36.3168361,36.9516873],[36.3349941,36.9472587],[36.348821,36.9420972],[36.3690029,36.9316716],[36.4111591,36.9299367],[36.4428239,36.9330997],[36.4570903,36.9652962],[36.4606509,36.9787552],[36.4719651,36.9874723],[36.4870471,36.9914561],[36.5049754,37.0003153],[36.5239473,37.0126684],[36.5480924,37.0409811],[36.5343339,37.0414728],[36.5138105,37.0479711],[36.5010894,37.053792],[36.4822622,37.0659738],[36.4688627,37.0797775],[36.4602123,37.0938492],[36.4603191,37.1058658],[36.4722889,37.1189554],[36.4550126,37.1652303],[36.4488989,37.1673894],[36.4505107,37.1706668],[36.4455107,37.1707188],[36.4205434,37.176687]]]}},{"type":"Feature","properties":{"code":"80-04","provinceCode":"80","name":"Sumbas"},"geometry":{"type":"Polygon","coordinates":[[[35.9194984,37.3961945],[35.949536,37.3954662],[35.9522061,37.3939905],[35.9811127,37.391408],[35.9991067,37.3868883],[36.0049113,37.3866116],[36.0121089,37.3885486],[36.0320594,37.3968413],[36.0521199,37.4218051],[36.0680196,37.4354344],[36.0801302,37.4484712],[36.0889717,37.4680518],[36.0951577,37.4931099],[36.0980285,37.4945789],[36.0980299,37.49676],[36.1005014,37.4974798],[36.0981398,37.5003191],[36.0985613,37.502999],[36.0969256,37.5029387],[36.0926677,37.5083909],[36.0960768,37.5077],[36.1062483,37.5134722],[36.1093355,37.5233935],[36.1079351,37.5251001],[36.1094039,37.5267254],[36.1094722,37.5359348],[36.1126764,37.5375544],[36.1239143,37.5725451],[36.125543,37.5854527],[36.1283117,37.5912603],[36.1358037,37.5962933],[36.1374324,37.6001645],[36.137921,37.6097128],[36.1400383,37.6138414],[36.1384096,37.6218399],[36.1405269,37.6246779],[36.1408526,37.634223],[36.1454129,37.6383502],[36.1422462,37.6490076],[36.1491589,37.6685236],[36.1506247,37.6821879],[36.1493218,37.7240674],[36.1547175,37.7373755],[36.1465721,37.7327001],[36.1407915,37.7270891],[36.1277693,37.7096089],[36.1034376,37.6861197],[36.0872151,37.6625165],[36.0694029,37.6408679],[36.0372039,37.6131543],[36.0259136,37.6082843],[35.9934992,37.5875469],[35.9716379,37.5663131],[35.9644281,37.5494389],[35.9616479,37.534735],[35.9650666,37.5285815],[35.9621729,37.5168932],[35.9567983,37.5097878],[35.9516687,37.5069188],[35.947189,37.4885968],[35.9377427,37.4873044],[35.9293736,37.483881],[35.9205885,37.4752351],[35.9210757,37.4725333],[35.9146673,37.4631844],[35.9143839,37.4587829],[35.9195809,37.4439894],[35.9224948,37.4235711],[35.9208876,37.4136057],[35.9218433,37.4094908],[35.9193006,37.408836],[35.921234,37.4086873],[35.9194984,37.3961945]]]}},{"type":"Feature","properties":{"code":"80-05","provinceCode":"80","name":"Toprakkale"},"geometry":{"type":"Polygon","coordinates":[[[36.0828998,37.1221819],[36.0773473,37.115512],[36.0779916,37.105474],[36.0881455,37.1001697],[36.0946673,37.0938374],[36.099166,37.0845361],[36.0895003,37.0809415],[36.0950968,37.0610369],[36.0923052,37.0581042],[36.0864521,37.0572914],[36.0825256,37.0606599],[36.0718256,37.0572131],[36.0645587,37.0569374],[36.0571269,37.0459331],[36.0554494,37.0185091],[36.0575643,37.0082109],[36.0701861,37.0032595],[36.0940996,37.0032477],[36.139259,36.994825],[36.1580554,36.9930651],[36.1705946,36.993537],[36.1727502,37.021954],[36.1721034,37.0369289],[36.1731814,37.0419199],[36.1761999,37.0448454],[36.1699473,37.0799438],[36.1624011,37.1023018],[36.1494646,37.1155416],[36.1182015,37.1196678],[36.0828998,37.1221819]]]}}]}