{"type":"FeatureCollection","features":[{"type":"Feature","properties":{"code":"81-01","provinceCode":"81","name":"Akçakoca"},"geometry":{"type":"Polygon","coordinates":[[[31.3231091,41.0227818],[31.3274608,41.0466678],[31.3123222,41.0738298],[31.3073881,41.0869858],[31.3086955,41.1019397],[31.3013201,41.1053245],[31.295738,41.114231],[31.2929831,41.1157622],[31.2517404,41.1043671],[31.2074849,41.0970178],[31.1424748,41.0907503],[31.125598,41.0899438],[31.1195979,41.0923473],[31.1229729,41.0901205],[31.0918499,41.0864797],[31.090313,41.08375],[31.0709862,41.0779998],[31.056919,41.077159],[31.0550478,41.0780906],[31.0451485,41.0761048],[31.0208912,41.0768422],[31.018685,41.073812],[31.00787,41.07247],[30.980392,41.072505],[30.9703876,41.0731022],[30.9675331,41.0748135],[30.9666328,41.0721712],[30.9580003,41.0678778],[30.9548443,41.062679],[30.9632617,41.0616174],[30.9631333,41.063546],[30.9666533,41.0655152],[30.96801,41.0646783],[30.9664683,41.0620126],[30.9709802,41.0623768],[30.971453,41.059463],[30.9738991,41.0609277],[30.9800451,41.0603387],[30.9807234,41.0574248],[30.9848653,41.0570683],[30.9825759,41.055419],[30.9847831,41.0503565],[30.979799,41.0473764],[30.9847424,41.0425881],[30.9861353,41.0438848],[30.9939232,41.0406344],[30.9947235,41.0420287],[30.9982263,41.0423263],[30.997219,41.0450548],[31.0006531,41.0451915],[31.0071776,41.0485929],[31.0115912,41.0464228],[31.0118356,41.0424472],[31.0094921,41.041131],[31.0105642,41.0391095],[31.0084403,41.0386717],[31.0086779,41.0366769],[31.0055525,41.0368132],[31.0073498,41.0349166],[31.0040698,41.0301723],[30.9948389,41.030773],[30.9896588,41.0264643],[30.9877066,41.0278818],[30.9841979,41.0275692],[30.9860023,41.0214757],[30.9816947,41.0143848],[30.9762588,41.0099357],[30.968678,41.0085489],[30.9623895,41.0091511],[30.9611737,41.00826],[30.9650024,41.004215],[30.9616331,41.0017878],[30.9536735,41.0025273],[30.9514278,41.0010815],[30.9526739,40.9957196],[30.9559666,40.9943903],[30.9588372,40.996032],[30.9614034,40.9940982],[30.9597022,40.9907271],[30.9627052,40.9859515],[30.9567698,40.9834953],[30.9542469,40.9805006],[30.948156,40.9794772],[30.9454759,40.9769913],[30.9427192,40.9782054],[30.9410346,40.977396],[30.9378951,40.9688972],[30.9741383,40.9498005],[30.9839543,40.9460346],[30.9970423,40.9460346],[31.0228288,40.9393261],[31.0275031,40.9399146],[31.0402795,40.9469761],[31.048849,40.954331],[31.054614,40.9622734],[31.07261,40.9716266],[31.0934105,40.9771555],[31.1394523,40.9845659],[31.1546437,40.9813901],[31.1643039,40.9814489],[31.1738862,40.9839778],[31.1877532,40.9907994],[31.1961669,40.9922695],[31.2161105,40.9914462],[31.2339507,40.9882708],[31.2562778,40.9964724],[31.2747802,40.9947084],[31.2764863,41.0038836],[31.297632,41.0111739],[31.312224,41.0204307],[31.3231091,41.0227818]]]}},{"type":"Feature","properties":{"code":"81-02","provinceCode":"81","name":"Çilimli"},"geometry":{"type":"Polygon","coordinates":[[[31.07261,40.9716266],[31.054614,40.9622734],[31.048849,40.954331],[31.0402795,40.9469761],[31.0275031,40.9399146],[31.0228288,40.9393261],[30.9970423,40.9460346],[30.9839543,40.9460346],[30.998912,40.9330289],[31.0006259,40.9285557],[30.9958089,40.9213927],[30.9885638,40.89955],[30.9899661,40.879526],[30.9953415,40.8701598],[31.0169211,40.8630312],[31.0174746,40.8600712],[31.0206536,40.8591723],[31.0221353,40.8566018],[31.0192583,40.8514234],[31.0382823,40.8500232],[31.0487507,40.8440379],[31.0611668,40.8443142],[31.0698094,40.8460637],[31.0850252,40.853522],[31.1092487,40.8618079],[31.1186216,40.8717497],[31.1195954,40.8765359],[31.1098573,40.888316],[31.0995106,40.908558],[31.0993888,40.9183088],[31.0917201,40.9236435],[31.0818603,40.9262188],[31.0789388,40.928426],[31.0731553,40.9510361],[31.07261,40.9716266]]]}},{"type":"Feature","properties":{"code":"81-03","provinceCode":"81","name":"Düzce merkez"},"geometry":{"type":"Polygon","coordinates":[[[31.2747802,40.9947084],[31.2562778,40.9964724],[31.2339507,40.9882708],[31.2161105,40.9914462],[31.1961669,40.9922695],[31.1877532,40.9907994],[31.1738862,40.9839778],[31.1643039,40.9814489],[31.1546437,40.9813901],[31.1394523,40.9845659],[31.0934105,40.9771555],[31.07261,40.9716266],[31.0731553,40.9510361],[31.0789388,40.928426],[31.0818603,40.9262188],[31.0917201,40.9236435],[31.0993888,40.9183088],[31.0995106,40.908558],[31.1098573,40.888316],[31.1195954,40.8765359],[31.1186216,40.8717497],[31.1092487,40.8618079],[31.0850252,40.853522],[31.0698094,40.8460637],[31.0611668,40.8443142],[31.0487507,40.8440379],[31.0382823,40.8500232],[31.0192583,40.8514234],[31.0180757,40.8449587],[31.011362,40.8376796],[31.0165774,40.8293687],[31.0224494,40.8266708],[31.0345876,40.8076872],[31.0442364,40.786449],[31.0504688,40.7664003],[31.0573493,40.7535599],[31.0627053,40.7333766],[31.0584448,40.7085598],[31.061488,40.6820722],[31.0557669,40.6748717],[31.0509803,40.6549293],[31.0358569,40.6393729],[31.0716311,40.6501888],[31.0923507,40.6547731],[31.1117827,40.6539721],[31.1480548,40.6414491],[31.1601998,40.6392478],[31.189511,40.6242074],[31.2263155,40.6230662],[31.2336749,40.6357701],[31.2473198,40.6440339],[31.2711932,40.6773651],[31.2757623,40.7070282],[31.2686574,40.7180826],[31.2632975,40.7440578],[31.2613655,40.7466076],[31.2523285,40.749771],[31.238181,40.7719582],[31.2297673,40.7809725],[31.2290817,40.7849365],[31.2406116,40.7935717],[31.2450366,40.8032436],[31.2480282,40.8060269],[31.2515806,40.8070176],[31.2572521,40.8044701],[31.2621757,40.8043286],[31.2789408,40.8064515],[31.3038703,40.8123008],[31.3192643,40.8181025],[31.3378991,40.8325337],[31.3523583,40.8506862],[31.3570325,40.8600198],[31.3520795,40.8758717],[31.3451615,40.8830343],[31.3146229,40.8884528],[31.3080165,40.8945776],[31.2971722,40.9114885],[31.2926849,40.9110175],[31.2848321,40.9053182],[31.2774779,40.9026332],[31.2757951,40.9047529],[31.2722801,40.9178259],[31.2670947,40.9286154],[31.2673792,40.9430175],[31.2651395,40.9564037],[31.2673792,40.9710371],[31.2730273,40.9719929],[31.2773121,40.975228],[31.2776042,40.9803008],[31.2738064,40.9875785],[31.2747802,40.9947084]]]}},{"type":"Feature","properties":{"code":"81-04","provinceCode":"81","name":"Gümüşova"},"geometry":{"type":"Polygon","coordinates":[[[31.0192583,40.8514234],[31.0221353,40.8566018],[31.0206536,40.8591723],[31.0174746,40.8600712],[31.0169211,40.8630312],[30.9953415,40.8701598],[30.9781245,40.8699831],[30.9424442,40.8596139],[30.9186832,40.8594371],[30.913931,40.8643274],[30.9129962,40.8726341],[30.9108927,40.8745191],[30.9037255,40.8761685],[30.8895468,40.8754616],[30.8849504,40.8777589],[30.872252,40.8930134],[30.8667986,40.8934845],[30.8603325,40.8965468],[30.8446274,40.9082754],[30.8388309,40.9107557],[30.8323492,40.9097573],[30.8283936,40.9008095],[30.8242586,40.9000571],[30.8237992,40.8839069],[30.840569,40.8821121],[30.8490687,40.8770751],[30.8646133,40.8773067],[30.8793922,40.8699531],[30.8816894,40.8620776],[30.8702798,40.8514208],[30.8670637,40.8432534],[30.8684421,40.8405886],[30.882302,40.8374024],[30.8921801,40.8378079],[30.8981529,40.835085],[30.9035131,40.8411679],[30.915229,40.8404728],[30.9194406,40.8375182],[30.9179091,40.831319],[30.914157,40.8283061],[30.896698,40.8254669],[30.8945539,40.8236706],[30.893635,40.8172963],[30.8780904,40.8186871],[30.8641539,40.8150361],[30.8394969,40.8044878],[30.8362042,40.8005462],[30.8406455,40.786459],[30.859332,40.7877559],[30.8684859,40.7900415],[30.9014006,40.7938015],[30.9152287,40.7935803],[30.9503833,40.7974139],[30.9612899,40.8037535],[30.9787367,40.820944],[30.987774,40.8241714],[30.9944081,40.8248211],[31.0021992,40.8353092],[31.011362,40.8376796],[31.0180757,40.8449587],[31.0192583,40.8514234]]]}},{"type":"Feature","properties":{"code":"81-05","provinceCode":"81","name":"Kaynaşlı"},"geometry":{"type":"Polygon","coordinates":[[[31.3570325,40.8600198],[31.3523583,40.8506862],[31.3378991,40.8325337],[31.3192643,40.8181025],[31.3038703,40.8123008],[31.2789408,40.8064515],[31.2621757,40.8043286],[31.2572521,40.8044701],[31.2515806,40.8070176],[31.2480282,40.8060269],[31.2450366,40.8032436],[31.2406116,40.7935717],[31.2290817,40.7849365],[31.2297673,40.7809725],[31.238181,40.7719582],[31.2523285,40.749771],[31.2613655,40.7466076],[31.2632975,40.7440578],[31.2686574,40.7180826],[31.2757623,40.7070282],[31.2711932,40.6773651],[31.2473198,40.6440339],[31.2548744,40.6399478],[31.2644626,40.6396999],[31.2714321,40.6324848],[31.2793353,40.6281611],[31.3027852,40.6290475],[31.3112426,40.6408466],[31.339277,40.6443269],[31.348553,40.6478977],[31.355726,40.648174],[31.3640573,40.6516872],[31.3700854,40.6579015],[31.3750007,40.6598123],[31.3858374,40.6709219],[31.3848864,40.6874045],[31.4017873,40.7151387],[31.4076705,40.728353],[31.409168,40.7384848],[31.4143989,40.7481268],[31.4151549,40.7628305],[31.3607096,40.8308832],[31.3562223,40.8344199],[31.3552252,40.8414455],[31.3575311,40.8513933],[31.3570325,40.8600198]]]}},{"type":"Feature","properties":{"code":"81-06","provinceCode":"81","name":"Yığılca"},"geometry":{"type":"Polygon","coordinates":[[[31.8536456,41.0082997],[31.8075203,41.0187327],[31.7903435,41.0296298],[31.7813648,41.0293353],[31.7544285,41.0328691],[31.655405,41.0487761],[31.6322896,41.0509796],[31.5706761,41.0462769],[31.5387297,41.0398784],[31.4405635,41.0285911],[31.3926316,41.0200663],[31.3794014,41.0235442],[31.361269,41.0217935],[31.3362175,41.0240482],[31.3231091,41.0227818],[31.312224,41.0204307],[31.297632,41.0111739],[31.2764863,41.0038836],[31.2747802,40.9947084],[31.2738064,40.9875785],[31.2776042,40.9803008],[31.2773121,40.975228],[31.2730273,40.9719929],[31.2673792,40.9710371],[31.2651395,40.9564037],[31.2673792,40.9430175],[31.2670947,40.9286154],[31.2722801,40.9178259],[31.2757951,40.9047529],[31.2774779,40.9026332],[31.2848321,40.9053182],[31.2926849,40.9110175],[31.2971722,40.9114885],[31.3080165,40.8945776],[31.3146229,40.8884528],[31.3451615,40.8830343],[31.3520795,40.8758717],[31.3570325,40.8600198],[31.3575311,40.8513933],[31.3552252,40.8414455],[31.3562223,40.8344199],[31.3607096,40.8308832],[31.4151549,40.7628305],[31.4376233,40.7731151],[31.4428498,40.7788239],[31.4728007,40.7820638],[31.5190106,40.8018237],[31.5456455,40.8027145],[31.5330362,40.8612412],[31.5382508,40.867538],[31.5527983,40.8698838],[31.5672389,40.8740899],[31.5945156,40.8849274],[31.6100259,40.8949545],[31.6205087,40.9084564],[31.6369015,40.9135622],[31.6429987,40.9207562],[31.6439724,40.9505188],[31.6500559,40.9555147],[31.6540112,40.9541456],[31.6629992,40.9550989],[31.6685051,40.9587005],[31.6684891,40.9604516],[31.6781663,40.9617637],[31.6816005,40.9661459],[31.6861428,40.9665899],[31.6887251,40.9690389],[31.7050678,40.9702273],[31.712072,40.9759998],[31.7174866,40.9765313],[31.7176368,40.9792587],[31.7202196,40.9786986],[31.7216099,40.9803358],[31.7294012,40.9811483],[31.7323173,40.983449],[31.7409765,40.984323],[31.7490635,40.9878651],[31.7565958,40.9852461],[31.7613289,40.9803922],[31.7711283,40.9771621],[31.7763731,40.9729939],[31.7807161,40.9607834],[31.7854825,40.9649694],[31.7876908,40.9702844],[31.795834,40.972056],[31.8387584,40.9979991],[31.8449694,40.9988324],[31.8504902,41.0032073],[31.8536456,41.0082997]]]}}]}