{"type":"FeatureCollection","features":[{"type":"Feature","properties":{"code":"32-01","provinceCode":"32","name":"Aksu"},"geometry":{"type":"Polygon","coordinates":[[[31.1908885,37.8820015],[31.1462411,37.8698607],[31.1340645,37.8637895],[31.1240242,37.8614284],[31.1043708,37.8526578],[31.0947577,37.8518144],[31.0817266,37.8475973],[31.0706181,37.8470913],[31.0545963,37.8421991],[31.0300296,37.8386563],[31.0020448,37.824821],[30.9779053,37.8167211],[30.966156,37.8099704],[30.9606017,37.7947793],[30.9591064,37.7632054],[30.962738,37.75797],[30.9783073,37.7466134],[31.0011604,37.7594355],[31.0069582,37.7733375],[31.0162198,37.7779528],[31.0469687,37.7783313],[31.0548041,37.7753793],[31.070363,37.7658172],[31.0779661,37.7629058],[31.0812132,37.7569609],[31.0824095,37.7454752],[31.0923217,37.7253371],[31.0991576,37.7211466],[31.1085571,37.7122241],[31.1201783,37.7077625],[31.1254761,37.7030302],[31.1258179,37.7004357],[31.1341626,37.6951535],[31.1395032,37.6840597],[31.1395032,37.6785122],[31.1346882,37.6705697],[31.1349036,37.6645377],[31.1485983,37.6489147],[31.1459163,37.6454715],[31.1449409,37.6381234],[31.1488202,37.6341465],[31.1547219,37.6357015],[31.155525,37.6409896],[31.16654,37.6409896],[31.1838815,37.6383552],[31.1909555,37.6339137],[31.1991615,37.6319105],[31.2125608,37.6250373],[31.2167701,37.6176059],[31.2158986,37.6104828],[31.2116014,37.6010679],[31.2164706,37.5930839],[31.2279239,37.589504],[31.2312264,37.5813444],[31.2459189,37.5789176],[31.2431369,37.574597],[31.2440691,37.5693018],[31.2523235,37.5648291],[31.2589992,37.5560974],[31.2603344,37.5426009],[31.2633384,37.5396896],[31.281363,37.5396896],[31.2929257,37.5458846],[31.2925598,37.5505728],[31.2854844,37.5557836],[31.2871104,37.5602424],[31.3051314,37.5711685],[31.3093245,37.5756478],[31.317893,37.5769482],[31.3344876,37.5841537],[31.3258157,37.5910824],[31.3129179,37.6101624],[31.3081511,37.6124423],[31.2979259,37.6105356],[31.290146,37.6140651],[31.2729488,37.6333739],[31.276023,37.6388843],[31.2929887,37.6550798],[31.289181,37.6616039],[31.2889987,37.6676651],[31.2817064,37.6816618],[31.2817064,37.6950789],[31.2782425,37.7007047],[31.2784248,37.71008],[31.2840764,37.7145509],[31.2914827,37.7280702],[31.2911978,37.7346036],[31.2880644,37.7413617],[31.261003,37.767262],[31.2607181,37.773792],[31.2387841,37.7987806],[31.2365053,37.8039574],[31.2393539,37.8107092],[31.2393539,37.8215107],[31.2339416,37.8302858],[31.225111,37.8397347],[31.2228321,37.8489575],[31.2177047,37.856155],[31.2105833,37.860878],[31.2040316,37.8707727],[31.1908885,37.8820015]]]}},{"type":"Feature","properties":{"code":"32-02","provinceCode":"32","name":"Atabey"},"geometry":{"type":"Polygon","coordinates":[[[30.5496795,38.0782106],[30.5462033,38.0701024],[30.5447538,38.0478661],[30.5362292,38.0274942],[30.5414199,38.0242024],[30.5456754,38.0140862],[30.5598109,37.9934007],[30.5743897,37.9829006],[30.5705926,37.9431239],[30.5773688,37.9292731],[30.5898679,37.9099687],[30.5948584,37.8938723],[30.6135026,37.8820151],[30.6596783,37.885248],[30.6931929,37.8975909],[30.7229837,37.9040553],[30.7451927,37.8988542],[30.7229355,37.9304297],[30.7110452,37.9631041],[30.6926359,37.9845675],[30.6942105,38.0046702],[30.7113496,38.0077195],[30.7100328,38.0163068],[30.7010798,38.0240197],[30.703344,38.0317614],[30.6993668,38.0398079],[30.6983793,38.0480536],[30.6854959,38.054518],[30.6777997,38.0541791],[30.6638056,38.0500687],[30.6493214,38.0407052],[30.6415514,38.0428948],[30.6338504,38.0482934],[30.6265388,38.047354],[30.6192599,38.0514209],[30.6113303,38.0513889],[30.5974181,38.0591195],[30.593442,38.0596123],[30.5859149,38.0578249],[30.5807505,38.0544949],[30.5496795,38.0782106]]]}},{"type":"Feature","properties":{"code":"32-03","provinceCode":"32","name":"Eğirdir"},"geometry":{"type":"Polygon","coordinates":[[[30.6983793,38.0480536],[30.6993668,38.0398079],[30.703344,38.0317614],[30.7010798,38.0240197],[30.7100328,38.0163068],[30.7113496,38.0077195],[30.6942105,38.0046702],[30.6926359,37.9845675],[30.7110452,37.9631041],[30.7229355,37.9304297],[30.7451927,37.8988542],[30.7571216,37.8622496],[30.7513658,37.8369722],[30.7531758,37.8208318],[30.7644984,37.8090222],[30.7673625,37.7706132],[30.7733206,37.7448523],[30.8105591,37.6826949],[30.8191239,37.6627384],[30.8235925,37.6370875],[30.8046009,37.6022824],[30.7909614,37.5849959],[30.7833253,37.5695532],[30.773914,37.5608562],[30.7799597,37.5524086],[30.7881711,37.5387771],[30.8004645,37.5230294],[30.8243031,37.5366594],[30.8411553,37.5519002],[30.8775171,37.59594],[30.9372364,37.6240732],[30.9764299,37.6350589],[30.9877876,37.6435367],[30.9959863,37.6525295],[31.0034034,37.6668364],[31.0115142,37.6743446],[31.0139837,37.7120179],[31.0303092,37.7170171],[31.0497946,37.7195166],[31.0603272,37.750753],[31.070363,37.7658172],[31.0548041,37.7753793],[31.0469687,37.7783313],[31.0162198,37.7779528],[31.0069582,37.7733375],[31.0011604,37.7594355],[30.9783073,37.7466134],[30.962738,37.75797],[30.9591064,37.7632054],[30.9606017,37.7947793],[30.966156,37.8099704],[30.9779053,37.8167211],[31.0020448,37.824821],[31.0300296,37.8386563],[31.0545963,37.8421991],[31.0706181,37.8470913],[31.0817266,37.8475973],[31.0947577,37.8518144],[31.1043708,37.8526578],[31.1240242,37.8614284],[31.1340645,37.8637895],[31.1462411,37.8698607],[31.1908885,37.8820015],[31.1765732,37.9086807],[31.1695055,37.9317793],[31.1654668,37.9894939],[31.1594087,38.0038161],[31.1235651,37.9883003],[31.0680327,37.9871067],[31.0478392,37.9787505],[31.0089249,37.9732902],[30.980566,37.9754338],[30.952207,37.9809457],[30.9171219,38.0020708],[30.8961214,38.0444842],[30.8959139,38.0810165],[30.8848647,38.1005565],[30.8461523,38.1201891],[30.7999234,38.0975695],[30.7714062,38.0733934],[30.7424654,38.0634009],[30.7202486,38.061085],[30.7021536,38.0529937],[30.6983793,38.0480536]]]}},{"type":"Feature","properties":{"code":"32-04","provinceCode":"32","name":"Gelendost"},"geometry":{"type":"Polygon","coordinates":[[[30.8461523,38.1201891],[30.8848647,38.1005565],[30.8959139,38.0810165],[30.8961214,38.0444842],[30.9171219,38.0020708],[30.952207,37.9809457],[30.980566,37.9754338],[31.0089249,37.9732902],[31.0478392,37.9787505],[31.0680327,37.9871067],[31.1235651,37.9883003],[31.1594087,38.0038161],[31.1402248,38.0288731],[31.1245748,38.0602817],[31.1245748,38.0793588],[31.142749,38.0968418],[31.18667,38.1206755],[31.180612,38.1353691],[31.1609232,38.1587932],[31.1392151,38.1802257],[31.1149828,38.1929234],[31.094803,38.1945077],[31.073586,38.2060157],[31.0356057,38.2166418],[31.022879,38.2176864],[30.9782989,38.2067784],[30.9278418,38.1988333],[30.8933583,38.1750666],[30.8610485,38.1599841],[30.8317678,38.1377515],[30.8461523,38.1201891]]]}},{"type":"Feature","properties":{"code":"32-05","provinceCode":"32","name":"Gönen"},"geometry":{"type":"Polygon","coordinates":[[[30.5948584,37.8938723],[30.5898679,37.9099687],[30.5773688,37.9292731],[30.5705926,37.9431239],[30.5743897,37.9829006],[30.5598109,37.9934007],[30.5456754,38.0140862],[30.5414199,38.0242024],[30.5362292,38.0274942],[30.4936769,38.0248245],[30.4638914,38.0168703],[30.4249398,38.012175],[30.3921698,38.0132152],[30.3780236,38.0090773],[30.3229518,38.0036422],[30.3342344,37.9654809],[30.3350203,37.9387984],[30.364811,37.9155934],[30.3663006,37.898846],[30.350288,37.8832704],[30.350288,37.8682795],[30.3731979,37.8461631],[30.3808122,37.8453698],[30.3865032,37.8392616],[30.4037177,37.8317053],[30.4228961,37.8200609],[30.4619421,37.835856],[30.5092349,37.8629081],[30.5434943,37.8793698],[30.5948584,37.8938723]]]}},{"type":"Feature","properties":{"code":"32-06","provinceCode":"32","name":"Isparta merkez"},"geometry":{"type":"Polygon","coordinates":[[[30.4228961,37.8200609],[30.433758,37.8070744],[30.4407744,37.7944041],[30.4469892,37.7724229],[30.4397725,37.7551784],[30.4412756,37.7326678],[30.4847192,37.7012556],[30.4978659,37.6938737],[30.5100205,37.6907069],[30.5381528,37.6945768],[30.5530403,37.7068501],[30.5719818,37.7068501],[30.5841646,37.7048403],[30.5840812,37.6958492],[30.5895224,37.691642],[30.6004709,37.690926],[30.6174638,37.6809629],[30.6492943,37.6715856],[30.6709353,37.6725688],[30.6911746,37.671051],[30.7022114,37.671646],[30.723124,37.6755963],[30.7346051,37.6737178],[30.7407277,37.6679647],[30.7537974,37.6380354],[30.7639371,37.6024416],[30.7645651,37.58353],[30.773914,37.5608562],[30.7833253,37.5695532],[30.7909614,37.5849959],[30.8046009,37.6022824],[30.8235925,37.6370875],[30.8191239,37.6627384],[30.8105591,37.6826949],[30.7733206,37.7448523],[30.7673625,37.7706132],[30.7644984,37.8090222],[30.7531758,37.8208318],[30.7513658,37.8369722],[30.7571216,37.8622496],[30.7451927,37.8988542],[30.7229837,37.9040553],[30.6931929,37.8975909],[30.6596783,37.885248],[30.6135026,37.8820151],[30.5948584,37.8938723],[30.5434943,37.8793698],[30.5092349,37.8629081],[30.4619421,37.835856],[30.4228961,37.8200609]]]}},{"type":"Feature","properties":{"code":"32-07","provinceCode":"32","name":"Keçiborlu"},"geometry":{"type":"Polygon","coordinates":[[[30.3731979,37.8461631],[30.350288,37.8682795],[30.350288,37.8832704],[30.3663006,37.898846],[30.364811,37.9155934],[30.3350203,37.9387984],[30.3342344,37.9654809],[30.3229518,38.0036422],[30.3780236,38.0090773],[30.3921698,38.0132152],[30.3637296,38.0363458],[30.3479405,38.0401819],[30.3204387,38.0393013],[30.2799249,38.0064073],[30.2627809,38.0018672],[30.2505818,37.9917247],[30.2452283,37.9930121],[30.2376647,37.9926058],[30.2101311,37.978876],[30.1917199,37.9793343],[30.1884253,37.9677236],[30.1791228,37.9565694],[30.1663319,37.9493871],[30.1673009,37.936396],[30.1566419,37.9221796],[30.1628435,37.9105598],[30.1616807,37.9044434],[30.1502464,37.8834908],[30.1573537,37.8656952],[30.1553437,37.8595684],[30.1499846,37.8531948],[30.1225366,37.8310583],[30.1108857,37.8135606],[30.0925532,37.7992402],[30.152799,37.7957238],[30.1927169,37.7841595],[30.2192405,37.7875486],[30.2579471,37.7888009],[30.3002844,37.7996667],[30.3240614,37.8102183],[30.3176468,37.819514],[30.3197421,37.828735],[30.3266356,37.8363241],[30.3386979,37.8366214],[30.3731979,37.8461631]]]}},{"type":"Feature","properties":{"code":"32-08","provinceCode":"32","name":"Senirkent"},"geometry":{"type":"Polygon","coordinates":[[[30.5118129,38.1949135],[30.5174044,38.1658663],[30.5184141,38.1436355],[30.5057931,38.1122628],[30.5118512,38.0888236],[30.5422198,38.0826766],[30.5496795,38.0782106],[30.5807505,38.0544949],[30.5859149,38.0578249],[30.593442,38.0596123],[30.5974181,38.0591195],[30.6113303,38.0513889],[30.6192599,38.0514209],[30.6265388,38.047354],[30.6338504,38.0482934],[30.6415514,38.0428948],[30.6493214,38.0407052],[30.6638056,38.0500687],[30.6777997,38.0541791],[30.6854959,38.054518],[30.6983793,38.0480536],[30.7021536,38.0529937],[30.7202486,38.061085],[30.7424654,38.0634009],[30.7714062,38.0733934],[30.7999234,38.0975695],[30.8461523,38.1201891],[30.8317678,38.1377515],[30.8160258,38.1550765],[30.7698501,38.1998644],[30.7434108,38.2300003],[30.7374526,38.2396528],[30.7355907,38.2469645],[30.7380882,38.2669625],[30.7341034,38.2752893],[30.7248009,38.2693555],[30.7098782,38.266008],[30.6961183,38.2661601],[30.6844889,38.2604936],[30.6726386,38.2539042],[30.6586664,38.2370285],[30.6437145,38.2282937],[30.6070894,38.2202332],[30.5784807,38.2166907],[30.5625889,38.2067928],[30.52441,38.1962843],[30.5118129,38.1949135]]]}},{"type":"Feature","properties":{"code":"32-09","provinceCode":"32","name":"Sütçüler"},"geometry":{"type":"Polygon","coordinates":[[[31.070363,37.7658172],[31.0603272,37.750753],[31.0497946,37.7195166],[31.0303092,37.7170171],[31.0139837,37.7120179],[31.0115142,37.6743446],[31.0034034,37.6668364],[30.9959863,37.6525295],[30.9877876,37.6435367],[30.9764299,37.6350589],[30.9372364,37.6240732],[30.8775171,37.59594],[30.8411553,37.5519002],[30.8243031,37.5366594],[30.8004645,37.5230294],[30.8062324,37.5160337],[30.8126427,37.500884],[30.822324,37.4863588],[30.8194425,37.4785993],[30.8208274,37.4752653],[30.8347205,37.4591604],[30.8391036,37.4318003],[30.8627776,37.4333263],[30.8743689,37.4142085],[30.8942572,37.4044526],[30.9042468,37.4030967],[30.9089329,37.3997623],[30.9131055,37.3898903],[30.9137764,37.372441],[30.9399986,37.3708263],[30.9474946,37.3630443],[30.9738845,37.3472134],[30.9863816,37.3427654],[30.9922216,37.3424984],[31.0091625,37.3466563],[31.0231809,37.3518959],[31.0961035,37.3783183],[31.1152726,37.3805463],[31.1377715,37.3797153],[31.1569406,37.3811034],[31.1905516,37.3899914],[31.2055545,37.3961104],[31.2177736,37.4047093],[31.2369385,37.4216533],[31.2488825,37.4261014],[31.2761075,37.4261014],[31.2863846,37.4244313],[31.3051877,37.4176176],[31.3154902,37.4157522],[31.3298125,37.4623208],[31.331925,37.4844276],[31.3393388,37.4935247],[31.3441008,37.5031332],[31.341783,37.5314054],[31.3447867,37.5444542],[31.3403917,37.5506314],[31.3406515,37.5599477],[31.3326806,37.5679521],[31.3344876,37.5841537],[31.317893,37.5769482],[31.3093245,37.5756478],[31.3051314,37.5711685],[31.2871104,37.5602424],[31.2854844,37.5557836],[31.2925598,37.5505728],[31.2929257,37.5458846],[31.281363,37.5396896],[31.2633384,37.5396896],[31.2603344,37.5426009],[31.2589992,37.5560974],[31.2523235,37.5648291],[31.2440691,37.5693018],[31.2431369,37.574597],[31.2459189,37.5789176],[31.2312264,37.5813444],[31.2279239,37.589504],[31.2164706,37.5930839],[31.2116014,37.6010679],[31.2158986,37.6104828],[31.2167701,37.6176059],[31.2125608,37.6250373],[31.1991615,37.6319105],[31.1909555,37.6339137],[31.1838815,37.6383552],[31.16654,37.6409896],[31.155525,37.6409896],[31.1547219,37.6357015],[31.1488202,37.6341465],[31.1449409,37.6381234],[31.1459163,37.6454715],[31.1485983,37.6489147],[31.1349036,37.6645377],[31.1346882,37.6705697],[31.1395032,37.6785122],[31.1395032,37.6840597],[31.1341626,37.6951535],[31.1258179,37.7004357],[31.1254761,37.7030302],[31.1201783,37.7077625],[31.1085571,37.7122241],[31.0991576,37.7211466],[31.0923217,37.7253371],[31.0824095,37.7454752],[31.0812132,37.7569609],[31.0779661,37.7629058],[31.070363,37.7658172]]]}},{"type":"Feature","properties":{"code":"32-10","provinceCode":"32","name":"Şarkîkaraağaç"},"geometry":{"type":"Polygon","coordinates":[[[31.5202656,38.1832985],[31.5140363,38.188275],[31.4924753,38.1953228],[31.4711035,38.1966634],[31.4455111,38.1913156],[31.4142635,38.1879515],[31.4048701,38.1891078],[31.3931494,38.1798289],[31.372451,38.1718916],[31.347209,38.1643504],[31.3133847,38.1619688],[31.2179701,38.1337807],[31.18667,38.1206755],[31.142749,38.0968418],[31.1245748,38.0793588],[31.1245748,38.0602817],[31.1402248,38.0288731],[31.1594087,38.0038161],[31.1654668,37.9894939],[31.1695055,37.9317793],[31.1765732,37.9086807],[31.1908885,37.8820015],[31.2040316,37.8707727],[31.2105833,37.860878],[31.2177047,37.856155],[31.2228321,37.8489575],[31.2508678,37.8582865],[31.2574338,37.8570667],[31.2942123,37.8611326],[31.3412046,37.8596079],[31.3552364,37.8611591],[31.3773822,37.8691283],[31.398282,37.8732274],[31.4050197,37.8758697],[31.4277647,37.8907055],[31.4362325,37.8990607],[31.4390297,37.9145112],[31.5024259,37.9663196],[31.5087627,37.9755705],[31.5052553,37.9900594],[31.5087808,38.0034792],[31.5167283,38.0167149],[31.5394458,38.0309729],[31.5377605,38.0578499],[31.522449,38.1038064],[31.5352468,38.1334531],[31.5335861,38.1494668],[31.5313641,38.1597096],[31.5202656,38.1832985]]]}},{"type":"Feature","properties":{"code":"32-11","provinceCode":"32","name":"Uluborlu"},"geometry":{"type":"Polygon","coordinates":[[[30.5118129,38.1949135],[30.499991,38.1950658],[30.4806109,38.1990258],[30.4742154,38.1978073],[30.4699518,38.1946089],[30.4670448,38.1863836],[30.4558043,38.1815089],[30.4528972,38.1769386],[30.450184,38.166121],[30.4282844,38.1534731],[30.4170439,38.1411279],[30.4073539,38.1267987],[30.3979351,38.1092339],[30.3887877,38.0744579],[30.382586,38.0600546],[30.3742138,38.0602988],[30.3616554,38.0556598],[30.3559189,38.0518752],[30.3479405,38.0401819],[30.3637296,38.0363458],[30.3921698,38.0132152],[30.4249398,38.012175],[30.4638914,38.0168703],[30.4936769,38.0248245],[30.5362292,38.0274942],[30.5447538,38.0478661],[30.5462033,38.0701024],[30.5496795,38.0782106],[30.5422198,38.0826766],[30.5118512,38.0888236],[30.5057931,38.1122628],[30.5184141,38.1436355],[30.5174044,38.1658663],[30.5118129,38.1949135]]]}},{"type":"Feature","properties":{"code":"32-12","provinceCode":"32","name":"Yalvaç"},"geometry":{"type":"Polygon","coordinates":[[[30.8317678,38.1377515],[30.8610485,38.1599841],[30.8933583,38.1750666],[30.9278418,38.1988333],[30.9782989,38.2067784],[31.022879,38.2176864],[31.0356057,38.2166418],[31.073586,38.2060157],[31.094803,38.1945077],[31.1149828,38.1929234],[31.1392151,38.1802257],[31.1609232,38.1587932],[31.180612,38.1353691],[31.18667,38.1206755],[31.2179701,38.1337807],[31.3133847,38.1619688],[31.347209,38.1643504],[31.372451,38.1718916],[31.3931494,38.1798289],[31.4048701,38.1891078],[31.3958788,38.1902145],[31.3727399,38.2039908],[31.3487202,38.2155168],[31.327231,38.2405102],[31.3251867,38.2822585],[31.3196977,38.3078673],[31.290107,38.3390862],[31.2740868,38.3534354],[31.2585563,38.3768823],[31.2509723,38.3749006],[31.2420071,38.3765871],[31.2366219,38.3817788],[31.2225221,38.383732],[31.208098,38.3823904],[31.1856611,38.3858128],[31.1825603,38.3940155],[31.1829479,38.4038879],[31.2058165,38.4243878],[31.2021343,38.4353188],[31.1994211,38.4385066],[31.1891496,38.4406318],[31.1676376,38.4488283],[31.1381797,38.4618801],[31.1271331,38.4814533],[31.1323657,38.5016278],[31.1178306,38.5045095],[31.0928887,38.5049782],[31.0815897,38.5090592],[31.0693802,38.5084526],[31.0387595,38.5034478],[31.0093017,38.5067844],[30.9994178,38.5060261],[30.9895339,38.5031445],[30.9833323,38.4993528],[30.977712,38.4899485],[30.9759678,38.4781156],[30.9622079,38.4568721],[30.9647273,38.4426051],[30.9581981,38.427272],[30.9450207,38.4242267],[30.9392655,38.4155574],[30.9127885,38.4075328],[30.8718963,38.4081402],[30.857555,38.4047991],[30.850772,38.400091],[30.8420509,38.3896104],[30.8186009,38.3847494],[30.8112097,38.3784546],[30.8101014,38.3717581],[30.7996931,38.3660822],[30.7963137,38.3604392],[30.7986702,38.352884],[30.7952099,38.3413548],[30.7981917,38.3334219],[30.7884255,38.3071226],[30.7825825,38.3012776],[30.776132,38.2981711],[30.7571658,38.2985634],[30.7505765,38.2958256],[30.7430183,38.2835045],[30.7341034,38.2752893],[30.7380882,38.2669625],[30.7355907,38.2469645],[30.7374526,38.2396528],[30.7434108,38.2300003],[30.7698501,38.1998644],[30.8160258,38.1550765],[30.8317678,38.1377515]]]}},{"type":"Feature","properties":{"code":"32-13","provinceCode":"32","name":"Yenişarbademli"},"geometry":{"type":"Polygon","coordinates":[[[31.2929887,37.6550798],[31.3113356,37.6643875],[31.3494196,37.6747866],[31.3595114,37.6879852],[31.3791061,37.7020227],[31.4008933,37.7039506],[31.4259373,37.7010751],[31.4317311,37.7055802],[31.4227715,37.7452694],[31.4338835,37.7547153],[31.4436035,37.7658313],[31.4511106,37.7786023],[31.4569435,37.7980504],[31.4580535,37.8205413],[31.4569435,37.8324964],[31.4519386,37.8505473],[31.4366645,37.8830413],[31.4362325,37.8990607],[31.4277647,37.8907055],[31.4050197,37.8758697],[31.398282,37.8732274],[31.3773822,37.8691283],[31.3552364,37.8611591],[31.3412046,37.8596079],[31.2942123,37.8611326],[31.2574338,37.8570667],[31.2508678,37.8582865],[31.2228321,37.8489575],[31.225111,37.8397347],[31.2339416,37.8302858],[31.2393539,37.8215107],[31.2393539,37.8107092],[31.2365053,37.8039574],[31.2387841,37.7987806],[31.2607181,37.773792],[31.261003,37.767262],[31.2880644,37.7413617],[31.2911978,37.7346036],[31.2914827,37.7280702],[31.2840764,37.7145509],[31.2784248,37.71008],[31.2782425,37.7007047],[31.2817064,37.6950789],[31.2817064,37.6816618],[31.2889987,37.6676651],[31.289181,37.6616039],[31.2929887,37.6550798]]]}}]}