{"type":"FeatureCollection","features":[{"type":"Feature","properties":{"code":"72-01","provinceCode":"72","name":"Batman Merkez"},"geometry":{"type":"Polygon","coordinates":[[[41.0633146,37.7685812],[41.0680572,37.7662135],[41.0730641,37.7672549],[41.0805358,37.7775741],[41.0782802,37.784369],[41.0816354,37.7871603],[41.08578,37.7865964],[41.0897273,37.7844254],[41.0904603,37.778138],[41.0935899,37.7749238],[41.0984394,37.7732886],[41.1109297,37.7726119],[41.1127342,37.7713431],[41.1124241,37.7674523],[41.1033453,37.7634486],[41.0993981,37.7596423],[41.1049524,37.7518606],[41.1088151,37.7534113],[41.1144259,37.759304],[41.1179784,37.7598115],[41.1312155,37.7550713],[41.1396478,37.7588572],[41.1439499,37.7589433],[41.1465313,37.7548132],[41.144122,37.7510273],[41.1453266,37.748618],[41.1488544,37.7474134],[41.151952,37.748532],[41.1593518,37.7578247],[41.1619331,37.7575666],[41.1685584,37.7509412],[41.1703653,37.744488],[41.1694189,37.7387231],[41.1709676,37.7376906],[41.1878322,37.7374325],[41.199362,37.7417346],[41.2022015,37.7415625],[41.2086165,37.7362509],[41.2114413,37.7284355],[41.2148767,37.7290338],[41.2221261,37.739147],[41.2270092,37.7399762],[41.231929,37.7380551],[41.2383042,37.7320088],[41.2375601,37.7269257],[41.2318034,37.7217232],[41.2336773,37.7189833],[41.2385385,37.7187922],[41.2427716,37.722218],[41.2453168,37.7292926],[41.2437189,37.7342266],[41.2447487,37.7396902],[41.2496013,37.7417653],[41.2537076,37.7335446],[41.2561974,37.7324433],[41.2616991,37.7354103],[41.2751443,37.7340887],[41.2798072,37.7353512],[41.2852745,37.7338547],[41.2909265,37.735504],[41.3004619,37.7347503],[41.3027464,37.7336191],[41.2988018,37.7270003],[41.3005945,37.7245775],[41.3047479,37.7262908],[41.3143752,37.7220098],[41.3192536,37.7214858],[41.3240363,37.7234062],[41.3306287,37.7198812],[41.3341239,37.7200438],[41.3401048,37.7251416],[41.3539296,37.7265385],[41.3611495,37.7215079],[41.3639867,37.722367],[41.3811356,37.713713],[41.3900123,37.7134045],[41.3926456,37.7140629],[41.3947404,37.7207187],[41.3958075,37.7423847],[41.4016543,37.7423063],[41.4036928,37.7436497],[41.4087185,37.741769],[41.4150048,37.7440323],[41.2769968,37.8198858],[41.2795538,37.8279331],[41.2840147,37.8333474],[41.2823318,37.8421722],[41.2709262,37.8477116],[41.2572092,37.8505504],[41.2443102,37.8551161],[41.2330664,37.8740742],[41.2194039,37.8701799],[41.2184072,37.8935034],[41.2160692,37.8973001],[41.2172778,37.8992166],[41.2155537,37.9021603],[41.2119396,37.9020857],[41.2120103,37.9042031],[41.2073819,37.9072662],[41.2142456,37.9113088],[41.2175685,37.9179706],[41.2423895,37.928256],[41.2267925,37.9487403],[41.2184562,37.9718506],[41.2198008,37.9811774],[41.240776,38.0021585],[41.2415827,38.0174137],[41.2442719,38.0250402],[41.2431962,38.0341485],[41.2329775,38.0464323],[41.2308262,38.0532087],[41.2348599,38.0597727],[41.2348599,38.0633721],[41.2329775,38.0712054],[41.2286749,38.0775561],[41.2156326,38.0824247],[41.2088225,38.0816432],[41.1964054,38.0687708],[41.1918927,38.0671502],[41.1857084,38.0700014],[41.1823364,38.0691361],[41.1767747,38.0633721],[41.178926,38.0517264],[41.1724299,38.0463839],[41.1733142,38.0356123],[41.1646952,38.0322939],[41.1632279,38.0303579],[41.1647686,38.028393],[41.1623108,38.023625],[41.1639982,38.0203883],[41.1625171,38.0185406],[41.1566963,38.0182116],[41.1528445,38.016008],[41.1468008,38.0020324],[41.1496631,37.9979982],[41.1538075,37.9977981],[41.1550434,37.9913683],[41.1469684,37.9849508],[41.1439193,37.9839381],[41.1374182,37.9858947],[41.1352284,37.9850341],[41.1267794,37.9801773],[41.122595,37.9751325],[41.1004339,37.9761587],[41.085879,37.9809479],[41.0576936,37.9854065],[41.0103272,37.9790043],[41.0103279,37.9673546],[41.0147451,37.9625397],[41.0138424,37.9538933],[41.0315634,37.9433272],[41.0335007,37.9343993],[41.0307326,37.9310299],[41.036377,37.9291843],[41.0449361,37.9294603],[41.0406483,37.916748],[41.029394,37.9046565],[41.0170492,37.8852033],[41.0205468,37.8806894],[41.0300437,37.8767745],[41.0233579,37.869531],[41.0183138,37.8693048],[41.011276,37.8636038],[41.0040988,37.8542356],[41.0055318,37.8490308],[41.0028176,37.8453351],[40.998258,37.8437845],[40.997448,37.8406338],[40.997448,37.8380405],[41.0020353,37.8360399],[41.0023792,37.8317846],[40.9965032,37.8280533],[40.9957322,37.8254011],[40.9986535,37.8219148],[40.9920046,37.8126324],[40.9867313,37.8081945],[40.9864447,37.8058397],[41.0127539,37.7878132],[41.0180458,37.7904902],[41.0203125,37.7971316],[41.0280588,37.7964832],[41.0309219,37.7919844],[41.0302946,37.7888053],[41.0281409,37.7855007],[41.0181004,37.7792715],[41.0179885,37.775858],[41.027959,37.7735444],[41.0382288,37.7818268],[41.0475002,37.7822064],[41.0504034,37.7814332],[41.0518335,37.7731469],[41.0633146,37.7685812]]]}},{"type":"Feature","properties":{"code":"72-02","provinceCode":"72","name":"Beşiri"},"geometry":{"type":"Polygon","coordinates":[[[41.2348599,38.0633721],[41.2348599,38.0597727],[41.2308262,38.0532087],[41.2329775,38.0464323],[41.2431962,38.0341485],[41.2442719,38.0250402],[41.2415827,38.0174137],[41.240776,38.0021585],[41.2198008,37.9811774],[41.2184562,37.9718506],[41.2267925,37.9487403],[41.2423895,37.928256],[41.2175685,37.9179706],[41.2142456,37.9113088],[41.2073819,37.9072662],[41.2120103,37.9042031],[41.2119396,37.9020857],[41.2155537,37.9021603],[41.2172778,37.8992166],[41.2160692,37.8973001],[41.2184072,37.8935034],[41.2194039,37.8701799],[41.2330664,37.8740742],[41.2443102,37.8551161],[41.2572092,37.8505504],[41.2709262,37.8477116],[41.2823318,37.8421722],[41.2840147,37.8333474],[41.2795538,37.8279331],[41.2769968,37.8198858],[41.4150048,37.7440323],[41.4367785,37.740373],[41.4376464,37.7262719],[41.4539054,37.7287443],[41.4647981,37.7329407],[41.4825714,37.7331681],[41.4894997,37.7304494],[41.4947065,37.7327696],[41.4988417,37.730879],[41.5020282,37.7321663],[41.5065898,37.7309749],[41.5122993,37.7335143],[41.5182995,37.7307299],[41.5206313,37.7265871],[41.5237404,37.7254471],[41.5376833,37.7291287],[41.5437903,37.7264511],[41.5464838,37.7283905],[41.5578433,37.7305481],[41.57371,37.7303326],[41.5862356,37.7321511],[41.5974784,37.729922],[41.6057294,37.7337837],[41.6201107,37.7317363],[41.630594,37.7367096],[41.6350941,37.7422954],[41.634823,37.7479899],[41.6265188,37.7566692],[41.6268395,37.7600895],[41.6302396,37.7632886],[41.6488867,37.750933],[41.651273,37.7414463],[41.6566286,37.7416081],[41.6625732,37.7445646],[41.6646905,37.7428431],[41.6729036,37.7464838],[41.6748291,37.7502347],[41.674885,37.7554956],[41.6800692,37.7627692],[41.6776076,37.7710596],[41.6816354,37.7776733],[41.6823812,37.7876076],[41.6850877,37.7923084],[41.6938836,37.800796],[41.6975397,37.8143005],[41.6973465,37.8198835],[41.7028027,37.8309828],[41.692399,37.8423588],[41.6806065,37.8616187],[41.6566605,37.8686369],[41.6562121,37.8773171],[41.644827,37.8803621],[41.6212087,37.8737926],[41.6063433,37.8713011],[41.5900848,37.8806017],[41.5539427,37.8758873],[41.5226179,37.8623029],[41.4884427,37.8750215],[41.4398784,37.8971777],[41.4006466,37.9324044],[41.3692001,37.9475663],[41.3626647,37.9605138],[41.3615168,37.9677614],[41.3634127,37.9732716],[41.3718252,37.9779217],[41.382084,37.9790863],[41.3835943,37.982502],[41.4004388,37.9852536],[41.4037781,37.9897973],[41.4072352,37.9899659],[41.4175595,37.9945967],[41.4185394,37.9969577],[41.4238446,37.9970337],[41.4276958,38.0030939],[41.4354924,38.0032576],[41.4360808,38.0088972],[41.4429921,38.0085754],[41.4454413,38.0103957],[41.439121,38.0141397],[41.4302841,38.0227176],[41.4203913,38.0240265],[41.4169686,38.0297933],[41.4183947,38.050984],[41.4160178,38.0595933],[41.4075561,38.0730668],[41.3993797,38.0816735],[41.3933899,38.0839185],[41.3828366,38.083245],[41.3747552,38.0789793],[41.3708571,38.0708214],[41.3708014,38.0612183],[41.3734233,38.0522722],[41.3697258,38.0490428],[41.3620446,38.0483471],[41.3525371,38.0514916],[41.3222566,38.0555379],[41.3045084,38.0468558],[41.2913316,38.043891],[41.2824575,38.0470676],[41.280926,38.0457097],[41.2649782,38.0553262],[41.2456164,38.058714],[41.2348599,38.0633721]]]}},{"type":"Feature","properties":{"code":"72-03","provinceCode":"72","name":"Gercüş"},"geometry":{"type":"Polygon","coordinates":[[[41.0431902,37.7363747],[41.0548687,37.7226264],[41.055469,37.712926],[41.0791083,37.6525101],[41.0776032,37.6425704],[41.0845399,37.6385547],[41.0854051,37.6348621],[41.0944601,37.6260649],[41.09831,37.6127108],[41.1026848,37.6077944],[41.1054615,37.6086128],[41.1143153,37.5954855],[41.1082262,37.5836622],[41.117367,37.5596059],[41.1283717,37.5413721],[41.1867533,37.4958758],[41.2212331,37.4936438],[41.2471696,37.5098745],[41.3170737,37.5137713],[41.3596923,37.5002389],[41.3655623,37.4998244],[41.3999704,37.4982517],[41.4344667,37.5049665],[41.4914641,37.504236],[41.5199689,37.5127688],[41.5344902,37.5285518],[41.549146,37.5295005],[41.5660357,37.5257054],[41.5686029,37.5264439],[41.5677345,37.533514],[41.5763162,37.5383854],[41.5772367,37.5442073],[41.5839143,37.556468],[41.5980561,37.5564893],[41.5981167,37.5598636],[41.6015511,37.5602559],[41.6007124,37.5638342],[41.5978868,37.5629829],[41.5950963,37.5658268],[41.6003141,37.5649846],[41.5988331,37.5693662],[41.6033899,37.5703859],[41.6097505,37.5746861],[41.6177534,37.5756951],[41.6178263,37.5801181],[41.6215141,37.5819779],[41.6220804,37.5867085],[41.6263281,37.590868],[41.6312641,37.6005315],[41.6415936,37.6037331],[41.6484048,37.6032556],[41.6481163,37.6091187],[41.6510082,37.6196985],[41.6559673,37.6302173],[41.6607077,37.6335331],[41.6671465,37.6329567],[41.6702561,37.6303017],[41.6688455,37.62504],[41.6636835,37.6208368],[41.6830787,37.6205718],[41.685617,37.6163418],[41.6901116,37.6225511],[41.7039843,37.6349484],[41.7116838,37.6482288],[41.7133131,37.6571429],[41.7286096,37.6827811],[41.7042461,37.6748203],[41.6815001,37.6694293],[41.6492025,37.6728938],[41.631596,37.668305],[41.6262582,37.665124],[41.6253284,37.6461308],[41.5989595,37.6283539],[41.582856,37.6320949],[41.5699732,37.637196],[41.5596004,37.6445948],[41.5370114,37.643916],[41.5180723,37.6533371],[41.5042674,37.6716768],[41.4933067,37.6778188],[41.4873555,37.6745887],[41.471559,37.6714647],[41.459458,37.670795],[41.4390658,37.663707],[41.4054281,37.6569806],[41.3660298,37.6554518],[41.3541742,37.661938],[41.3414485,37.6753879],[41.2689457,37.6889719],[41.2463032,37.6976818],[41.2238212,37.7121924],[41.2123036,37.723657],[41.2114413,37.7284355],[41.2086165,37.7362509],[41.2022015,37.7415625],[41.199362,37.7417346],[41.1878322,37.7374325],[41.1709676,37.7376906],[41.1694189,37.7387231],[41.1703653,37.744488],[41.1685584,37.7509412],[41.1619331,37.7575666],[41.1593518,37.7578247],[41.151952,37.748532],[41.1488544,37.7474134],[41.1453266,37.748618],[41.144122,37.7510273],[41.1465313,37.7548132],[41.1439499,37.7589433],[41.1396478,37.7588572],[41.1312155,37.7550713],[41.1179784,37.7598115],[41.1144259,37.759304],[41.1088151,37.7534113],[41.1049524,37.7518606],[41.0993981,37.7596423],[41.1033453,37.7634486],[41.1124241,37.7674523],[41.1127342,37.7713431],[41.1109297,37.7726119],[41.0984394,37.7732886],[41.0935899,37.7749238],[41.0904603,37.778138],[41.0897273,37.7844254],[41.08578,37.7865964],[41.0816354,37.7871603],[41.0782802,37.784369],[41.0805358,37.7775741],[41.0730641,37.7672549],[41.0680572,37.7662135],[41.0633146,37.7685812],[41.0590358,37.7589665],[41.0451669,37.7450313],[41.0431902,37.7363747]]]}},{"type":"Feature","properties":{"code":"72-04","provinceCode":"72","name":"Hasankeyf"},"geometry":{"type":"Polygon","coordinates":[[[41.7768832,37.7282841],[41.7773661,37.7318915],[41.77459,37.7328302],[41.7664898,37.7318773],[41.7596801,37.7293235],[41.7406979,37.7317922],[41.7274376,37.7267912],[41.7195085,37.7266294],[41.7185915,37.7214514],[41.7212346,37.717298],[41.7211267,37.7108792],[41.7156788,37.7079665],[41.7118205,37.709719],[41.7098588,37.7135497],[41.7023787,37.7155508],[41.7004533,37.7237229],[41.695898,37.7280965],[41.6826803,37.7293505],[41.678568,37.7278198],[41.6779437,37.725639],[41.6761309,37.7267349],[41.674094,37.7302474],[41.6756694,37.7351088],[41.6674175,37.7394866],[41.6646905,37.7428431],[41.6625732,37.7445646],[41.6566286,37.7416081],[41.651273,37.7414463],[41.6488867,37.750933],[41.6302396,37.7632886],[41.6268395,37.7600895],[41.6265188,37.7566692],[41.634823,37.7479899],[41.6350941,37.7422954],[41.630594,37.7367096],[41.6201107,37.7317363],[41.6057294,37.7337837],[41.5974784,37.729922],[41.5862356,37.7321511],[41.57371,37.7303326],[41.5578433,37.7305481],[41.5464838,37.7283905],[41.5437903,37.7264511],[41.5376833,37.7291287],[41.5237404,37.7254471],[41.5206313,37.7265871],[41.5182995,37.7307299],[41.5122993,37.7335143],[41.5065898,37.7309749],[41.5020282,37.7321663],[41.4988417,37.730879],[41.4947065,37.7327696],[41.4894997,37.7304494],[41.4825714,37.7331681],[41.4647981,37.7329407],[41.4539054,37.7287443],[41.4376464,37.7262719],[41.4367785,37.740373],[41.4150048,37.7440323],[41.4087185,37.741769],[41.4036928,37.7436497],[41.4016543,37.7423063],[41.3958075,37.7423847],[41.3947404,37.7207187],[41.3926456,37.7140629],[41.3900123,37.7134045],[41.3811356,37.713713],[41.3639867,37.722367],[41.3611495,37.7215079],[41.3539296,37.7265385],[41.3401048,37.7251416],[41.3341239,37.7200438],[41.3306287,37.7198812],[41.3240363,37.7234062],[41.3192536,37.7214858],[41.3143752,37.7220098],[41.3047479,37.7262908],[41.3005945,37.7245775],[41.2988018,37.7270003],[41.3027464,37.7336191],[41.3004619,37.7347503],[41.2909265,37.735504],[41.2852745,37.7338547],[41.2798072,37.7353512],[41.2751443,37.7340887],[41.2616991,37.7354103],[41.2561974,37.7324433],[41.2537076,37.7335446],[41.2496013,37.7417653],[41.2447487,37.7396902],[41.2437189,37.7342266],[41.2453168,37.7292926],[41.2427716,37.722218],[41.2385385,37.7187922],[41.2336773,37.7189833],[41.2318034,37.7217232],[41.2375601,37.7269257],[41.2383042,37.7320088],[41.231929,37.7380551],[41.2270092,37.7399762],[41.2221261,37.739147],[41.2148767,37.7290338],[41.2114413,37.7284355],[41.2123036,37.723657],[41.2238212,37.7121924],[41.2463032,37.6976818],[41.2689457,37.6889719],[41.3414485,37.6753879],[41.3541742,37.661938],[41.3660298,37.6554518],[41.4054281,37.6569806],[41.4390658,37.663707],[41.459458,37.670795],[41.471559,37.6714647],[41.4873555,37.6745887],[41.4933067,37.6778188],[41.5042674,37.6716768],[41.5180723,37.6533371],[41.5370114,37.643916],[41.5596004,37.6445948],[41.5699732,37.637196],[41.582856,37.6320949],[41.5989595,37.6283539],[41.6253284,37.6461308],[41.6262582,37.665124],[41.631596,37.668305],[41.6492025,37.6728938],[41.6815001,37.6694293],[41.7042461,37.6748203],[41.7286096,37.6827811],[41.7482236,37.6737634],[41.7721926,37.6680122],[41.8083653,37.6717629],[41.8124738,37.695317],[41.8131431,37.699638],[41.8197485,37.7030197],[41.8214485,37.7061707],[41.8202283,37.7127122],[41.8173825,37.7145802],[41.8100927,37.7146081],[41.7926031,37.7116934],[41.7747929,37.7155012],[41.7731363,37.7180474],[41.7768832,37.7282841]]]}},{"type":"Feature","properties":{"code":"72-05","provinceCode":"72","name":"Kozluk"},"geometry":{"type":"Polygon","coordinates":[[[41.6606902,38.267337],[41.6443248,38.2867935],[41.6383016,38.2973451],[41.6420145,38.3168087],[41.6445909,38.3213756],[41.6413327,38.3296747],[41.5889962,38.3542313],[41.5519538,38.3498219],[41.535791,38.3453481],[41.4998526,38.3428128],[41.4846406,38.3399791],[41.4764642,38.3346098],[41.4743725,38.3271517],[41.4646749,38.3164107],[41.4641537,38.3107844],[41.4573738,38.3026696],[41.4425386,38.3043897],[41.3986928,38.2798496],[41.372452,38.2623832],[41.3456409,38.2492434],[41.3294781,38.2498407],[41.3076108,38.2568588],[41.2903072,38.2601437],[41.2599586,38.261664],[41.2422337,38.265739],[41.2281484,38.2714522],[41.1944918,38.2732436],[41.1836533,38.275856],[41.1783278,38.2656352],[41.175092,38.2440861],[41.1902015,38.2403934],[41.2023409,38.2327893],[41.2072123,38.2118729],[41.218594,38.2077252],[41.220514,38.2025174],[41.2261444,38.1967454],[41.2194365,38.1891553],[41.2216565,38.1663813],[41.2142616,38.150222],[41.2159962,38.1463639],[41.2180405,38.1241603],[41.2065162,38.0902993],[41.2058954,38.0855574],[41.2088225,38.0816432],[41.2156326,38.0824247],[41.2286749,38.0775561],[41.2329775,38.0712054],[41.2348599,38.0633721],[41.2456164,38.058714],[41.2649782,38.0553262],[41.280926,38.0457097],[41.2824575,38.0470676],[41.2913316,38.043891],[41.3045084,38.0468558],[41.3222566,38.0555379],[41.3525371,38.0514916],[41.3620446,38.0483471],[41.3697258,38.0490428],[41.3734233,38.0522722],[41.3708014,38.0612183],[41.3708571,38.0708214],[41.3747552,38.0789793],[41.3828366,38.083245],[41.3933899,38.0839185],[41.3993797,38.0816735],[41.4075561,38.0730668],[41.4160178,38.0595933],[41.4183947,38.050984],[41.4169686,38.0297933],[41.4203913,38.0240265],[41.4302841,38.0227176],[41.439121,38.0141397],[41.4454413,38.0103957],[41.4469306,38.0126794],[41.4456135,38.0162719],[41.4569956,38.0163363],[41.4611834,38.0189999],[41.4658947,38.0282805],[41.476102,38.0286095],[41.4769845,38.0315435],[41.4754793,38.0345836],[41.4777048,38.0373383],[41.4816556,38.0396734],[41.4949645,38.0400518],[41.5067488,38.0257526],[41.5106513,38.0179558],[41.5222216,38.0098202],[41.5319257,38.0142312],[41.5370266,38.0202101],[41.5405101,38.0497053],[41.5468551,38.0610691],[41.5739768,38.0788949],[41.5923897,38.0797763],[41.6096829,38.0838893],[41.610927,38.0970101],[41.6074435,38.1108138],[41.6170232,38.1231468],[41.6308329,38.1323463],[41.6407858,38.1451649],[41.643274,38.1576877],[41.6436473,38.1872253],[41.6288423,38.2150892],[41.6309573,38.2273069],[41.6412834,38.2397179],[41.6473018,38.2535561],[41.6606902,38.267337]]]}},{"type":"Feature","properties":{"code":"72-06","provinceCode":"72","name":"Sason"},"geometry":{"type":"Polygon","coordinates":[[[41.4936623,38.5509485],[41.4806464,38.5402838],[41.4792002,38.5241222],[41.4750681,38.5223442],[41.4637437,38.5083208],[41.4471191,38.5038374],[41.4155054,38.488567],[41.399974,38.4928108],[41.3850708,38.4923803],[41.3761688,38.4886224],[41.3703176,38.4836117],[41.3665813,38.4832901],[41.3634026,38.4772737],[41.3591275,38.4762392],[41.3544926,38.4669637],[41.3558045,38.4615614],[41.351383,38.4606103],[41.3504112,38.4589362],[41.3459897,38.4594309],[41.3379375,38.4653756],[41.3337388,38.4658629],[41.3211663,38.4616272],[41.3194491,38.4556213],[41.3154233,38.452027],[41.308292,38.4509015],[41.3025294,38.453106],[41.2969833,38.4487942],[41.2927426,38.4492796],[41.2931593,38.4458665],[41.2895754,38.4446728],[41.2911112,38.4430166],[41.2903171,38.4409014],[41.2872695,38.4411129],[41.2860769,38.4435911],[41.2809094,38.4436824],[41.2816576,38.4409764],[41.2771767,38.437208],[41.2783392,38.4349421],[41.2820086,38.4341635],[41.2812496,38.4329414],[41.2737531,38.432159],[41.2727303,38.4346014],[41.270737,38.434449],[41.2710126,38.4305936],[41.266595,38.4282072],[41.2665601,38.4219471],[41.2649507,38.4211936],[41.2639093,38.4161493],[41.2570408,38.4171707],[41.2554785,38.4154524],[41.2504438,38.4157503],[41.2494843,38.4130878],[41.2400502,38.4101379],[41.2378568,38.3981841],[41.2352884,38.3983835],[41.2312484,38.390413],[41.2354231,38.3791332],[41.2402292,38.3735144],[41.239573,38.3715014],[41.2375659,38.3706997],[41.2323447,38.3721232],[41.2305187,38.3710984],[41.2315005,38.3671259],[41.217206,38.362232],[41.2152467,38.3497824],[41.2078265,38.340409],[41.1971291,38.3193269],[41.1934865,38.316423],[41.1858058,38.3155318],[41.1833214,38.3129827],[41.1756204,38.3150036],[41.174817,38.3141823],[41.178257,38.3115206],[41.1774448,38.3084465],[41.1815536,38.3033851],[41.1818256,38.2959397],[41.1838469,38.2951737],[41.1872391,38.2891364],[41.1834536,38.2842326],[41.1836533,38.275856],[41.1944918,38.2732436],[41.2281484,38.2714522],[41.2422337,38.265739],[41.2599586,38.261664],[41.2903072,38.2601437],[41.3076108,38.2568588],[41.3294781,38.2498407],[41.3456409,38.2492434],[41.372452,38.2623832],[41.3986928,38.2798496],[41.4425386,38.3043897],[41.4573738,38.3026696],[41.4641537,38.3107844],[41.4646749,38.3164107],[41.4743725,38.3271517],[41.4764642,38.3346098],[41.4846406,38.3399791],[41.4998526,38.3428128],[41.535791,38.3453481],[41.5519538,38.3498219],[41.5889962,38.3542313],[41.5935129,38.3722078],[41.6113964,38.4111666],[41.6134659,38.427334],[41.6096394,38.4414218],[41.6262848,38.4552071],[41.6421006,38.455211],[41.639295,38.4727347],[41.6670847,38.4823566],[41.6666685,38.4912953],[41.6640948,38.4959601],[41.6461534,38.5028047],[41.6047099,38.5067406],[41.586657,38.5103376],[41.5631416,38.5243489],[41.5365039,38.5216031],[41.4936623,38.5509485]]]}}]}