{"type":"FeatureCollection","features":[{"type":"Feature","properties":{"code":"23-01","provinceCode":"23","name":"Ağın"},"geometry":{"type":"Polygon","coordinates":[[[38.6698,39.0523],[38.6484,39.0395],[38.6496,39.0355],[38.654,39.0349],[38.6485,39.0276],[38.6528,39.0231],[38.6504,39.0212],[38.6525,39.0183],[38.6453,39.0151],[38.6348,39.0152],[38.6272,39.0116],[38.6256,39.0082],[38.6131,39.0043],[38.6068,38.9994],[38.6242,38.9917],[38.5972,38.9862],[38.5927,38.9812],[38.591,38.9829],[38.5907,38.9813],[38.5893,38.9816],[38.5895,38.97],[38.5998345,38.9582521],[38.5991677,38.9471191],[38.569996,38.9226964],[38.5720055,38.9117967],[38.5918338,38.9006533],[38.6071987,38.8847888],[38.6184206,38.8622125],[38.6283186,38.8517265],[38.6340414,38.8421366],[38.6592931,38.8538678],[38.6608607,38.8681131],[38.6782243,38.8726194],[38.690199,38.8662534],[38.6947782,38.8749631],[38.6992128,38.8778979],[38.704866,38.8968919],[38.7229868,38.9016723],[38.7328146,38.8995836],[38.7414,38.8864],[38.7484,38.9004],[38.7483,38.9036],[38.7534,38.9096],[38.7502,38.9171],[38.7527,38.9251],[38.7514,38.9288],[38.7568,38.934],[38.7644,38.9366],[38.7665,38.9356],[38.7757,38.9475],[38.7862,38.9523],[38.7924,38.9577],[38.7919,38.9618],[38.7821,38.9657],[38.7797,38.969],[38.7811,38.9717],[38.7895,38.973],[38.7917,38.9773],[38.7889,38.9969],[38.7853,39.0008],[38.7786,39.002],[38.7756,38.9998],[38.7704,38.9997],[38.7668,39.0042],[38.7656,39.0124],[38.7598,39.0133],[38.7568,39.0164],[38.7443,39.0145],[38.7405,39.0114],[38.7347,39.0121],[38.7318,39.0092],[38.7299,39.0106],[38.7275,39.0097],[38.7271,39.0125],[38.7158,39.0149],[38.7084,39.0133],[38.7011,39.0209],[38.6963,39.0229],[38.6957,39.0261],[38.689,39.0288],[38.6853,39.0363],[38.6823,39.0372],[38.6762,39.0441],[38.6763,39.0476],[38.6722,39.0492],[38.6698,39.0523]]]}},{"type":"Feature","properties":{"code":"23-02","provinceCode":"23","name":"Arıcak"},"geometry":{"type":"Polygon","coordinates":[[[40.0938871,38.637667],[40.0233013,38.5924169],[39.9908263,38.587158],[39.9757862,38.5868739],[39.9906817,38.5796603],[39.9949232,38.5648301],[39.9938176,38.5568858],[40.012019,38.5445518],[39.9956416,38.522839],[39.9822322,38.5181826],[39.9823363,38.5079386],[39.9852688,38.5042267],[39.9834584,38.5028441],[39.9802913,38.4744267],[39.9978047,38.4660178],[40.0177614,38.4609126],[40.052164,38.462742],[40.0809575,38.4666184],[40.1188034,38.4620392],[40.1352854,38.455757],[40.1624299,38.4598646],[40.1837798,38.45537],[40.1832397,38.4590772],[40.1854275,38.4623066],[40.1952505,38.4630859],[40.2051906,38.4663823],[40.2096952,38.4654082],[40.2143997,38.4612339],[40.2183438,38.4615783],[40.2217235,38.464507],[40.2255234,38.4646586],[40.2323433,38.4609289],[40.2444801,38.4611447],[40.2606368,38.4614365],[40.2658035,38.4633151],[40.2673872,38.4674543],[40.274613,38.4684159],[40.2892833,38.4737336],[40.2935596,38.4767007],[40.2909663,38.4834919],[40.2634045,38.4950746],[40.2532322,38.5222005],[40.2452925,38.5376763],[40.2328252,38.5516435],[40.2107378,38.5654542],[40.1658186,38.5790686],[40.1106011,38.6167865],[40.0938871,38.637667]]]}},{"type":"Feature","properties":{"code":"23-03","provinceCode":"23","name":"Baskil"},"geometry":{"type":"Polygon","coordinates":[[[38.867576,38.3935788],[38.8914829,38.4018927],[38.9065664,38.4029863],[38.9282308,38.4118333],[38.9489798,38.4144632],[38.9692274,38.4215071],[38.9765023,38.434897],[38.9639313,38.4441034],[38.9444028,38.447688],[38.9358591,38.4634585],[38.9297565,38.4844804],[38.9294513,38.5050187],[38.9254846,38.5155243],[38.9321975,38.5291317],[38.9321975,38.5382018],[38.9105331,38.5432138],[38.894056,38.5453616],[38.8882584,38.5489413],[38.8946662,38.5582475],[38.880325,38.5813886],[38.8842917,38.5875901],[38.9041253,38.5940295],[38.9103248,38.6034637],[38.9208798,38.6081451],[38.9301985,38.6029435],[38.9343335,38.5940295],[38.9508106,38.5954604],[38.9532517,38.6038068],[38.9474542,38.6102448],[38.9367745,38.6133444],[38.9297565,38.6185895],[38.9279257,38.6238342],[38.9321975,38.6288402],[38.9511158,38.6328924],[38.9535568,38.6383744],[38.9489798,38.6421878],[38.9346386,38.6402811],[38.9230436,38.6424261],[38.9013791,38.6390894],[38.8882584,38.6398044],[38.8817713,38.6443571],[38.8580313,38.6489292],[38.8011074,38.6478711],[38.7868915,38.661493],[38.7751484,38.6632522],[38.7672315,38.670062],[38.7482825,38.671769],[38.7109051,38.6643716],[38.7144526,38.6499741],[38.7093748,38.6451156],[38.6891431,38.6492837],[38.6628459,38.6654045],[38.6507333,38.6803968],[38.630644,38.6852398],[38.6232582,38.6884683],[38.5854431,38.718901],[38.5450912,38.7151814],[38.5380267,38.7251412],[38.5257332,38.7371486],[38.5254576,38.7401576],[38.5182124,38.7437132],[38.5173514,38.7488977],[38.5144592,38.751417],[38.5090507,38.7479844],[38.5019412,38.7463339],[38.4838309,38.7541656],[38.477737,38.7536971],[38.4670081,38.7460661],[38.4732184,38.7319838],[38.4761046,38.7289955],[38.4749906,38.7159415],[38.4713746,38.7034444],[38.4672085,38.6970594],[38.42537,38.6887179],[38.4124954,38.6842961],[38.4038845,38.6712253],[38.3783185,38.6495503],[38.3658035,38.6324196],[38.3597954,38.6187405],[38.3568772,38.5960703],[38.3573921,38.5517824],[38.3618553,38.5418475],[38.384858,38.5253309],[38.4091129,38.5167587],[38.4243044,38.5082621],[38.4685975,38.474829],[38.4847106,38.4720519],[38.5058286,38.4642699],[38.5324935,38.4687179],[38.5447156,38.4637129],[38.5661085,38.4609359],[38.5730435,38.4567779],[38.5797194,38.4487139],[38.5866545,38.4445478],[38.5966566,38.4439909],[38.6094436,38.4467759],[38.6147156,38.4456619],[38.6291656,38.4381697],[38.6521569,38.4295087],[38.6733246,38.4234458],[38.7141646,38.4151137],[38.7280425,38.4167768],[38.7358245,38.4195547],[38.7488785,38.4273367],[38.7569425,38.4298308],[38.7930337,38.4352519],[38.813149,38.4435089],[38.8302175,38.435251],[38.8337801,38.4319105],[38.8318099,38.4166295],[38.8344346,38.4097645],[38.8568233,38.4000437],[38.867576,38.3935788]]]}},{"type":"Feature","properties":{"code":"23-04","provinceCode":"23","name":"Elazığ merkez"},"geometry":{"type":"Polygon","coordinates":[[[38.9156614,38.8938643],[38.9176592,38.8528624],[38.8795263,38.8120381],[38.8795263,38.7987549],[38.888049,38.7828117],[38.9063459,38.7682993],[38.910979,38.7572781],[38.9075772,38.7348448],[38.9008304,38.7084799],[38.9006151,38.7008346],[38.9129332,38.6877087],[38.9153219,38.6810903],[38.9114867,38.6707771],[38.8882584,38.6398044],[38.9013791,38.6390894],[38.9230436,38.6424261],[38.9346386,38.6402811],[38.9489798,38.6421878],[38.9535568,38.6383744],[38.9511158,38.6328924],[38.9321975,38.6288402],[38.9279257,38.6238342],[38.9297565,38.6185895],[38.9367745,38.6133444],[38.9474542,38.6102448],[38.9532517,38.6038068],[38.9508106,38.5954604],[38.9343335,38.5940295],[38.9301985,38.6029435],[38.9208798,38.6081451],[38.9103248,38.6034637],[38.9041253,38.5940295],[38.8842917,38.5875901],[38.880325,38.5813886],[38.8946662,38.5582475],[38.8882584,38.5489413],[38.894056,38.5453616],[38.9105331,38.5432138],[38.9321975,38.5382018],[38.9321975,38.5291317],[38.9254846,38.5155243],[38.9294513,38.5050187],[38.9297565,38.4844804],[38.9358591,38.4634585],[38.9444028,38.447688],[38.9639313,38.4441034],[38.9765023,38.434897],[39.0282125,38.445187],[39.0483072,38.4526897],[39.0771639,38.4732164],[39.0838233,38.4881797],[39.0978428,38.5050039],[39.1228443,38.5048211],[39.1435951,38.4928415],[39.1626705,38.4875959],[39.1863268,38.4908555],[39.2139712,38.5009811],[39.2328976,38.5018954],[39.2838352,38.5157913],[39.3004249,38.5154257],[39.3156127,38.5117691],[39.3244918,38.5048211],[39.3449415,38.4808112],[39.3992626,38.475407],[39.4858067,38.5180382],[39.4889876,38.5375564],[39.5048116,38.5459501],[39.5219681,38.5576427],[39.5522219,38.563175],[39.5756922,38.57209],[39.5773373,38.5778759],[39.588752,38.5885734],[39.6110059,38.5992087],[39.6403272,38.5905793],[39.6753729,38.5778671],[39.6992679,38.5451967],[39.7221053,38.5264821],[39.7665509,38.5145289],[39.7478197,38.5317479],[39.7426686,38.5442016],[39.7454783,38.5665397],[39.7445417,38.5775231],[39.7398589,38.5815499],[39.7169132,38.5833802],[39.7019282,38.593263],[39.6977137,38.6013147],[39.7080159,38.6174153],[39.7080159,38.6247325],[39.7107476,38.632903],[39.7199389,38.640416],[39.7072119,38.6511792],[39.6919077,38.6693493],[39.6793415,38.6664305],[39.6698372,38.6615381],[39.6541092,38.6572373],[39.6313658,38.6559279],[39.5776722,38.6486943],[39.5451087,38.656719],[39.5064666,38.6705058],[39.483238,38.6937227],[39.4809947,38.7092529],[39.4781725,38.7150688],[39.4796922,38.7248926],[39.473686,38.7283363],[39.4716598,38.7335297],[39.4767253,38.743351],[39.4753512,38.7649524],[39.4481694,38.7709183],[39.4367549,38.7861188],[39.4287111,38.7869357],[39.4036026,38.7720555],[39.3936006,38.7731696],[39.3852766,38.7901145],[39.3708266,38.8045496],[39.3469315,38.8120567],[39.3108215,38.8181687],[39.2645532,38.8438334],[39.2608185,38.8584358],[39.2486036,38.8603898],[39.2363815,38.8584358],[39.2052685,38.8567727],[39.1416625,38.8709408],[39.1252823,38.8762928],[39.1080476,38.8726038],[39.0808256,38.8870539],[39.0702665,38.8895488],[39.0413816,38.8828808],[39.0297085,38.8834458],[39.0041655,38.8904953],[38.9419325,38.8951028],[38.9156614,38.8938643]]]}},{"type":"Feature","properties":{"code":"23-05","provinceCode":"23","name":"Karakoçan"},"geometry":{"type":"Polygon","coordinates":[[[40.302096,39.131539],[40.3010279,39.1489636],[40.283282,39.1659539],[40.2733081,39.1809891],[40.2660681,39.1831596],[40.2438824,39.1830756],[40.2328397,39.1884093],[40.231339,39.1914034],[40.223373,39.1912361],[40.2195085,39.1856886],[40.1934132,39.1737715],[40.1622652,39.169727],[40.15504,39.1637135],[40.1453693,39.16646],[40.1408439,39.1615815],[40.1242796,39.1601703],[40.1138976,39.1519278],[40.102323,39.1516901],[40.1001169,39.1449416],[40.0927815,39.1393644],[40.0858676,39.1283435],[40.0753175,39.1275132],[40.0651547,39.1301791],[40.0635239,39.127238],[40.0656541,39.1221114],[40.0544705,39.1252009],[40.058925,39.118221],[40.0541279,39.1163139],[40.0496011,39.1169772],[40.0475901,39.1139986],[40.0431897,39.1139918],[40.0410248,39.1072452],[40.0299934,39.1013673],[40.0275553,39.0966626],[40.024162,39.0953127],[40.0211504,39.0971366],[40.0200831,39.1019348],[40.0083086,39.093118],[40.0031591,39.0942423],[39.9978309,39.0915231],[39.98725,39.0942335],[39.9862847,39.0970568],[39.9840638,39.0975418],[39.9808692,39.0963816],[39.9764936,39.090204],[39.9741279,39.0906729],[39.9683949,39.0959972],[39.9660403,39.0951889],[39.9681283,39.0929515],[39.9663927,39.0916688],[39.9513549,39.0891951],[39.9455657,39.0914922],[39.9452639,39.0981655],[39.936345,39.0981144],[39.9345527,39.1009972],[39.9316356,39.1035427],[39.9264325,39.0994643],[39.9092977,39.0971918],[39.9062857,39.0921248],[39.9071246,39.087943],[39.90509,39.0851997],[39.8974043,39.0865308],[39.8946151,39.0856418],[39.8930611,39.0755711],[39.8898785,39.070913],[39.8801923,39.0657567],[39.8779919,39.0607292],[39.8686736,39.0590276],[39.8676805,39.0563068],[39.8631273,39.0536877],[39.8627713,39.0499044],[39.8652206,39.0441793],[39.874207,39.0426761],[39.8790527,39.037357],[39.8785004,39.030868],[39.8902977,39.0209871],[39.8943846,39.021343],[39.8976032,39.0184491],[39.901985,39.0086075],[39.9015582,39.003111],[39.8970183,38.9989441],[39.8909214,38.998792],[39.8882356,38.9966788],[39.8907599,38.9882319],[39.8844911,38.9842413],[39.8827047,38.9808288],[39.8874032,38.9757104],[39.8875106,38.97348],[39.8829805,38.9701501],[39.8803392,38.9640386],[39.8758909,38.9600416],[39.8769742,38.9555112],[39.8721629,38.9507757],[39.8767651,38.9451037],[39.8677662,38.9394116],[39.8675146,38.9319685],[39.8702269,38.9315377],[39.8734787,38.9258454],[39.8739855,38.9155685],[39.8691652,38.908598],[39.8609009,38.904522],[39.8595322,38.9018201],[39.8531217,38.900242],[39.8490087,38.8970611],[39.8445477,38.8978237],[39.8420553,38.8968203],[39.8508905,38.8909271],[39.8486956,38.8820353],[39.8416823,38.8780861],[39.8280204,38.8792598],[39.8234865,38.8717448],[39.8190694,38.8695159],[39.8180994,38.8588799],[39.8120398,38.8576475],[39.814515,38.8535396],[39.82867,38.8543865],[39.8714832,38.8435894],[39.9563221,38.8119237],[39.9840995,38.8119237],[39.9967843,38.8181456],[40.0069328,38.8189846],[40.0289332,38.8167628],[40.0357653,38.8231779],[40.0328238,38.8368098],[40.044291,38.8466983],[40.0488236,38.8560877],[40.0792648,38.8627651],[40.0990776,38.8613],[40.1227084,38.8707719],[40.1524097,38.8676935],[40.1592354,38.8737517],[40.1757307,38.8760084],[40.2010085,38.8843258],[40.2150791,38.8855476],[40.2409535,38.8811842],[40.2329527,38.8877262],[40.2240265,38.892474],[40.2152277,38.9049158],[40.2145195,38.9357135],[40.2102342,38.9433729],[40.1830321,38.962726],[40.1801646,38.973329],[40.1861232,38.9836909],[40.2192184,39.0173952],[40.2132922,39.0346508],[40.2282239,39.0501885],[40.241779,39.0703558],[40.2410418,39.0872858],[40.2561004,39.1077419],[40.2757091,39.1223024],[40.2884577,39.123727],[40.302096,39.131539]]]}},{"type":"Feature","properties":{"code":"23-06","provinceCode":"23","name":"Keban"},"geometry":{"type":"Polygon","coordinates":[[[38.9156614,38.8938643],[38.8566666,38.8787147],[38.8360975,38.8756708],[38.8127745,38.8748238],[38.7414,38.8864],[38.7328146,38.8995836],[38.7229868,38.9016723],[38.704866,38.8968919],[38.6992128,38.8778979],[38.6947782,38.8749631],[38.690199,38.8662534],[38.6782243,38.8726194],[38.6608607,38.8681131],[38.6592931,38.8538678],[38.6340414,38.8421366],[38.6324668,38.8347925],[38.6356934,38.8286431],[38.6474195,38.8202114],[38.653593,38.7960623],[38.6389372,38.7827263],[38.6289706,38.7791277],[38.627254,38.77431],[38.6334338,38.768555],[38.6452785,38.7612603],[38.6454501,38.7564414],[38.6352363,38.7483421],[38.6248406,38.7442356],[38.603855,38.7544102],[38.587118,38.7513647],[38.5684927,38.753607],[38.5421856,38.7641819],[38.5332163,38.7651188],[38.5245474,38.7636465],[38.5144592,38.751417],[38.5173514,38.7488977],[38.5182124,38.7437132],[38.5254576,38.7401576],[38.5257332,38.7371486],[38.5380267,38.7251412],[38.5450912,38.7151814],[38.5854431,38.718901],[38.6232582,38.6884683],[38.630644,38.6852398],[38.6507333,38.6803968],[38.6628459,38.6654045],[38.6891431,38.6492837],[38.7093748,38.6451156],[38.7144526,38.6499741],[38.7109051,38.6643716],[38.7482825,38.671769],[38.7672315,38.670062],[38.7751484,38.6632522],[38.7868915,38.661493],[38.8011074,38.6478711],[38.8580313,38.6489292],[38.8817713,38.6443571],[38.8882584,38.6398044],[38.9114867,38.6707771],[38.9153219,38.6810903],[38.9129332,38.6877087],[38.9006151,38.7008346],[38.9008304,38.7084799],[38.9075772,38.7348448],[38.910979,38.7572781],[38.9063459,38.7682993],[38.888049,38.7828117],[38.8795263,38.7987549],[38.8795263,38.8120381],[38.9176592,38.8528624],[38.9156614,38.8938643]]]}},{"type":"Feature","properties":{"code":"23-07","provinceCode":"23","name":"Kovancılar"},"geometry":{"type":"Polygon","coordinates":[[[39.7199389,38.640416],[39.7262123,38.6380843],[39.7326363,38.6378855],[39.7803183,38.6404465],[39.8299402,38.6519523],[39.8415588,38.6650534],[39.8460211,38.666087],[39.8497056,38.6691023],[39.8496241,38.6744839],[39.8530391,38.6841581],[39.8559555,38.6852952],[39.8550784,38.6924125],[39.859887,38.6969577],[39.8892411,38.7031168],[39.9526923,38.7084532],[39.9840423,38.7234124],[40.0152066,38.7247155],[40.0513359,38.7377126],[40.0496004,38.7436911],[40.0527339,38.7466238],[40.0583741,38.7459094],[40.0634358,38.7415479],[40.0726127,38.7443294],[40.090548,38.7571589],[40.0988359,38.7746613],[40.1318688,38.8056372],[40.142712,38.8106075],[40.1602525,38.8123471],[40.1793875,38.8058857],[40.2020306,38.8071283],[40.21989,38.8168199],[40.2358359,38.836696],[40.23169,38.8463836],[40.2359442,38.8593497],[40.2462628,38.8628572],[40.2639413,38.8650894],[40.255614,38.8803408],[40.249812,38.8823461],[40.2409535,38.8811842],[40.2150791,38.8855476],[40.2010085,38.8843258],[40.1757307,38.8760084],[40.1592354,38.8737517],[40.1524097,38.8676935],[40.1227084,38.8707719],[40.0990776,38.8613],[40.0792648,38.8627651],[40.0488236,38.8560877],[40.044291,38.8466983],[40.0328238,38.8368098],[40.0357653,38.8231779],[40.0289332,38.8167628],[40.0069328,38.8189846],[39.9967843,38.8181456],[39.9840995,38.8119237],[39.9563221,38.8119237],[39.8714832,38.8435894],[39.82867,38.8543865],[39.814515,38.8535396],[39.8120398,38.8576475],[39.7979031,38.8482293],[39.7996714,38.8355601],[39.7983838,38.8210601],[39.7758285,38.8274129],[39.7524302,38.8270477],[39.7381309,38.8331321],[39.7181147,38.8339561],[39.6939103,38.8200204],[39.6915502,38.8096137],[39.6944907,38.8067837],[39.7018713,38.8037387],[39.7036561,38.8003177],[39.698398,38.801408],[39.6849483,38.7993203],[39.6802677,38.8018399],[39.6653572,38.8036825],[39.6584704,38.8080244],[39.6531602,38.8140289],[39.6457158,38.8176149],[39.6360662,38.815707],[39.6119745,38.8174212],[39.5968486,38.8115281],[39.5833767,38.8251436],[39.5779978,38.8233652],[39.5733962,38.8193677],[39.5476143,38.808626],[39.5435109,38.8095536],[39.5361271,38.8165083],[39.5311776,38.8175198],[39.519899,38.8061392],[39.5233152,38.7990723],[39.518886,38.7943707],[39.5096435,38.7912127],[39.5066731,38.7876103],[39.5119457,38.7738538],[39.5086205,38.7686337],[39.4949875,38.7673255],[39.4837427,38.7631676],[39.4753512,38.7649524],[39.4767253,38.743351],[39.4716598,38.7335297],[39.473686,38.7283363],[39.4796922,38.7248926],[39.4781725,38.7150688],[39.4809947,38.7092529],[39.483238,38.6937227],[39.5064666,38.6705058],[39.5451087,38.656719],[39.5776722,38.6486943],[39.6313658,38.6559279],[39.6541092,38.6572373],[39.6698372,38.6615381],[39.6793415,38.6664305],[39.6919077,38.6693493],[39.7072119,38.6511792],[39.7199389,38.640416]]]}},{"type":"Feature","properties":{"code":"23-08","provinceCode":"23","name":"Maden"},"geometry":{"type":"Polygon","coordinates":[[[39.3992626,38.475407],[39.4104782,38.4647656],[39.4032348,38.4576301],[39.4119393,38.4499943],[39.4270113,38.4451992],[39.4338923,38.4372571],[39.4464878,38.4285868],[39.4443464,38.4231428],[39.4305355,38.4152604],[39.4254725,38.401782],[39.4159448,38.3955049],[39.4074344,38.3949652],[39.3996645,38.3900799],[39.394603,38.3820372],[39.3856773,38.3738681],[39.3806616,38.3608519],[39.3762097,38.3548855],[39.3433451,38.3427481],[39.3492814,38.333568],[39.3575095,38.3275399],[39.4151527,38.3311069],[39.4684006,38.3129],[39.5135485,38.2743781],[39.5388504,38.2537606],[39.5366695,38.2502846],[39.5394564,38.2399853],[39.5460792,38.2428575],[39.5519211,38.2432225],[39.5512333,38.2501732],[39.5613051,38.2511758],[39.5806523,38.2734842],[39.5793227,38.2808539],[39.5848654,38.2916736],[39.598447,38.2961593],[39.6071759,38.3053127],[39.6197977,38.3051373],[39.6351663,38.3106207],[39.6405459,38.310159],[39.6454772,38.3143288],[39.6548761,38.3177562],[39.6594121,38.3179036],[39.6588187,38.3222815],[39.6658955,38.3264699],[39.6656657,38.3318136],[39.6677159,38.3355729],[39.6702683,38.337747],[39.6735203,38.3381189],[39.6811987,38.3443947],[39.6821641,38.3494291],[39.6861444,38.3506644],[39.6870082,38.3467991],[39.6923453,38.3471132],[39.6952348,38.3427815],[39.6973668,38.3422801],[39.6991792,38.3448315],[39.7013873,38.3435539],[39.6988522,38.3406024],[39.7048533,38.3400587],[39.7070181,38.3446797],[39.7124389,38.346878],[39.7286043,38.3478559],[39.7339835,38.35392],[39.7416852,38.3543027],[39.7444386,38.3525143],[39.7467615,38.3549761],[39.7530252,38.3526675],[39.7535889,38.3550989],[39.7510521,38.3587581],[39.754873,38.359151],[39.7600092,38.3556146],[39.7610114,38.3636941],[39.7645191,38.3635713],[39.7698119,38.3605017],[39.7736954,38.3621471],[39.7694674,38.3656341],[39.7745723,38.3680896],[39.7777042,38.3750383],[39.7832489,38.3724459],[39.8045109,38.3819471],[39.8082181,38.3818221],[39.8088134,38.3863822],[39.7954186,38.3975533],[39.7854398,38.4146403],[39.7756211,38.4231414],[39.7433461,38.4346016],[39.7404434,38.446635],[39.7206326,38.4599899],[39.7259937,38.4747806],[39.721207,38.4823688],[39.7165917,38.4995061],[39.7411489,38.5084572],[39.7747748,38.5105775],[39.7665509,38.5145289],[39.7221053,38.5264821],[39.6992679,38.5451967],[39.6753729,38.5778671],[39.6403272,38.5905793],[39.6110059,38.5992087],[39.588752,38.5885734],[39.5773373,38.5778759],[39.5756922,38.57209],[39.5522219,38.563175],[39.5219681,38.5576427],[39.5048116,38.5459501],[39.4889876,38.5375564],[39.4858067,38.5180382],[39.3992626,38.475407]]]}},{"type":"Feature","properties":{"code":"23-09","provinceCode":"23","name":"Palu"},"geometry":{"type":"Polygon","coordinates":[[[39.7665509,38.5145289],[39.7747748,38.5105775],[39.8335149,38.5143263],[39.8444704,38.5194162],[39.8562674,38.5282874],[39.8568661,38.5326964],[39.872896,38.5382499],[39.8692915,38.5472337],[39.8687125,38.5570781],[39.8780383,38.5635822],[39.8884367,38.5660704],[39.895628,38.5621918],[39.9047649,38.569279],[39.9200236,38.5749315],[39.9395542,38.578086],[39.9473749,38.5833987],[39.9757862,38.5868739],[39.9908263,38.587158],[40.0233013,38.5924169],[40.0938871,38.637667],[40.0915332,38.6506245],[40.1041187,38.6585508],[40.1687479,38.6753263],[40.1779979,38.6880354],[40.2097673,38.7042613],[40.2199064,38.716881],[40.2290549,38.738362],[40.2334613,38.7370417],[40.243149,38.7414017],[40.2566049,38.7447718],[40.2656636,38.7421899],[40.2733155,38.7428545],[40.2810605,38.7391577],[40.2873999,38.7384417],[40.2888369,38.7408295],[40.3173585,38.7512645],[40.3333669,38.7708023],[40.3348277,38.7840276],[40.3296396,38.7974821],[40.3179822,38.8129652],[40.2968271,38.8272987],[40.2358359,38.836696],[40.21989,38.8168199],[40.2020306,38.8071283],[40.1793875,38.8058857],[40.1602525,38.8123471],[40.142712,38.8106075],[40.1318688,38.8056372],[40.0988359,38.7746613],[40.090548,38.7571589],[40.0726127,38.7443294],[40.0634358,38.7415479],[40.0583741,38.7459094],[40.0527339,38.7466238],[40.0496004,38.7436911],[40.0513359,38.7377126],[40.0152066,38.7247155],[39.9840423,38.7234124],[39.9526923,38.7084532],[39.8892411,38.7031168],[39.859887,38.6969577],[39.8550784,38.6924125],[39.8559555,38.6852952],[39.8530391,38.6841581],[39.8496241,38.6744839],[39.8497056,38.6691023],[39.8460211,38.666087],[39.8415588,38.6650534],[39.8299402,38.6519523],[39.7803183,38.6404465],[39.7326363,38.6378855],[39.7262123,38.6380843],[39.7199389,38.640416],[39.7107476,38.632903],[39.7080159,38.6247325],[39.7080159,38.6174153],[39.6977137,38.6013147],[39.7019282,38.593263],[39.7169132,38.5833802],[39.7398589,38.5815499],[39.7445417,38.5775231],[39.7454783,38.5665397],[39.7426686,38.5442016],[39.7478197,38.5317479],[39.7665509,38.5145289]]]}},{"type":"Feature","properties":{"code":"23-10","provinceCode":"23","name":"Sivrice"},"geometry":{"type":"Polygon","coordinates":[[[38.9677752,38.3188946],[38.9890407,38.3193777],[38.9994355,38.3259485],[39.0061845,38.3324172],[39.0166128,38.3333443],[39.0294415,38.3320606],[39.0380475,38.3337156],[39.0482239,38.338132],[39.0591654,38.3364926],[39.0745337,38.3433421],[39.0862602,38.3413963],[39.0997085,38.3414976],[39.1062794,38.3478962],[39.1131485,38.3440357],[39.119012,38.3303146],[39.1433633,38.3118548],[39.1514252,38.2992522],[39.1643078,38.3038224],[39.1720251,38.3050485],[39.1735402,38.3031908],[39.1752446,38.3036366],[39.1750552,38.3061631],[39.177754,38.3073148],[39.1805473,38.3066089],[39.1827806,38.3074879],[39.1825127,38.3090641],[39.1904934,38.3068532],[39.1933689,38.3089058],[39.2005546,38.3058757],[39.2092743,38.3045974],[39.2119573,38.3082818],[39.2255639,38.3076051],[39.2327292,38.3028405],[39.2584304,38.3165521],[39.2800003,38.3409412],[39.3048711,38.3554334],[39.3125362,38.3556865],[39.3197095,38.3502653],[39.3433451,38.3427481],[39.3762097,38.3548855],[39.3806616,38.3608519],[39.3856773,38.3738681],[39.394603,38.3820372],[39.3996645,38.3900799],[39.4074344,38.3949652],[39.4159448,38.3955049],[39.4254725,38.401782],[39.4305355,38.4152604],[39.4443464,38.4231428],[39.4464878,38.4285868],[39.4338923,38.4372571],[39.4270113,38.4451992],[39.4119393,38.4499943],[39.4032348,38.4576301],[39.4104782,38.4647656],[39.3992626,38.475407],[39.3449415,38.4808112],[39.3244918,38.5048211],[39.3156127,38.5117691],[39.3004249,38.5154257],[39.2838352,38.5157913],[39.2328976,38.5018954],[39.2139712,38.5009811],[39.1863268,38.4908555],[39.1626705,38.4875959],[39.1435951,38.4928415],[39.1228443,38.5048211],[39.0978428,38.5050039],[39.0838233,38.4881797],[39.0771639,38.4732164],[39.0483072,38.4526897],[39.0282125,38.445187],[38.9765023,38.434897],[38.9692274,38.4215071],[38.9489798,38.4144632],[38.9282308,38.4118333],[38.9065664,38.4029863],[38.8914829,38.4018927],[38.867576,38.3935788],[38.8767066,38.3864261],[38.8820887,38.3767707],[38.8848907,38.3647569],[38.8902424,38.3581649],[38.894535,38.3561557],[38.908956,38.3569956],[38.9176505,38.3556887],[38.9277227,38.3492262],[38.9338645,38.3415268],[38.9476393,38.3334557],[38.9531428,38.327428],[38.9677752,38.3188946]]]}}]}