{"type":"FeatureCollection","features":[{"type":"Feature","properties":{"code":"79-01","provinceCode":"79","name":"Elbeyli"},"geometry":{"type":"Polygon","coordinates":[[[37.3596,36.7307],[37.3631,36.7228],[37.3685,36.72],[37.3684,36.7079],[37.3569,36.7089],[37.357,36.7036],[37.3551,36.7034],[37.3548,36.6993],[37.3224,36.6991],[37.3187,36.6829],[37.3178,36.6702],[37.3193776,36.6644664],[37.3759368,36.6533928],[37.3964643,36.6482067],[37.4062055,36.6439165],[37.4252358,36.6440478],[37.4440988,36.6326929],[37.4711508,36.6347687],[37.474147,36.6330137],[37.4871195,36.6497775],[37.4885709,36.6671475],[37.495281,36.6736435],[37.5247149,36.6876109],[37.5727431,36.7058108],[37.5651,36.7158],[37.5579,36.7202],[37.5545,36.7252],[37.5508,36.7264],[37.5442,36.7225],[37.5417,36.7288],[37.5441,36.7309],[37.5393,36.7427],[37.5312,36.7442],[37.5187,36.7407],[37.5168,36.7373],[37.5163,36.7396],[37.5114,36.7388],[37.5105,36.7421],[37.5086,36.7425],[37.5072,36.7505],[37.5017,36.7526],[37.4914,36.752],[37.4875,36.7651],[37.4973,36.767],[37.4988,36.7708],[37.4928,36.7759],[37.4911,36.7747],[37.493,36.7841],[37.4896,36.7846],[37.4893,36.7821],[37.4763,36.7837],[37.477,36.7814],[37.4631,36.7859],[37.458,36.7857],[37.4533,36.7885],[37.4527,36.7931],[37.4468,36.7946],[37.4474,36.8084],[37.449,36.8087],[37.4493,36.8135],[37.4452,36.8134],[37.4454,36.8162],[37.4436,36.8146],[37.4338,36.8151],[37.4326,36.817],[37.4306,36.8164],[37.4224,36.8195],[37.4151,36.8258],[37.4094,36.8265],[37.4056,36.8144],[37.4038,36.8141],[37.4031,36.8105],[37.4047,36.807],[37.3807,36.8041],[37.3818,36.7941],[37.385,36.7872],[37.3831,36.7833],[37.3863,36.7839],[37.3826,36.7758],[37.391,36.771],[37.401,36.7688],[37.3975,36.7595],[37.3844,36.7488],[37.3858,36.7419],[37.3927,36.7285],[37.3832,36.7276],[37.3691,36.7238],[37.3693,36.7262],[37.3661,36.7286],[37.3648,36.7327],[37.3596,36.7307]]]}},{"type":"Feature","properties":{"code":"79-02","provinceCode":"79","name":"Kilis (merkez)"},"geometry":{"type":"Polygon","coordinates":[[[37.3596,36.7307],[37.3518564,36.7427125],[37.3156965,36.7602707],[37.3059053,36.7693863],[37.3028985,36.7824591],[37.302788,36.8197464],[37.309383,36.835483],[37.3083662,36.8464653],[37.2969409,36.8603722],[37.2783198,36.8584969],[37.266797,36.8542222],[37.2518175,36.843325],[37.2486749,36.8374566],[37.2481511,36.827647],[37.2530745,36.8152365],[37.2531792,36.8002238],[37.2506652,36.7953587],[37.2437515,36.792926],[37.241447,36.7894866],[37.2219631,36.8044175],[37.216097,36.8046692],[37.1916897,36.799385],[37.1551312,36.7824395],[37.0983555,36.8008109],[37.0818046,36.8035788],[37.0272647,36.802711],[37.0148857,36.8047764],[36.9931927,36.8123158],[36.991779,36.8295771],[36.9895881,36.8393654],[36.9493225,36.8417472],[36.9428181,36.8354707],[36.9149523,36.832527],[36.9129394,36.8269161],[36.9033827,36.8264877],[36.8859613,36.8298061],[36.8856247,36.8330931],[36.8839079,36.8333356],[36.8689586,36.8280124],[36.8655287,36.8309377],[36.8576519,36.82986],[36.8495538,36.8360607],[36.8464427,36.8365417],[36.8387005,36.8414717],[36.839744,36.8451623],[36.8342908,36.8511081],[36.828531,36.8507223],[36.827053,36.8476762],[36.8023415,36.8489547],[36.7893008,36.8528848],[36.7791391,36.8710422],[36.7737196,36.876055],[36.7602356,36.8802029],[36.7473593,36.8705725],[36.7204745,36.8573249],[36.7123606,36.8267519],[36.7155009,36.8276726],[36.718065,36.8260307],[36.7214136,36.8260875],[36.7263598,36.8240806],[36.7258753,36.8227233],[36.728112,36.821129],[36.7382961,36.8188448],[36.7467432,36.8208435],[36.7514315,36.8194627],[36.7639467,36.8104453],[36.7806743,36.8013081],[36.7933568,36.7968347],[36.8370817,36.7901145],[36.8757428,36.7805815],[36.8845209,36.7771317],[36.8890548,36.7784507],[36.8971645,36.7770375],[36.9035133,36.7776036],[36.9173981,36.7859368],[36.9213005,36.7851992],[36.9239179,36.7863175],[36.9253218,36.7833908],[36.9289861,36.7820107],[36.9285486,36.7788187],[36.9312435,36.7801932],[36.9348258,36.7796629],[36.9327587,36.7760156],[36.93396,36.7738511],[36.9385921,36.775442],[36.9415246,36.7739775],[36.9458708,36.776907],[36.9555181,36.7698092],[36.9814705,36.7618046],[36.9975347,36.7655706],[36.9967501,36.7608232],[36.9932127,36.7594807],[36.9960141,36.7572892],[36.9960617,36.7531251],[36.9994643,36.7509122],[36.9993215,36.7490087],[36.9927304,36.7421558],[37.0150022,36.7369448],[37.0183572,36.7378966],[37.0189997,36.7368734],[37.0369836,36.7362604],[37.0429345,36.7334067],[37.0465514,36.7262012],[37.0466986,36.7153916],[37.0439363,36.7142286],[37.0430964,36.7110094],[37.0409582,36.7105339],[37.0401841,36.7032076],[37.0307728,36.6988078],[37.02027,36.6985353],[37.0159875,36.6955194],[37.0175062,36.6912112],[37.015798,36.6888077],[37.0161792,36.6852375],[37.020094,36.6836104],[37.020742,36.6661586],[37.0349438,36.6646672],[37.0575469,36.6548772],[37.0571081,36.6454482],[37.0862072,36.6342149],[37.0989495,36.6486668],[37.1061921,36.671548],[37.1143923,36.6720569],[37.1211261,36.6665366],[37.1246715,36.6656086],[37.142075,36.6773217],[37.1549294,36.6611865],[37.1581564,36.6614575],[37.1625607,36.6568669],[37.1842521,36.6628334],[37.1927767,36.6677392],[37.2167621,36.6753158],[37.2240602,36.672114],[37.2252699,36.6729559],[37.2275933,36.6715482],[37.2318521,36.672504],[37.2404025,36.6703928],[37.248542,36.6705864],[37.2698818,36.6664584],[37.275089,36.6637724],[37.2778734,36.664369],[37.2782423,36.669913],[37.2838314,36.6700993],[37.3193776,36.6644664],[37.3178,36.6702],[37.3187,36.6829],[37.3224,36.6991],[37.3548,36.6993],[37.3551,36.7034],[37.357,36.7036],[37.3569,36.7089],[37.3684,36.7079],[37.3685,36.72],[37.3631,36.7228],[37.3596,36.7307]]]}},{"type":"Feature","properties":{"code":"79-03","provinceCode":"79","name":"Polateli"},"geometry":{"type":"Polygon","coordinates":[[[36.991779,36.8295771],[36.9931927,36.8123158],[37.0148857,36.8047764],[37.0272647,36.802711],[37.0818046,36.8035788],[37.0983555,36.8008109],[37.1551312,36.7824395],[37.1916897,36.799385],[37.216097,36.8046692],[37.2219631,36.8044175],[37.241447,36.7894866],[37.2437515,36.792926],[37.2506652,36.7953587],[37.2531792,36.8002238],[37.2530745,36.8152365],[37.2481511,36.827647],[37.2486749,36.8374566],[37.2518175,36.843325],[37.266797,36.8542222],[37.2783198,36.8584969],[37.2969409,36.8603722],[37.2779584,36.8716512],[37.2569489,36.8773292],[37.2211357,36.8806151],[37.1890692,36.8807973],[37.1648167,36.8833983],[37.1526637,36.8909464],[37.1251633,36.8951049],[37.1134666,36.8951015],[37.10195,36.898027],[37.0891752,36.9043492],[37.0731354,36.8896875],[37.0615839,36.8820817],[37.0462971,36.8803571],[37.0466206,36.875132],[37.0442759,36.8789339],[37.0385699,36.8784126],[37.0409243,36.8747906],[37.0365525,36.873569],[37.0413747,36.8694018],[37.0417428,36.8660939],[37.0392033,36.8658726],[37.0360692,36.8695349],[37.0346055,36.8679954],[37.0365952,36.8659747],[37.0332686,36.8615894],[37.0351842,36.859459],[37.0330458,36.8591584],[37.0308491,36.8611762],[37.0279868,36.8578511],[37.0338597,36.854987],[37.0304079,36.8526314],[37.0279122,36.8534751],[37.0229799,36.8505613],[37.0208371,36.8511665],[37.0187786,36.843871],[37.0105084,36.8425739],[37.0103028,36.8380365],[37.0071037,36.8394085],[37.0043651,36.8387939],[36.995189,36.8345645],[36.991779,36.8295771]]]}}]}