{"type":"FeatureCollection","features":[{"type":"Feature","properties":{"code":"44-01","provinceCode":"44","name":"Akçadağ"},"geometry":{"type":"Polygon","coordinates":[[[37.7319913,38.2098039],[37.7509543,38.2299828],[37.7645752,38.2411012],[37.7863419,38.2426744],[37.8511081,38.2390035],[37.8730084,38.2329199],[37.9027874,38.2369058],[37.916809,38.2330248],[37.9298957,38.2251573],[37.949793,38.2223248],[37.9704914,38.2255769],[37.9890012,38.2231474],[37.9951821,38.2377554],[37.9962158,38.2452078],[37.9994774,38.245983],[37.9989902,38.2495214],[38.0016683,38.2515661],[38.0019758,38.2563527],[38.0056572,38.2590422],[38.009305,38.2591601],[38.0176949,38.2727728],[38.0229091,38.275586],[38.0208921,38.2774221],[38.0232954,38.2780622],[38.0235743,38.2814984],[38.0262565,38.2816837],[38.0259132,38.2855408],[38.0322647,38.2798814],[38.0378217,38.2839699],[38.0614042,38.2627826],[38.0701011,38.2624527],[38.0804372,38.2788033],[38.080287,38.2828796],[38.089907,38.289631],[38.0912518,38.2955784],[38.0881404,38.3076352],[38.0906081,38.3069448],[38.1110143,38.3129726],[38.1068477,38.3147528],[38.1089544,38.3226697],[38.1052422,38.3231242],[38.1044053,38.3299754],[38.0983758,38.3313893],[38.0999207,38.3526621],[38.0915701,38.3555926],[38.0871963,38.3479335],[38.0806158,38.3522601],[38.0803942,38.3538736],[38.0888271,38.3655506],[38.0936122,38.3618323],[38.0957813,38.3672804],[38.0948353,38.3694705],[38.1014013,38.3745678],[38.0970347,38.377806],[38.096981,38.3800685],[38.1009025,38.3843764],[38.103139,38.3837179],[38.1037577,38.3875405],[38.1065297,38.3875365],[38.1142182,38.4030496],[38.1179919,38.4066756],[38.1183148,38.4120195],[38.1227302,38.4170985],[38.1280088,38.4184099],[38.1340644,38.4282423],[38.1420851,38.4282106],[38.1446814,38.4340769],[38.1537366,38.4441024],[38.1605387,38.4450267],[38.1654632,38.4527317],[38.1671584,38.4600915],[38.1760096,38.4677697],[38.1763101,38.4731792],[38.1703126,38.4808225],[38.1579208,38.4788739],[38.1521916,38.4749431],[38.1463122,38.4791595],[38.1412267,38.4795459],[38.1346392,38.4751783],[38.1286311,38.4813264],[38.1267214,38.4814608],[38.1192541,38.4633847],[38.115263,38.4482953],[38.1096411,38.4418924],[38.107903,38.4423966],[38.1114864,38.4472702],[38.0934191,38.4559244],[38.0876684,38.4483962],[38.081553,38.4474383],[38.075974,38.4485306],[38.0721545,38.4573695],[38.0940199,38.4977355],[38.0894923,38.4986256],[38.0941057,38.5083818],[38.0900717,38.5143088],[38.0909943,38.5166928],[38.086617,38.5198827],[38.0849847,38.5252067],[38.085168,38.5193986],[38.0834592,38.5167998],[38.0796469,38.5167333],[38.07641,38.5122667],[38.0665282,38.5125647],[38.062035,38.5084351],[38.0601129,38.5084646],[38.0553701,38.5147714],[38.0376187,38.5149515],[38.0327544,38.5169785],[38.0296409,38.5163468],[38.0269013,38.5189409],[38.0255038,38.5145285],[38.0212059,38.5158595],[38.0188268,38.5151629],[38.0221969,38.5101279],[38.0204384,38.5089867],[38.014263,38.5113956],[38.0140677,38.5148505],[38.010255,38.5181512],[37.9996249,38.5215609],[37.9938346,38.5218571],[37.9921808,38.5235849],[37.9893777,38.5231042],[37.9869688,38.525672],[37.9861856,38.5231772],[37.9825314,38.5233067],[37.9830141,38.5206834],[37.9792863,38.5203456],[37.9775827,38.5182745],[37.972786,38.5192949],[37.9705677,38.5166655],[37.9675885,38.5161344],[37.9652596,38.5244746],[37.9503105,38.5243209],[37.9464392,38.5283078],[37.9410178,38.5292775],[37.9202446,38.5255767],[37.9176258,38.5214736],[37.9071687,38.5163827],[37.9010037,38.5117214],[37.8710462,38.511254],[37.8670075,38.5062279],[37.8626599,38.5047617],[37.855282,38.5064477],[37.8504905,38.5105933],[37.8465652,38.5105321],[37.8459062,38.5087121],[37.840523,38.509285],[37.8348436,38.5121078],[37.8364367,38.5158911],[37.8319047,38.5190315],[37.8292476,38.5174323],[37.8323474,38.5134299],[37.8312174,38.5092356],[37.8248427,38.5070262],[37.8184332,38.4988451],[37.8101296,38.4990336],[37.809102,38.4962727],[37.8111426,38.4936562],[37.8073733,38.4907398],[37.8005364,38.492527],[37.7944563,38.4916591],[37.7934601,38.4903491],[37.7869804,38.4919985],[37.7840459,38.4912142],[37.7840912,38.4888761],[37.7783159,38.4889971],[37.7766784,38.4866656],[37.7719822,38.4893694],[37.7666594,38.4870307],[37.7634041,38.4890433],[37.7581144,38.489265],[37.7519167,38.4857533],[37.7464283,38.482188],[37.744712,38.4765239],[37.7532704,38.4647978],[37.7477074,38.445697],[37.7417165,38.4373179],[37.7181809,38.4282673],[37.6865148,38.429273],[37.6749609,38.4252502],[37.6681142,38.4178745],[37.6625512,38.3964137],[37.6197592,38.3658881],[37.6180475,38.356493],[37.5948733,38.3349788],[37.6033383,38.3224728],[37.6121546,38.318685],[37.6243296,38.3178615],[37.6440613,38.3091322],[37.6511984,38.3043554],[37.6658923,38.2812903],[37.666215,38.2756304],[37.6627424,38.2609241],[37.6713488,38.2561441],[37.6801652,38.2485613],[37.6804636,38.2347062],[37.6917184,38.2296327],[37.7026339,38.2222122],[37.7190238,38.2194849],[37.7319913,38.2098039]]]}},{"type":"Feature","properties":{"code":"44-02","provinceCode":"44","name":"Arapgir"},"geometry":{"type":"Polygon","coordinates":[[[38.5144592,38.751417],[38.5245474,38.7636465],[38.5332163,38.7651188],[38.5421856,38.7641819],[38.5684927,38.753607],[38.587118,38.7513647],[38.603855,38.7544102],[38.6248406,38.7442356],[38.6352363,38.7483421],[38.6454501,38.7564414],[38.6452785,38.7612603],[38.6334338,38.768555],[38.627254,38.77431],[38.6289706,38.7791277],[38.6389372,38.7827263],[38.653593,38.7960623],[38.6474195,38.8202114],[38.6356934,38.8286431],[38.6324668,38.8347925],[38.6340414,38.8421366],[38.6283186,38.8517265],[38.6184206,38.8622125],[38.6071987,38.8847888],[38.5918338,38.9006533],[38.5720055,38.9117967],[38.569996,38.9226964],[38.5991677,38.9471191],[38.5998345,38.9582521],[38.5895,38.97],[38.5893,38.9816],[38.5907,38.9813],[38.591,38.9829],[38.5927,38.9812],[38.5972,38.9862],[38.6242,38.9917],[38.6068,38.9994],[38.6131,39.0043],[38.6256,39.0082],[38.6272,39.0116],[38.6348,39.0152],[38.6453,39.0151],[38.6525,39.0183],[38.6504,39.0212],[38.6528,39.0231],[38.6485,39.0276],[38.654,39.0349],[38.6496,39.0355],[38.6484,39.0395],[38.6698,39.0523],[38.661955,39.0549537],[38.6593142,39.054498],[38.6497092,39.0588124],[38.6499964,39.0621106],[38.6431253,39.0672954],[38.6412203,39.0740146],[38.6428829,39.0752294],[38.6388062,39.0785199],[38.6370361,39.0775859],[38.6376993,39.0798609],[38.6164215,39.0973155],[38.6161821,39.1022546],[38.6069884,39.1090852],[38.5980882,39.1130314],[38.5959365,39.1116655],[38.5883487,39.1128022],[38.5859799,39.1110307],[38.5787333,39.1114209],[38.5674723,39.1148778],[38.5627745,39.1133409],[38.5376046,39.120907],[38.5235576,39.1338085],[38.5099562,39.1408352],[38.4996022,39.1430157],[38.4684003,39.1427549],[38.4199965,39.1204919],[38.4054243,39.1155657],[38.388764,39.1153751],[38.3736796,39.1186774],[38.3624192,39.1231843],[38.3320768,39.151549],[38.3242273,39.1527896],[38.2988182,39.1426241],[38.2517918,39.1378325],[38.222283,39.1229617],[38.2259315,39.0941694],[38.236976,39.0600583],[38.2419571,39.0496329],[38.2737893,39.0381431],[38.2645265,39.0187822],[38.2681379,39.0074252],[38.2826385,38.9869096],[38.2934506,38.9752159],[38.3160151,38.9657133],[38.3652836,38.9349274],[38.3937609,38.9222798],[38.3962232,38.9097537],[38.4115974,38.9069282],[38.4153581,38.8977823],[38.4179508,38.8685931],[38.4256488,38.84986],[38.4188469,38.8336405],[38.4094809,38.820885],[38.4360422,38.8205442],[38.4511741,38.8143803],[38.4687259,38.7989833],[38.4702408,38.77643],[38.477737,38.7536971],[38.4838309,38.7541656],[38.5019412,38.7463339],[38.5090507,38.7479844],[38.5144592,38.751417]]]}},{"type":"Feature","properties":{"code":"44-03","provinceCode":"44","name":"Arguvan"},"geometry":{"type":"Polygon","coordinates":[[[38.477737,38.7536971],[38.4702408,38.77643],[38.4687259,38.7989833],[38.4511741,38.8143803],[38.4360422,38.8205442],[38.4094809,38.820885],[38.4188469,38.8336405],[38.4256488,38.84986],[38.4179508,38.8685931],[38.4153581,38.8977823],[38.4115974,38.9069282],[38.3962232,38.9097537],[38.3937609,38.9222798],[38.3652836,38.9349274],[38.3160151,38.9657133],[38.2934506,38.9752159],[38.2826385,38.9869096],[38.2681379,39.0074252],[38.2645265,39.0187822],[38.2737893,39.0381431],[38.2419571,39.0496329],[38.236976,39.0600583],[38.2259315,39.0941694],[38.222283,39.1229617],[38.1736229,39.0877413],[38.1617377,39.0832318],[38.1102702,39.0848074],[38.0805651,39.0893768],[38.0609283,39.0964367],[38.0631951,39.0813788],[38.0543289,39.0700423],[38.0527643,39.0542491],[38.0611089,39.0372371],[38.0824919,39.0214366],[38.0934442,38.9800954],[38.0897934,38.9695536],[38.0939657,38.9622545],[38.1017888,38.9561713],[38.1106549,38.9452204],[38.1137841,38.9241248],[38.1307054,38.9101065],[38.1289087,38.903023],[38.1320379,38.8928756],[38.1233003,38.8801377],[38.1309948,38.8648614],[38.1304733,38.8457729],[38.1236689,38.8262346],[38.1161482,38.8183192],[38.1148544,38.8113312],[38.1377798,38.8005232],[38.1431094,38.7883693],[38.1533232,38.7833064],[38.1506307,38.7787415],[38.1555902,38.7672114],[38.1474472,38.7545644],[38.1581617,38.7386624],[38.1596834,38.7292206],[38.1824571,38.7207226],[38.195711,38.7119439],[38.2109877,38.6912789],[38.2086114,38.6851842],[38.1817923,38.6690176],[38.1722868,38.6613305],[38.1794159,38.6602702],[38.2452754,38.6661019],[38.2551204,38.6748486],[38.2639469,38.6743185],[38.2686997,38.6706079],[38.2707366,38.6589447],[38.2587274,38.6405491],[38.2820453,38.6213466],[38.2991456,38.6113439],[38.3194282,38.6028118],[38.3335758,38.6015881],[38.3568772,38.5960703],[38.3597954,38.6187405],[38.3658035,38.6324196],[38.3783185,38.6495503],[38.4038845,38.6712253],[38.4124954,38.6842961],[38.42537,38.6887179],[38.4672085,38.6970594],[38.4713746,38.7034444],[38.4749906,38.7159415],[38.4761046,38.7289955],[38.4732184,38.7319838],[38.4670081,38.7460661],[38.477737,38.7536971]]]}},{"type":"Feature","properties":{"code":"44-04","provinceCode":"44","name":"Battalgazi"},"geometry":{"type":"Polygon","coordinates":[[[38.6521569,38.4295087],[38.6291656,38.4381697],[38.6147156,38.4456619],[38.6094436,38.4467759],[38.5966566,38.4439909],[38.5866545,38.4445478],[38.5797194,38.4487139],[38.5730435,38.4567779],[38.5661085,38.4609359],[38.5447156,38.4637129],[38.5324935,38.4687179],[38.5058286,38.4642699],[38.4847106,38.4720519],[38.4685975,38.474829],[38.4243044,38.5082621],[38.399377,38.5015802],[38.3779828,38.5017024],[38.3533091,38.498036],[38.3160209,38.4842323],[38.3071813,38.4871286],[38.3018457,38.4797325],[38.2981252,38.4790923],[38.2985412,38.4776495],[38.2897782,38.4716337],[38.287705,38.4732987],[38.2775473,38.4640903],[38.2795429,38.4608476],[38.2852077,38.4596714],[38.2856237,38.4553046],[38.28822,38.453641],[38.2903658,38.4547164],[38.2904087,38.4307506],[38.2850229,38.4323475],[38.2809377,38.4319002],[38.2810342,38.4292191],[38.2857227,38.4279248],[38.2877051,38.4254387],[38.2947217,38.4037166],[38.3087146,38.394945],[38.3121577,38.3938504],[38.3197443,38.3946186],[38.3208241,38.3925721],[38.3179262,38.3878834],[38.322984,38.3847193],[38.3249044,38.3815318],[38.323972,38.3756736],[38.3256474,38.373818],[38.3228637,38.3730519],[38.3189018,38.3686567],[38.3166003,38.3631531],[38.3114799,38.3635598],[38.3146859,38.3517941],[38.299799,38.3507605],[38.3023496,38.3452972],[38.3003531,38.3414561],[38.3037688,38.3359484],[38.3056155,38.3374638],[38.3088795,38.3294179],[38.3082817,38.3262627],[38.3132994,38.3226287],[38.3154358,38.3230328],[38.3199091,38.3203936],[38.3195937,38.3137807],[38.339678,38.3032152],[38.3437335,38.275906],[38.3501601,38.2720316],[38.3452248,38.2678705],[38.3447313,38.2644505],[38.3470166,38.2635323],[38.3475423,38.2610977],[38.3467269,38.2535155],[38.3440017,38.2502128],[38.3307838,38.2499769],[38.3333802,38.2450899],[38.3463836,38.2414834],[38.3519625,38.2413823],[38.3608031,38.2445843],[38.3618545,38.2430844],[38.3643651,38.2438934],[38.3645582,38.2456291],[38.3699012,38.2465391],[38.3725834,38.2453258],[38.3781624,38.246101],[38.3779263,38.2425957],[38.3877969,38.2334946],[38.3867776,38.2287835],[38.3915841,38.2252184],[38.3955109,38.2251678],[38.399384,38.2178685],[38.4028172,38.2174976],[38.405478,38.2143112],[38.4078598,38.2070276],[38.4172153,38.1988665],[38.4369564,38.197315],[38.4413766,38.1909742],[38.4532642,38.1877024],[38.4562602,38.1819215],[38.4919597,38.1902752],[38.4949779,38.1695866],[38.4971236,38.1657402],[38.496437,38.1582492],[38.5073397,38.1586112],[38.5175943,38.1532886],[38.5258129,38.1553758],[38.5308981,38.1539298],[38.5381078,38.1497451],[38.5475492,38.1474501],[38.5668182,38.1390798],[38.5706805,38.133814],[38.5756587,38.133544],[38.5824023,38.1270023],[38.5877608,38.131046],[38.5925821,38.1376615],[38.5918362,38.1465071],[38.5889625,38.1531199],[38.5971851,38.1727977],[38.5990246,38.1748368],[38.6051845,38.1747822],[38.6114169,38.1723822],[38.6204094,38.1848768],[38.6104504,38.1933587],[38.6058711,38.1951565],[38.6050128,38.1996084],[38.608296,38.2035176],[38.6167093,38.2058969],[38.6100873,38.2229046],[38.6099052,38.2354835],[38.5839843,38.2335958],[38.5793924,38.2383992],[38.5825971,38.2438303],[38.5838341,38.2506003],[38.5922241,38.2571382],[38.5986185,38.2568686],[38.6025667,38.259059],[38.612913,38.2586927],[38.6197543,38.2612494],[38.6167288,38.2631869],[38.6423049,38.2693568],[38.641963,38.2781464],[38.6464262,38.2764956],[38.6587429,38.2785844],[38.6877448,38.2951701],[38.7256479,38.2913513],[38.7318063,38.2808498],[38.7393808,38.2811784],[38.7404108,38.2829301],[38.7364626,38.2874272],[38.7388658,38.2944164],[38.7361936,38.302657],[38.732686,38.3056315],[38.7324071,38.3144205],[38.7172652,38.3221877],[38.7100482,38.3220721],[38.7027633,38.3196227],[38.6998451,38.3235703],[38.682078,38.3280733],[38.6879897,38.3308339],[38.6928606,38.327905],[38.6933756,38.3305309],[38.6888051,38.3386436],[38.6892986,38.3438104],[38.6857152,38.3441722],[38.6868524,38.3457878],[38.6817992,38.3468817],[38.6780762,38.350037],[38.6774753,38.3788238],[38.6755096,38.3802104],[38.6815524,38.3880243],[38.6799215,38.3901435],[38.6660814,38.3942134],[38.654108,38.3904967],[38.6314057,38.4020332],[38.6391735,38.4068928],[38.6390447,38.4122396],[38.6453533,38.4224278],[38.6521569,38.4295087]]]}},{"type":"Feature","properties":{"code":"44-05","provinceCode":"44","name":"Darende"},"geometry":{"type":"Polygon","coordinates":[[[37.5948733,38.3349788],[37.6180475,38.356493],[37.6197592,38.3658881],[37.6625512,38.3964137],[37.6681142,38.4178745],[37.6749609,38.4252502],[37.6865148,38.429273],[37.7181809,38.4282673],[37.7417165,38.4373179],[37.7477074,38.445697],[37.7532704,38.4647978],[37.744712,38.4765239],[37.7464283,38.482188],[37.7519167,38.4857533],[37.7581144,38.489265],[37.7634041,38.4890433],[37.7666594,38.4870307],[37.7719822,38.4893694],[37.7766784,38.4866656],[37.7783159,38.4889971],[37.7840912,38.4888761],[37.7840459,38.4912142],[37.7869804,38.4919985],[37.7934601,38.4903491],[37.7944563,38.4916591],[37.8005364,38.492527],[37.8073733,38.4907398],[37.8111426,38.4936562],[37.809102,38.4962727],[37.8101296,38.4990336],[37.8184332,38.4988451],[37.8248427,38.5070262],[37.8312174,38.5092356],[37.8323474,38.5134299],[37.8292476,38.5174323],[37.8319047,38.5190315],[37.8364367,38.5158911],[37.8348436,38.5121078],[37.840523,38.509285],[37.8459062,38.5087121],[37.8465652,38.5105321],[37.8504905,38.5105933],[37.855282,38.5064477],[37.8626599,38.5047617],[37.8670075,38.5062279],[37.8710462,38.511254],[37.9010037,38.5117214],[37.9071687,38.5163827],[37.9086409,38.5251342],[37.9072826,38.5364237],[37.8962467,38.5578023],[37.8814756,38.5730688],[37.8587247,38.5884649],[37.845991,38.6047864],[37.8273149,38.6199103],[37.778432,38.6294999],[37.7334444,38.6459529],[37.7412151,38.6602553],[37.7395343,38.6701917],[37.7424156,38.6769402],[37.738814,38.687624],[37.7150432,38.7009297],[37.683829,38.7039278],[37.6538153,38.7117973],[37.6461318,38.7191038],[37.6413296,38.732029],[37.6473323,38.7488844],[37.646612,38.7569362],[37.635567,38.7679825],[37.6209203,38.7750961],[37.5558713,38.7888147],[37.5397993,38.7792692],[37.5399855,38.7633284],[37.5374906,38.7602764],[37.5149916,38.7458264],[37.4886016,38.7194364],[37.4769436,38.7155453],[37.4486005,38.7124943],[37.4355545,38.7097164],[37.4294355,38.7052694],[37.4186095,38.6897124],[37.4108275,38.6816634],[37.4066504,38.657236],[37.4027972,38.6496842],[37.4076596,38.6197073],[37.4025031,38.608937],[37.3644948,38.5929695],[37.3195406,38.5970616],[37.3133362,38.5822195],[37.3001507,38.5655675],[37.3111116,38.5500905],[37.3118687,38.5390385],[37.2936122,38.5232825],[37.269669,38.5125044],[37.2634372,38.5071147],[37.2608133,38.4986444],[37.2627813,38.4878625],[37.2690131,38.4742546],[37.2796336,38.4723713],[37.290191,38.4680508],[37.2930538,38.4554122],[37.3014839,38.4478016],[37.3943047,38.4236515],[37.4061122,38.4197971],[37.411898,38.4124987],[37.4475831,38.4046033],[37.4692041,38.3960489],[37.4796997,38.3878227],[37.4855773,38.3861773],[37.4941837,38.3776208],[37.5359563,38.352439],[37.5449826,38.3507928],[37.5630351,38.3507928],[37.5948733,38.3349788]]]}},{"type":"Feature","properties":{"code":"44-06","provinceCode":"44","name":"Doğanşehir"},"geometry":{"type":"Polygon","coordinates":[[[37.884658,37.8884296],[37.9146293,37.8824554],[37.935352,37.880511],[37.9497006,37.8712079],[37.9661026,37.8665777],[37.9754837,37.8703606],[37.9924801,37.8827878],[38.0116218,37.8908094],[38.0385581,37.8991055],[38.0424608,37.9041839],[38.0443442,37.9124252],[38.0505761,37.9190532],[38.0707619,37.936321],[38.097771,37.9497736],[38.1068688,37.9672584],[38.1319776,37.9760787],[38.1361596,37.9882346],[38.1476768,37.9931648],[38.1508503,37.9970183],[38.1533926,38.0051629],[38.1472434,38.0112513],[38.1396451,38.0151016],[38.1337574,38.015164],[38.1102629,38.0475722],[38.1107051,38.0654436],[38.1186012,38.0749257],[38.1295434,38.0931654],[38.1257744,38.0965574],[38.1090941,38.1027844],[38.107624,38.1163263],[38.1155024,38.122595],[38.1195977,38.1408236],[38.1388235,38.1532379],[38.1315171,38.1562835],[38.1280303,38.1593459],[38.1270861,38.1641374],[38.1223225,38.1668536],[38.1287813,38.1708349],[38.1293004,38.1727551],[38.126378,38.1775317],[38.1222582,38.1795221],[38.12258,38.1829798],[38.125348,38.1857796],[38.1223869,38.1873313],[38.1138038,38.1855773],[38.1093406,38.1884107],[38.0883924,38.173356],[38.0819177,38.1636481],[38.0804801,38.165369],[38.0778193,38.1655208],[38.0759096,38.1635807],[38.0725836,38.1641205],[38.0748581,38.1745798],[38.0737209,38.177363],[38.0689787,38.1774642],[38.0654168,38.16849],[38.0590217,38.1652824],[38.0554604,38.1652846],[38.0527997,38.1630408],[38.0467732,38.1637192],[38.0390453,38.1604932],[38.0354404,38.1608981],[38.0250764,38.1578105],[38.0114937,38.1576249],[38.00982,38.1603751],[38.0061722,38.1603582],[37.9940486,38.1671741],[37.9885554,38.175575],[37.9893493,38.1770594],[37.9855298,38.1863194],[37.9885621,38.1986984],[37.9903965,38.1997079],[37.9891465,38.2030943],[37.9902499,38.2066304],[37.987928,38.211819],[37.9890012,38.2231474],[37.9704914,38.2255769],[37.949793,38.2223248],[37.9298957,38.2251573],[37.916809,38.2330248],[37.9027874,38.2369058],[37.8730084,38.2329199],[37.8511081,38.2390035],[37.7863419,38.2426744],[37.7645752,38.2411012],[37.7509543,38.2299828],[37.7319913,38.2098039],[37.732209,38.2038044],[37.7518928,38.1758584],[37.7389358,38.1525262],[37.7159768,38.1460289],[37.7157784,38.1384289],[37.7227754,38.1249359],[37.7162842,38.1170072],[37.6804216,38.0932085],[37.6648406,38.0790741],[37.6373056,38.080084],[37.6226115,38.0670857],[37.6354184,38.0591635],[37.6289168,38.0497028],[37.6211064,38.0437216],[37.603553,38.0395988],[37.5948681,38.0427856],[37.5805048,38.0377703],[37.5878048,38.027752],[37.5796865,38.0187003],[37.5737406,37.9908695],[37.5929684,37.9746661],[37.5969022,37.9621211],[37.5938628,37.9522427],[37.6120289,37.938501],[37.6184079,37.9493165],[37.645704,37.9537219],[37.6595116,37.9520856],[37.6708451,37.9430225],[37.6912772,37.9615252],[37.6941505,37.9538478],[37.6961998,37.9536377],[37.6934232,37.9494535],[37.6982887,37.9436159],[37.6928032,37.9300369],[37.6895454,37.9286884],[37.6898039,37.926567],[37.6843277,37.9217301],[37.6815798,37.9139163],[37.6844851,37.9107511],[37.6891659,37.9093386],[37.7019067,37.9126301],[37.725045,37.9116663],[37.7420673,37.9272715],[37.7563297,37.9346271],[37.7636066,37.9135887],[37.7582439,37.908066],[37.7668294,37.9018638],[37.7667569,37.8875539],[37.7830831,37.8893343],[37.7840792,37.8847747],[37.8061221,37.8851081],[37.8161054,37.8804582],[37.8595005,37.8804997],[37.8710757,37.8877874],[37.884658,37.8884296]]]}},{"type":"Feature","properties":{"code":"44-07","provinceCode":"44","name":"Doğanyol"},"geometry":{"type":"Polygon","coordinates":[[[38.9325775,38.2991266],[38.9279536,38.2975452],[38.9177967,38.2902729],[38.9127045,38.28286],[38.9163315,38.2817319],[38.9219437,38.2830009],[38.9243245,38.2792413],[38.9330323,38.2823072],[38.9381905,38.2792411],[38.9404177,38.2581155],[38.9424991,38.2573573],[38.9436793,38.2591264],[38.9470267,38.2595645],[38.9565539,38.2579301],[38.9535284,38.2534144],[38.9634863,38.2499925],[38.9624439,38.24485],[38.9578628,38.2414666],[38.9597297,38.2399498],[38.9682869,38.2389505],[38.9646005,38.2355004],[38.9662742,38.2350453],[38.9665532,38.2310001],[38.968656,38.2290954],[38.9758014,38.2276626],[38.9749217,38.2257747],[38.9849209,38.23427],[38.9840627,38.2365453],[38.9799213,38.2371183],[38.9732694,38.241989],[38.9723679,38.2599691],[38.9894056,38.2577279],[38.9893627,38.256043],[38.9938688,38.2531448],[39.0033531,38.2510385],[39.0111015,38.2450721],[39.0112388,38.2426041],[39.0205587,38.2316266],[39.0245533,38.2285054],[39.0281796,38.2307978],[39.0319776,38.225505],[39.0349817,38.2276963],[39.0448993,38.227967],[39.0469121,38.2314214],[39.0578127,38.2279323],[39.075365,38.2330396],[39.0801501,38.2325339],[39.1008556,38.2391051],[39.1045904,38.238197],[39.1149974,38.2330901],[39.1208124,38.2271738],[39.1227865,38.2175482],[39.119683,38.210644],[39.1286328,38.2186527],[39.1388564,38.2310565],[39.1413765,38.25572],[39.1511612,38.2914326],[39.1514252,38.2992522],[39.1433633,38.3118548],[39.119012,38.3303146],[39.1131485,38.3440357],[39.1062794,38.3478962],[39.0997085,38.3414976],[39.0862602,38.3413963],[39.0745337,38.3433421],[39.0591654,38.3364926],[39.0482239,38.338132],[39.0380475,38.3337156],[39.0294415,38.3320606],[39.0166128,38.3333443],[39.0061845,38.3324172],[38.9994355,38.3259485],[38.9890407,38.3193777],[38.9677752,38.3188946],[38.9618418,38.311618],[38.9478252,38.3043414],[38.9325775,38.2991266]]]}},{"type":"Feature","properties":{"code":"44-08","provinceCode":"44","name":"Hekimhan"},"geometry":{"type":"Polygon","coordinates":[[[38.0609283,39.0964367],[38.0557523,39.0877218],[38.0372287,39.0931634],[38.0117618,39.0871238],[37.9998376,39.0880138],[37.9921381,39.0790761],[37.9801547,39.0779902],[37.962456,39.0828301],[37.9480053,39.0717871],[37.9341363,39.0683176],[37.9064918,39.0727229],[37.8889577,39.0739266],[37.8519382,39.0852341],[37.8279408,39.0897352],[37.8048265,39.0877916],[37.7782577,39.0819999],[37.76635,39.0714304],[37.7593683,39.0581829],[37.757543,39.0403385],[37.7703318,39.0316246],[37.7716822,39.0216026],[37.7836371,39.0097262],[37.7779743,38.9973875],[37.7731857,38.9914859],[37.7791951,38.9821547],[37.788091,38.9730017],[37.790969,38.9646613],[37.7843798,38.9398256],[37.7891375,38.9343428],[37.7893992,38.9243695],[37.7823348,38.9166341],[37.7810266,38.910323],[37.784428,38.9019752],[37.8019581,38.890979],[37.8082375,38.883851],[37.806406,38.8785554],[37.7998649,38.8750927],[37.7734389,38.8789628],[37.7574524,38.8852597],[37.7459818,38.8858358],[37.7396915,38.8823794],[37.7378414,38.8650951],[37.7274808,38.8584684],[37.729701,38.8506883],[37.7441317,38.8426193],[37.7929188,38.8268289],[37.8054653,38.8125965],[37.8273861,38.8048553],[37.8321963,38.7927436],[37.8203557,38.7846679],[37.7981546,38.7734182],[37.7929743,38.7581272],[37.8044449,38.7408128],[37.826276,38.7359062],[37.8391723,38.7245686],[37.8341432,38.7186289],[37.8229327,38.7164364],[37.7996487,38.7060154],[37.7704787,38.6858859],[37.7424156,38.6769402],[37.7395343,38.6701917],[37.7412151,38.6602553],[37.7334444,38.6459529],[37.778432,38.6294999],[37.8273149,38.6199103],[37.845991,38.6047864],[37.8587247,38.5884649],[37.8814756,38.5730688],[37.8962467,38.5578023],[37.9072826,38.5364237],[37.9086409,38.5251342],[37.9071687,38.5163827],[37.9176258,38.5214736],[37.9202446,38.5255767],[37.9410178,38.5292775],[37.9469403,38.5586665],[37.9428837,38.6053683],[37.9329061,38.6438384],[37.9466719,38.6767893],[38.007065,38.6792121],[38.045603,38.6688101],[38.0765181,38.6690451],[38.1003668,38.6964836],[38.1346636,38.7195057],[38.1596834,38.7292206],[38.1581617,38.7386624],[38.1474472,38.7545644],[38.1555902,38.7672114],[38.1506307,38.7787415],[38.1533232,38.7833064],[38.1431094,38.7883693],[38.1377798,38.8005232],[38.1148544,38.8113312],[38.1161482,38.8183192],[38.1236689,38.8262346],[38.1304733,38.8457729],[38.1309948,38.8648614],[38.1233003,38.8801377],[38.1320379,38.8928756],[38.1289087,38.903023],[38.1307054,38.9101065],[38.1137841,38.9241248],[38.1106549,38.9452204],[38.1017888,38.9561713],[38.0939657,38.9622545],[38.0897934,38.9695536],[38.0934442,38.9800954],[38.0824919,39.0214366],[38.0611089,39.0372371],[38.0527643,39.0542491],[38.0543289,39.0700423],[38.0631951,39.0813788],[38.0609283,39.0964367]]]}},{"type":"Feature","properties":{"code":"44-09","provinceCode":"44","name":"Kale"},"geometry":{"type":"Polygon","coordinates":[[[38.6521569,38.4295087],[38.6453533,38.4224278],[38.6390447,38.4122396],[38.6391735,38.4068928],[38.6314057,38.4020332],[38.654108,38.3904967],[38.6660814,38.3942134],[38.6799215,38.3901435],[38.6815524,38.3880243],[38.6755096,38.3802104],[38.6774753,38.3788238],[38.6780762,38.350037],[38.6817992,38.3468817],[38.6868524,38.3457878],[38.6857152,38.3441722],[38.6892986,38.3438104],[38.6888051,38.3386436],[38.6933756,38.3305309],[38.6928606,38.327905],[38.6879897,38.3308339],[38.682078,38.3280733],[38.6998451,38.3235703],[38.7027633,38.3196227],[38.7100482,38.3220721],[38.7172652,38.3221877],[38.7207984,38.3232253],[38.7206053,38.3261123],[38.7247467,38.3273327],[38.7297678,38.3250854],[38.7360332,38.333342],[38.7280082,38.3434234],[38.7298965,38.3490442],[38.7619543,38.3304888],[38.7743627,38.3337801],[38.7797212,38.346503],[38.775258,38.3486571],[38.775022,38.3513327],[38.7729406,38.3520731],[38.7729621,38.3565491],[38.766911,38.358585],[38.7722969,38.3638008],[38.7766635,38.3652898],[38.7861585,38.352965],[38.7891626,38.3458467],[38.7933898,38.3472435],[38.8076377,38.3427838],[38.8084745,38.3364893],[38.806479,38.3299417],[38.8119936,38.3218448],[38.8294172,38.3169627],[38.8348889,38.3235619],[38.8395881,38.321929],[38.8412404,38.3248413],[38.8768172,38.3249928],[38.8775253,38.3265415],[38.8868379,38.3210368],[38.8907647,38.3207169],[38.8936615,38.3237976],[38.901515,38.3236124],[38.9055705,38.3162556],[38.9064073,38.3077194],[38.911407,38.3085781],[38.9171147,38.305581],[38.9287662,38.3026006],[38.9325775,38.2991266],[38.9478252,38.3043414],[38.9618418,38.311618],[38.9677752,38.3188946],[38.9531428,38.327428],[38.9476393,38.3334557],[38.9338645,38.3415268],[38.9277227,38.3492262],[38.9176505,38.3556887],[38.908956,38.3569956],[38.894535,38.3561557],[38.8902424,38.3581649],[38.8848907,38.3647569],[38.8820887,38.3767707],[38.8767066,38.3864261],[38.867576,38.3935788],[38.8568233,38.4000437],[38.8344346,38.4097645],[38.8318099,38.4166295],[38.8337801,38.4319105],[38.8302175,38.435251],[38.813149,38.4435089],[38.7930337,38.4352519],[38.7569425,38.4298308],[38.7488785,38.4273367],[38.7358245,38.4195547],[38.7280425,38.4167768],[38.7141646,38.4151137],[38.6733246,38.4234458],[38.6521569,38.4295087]]]}},{"type":"Feature","properties":{"code":"44-10","provinceCode":"44","name":"Kuluncak"},"geometry":{"type":"Polygon","coordinates":[[[37.5558713,38.7888147],[37.6209203,38.7750961],[37.635567,38.7679825],[37.646612,38.7569362],[37.6473323,38.7488844],[37.6413296,38.732029],[37.6461318,38.7191038],[37.6538153,38.7117973],[37.683829,38.7039278],[37.7150432,38.7009297],[37.738814,38.687624],[37.7424156,38.6769402],[37.7704787,38.6858859],[37.7996487,38.7060154],[37.8229327,38.7164364],[37.8341432,38.7186289],[37.8391723,38.7245686],[37.826276,38.7359062],[37.8044449,38.7408128],[37.7929743,38.7581272],[37.7981546,38.7734182],[37.8203557,38.7846679],[37.8321963,38.7927436],[37.8273861,38.8048553],[37.8054653,38.8125965],[37.7929188,38.8268289],[37.7441317,38.8426193],[37.729701,38.8506883],[37.7274808,38.8584684],[37.7378414,38.8650951],[37.7396915,38.8823794],[37.7459818,38.8858358],[37.7574524,38.8852597],[37.7734389,38.8789628],[37.7998649,38.8750927],[37.806406,38.8785554],[37.8082375,38.883851],[37.8019581,38.890979],[37.784428,38.9019752],[37.7810266,38.910323],[37.7823348,38.9166341],[37.7893992,38.9243695],[37.7891375,38.9343428],[37.7843798,38.9398256],[37.790969,38.9646613],[37.788091,38.9730017],[37.7791951,38.9821547],[37.7731857,38.9914859],[37.7527695,38.9727703],[37.7377776,38.9719314],[37.6888886,38.9874873],[37.6433256,39.0094374],[37.6130468,39.0147614],[37.6025843,39.0108094],[37.5936211,39.013666],[37.5697316,39.0105881],[37.5579782,39.0143307],[37.5294869,39.0067461],[37.5141008,39.0274971],[37.5108285,39.0348917],[37.4939728,39.0405027],[37.4807291,39.0414378],[37.469492,39.0342682],[37.4703158,39.0210862],[37.4805906,39.005062],[37.5046595,38.9730343],[37.5086795,38.9632939],[37.5361475,38.9339214],[37.5451215,38.9297049],[37.5428669,38.9168863],[37.5502438,38.9052614],[37.5352127,38.8471588],[37.5582508,38.8034883],[37.5576972,38.7926114],[37.5558713,38.7888147]]]}},{"type":"Feature","properties":{"code":"44-11","provinceCode":"44","name":"Pütürge"},"geometry":{"type":"Polygon","coordinates":[[[38.7172652,38.3221877],[38.7324071,38.3144205],[38.732686,38.3056315],[38.7361936,38.302657],[38.7388658,38.2944164],[38.7364626,38.2874272],[38.7404108,38.2829301],[38.7393808,38.2811784],[38.7318063,38.2808498],[38.7256479,38.2913513],[38.6877448,38.2951701],[38.6587429,38.2785844],[38.6464262,38.2764956],[38.641963,38.2781464],[38.6423049,38.2693568],[38.6167288,38.2631869],[38.6197543,38.2612494],[38.612913,38.2586927],[38.6025667,38.259059],[38.5986185,38.2568686],[38.5922241,38.2571382],[38.5838341,38.2506003],[38.5825971,38.2438303],[38.5793924,38.2383992],[38.5839843,38.2335958],[38.6099052,38.2354835],[38.6100873,38.2229046],[38.6167093,38.2058969],[38.608296,38.2035176],[38.6050128,38.1996084],[38.6058711,38.1951565],[38.6104504,38.1933587],[38.6204094,38.1848768],[38.6114169,38.1723822],[38.6051845,38.1747822],[38.5990246,38.1748368],[38.5971851,38.1727977],[38.5889625,38.1531199],[38.5918362,38.1465071],[38.5925821,38.1376615],[38.5877608,38.131046],[38.5824023,38.1270023],[38.5739972,38.1243472],[38.5983084,38.1139981],[38.6095716,38.1039552],[38.6131561,38.0979226],[38.6244106,38.0914211],[38.638084,38.0878895],[38.6384332,38.0841421],[38.642435,38.0782475],[38.6665727,38.0620732],[38.6734468,38.0593272],[38.6755013,38.055323],[38.6818528,38.0537727],[38.6825234,38.0509214],[38.6927962,38.04954],[38.6957949,38.0506468],[38.6959827,38.0486571],[38.7009555,38.0465153],[38.7138194,38.0450241],[38.7193501,38.0471321],[38.7218284,38.0526027],[38.7318277,38.0539037],[38.7387799,38.0431906],[38.746376,38.0376138],[38.7637138,38.0191902],[38.7568903,38.0095202],[38.7515258,37.9927807],[38.760581,37.9870309],[38.791418,38.0008306],[38.7974667,38.0059697],[38.8100301,38.0053484],[38.8255763,38.0094188],[38.8508963,38.035366],[38.8566899,38.0369377],[38.8637924,38.0433258],[38.8703752,38.0429712],[38.8760876,38.0462492],[38.8838768,38.0473814],[38.8891554,38.0502709],[38.8946056,38.0494598],[38.9007854,38.0522816],[38.8993573,38.0542941],[38.8908505,38.0578911],[38.8738344,38.0723355],[38.863084,38.0760349],[38.9128768,38.087123],[38.9247171,38.0888516],[38.9330186,38.0882563],[38.9358043,38.0588542],[38.939495,38.0608985],[38.9554596,38.0644125],[38.9573478,38.0663046],[38.9872384,38.0693623],[38.9924299,38.0711481],[39.0023875,38.0703336],[39.0038574,38.0716428],[39.007357,38.071043],[39.0144145,38.074506],[39.0237441,38.0752601],[39.030919,38.081002],[39.036988,38.0836269],[39.0398097,38.0892932],[39.042213,38.0893185],[39.0437189,38.0929893],[39.0466869,38.0938529],[39.0543597,38.1050589],[39.0612084,38.1288939],[39.0662134,38.1353076],[39.068724,38.1426177],[39.0802628,38.1509473],[39.0874856,38.1586006],[39.0999516,38.1640782],[39.1047999,38.1686219],[39.1069722,38.1685237],[39.1119075,38.1757099],[39.1182995,38.1789522],[39.1267178,38.1867371],[39.1219983,38.18831],[39.1117475,38.1955929],[39.10654,38.2038182],[39.110813,38.2084594],[39.119683,38.210644],[39.1227865,38.2175482],[39.1208124,38.2271738],[39.1149974,38.2330901],[39.1045904,38.238197],[39.1008556,38.2391051],[39.0801501,38.2325339],[39.075365,38.2330396],[39.0578127,38.2279323],[39.0469121,38.2314214],[39.0448993,38.227967],[39.0349817,38.2276963],[39.0319776,38.225505],[39.0281796,38.2307978],[39.0245533,38.2285054],[39.0205587,38.2316266],[39.0112388,38.2426041],[39.0111015,38.2450721],[39.0033531,38.2510385],[38.9938688,38.2531448],[38.9893627,38.256043],[38.9894056,38.2577279],[38.9723679,38.2599691],[38.9732694,38.241989],[38.9799213,38.2371183],[38.9840627,38.2365453],[38.9849209,38.23427],[38.9749217,38.2257747],[38.9758014,38.2276626],[38.968656,38.2290954],[38.9665532,38.2310001],[38.9662742,38.2350453],[38.9646005,38.2355004],[38.9682869,38.2389505],[38.9597297,38.2399498],[38.9578628,38.2414666],[38.9624439,38.24485],[38.9634863,38.2499925],[38.9535284,38.2534144],[38.9565539,38.2579301],[38.9470267,38.2595645],[38.9436793,38.2591264],[38.9424991,38.2573573],[38.9404177,38.2581155],[38.9381905,38.2792411],[38.9330323,38.2823072],[38.9243245,38.2792413],[38.9219437,38.2830009],[38.9163315,38.2817319],[38.9127045,38.28286],[38.9177967,38.2902729],[38.9279536,38.2975452],[38.9325775,38.2991266],[38.9287662,38.3026006],[38.9171147,38.305581],[38.911407,38.3085781],[38.9064073,38.3077194],[38.9055705,38.3162556],[38.901515,38.3236124],[38.8936615,38.3237976],[38.8907647,38.3207169],[38.8868379,38.3210368],[38.8775253,38.3265415],[38.8768172,38.3249928],[38.8412404,38.3248413],[38.8395881,38.321929],[38.8348889,38.3235619],[38.8294172,38.3169627],[38.8119936,38.3218448],[38.806479,38.3299417],[38.8084745,38.3364893],[38.8076377,38.3427838],[38.7933898,38.3472435],[38.7891626,38.3458467],[38.7861585,38.352965],[38.7766635,38.3652898],[38.7722969,38.3638008],[38.766911,38.358585],[38.7729621,38.3565491],[38.7729406,38.3520731],[38.775022,38.3513327],[38.775258,38.3486571],[38.7797212,38.346503],[38.7743627,38.3337801],[38.7619543,38.3304888],[38.7298965,38.3490442],[38.7280082,38.3434234],[38.7360332,38.333342],[38.7297678,38.3250854],[38.7247467,38.3273327],[38.7206053,38.3261123],[38.7207984,38.3232253],[38.7172652,38.3221877]]]}},{"type":"Feature","properties":{"code":"44-12","provinceCode":"44","name":"Yazıhan"},"geometry":{"type":"Polygon","coordinates":[[[38.3568772,38.5960703],[38.3335758,38.6015881],[38.3194282,38.6028118],[38.2991456,38.6113439],[38.2820453,38.6213466],[38.2587274,38.6405491],[38.2707366,38.6589447],[38.2686997,38.6706079],[38.2639469,38.6743185],[38.2551204,38.6748486],[38.2452754,38.6661019],[38.1794159,38.6602702],[38.1722868,38.6613305],[38.1817923,38.6690176],[38.2086114,38.6851842],[38.2109877,38.6912789],[38.195711,38.7119439],[38.1824571,38.7207226],[38.1596834,38.7292206],[38.1346636,38.7195057],[38.1003668,38.6964836],[38.0765181,38.6690451],[38.045603,38.6688101],[38.007065,38.6792121],[37.9466719,38.6767893],[37.9329061,38.6438384],[37.9428837,38.6053683],[37.9469403,38.5586665],[37.9410178,38.5292775],[37.9464392,38.5283078],[37.9503105,38.5243209],[37.9652596,38.5244746],[37.9675885,38.5161344],[37.9705677,38.5166655],[37.972786,38.5192949],[37.9775827,38.5182745],[37.9792863,38.5203456],[37.9830141,38.5206834],[37.9825314,38.5233067],[37.9861856,38.5231772],[37.9869688,38.525672],[37.9893777,38.5231042],[37.9921808,38.5235849],[37.9938346,38.5218571],[37.9996249,38.5215609],[38.010255,38.5181512],[38.0140677,38.5148505],[38.014263,38.5113956],[38.0204384,38.5089867],[38.0221969,38.5101279],[38.0188268,38.5151629],[38.0212059,38.5158595],[38.0255038,38.5145285],[38.0269013,38.5189409],[38.0296409,38.5163468],[38.0327544,38.5169785],[38.0376187,38.5149515],[38.0553701,38.5147714],[38.0601129,38.5084646],[38.062035,38.5084351],[38.0665282,38.5125647],[38.07641,38.5122667],[38.0796469,38.5167333],[38.0834592,38.5167998],[38.085168,38.5193986],[38.0849847,38.5252067],[38.0881266,38.5260199],[38.0951401,38.5197165],[38.0984968,38.5210427],[38.1013871,38.5198958],[38.1057127,38.5210114],[38.1070695,38.5199499],[38.1060542,38.5141034],[38.1212058,38.5188415],[38.1202436,38.5214037],[38.1235018,38.5211346],[38.1243141,38.5166659],[38.1280074,38.5141366],[38.1312842,38.513595],[38.1329765,38.515705],[38.1430153,38.5147073],[38.1440611,38.5135556],[38.1419019,38.510846],[38.1446763,38.5097559],[38.1450961,38.5068635],[38.1492884,38.5084935],[38.1540369,38.5067449],[38.1608423,38.5107209],[38.1710458,38.5111194],[38.1800047,38.5069068],[38.1847461,38.5080082],[38.1873228,38.5045086],[38.190372,38.5067412],[38.194379,38.5056247],[38.206913,38.50653],[38.2135316,38.5009678],[38.2276684,38.5090557],[38.2366436,38.505129],[38.2765531,38.4998075],[38.3008455,38.4915194],[38.3071813,38.4871286],[38.3160209,38.4842323],[38.3533091,38.498036],[38.3779828,38.5017024],[38.399377,38.5015802],[38.4243044,38.5082621],[38.4091129,38.5167587],[38.384858,38.5253309],[38.3618553,38.5418475],[38.3573921,38.5517824],[38.3568772,38.5960703]]]}},{"type":"Feature","properties":{"code":"44-13","provinceCode":"44","name":"Yeşilyurt"},"geometry":{"type":"Polygon","coordinates":[[[38.3071813,38.4871286],[38.3008455,38.4915194],[38.2765531,38.4998075],[38.2366436,38.505129],[38.2276684,38.5090557],[38.2135316,38.5009678],[38.206913,38.50653],[38.194379,38.5056247],[38.190372,38.5067412],[38.1873228,38.5045086],[38.1847461,38.5080082],[38.1800047,38.5069068],[38.1710458,38.5111194],[38.1608423,38.5107209],[38.1540369,38.5067449],[38.1492884,38.5084935],[38.1450961,38.5068635],[38.1446763,38.5097559],[38.1419019,38.510846],[38.1440611,38.5135556],[38.1430153,38.5147073],[38.1329765,38.515705],[38.1312842,38.513595],[38.1280074,38.5141366],[38.1243141,38.5166659],[38.1235018,38.5211346],[38.1202436,38.5214037],[38.1212058,38.5188415],[38.1060542,38.5141034],[38.1070695,38.5199499],[38.1057127,38.5210114],[38.1013871,38.5198958],[38.0984968,38.5210427],[38.0951401,38.5197165],[38.0881266,38.5260199],[38.0849847,38.5252067],[38.086617,38.5198827],[38.0909943,38.5166928],[38.0900717,38.5143088],[38.0941057,38.5083818],[38.0894923,38.4986256],[38.0940199,38.4977355],[38.0721545,38.4573695],[38.075974,38.4485306],[38.081553,38.4474383],[38.0876684,38.4483962],[38.0934191,38.4559244],[38.1114864,38.4472702],[38.107903,38.4423966],[38.1096411,38.4418924],[38.115263,38.4482953],[38.1192541,38.4633847],[38.1267214,38.4814608],[38.1286311,38.4813264],[38.1346392,38.4751783],[38.1412267,38.4795459],[38.1463122,38.4791595],[38.1521916,38.4749431],[38.1579208,38.4788739],[38.1703126,38.4808225],[38.1763101,38.4731792],[38.1760096,38.4677697],[38.1671584,38.4600915],[38.1654632,38.4527317],[38.1605387,38.4450267],[38.1537366,38.4441024],[38.1446814,38.4340769],[38.1420851,38.4282106],[38.1340644,38.4282423],[38.1280088,38.4184099],[38.1227302,38.4170985],[38.1183148,38.4120195],[38.1179919,38.4066756],[38.1142182,38.4030496],[38.1065297,38.3875365],[38.1037577,38.3875405],[38.103139,38.3837179],[38.1009025,38.3843764],[38.096981,38.3800685],[38.0970347,38.377806],[38.1014013,38.3745678],[38.0948353,38.3694705],[38.0957813,38.3672804],[38.0936122,38.3618323],[38.0888271,38.3655506],[38.0803942,38.3538736],[38.0806158,38.3522601],[38.0871963,38.3479335],[38.0915701,38.3555926],[38.0999207,38.3526621],[38.0983758,38.3313893],[38.1044053,38.3299754],[38.1052422,38.3231242],[38.1089544,38.3226697],[38.1068477,38.3147528],[38.1110143,38.3129726],[38.0906081,38.3069448],[38.0881404,38.3076352],[38.0912518,38.2955784],[38.089907,38.289631],[38.080287,38.2828796],[38.0804372,38.2788033],[38.0701011,38.2624527],[38.0614042,38.2627826],[38.0378217,38.2839699],[38.0322647,38.2798814],[38.0259132,38.2855408],[38.0262565,38.2816837],[38.0235743,38.2814984],[38.0232954,38.2780622],[38.0208921,38.2774221],[38.0229091,38.275586],[38.0176949,38.2727728],[38.009305,38.2591601],[38.0056572,38.2590422],[38.0019758,38.2563527],[38.0016683,38.2515661],[37.9989902,38.2495214],[37.9994774,38.245983],[37.9962158,38.2452078],[37.9951821,38.2377554],[37.9890012,38.2231474],[37.987928,38.211819],[37.9902499,38.2066304],[37.9891465,38.2030943],[37.9903965,38.1997079],[37.9885621,38.1986984],[37.9855298,38.1863194],[37.9893493,38.1770594],[37.9885554,38.175575],[37.9940486,38.1671741],[38.0061722,38.1603582],[38.00982,38.1603751],[38.0114937,38.1576249],[38.0250764,38.1578105],[38.0354404,38.1608981],[38.0390453,38.1604932],[38.0467732,38.1637192],[38.0527997,38.1630408],[38.0554604,38.1652846],[38.0590217,38.1652824],[38.0654168,38.16849],[38.0689787,38.1774642],[38.0737209,38.177363],[38.0748581,38.1745798],[38.0725836,38.1641205],[38.0759096,38.1635807],[38.0778193,38.1655208],[38.0804801,38.165369],[38.0819177,38.1636481],[38.0883924,38.173356],[38.1093406,38.1884107],[38.1138038,38.1855773],[38.1223869,38.1873313],[38.125348,38.1857796],[38.12258,38.1829798],[38.1222582,38.1795221],[38.126378,38.1775317],[38.1293004,38.1727551],[38.1287813,38.1708349],[38.1223225,38.1668536],[38.1270861,38.1641374],[38.1280303,38.1593459],[38.1315171,38.1562835],[38.1388235,38.1532379],[38.1195977,38.1408236],[38.1155024,38.122595],[38.107624,38.1163263],[38.1090941,38.1027844],[38.1257744,38.0965574],[38.1295434,38.0931654],[38.1317705,38.1052243],[38.1486511,38.1076822],[38.1564819,38.1131973],[38.1592659,38.1193167],[38.1704974,38.116019],[38.1876462,38.1036802],[38.1937593,38.1408404],[38.2052135,38.1414425],[38.2154396,38.1482475],[38.2175731,38.1588566],[38.2229375,38.1675959],[38.2594681,38.202546],[38.263235,38.2100626],[38.2695865,38.2066904],[38.2749939,38.2084777],[38.271346,38.201497],[38.2565832,38.1881071],[38.2555532,38.1840256],[38.2580852,38.1787631],[38.270788,38.1675285],[38.2791566,38.1664149],[38.2675695,38.1617923],[38.282032,38.1565619],[38.2831049,38.1543347],[38.2910871,38.1495426],[38.2880401,38.1472307],[38.281517,38.1463364],[38.2685136,38.1471802],[38.2754659,38.1401936],[38.2848215,38.1330376],[38.301773,38.1326325],[38.3071374,38.1415943],[38.3113861,38.1572706],[38.3098197,38.1584854],[38.2908725,38.1601389],[38.2996273,38.1663306],[38.3150501,38.167431],[38.3212995,38.1646604],[38.3103131,38.1485639],[38.3038974,38.1317211],[38.3062791,38.1266068],[38.3077168,38.1280415],[38.3209884,38.1252817],[38.3242929,38.1199389],[38.3109355,38.112342],[38.2987046,38.1103836],[38.3016014,38.1088303],[38.3035969,38.1051496],[38.312813,38.1065509],[38.3269858,38.1128486],[38.3454609,38.1164782],[38.3506206,38.1191935],[38.3650212,38.117423],[38.3781194,38.1187235],[38.3958081,38.1064144],[38.3992338,38.1058587],[38.4018253,38.1070765],[38.4151265,38.1025569],[38.4163141,38.1159549],[38.422451,38.1159887],[38.4291503,38.1258615],[38.4417411,38.1751234],[38.4562602,38.1819215],[38.4532642,38.1877024],[38.4413766,38.1909742],[38.4369564,38.197315],[38.4172153,38.1988665],[38.4078598,38.2070276],[38.405478,38.2143112],[38.4028172,38.2174976],[38.399384,38.2178685],[38.3955109,38.2251678],[38.3915841,38.2252184],[38.3867776,38.2287835],[38.3877969,38.2334946],[38.3779263,38.2425957],[38.3781624,38.246101],[38.3725834,38.2453258],[38.3699012,38.2465391],[38.3645582,38.2456291],[38.3643651,38.2438934],[38.3618545,38.2430844],[38.3608031,38.2445843],[38.3519625,38.2413823],[38.3463836,38.2414834],[38.3333802,38.2450899],[38.3307838,38.2499769],[38.3440017,38.2502128],[38.3467269,38.2535155],[38.3475423,38.2610977],[38.3470166,38.2635323],[38.3447313,38.2644505],[38.3452248,38.2678705],[38.3501601,38.2720316],[38.3437335,38.275906],[38.339678,38.3032152],[38.3195937,38.3137807],[38.3199091,38.3203936],[38.3154358,38.3230328],[38.3132994,38.3226287],[38.3082817,38.3262627],[38.3088795,38.3294179],[38.3056155,38.3374638],[38.3037688,38.3359484],[38.3003531,38.3414561],[38.3023496,38.3452972],[38.299799,38.3507605],[38.3146859,38.3517941],[38.3114799,38.3635598],[38.3166003,38.3631531],[38.3189018,38.3686567],[38.3228637,38.3730519],[38.3256474,38.373818],[38.323972,38.3756736],[38.3249044,38.3815318],[38.322984,38.3847193],[38.3179262,38.3878834],[38.3208241,38.3925721],[38.3197443,38.3946186],[38.3121577,38.3938504],[38.3087146,38.394945],[38.2947217,38.4037166],[38.2877051,38.4254387],[38.2857227,38.4279248],[38.2810342,38.4292191],[38.2809377,38.4319002],[38.2850229,38.4323475],[38.2904087,38.4307506],[38.2903658,38.4547164],[38.28822,38.453641],[38.2856237,38.4553046],[38.2852077,38.4596714],[38.2795429,38.4608476],[38.2775473,38.4640903],[38.287705,38.4732987],[38.2897782,38.4716337],[38.2985412,38.4776495],[38.2981252,38.4790923],[38.3018457,38.4797325],[38.3071813,38.4871286]]]}}]}