{"type":"FeatureCollection","features":[{"type":"Feature","properties":{"code":"16-01","provinceCode":"16","name":"Büyükorhan"},"geometry":{"type":"Polygon","coordinates":[[[28.7737024,39.8426985],[28.7723652,39.8322182],[28.7682399,39.828647],[28.7743154,39.8216768],[28.7750654,39.8161463],[28.7712402,39.8124014],[28.7679399,39.8123438],[28.7608144,39.8177018],[28.7530138,39.8210432],[28.7499386,39.8211008],[28.7379377,39.8164344],[28.7074854,39.816492],[28.6911477,39.82627],[28.6847723,39.8266019],[28.6916615,39.8189447],[28.6915257,39.8117239],[28.6936418,39.8107607],[28.6974429,39.7978759],[28.7022236,39.7954372],[28.7014007,39.79071],[28.7049667,39.7887227],[28.7057505,39.785862],[28.7113541,39.7801705],[28.7235412,39.7745086],[28.7294976,39.7679728],[28.7299678,39.7658342],[28.7253908,39.7599323],[28.7288073,39.7582636],[28.7321048,39.761583],[28.7347741,39.7589275],[28.730142,39.7547025],[28.7273156,39.746433],[28.7292784,39.7419658],[28.7247644,39.7385158],[28.725297,39.734256],[28.7294182,39.7319751],[28.7241508,39.7258634],[28.727112,39.7214697],[28.7245809,39.7168154],[28.7283555,39.7143521],[28.7269776,39.7103416],[28.7311686,39.7032304],[28.7264243,39.6908288],[28.7314729,39.6873316],[28.7362303,39.6881123],[28.741208,39.6868537],[28.7613324,39.6977427],[28.7793235,39.6963201],[28.7816702,39.6852667],[28.7806035,39.6816001],[28.7691547,39.6731989],[28.7644969,39.6661105],[28.7580613,39.6607458],[28.7586406,39.6581081],[28.7566022,39.6558618],[28.7622266,39.6549934],[28.7622611,39.65282],[28.7674944,39.6550607],[28.7696019,39.6463985],[28.7780586,39.6479862],[28.7888333,39.6436548],[28.7867413,39.6400032],[28.7846897,39.6426422],[28.7823216,39.6424418],[28.7799353,39.6355907],[28.7842569,39.6345516],[28.7889127,39.638783],[28.7916306,39.6386783],[28.7880689,39.6302885],[28.7962797,39.6244217],[28.8070699,39.6242345],[28.808301,39.6208419],[28.8149082,39.6171577],[28.8183605,39.6174852],[28.8258286,39.6147153],[28.8341141,39.6167277],[28.8390535,39.6132952],[28.8504336,39.6192303],[28.855001,39.6165437],[28.8548796,39.6183957],[28.8569687,39.6192262],[28.8615511,39.614087],[28.8666053,39.612893],[28.8701095,39.6141908],[28.8711877,39.6166826],[28.878331,39.6154886],[28.8823069,39.6163192],[28.8841264,39.6194858],[28.8873055,39.6175475],[28.8954477,39.6207316],[28.8947739,39.6234827],[28.8969303,39.6243132],[28.9060952,39.6205759],[28.9101222,39.6225329],[28.9145776,39.6218514],[28.9177666,39.6231058],[28.9250173,39.6193924],[28.9407216,39.6231045],[28.9412589,39.6202734],[28.9454337,39.6184895],[28.9468497,39.6254936],[28.9528399,39.6317247],[28.9497759,39.6322815],[28.9507743,39.6355426],[28.9557666,39.6372426],[28.9546712,39.6386861],[28.9590043,39.6417042],[28.9592477,39.6453782],[28.9647006,39.6521072],[28.9656013,39.6564554],[28.9847803,39.6627683],[28.9916865,39.6833202],[28.9958633,39.6857882],[28.997004,39.6895189],[29.0003548,39.6890251],[29.013259,39.6929203],[29.0150414,39.6913842],[29.0213153,39.6920974],[29.027304,39.6960472],[29.0271614,39.7016972],[29.0330075,39.7061949],[29.0327288,39.7104791],[29.0455604,39.7171492],[29.0483092,39.7201201],[29.0432713,39.7228445],[29.0211887,39.7287442],[29.0198773,39.73385],[29.0131562,39.733787],[29.0107792,39.7408463],[29.0139758,39.7496694],[29.0147955,39.7614529],[28.9984844,39.7659263],[29.0026646,39.7598777],[29.0003696,39.7583024],[28.9892224,39.7582394],[28.9747146,39.7649812],[28.9706163,39.7690134],[28.9823373,39.7742422],[28.9852061,39.7883204],[28.9813947,39.7884778],[28.968977,39.7847303],[28.9578708,39.7843838],[28.9548176,39.7857538],[28.9435967,39.7840648],[28.9448742,39.7960282],[28.9417595,39.8094407],[28.9449561,39.8133444],[28.945202,39.819766],[28.9479888,39.8258093],[28.9313499,39.8242356],[28.9263501,39.825054],[28.9229895,39.8275089],[28.9154487,39.8277607],[28.9154487,39.838335],[28.9047113,39.8377686],[28.9041376,39.8441879],[28.9079899,39.8453836],[28.9081539,39.8489076],[28.9102849,39.8492223],[28.9120882,39.8542563],[28.9141373,39.8552001],[28.9106128,39.8619953],[28.8904494,39.8628132],[28.8733187,39.8654556],[28.8688926,39.8669026],[28.8643846,39.8736337],[28.8597025,39.8762567],[28.8521679,39.8766923],[28.8464326,39.8747241],[28.838956,39.8689859],[28.8455052,39.8663614],[28.8476497,39.8621796],[28.8473019,39.8553282],[28.8426073,39.8454946],[28.8328704,39.8353482],[28.8307839,39.8262685],[28.8269587,39.824488],[28.8142079,39.8305415],[28.807253,39.8294732],[28.8021527,39.8327668],[28.7941919,39.8325638],[28.7917167,39.8346949],[28.7901416,39.8333125],[28.7878061,39.8344685],[28.7888223,39.8397986],[28.7847653,39.8432697],[28.7811719,39.8441597],[28.7737024,39.8426985]]]}},{"type":"Feature","properties":{"code":"16-02","provinceCode":"16","name":"Gemlik"},"geometry":{"type":"Polygon","coordinates":[[[29.2986808,40.3118262],[29.3364282,40.3178877],[29.3948925,40.34959],[29.3491464,40.3645296],[29.3367064,40.3723431],[29.3281441,40.3758156],[29.3196567,40.3763413],[29.3075275,40.371568],[29.2920553,40.3740283],[29.2844919,40.3708646],[29.2558671,40.3849564],[29.2418941,40.4108407],[29.2369846,40.4269271],[29.2271625,40.4477889],[29.228119,40.4577164],[29.2338588,40.4674784],[29.2342414,40.4738992],[29.2296491,40.4855276],[29.226054,40.5213111],[29.2214382,40.5246344],[29.2177906,40.5234194],[29.2135562,40.5242022],[29.2055483,40.529357],[29.2052728,40.5351361],[29.1854487,40.5378536],[29.1764531,40.5368272],[29.1667775,40.5428756],[29.1669336,40.5476191],[29.162564,40.5479748],[29.1528884,40.5542594],[29.1580383,40.5627959],[29.1577262,40.5665896],[29.1486749,40.5759544],[29.1324449,40.5772582],[29.1268268,40.5686049],[29.1226132,40.5682493],[29.1168391,40.5710943],[29.1063833,40.5708573],[29.100141,40.5676566],[29.0998288,40.5760729],[29.0968638,40.5778509],[29.0850034,40.5764285],[29.0767323,40.5723983],[29.0715824,40.5644557],[29.0665886,40.5644557],[29.0619069,40.5616104],[29.0506707,40.5667082],[29.0399027,40.5761914],[29.0319438,40.5797473],[29.0305393,40.5769026],[29.018991,40.5702646],[29.0158699,40.5638629],[29.015832,40.5595949],[29.0115764,40.5525062],[29.0079415,40.5448454],[29.0039913,40.5216312],[29.0006615,40.5142113],[28.9999473,40.4998699],[28.9949528,40.4865252],[29.0004148,40.4802343],[29.0055647,40.4792846],[29.0112119,40.470323],[29.0168322,40.4705465],[29.0217526,40.4772193],[29.0260174,40.4792351],[29.0311136,40.4786638],[29.0320443,40.4799777],[29.0512623,40.4782925],[29.0548779,40.4792004],[29.0607681,40.4773152],[29.0639679,40.4787536],[29.0701477,40.4769071],[29.0833695,40.4775206],[29.0848876,40.4755946],[29.0854455,40.4764964],[29.092953,40.4737583],[29.098425,40.4678588],[29.1027458,40.466684],[29.1066226,40.4622056],[29.1149669,40.4568566],[29.1215196,40.4554096],[29.1231799,40.452587],[29.1382565,40.4414626],[29.1508817,40.436653],[29.15577,40.4244258],[29.15365,40.4246239],[29.1540661,40.4234372],[29.1514136,40.4221548],[29.1510658,40.4233921],[29.1502695,40.4224114],[29.1459304,40.4236454],[29.1409862,40.4218429],[29.1356278,40.423093],[29.1319152,40.4206843],[29.1239556,40.4193721],[29.1215348,40.4173593],[29.1165776,40.4176768],[29.119404,40.4195969],[29.1053075,40.4171245],[29.1055443,40.4151804],[29.0960291,40.4189082],[29.0903236,40.4167926],[29.0860319,40.4192509],[29.0880719,40.4175575],[29.0858832,40.4171164],[29.0887301,40.4153241],[29.086179,40.4143998],[29.0801802,40.417821],[29.0827603,40.4160579],[29.0812132,40.4144839],[29.08255,40.4121407],[29.0785719,40.4142703],[29.0758184,40.4139038],[29.0823795,40.4119539],[29.0810232,40.4103978],[29.0828579,40.4094015],[29.0787654,40.4077217],[29.0755811,40.3995975],[29.0675044,40.3904132],[29.0701652,40.3859961],[29.0689907,40.3758075],[29.0646205,40.369203],[29.058654,40.364416],[29.0512225,40.3623414],[29.0320625,40.3640173],[29.0344549,40.3652497],[29.031997,40.365272],[29.0260859,40.3619267],[28.9931538,40.3586847],[28.9850943,40.3562516],[28.9862213,40.3505135],[28.9936545,40.350602],[28.9947969,40.3490055],[29.0004037,40.3476985],[29.024432,40.3463345],[29.0304605,40.3428562],[29.0342227,40.3428473],[29.0368588,40.3463249],[29.0416341,40.3465901],[29.0450123,40.3441528],[29.0504489,40.3450548],[29.0512743,40.3440937],[29.0544933,40.345257],[29.0543734,40.3513256],[29.0572742,40.3542978],[29.0643537,40.3575914],[29.0665619,40.3605743],[29.0776192,40.3624921],[29.0872029,40.3601309],[29.0912435,40.3566154],[29.1017973,40.3539489],[29.1150372,40.3473875],[29.1257606,40.3529937],[29.1300618,40.3532544],[29.1322148,40.3561588],[29.1385767,40.3588332],[29.1395394,40.3611504],[29.1432994,40.3599008],[29.146541,40.3555554],[29.1486631,40.3566085],[29.1490307,40.347574],[29.1519897,40.3422649],[29.1602831,40.344422],[29.1607392,40.3420751],[29.1671494,40.344433],[29.167686,40.3429948],[29.1733325,40.3449175],[29.1734253,40.3465676],[29.1873891,40.3505524],[29.1894057,40.348136],[29.2078493,40.34315],[29.213874,40.3433379],[29.2129784,40.3424657],[29.2178219,40.3407533],[29.2257366,40.3418349],[29.2285961,40.3307364],[29.2810602,40.3268585],[29.2833878,40.3209481],[29.2947012,40.3175718],[29.2986808,40.3118262]]]}},{"type":"Feature","properties":{"code":"16-03","provinceCode":"16","name":"Gürsu"},"geometry":{"type":"Polygon","coordinates":[[[29.1924296,40.1989695],[29.1968255,40.1987193],[29.2017575,40.204582],[29.2053457,40.2052495],[29.2091681,40.2091331],[29.2146303,40.2097865],[29.2144357,40.2116071],[29.2267893,40.2101014],[29.2313588,40.210906],[29.2399425,40.2161418],[29.2484735,40.2183452],[29.25575,40.2239012],[29.2661629,40.2354907],[29.2728121,40.2478443],[29.2809668,40.2659397],[29.2836013,40.2828817],[29.2910033,40.3017332],[29.2986808,40.3118262],[29.2947012,40.3175718],[29.2833878,40.3209481],[29.2810602,40.3268585],[29.2285961,40.3307364],[29.2313269,40.3233077],[29.2207843,40.3139788],[29.2244498,40.3113784],[29.2207254,40.3097911],[29.2003594,40.3080866],[29.2047187,40.3034277],[29.2056199,40.2986695],[29.1945592,40.2926392],[29.1968867,40.2878413],[29.1948118,40.2858411],[29.1837235,40.2827612],[29.1695591,40.2832938],[29.1615574,40.2805349],[29.1579199,40.2847391],[29.1496312,40.2819566],[29.1470493,40.2775747],[29.133718,40.2708694],[29.1310733,40.2666453],[29.1354239,40.2627934],[29.1337394,40.2580775],[29.1350846,40.2517791],[29.1430667,40.2540391],[29.1437225,40.2511267],[29.1412788,40.2511496],[29.1398115,40.246239],[29.1432932,40.2445767],[29.141317,40.2382095],[29.1446605,40.2389224],[29.1457274,40.2362736],[29.140434,40.2344639],[29.1387592,40.229948],[29.1548654,40.2239571],[29.1556603,40.225711],[29.1596515,40.225319],[29.16005,40.2240119],[29.1635316,40.2249944],[29.1635847,40.2280953],[29.1671874,40.2272934],[29.1673325,40.2223971],[29.176125,40.2193149],[29.1770957,40.2150998],[29.1795138,40.2132118],[29.1756136,40.2096632],[29.1780319,40.2059989],[29.1788157,40.1983781],[29.1924296,40.1989695]]]}},{"type":"Feature","properties":{"code":"16-04","provinceCode":"16","name":"Harmancık"},"geometry":{"type":"Polygon","coordinates":[[[29.1495952,39.8064816],[29.1472362,39.8042819],[29.1513013,39.8012124],[29.149094,39.7950382],[29.1354249,39.7842732],[29.1345165,39.7811169],[29.1309098,39.7795075],[29.1312307,39.7769906],[29.128184,39.7764164],[29.1277298,39.7747808],[29.1179885,39.7747521],[29.1151438,39.7761882],[29.1050324,39.7744228],[29.1008749,39.7768237],[29.0966898,39.7764086],[29.1049063,39.7597847],[29.0906686,39.7524003],[29.0839925,39.7542334],[29.0805182,39.7510909],[29.0744552,39.7409818],[29.0820516,39.7272408],[29.0815066,39.7248045],[29.0777939,39.7253546],[29.0642418,39.7195425],[29.076152,39.7136047],[29.0822335,39.7144106],[29.0818612,39.712609],[29.071071,39.7084587],[29.0559455,39.7129054],[29.0483092,39.7201201],[29.0455604,39.7171492],[29.0327288,39.7104791],[29.0330075,39.7061949],[29.0271614,39.7016972],[29.027304,39.6960472],[29.0213153,39.6920974],[29.0150414,39.6913842],[29.013259,39.6929203],[29.0003548,39.6890251],[28.997004,39.6895189],[28.9958633,39.6857882],[28.9916865,39.6833202],[28.9847803,39.6627683],[28.9656013,39.6564554],[28.9647006,39.6521072],[28.9592477,39.6453782],[28.9590043,39.6417042],[28.9546712,39.6386861],[28.9557666,39.6372426],[28.9507743,39.6355426],[28.9497759,39.6322815],[28.9528399,39.6317247],[28.9468497,39.6254936],[28.9454337,39.6184895],[28.9508051,39.6177503],[28.9552916,39.6195988],[28.9658101,39.6155604],[28.9696181,39.6108753],[28.9771502,39.6138901],[28.9807706,39.6080184],[28.9838162,39.6071793],[28.986492,39.609882],[28.9948484,39.6108405],[28.9953009,39.6096112],[28.9919136,39.6073955],[28.9871316,39.6065459],[28.9867597,39.6017616],[28.989796,39.5990424],[28.9874077,39.5945612],[28.9893124,39.5938437],[28.9934709,39.5961908],[28.9933505,39.5975937],[28.9975543,39.5987255],[29.0222324,39.6075411],[29.0423054,39.6120725],[29.0481872,39.6111375],[29.0681669,39.6026498],[29.0840386,39.6030814],[29.0999102,39.5987652],[29.1384691,39.5975422],[29.1485523,39.5963192],[29.1571416,39.5935135],[29.1679717,39.5938012],[29.1964474,39.5992687],[29.1988748,39.6057429],[29.2155867,39.6238672],[29.2154,39.6255211],[29.2199748,39.628829],[29.2256699,39.6441435],[29.2362199,39.6539201],[29.2486372,39.6907135],[29.2655358,39.6926532],[29.2757124,39.6980411],[29.2789801,39.7074508],[29.2857956,39.7148499],[29.2858101,39.7242398],[29.2607253,39.7376195],[29.2567259,39.7380679],[29.2517745,39.7345142],[29.2490678,39.7343619],[29.2501901,39.7429413],[29.2489358,39.7467991],[29.2462291,39.7474589],[29.2447107,39.7431951],[29.2416739,39.7450732],[29.2445126,39.7501999],[29.2361284,39.753702],[29.2325635,39.7579145],[29.219294,39.7622789],[29.2117019,39.7621267],[29.208005,39.7676073],[29.2001489,39.7660849],[29.1980363,39.7639536],[29.1888599,39.7667954],[29.1762047,39.7679064],[29.1771463,39.7709262],[29.1738871,39.77389],[29.1711672,39.7800384],[29.1663479,39.7777553],[29.1653026,39.7791491],[29.1667112,39.7920833],[29.162985,39.7994556],[29.1609355,39.8020321],[29.1559982,39.8016742],[29.1495952,39.8064816]]]}},{"type":"Feature","properties":{"code":"16-05","provinceCode":"16","name":"İnegöl"},"geometry":{"type":"Polygon","coordinates":[[[29.7604957,39.8678206],[29.7416306,39.8854732],[29.747256,39.9023095],[29.7595878,39.9158754],[29.7980751,39.9318655],[29.7920247,39.9396686],[29.7841831,39.9412748],[29.7602421,39.9556695],[29.7598645,39.9665329],[29.7429684,39.9797236],[29.7401811,39.9867761],[29.7527587,39.9961771],[29.7541251,40.0017906],[29.7351393,40.0704501],[29.7216003,40.0994972],[29.7227432,40.1038447],[29.720592,40.1184907],[29.7237694,40.1355904],[29.7144098,40.1358282],[29.6683808,40.1265413],[29.656394,40.1269079],[29.6440877,40.1300852],[29.6359367,40.1371723],[29.6348348,40.1448746],[29.6282151,40.1498018],[29.6095659,40.1567191],[29.5945425,40.1572077],[29.580584,40.1526684],[29.5724869,40.1518329],[29.5649752,40.1540318],[29.5633759,40.1637193],[29.5496322,40.1727189],[29.5357276,40.1861509],[29.5194256,40.1953076],[29.5087175,40.2000686],[29.4828262,40.2039748],[29.4668544,40.2081804],[29.4549559,40.2139153],[29.4451904,40.202794],[29.434679,40.1967884],[29.4186026,40.1898419],[29.4012761,40.1851469],[29.3921693,40.17195],[29.3850703,40.1564664],[29.3751045,40.1199749],[29.3649708,40.1139652],[29.3458586,40.0944079],[29.2423081,40.0559933],[29.2497283,40.051048],[29.2602986,40.0475216],[29.2684283,40.0423515],[29.297103,40.0318721],[29.2986054,40.0219697],[29.3033026,40.018639],[29.3076519,40.0087791],[29.3039985,40.0013166],[29.30713,39.9949195],[29.3144367,39.9870556],[29.3212215,39.9841897],[29.3255708,39.9771244],[29.3375747,39.9672585],[29.347839,39.9637251],[29.3506225,39.9580579],[29.3574074,39.9577246],[29.3577553,39.9549908],[29.3531451,39.9478559],[29.3674106,39.9447883],[29.3693243,39.9421207],[29.3689764,39.9384526],[29.3641052,39.9325165],[29.3642792,39.9296483],[29.3691503,39.924512],[29.3735866,39.9137712],[29.3763701,39.9153057],[29.3823721,39.9085669],[29.3861994,39.9076995],[29.3937671,39.9093676],[29.4008129,39.9130373],[29.4144696,39.9066986],[29.4220373,39.909501],[29.429605,39.9183079],[29.4515253,39.9065652],[29.4533519,39.9036292],[29.453178,39.8981573],[29.4489891,39.886433],[29.4490761,39.8770213],[29.4403775,39.8676083],[29.4427261,39.8591955],[29.4419433,39.8499136],[29.4302873,39.8405637],[29.4256771,39.8437028],[29.4211538,39.8421666],[29.4175005,39.8373577],[29.4219367,39.833684],[29.4238387,39.8269099],[29.4553492,39.8307965],[29.4716972,39.8384283],[29.5088778,39.8716419],[29.5262374,39.8770094],[29.5605848,39.8788571],[29.5780848,39.8714709],[29.6041292,39.8677085],[29.6467573,39.865404],[29.7604957,39.8678206]]]}},{"type":"Feature","properties":{"code":"16-06","provinceCode":"16","name":"İznik"},"geometry":{"type":"Polygon","coordinates":[[[29.7980765,40.3697995],[29.8167358,40.3782394],[29.8249271,40.3850853],[29.8422803,40.3871451],[29.8468825,40.3941517],[29.84405,40.3989138],[29.8509026,40.4052193],[29.8575269,40.4076863],[29.861193,40.4111474],[29.8860048,40.4154732],[29.8908131,40.4249246],[29.8922445,40.4326679],[29.886317,40.4458573],[29.8802471,40.4542499],[29.8582035,40.4529841],[29.8513075,40.4659835],[29.8641753,40.4822746],[29.8865201,40.4904357],[29.8994309,40.4999015],[29.9034373,40.5076831],[29.9012237,40.5198322],[29.9052577,40.5301248],[29.9033199,40.5445484],[29.9044623,40.5508665],[29.9056284,40.5538142],[29.9096297,40.5505759],[29.9100426,40.5525886],[29.9052722,40.5568716],[29.9050031,40.5584435],[29.9080649,40.5604515],[29.9059477,40.5655353],[29.9020893,40.568033],[29.9026167,40.5707129],[29.8957741,40.5741272],[29.8944186,40.5724105],[29.8836423,40.5731547],[29.8699835,40.581623],[29.8583959,40.584227],[29.8194106,40.5833349],[29.812077,40.5843234],[29.8022989,40.5864933],[29.7929018,40.5913874],[29.7764886,40.59604],[29.7737901,40.5987398],[29.765282,40.5995111],[29.7406146,40.606453],[29.7350588,40.6084534],[29.733281,40.6106707],[29.7052364,40.6118137],[29.7046693,40.6144126],[29.6993856,40.6113023],[29.6970715,40.6066518],[29.6874404,40.6045977],[29.6852113,40.6070006],[29.6833906,40.6055796],[29.6829652,40.6031508],[29.6858409,40.6027503],[29.6844286,40.6014067],[29.6864194,40.5958511],[29.6844116,40.5901529],[29.6787452,40.5867802],[29.6766352,40.5836271],[29.6650474,40.5777469],[29.6597724,40.57069],[29.6570158,40.5714138],[29.6556545,40.5702376],[29.654021,40.5714009],[29.6437093,40.5655843],[29.6421438,40.5595603],[29.6433009,40.5578021],[29.6392171,40.5545959],[29.6349971,40.5565869],[29.6255022,40.5457264],[29.6207377,40.5444851],[29.6175047,40.5460884],[29.6155308,40.5445626],[29.6175047,40.5445885],[29.6161774,40.5431403],[29.6138973,40.5451574],[29.6137952,40.5427524],[29.610426,40.541692],[29.6069207,40.5419506],[29.605117,40.5438127],[29.6028369,40.5408644],[29.5985829,40.5412006],[29.5999101,40.5433213],[29.5967111,40.5418731],[29.5960985,40.5450799],[29.594465,40.5451574],[29.5900408,40.5436316],[29.5867738,40.5395713],[29.5804438,40.5444075],[29.579559,40.5412524],[29.574216,40.5390282],[29.5709489,40.5399592],[29.5709489,40.536985],[29.5673415,40.5349934],[29.5653676,40.5368298],[29.5641085,40.5361056],[29.5641765,40.5391834],[29.560433,40.541511],[29.5563492,40.5376316],[29.5581529,40.5305446],[29.5521973,40.5263023],[29.5504616,40.5287597],[29.5520611,40.5303376],[29.5432128,40.5340623],[29.5410688,40.5323034],[29.5314378,40.532588],[29.5269455,40.5283717],[29.5249717,40.52832],[29.5234402,40.5250865],[29.5187899,40.5260066],[29.5169767,40.5198169],[29.5210288,40.5134305],[29.5251797,40.4976498],[29.524982,40.4921633],[29.5157899,40.38488],[29.5109472,40.3634968],[29.5214233,40.3615388],[29.5683684,40.3589783],[29.5743971,40.3601833],[29.6015758,40.3596561],[29.6127438,40.3611623],[29.6278058,40.3589632],[29.6458327,40.3521549],[29.6683663,40.3468162],[29.6757036,40.3498049],[29.6834717,40.3641444],[29.7114411,40.3628642],[29.7201275,40.3658057],[29.7980765,40.3697995]]]}},{"type":"Feature","properties":{"code":"16-07","provinceCode":"16","name":"Karacabey"},"geometry":{"type":"Polygon","coordinates":[[[28.1919228,40.0742828],[28.1991223,40.0739761],[28.2561974,40.0907248],[28.2871937,40.0901449],[28.2914608,40.091163],[28.3032177,40.0896445],[28.3522297,40.0993541],[28.3692197,40.1048743],[28.3744821,40.1102792],[28.4145436,40.1389464],[28.4278812,40.1510834],[28.449296,40.1622054],[28.463977,40.1678923],[28.5008413,40.1611705],[28.5801666,40.1595927],[28.6371902,40.1472479],[28.663784,40.1618367],[28.6694273,40.1704437],[28.6711326,40.1914882],[28.6756337,40.2032011],[28.6748853,40.2051584],[28.6776069,40.206396],[28.6785284,40.2093463],[28.6811841,40.2100356],[28.6814096,40.2185612],[28.6858077,40.2218333],[28.6838906,40.2231249],[28.6850183,40.2393109],[28.6710346,40.2418934],[28.6678769,40.2445618],[28.6695685,40.245853],[28.6682153,40.2527388],[28.6644938,40.2582469],[28.6649449,40.2638407],[28.6627458,40.2690897],[28.6617634,40.2756759],[28.6576586,40.2784391],[28.6526093,40.2790934],[28.6532351,40.2762843],[28.6504709,40.2760183],[28.649388,40.2773482],[28.6498967,40.2821399],[28.6534907,40.2827148],[28.6537345,40.284466],[28.647319,40.2854684],[28.6472681,40.2881956],[28.6505605,40.2895462],[28.6487122,40.2916243],[28.6426176,40.2953269],[28.632925,40.296142],[28.6316871,40.300591],[28.6274157,40.3021947],[28.6262656,40.2973583],[28.6242613,40.2971327],[28.6230419,40.3047212],[28.6282976,40.3116923],[28.625959,40.3151789],[28.6229709,40.3143326],[28.6151421,40.3155578],[28.6153797,40.3140304],[28.6179022,40.3136274],[28.6160417,40.3102106],[28.6179131,40.3103437],[28.6174137,40.3094078],[28.6153006,40.3074866],[28.6103418,40.3069597],[28.6067216,40.3108859],[28.6014638,40.3104082],[28.5998944,40.308898],[28.5971273,40.3093973],[28.5983505,40.3121295],[28.5951801,40.3131387],[28.5939848,40.3153057],[28.5871749,40.3092135],[28.5848925,40.3111779],[28.5830295,40.3090148],[28.5836328,40.3063769],[28.5765131,40.3092296],[28.577398,40.3066836],[28.5688001,40.3059515],[28.5668688,40.3036903],[28.5643864,40.3033012],[28.5631491,40.3048951],[28.5648883,40.3062679],[28.5629221,40.3062625],[28.5603615,40.3017991],[28.558422,40.3070513],[28.5508718,40.3121607],[28.5541861,40.3234743],[28.5676361,40.3356443],[28.570032,40.3401068],[28.5669811,40.3747914],[28.5685878,40.3768829],[28.5159194,40.3939127],[28.5097071,40.3940959],[28.5103057,40.3957942],[28.5068104,40.3943453],[28.4748338,40.3956624],[28.4088846,40.3939697],[28.3776508,40.3976937],[28.3721634,40.3990634],[28.3714687,40.4012779],[28.3670798,40.4018398],[28.3714472,40.4008802],[28.3717218,40.3983991],[28.3684584,40.3980587],[28.3682969,40.4005439],[28.36572,40.39817],[28.3615816,40.3980628],[28.3404283,40.4016344],[28.331184,40.400883],[28.323406,40.398148],[28.315017,40.398501],[28.297168,40.395878],[28.2911168,40.3973388],[28.2904899,40.4001448],[28.2860665,40.4016104],[28.2902249,40.3999892],[28.2891949,40.3973536],[28.2854367,40.397876],[28.2860995,40.3990824],[28.2886539,40.3989299],[28.2859115,40.3992032],[28.2863015,40.4003044],[28.2851722,40.3982004],[28.28277,40.398093],[28.263353,40.401388],[28.245226,40.401841],[28.224357,40.39924],[28.221978,40.397724],[28.1999632,40.3979165],[28.1991763,40.3969272],[28.1935201,40.3986872],[28.178987,40.397401],[28.1749143,40.3869439],[28.1744899,40.3776202],[28.175619,40.3684838],[28.1803037,40.3559564],[28.1832437,40.3358276],[28.1746593,40.3222736],[28.1648155,40.312889],[28.1671771,40.3049914],[28.1757205,40.2916504],[28.17734,40.2841259],[28.1774872,40.2648054],[28.1754261,40.2570531],[28.1720398,40.2532329],[28.1618811,40.2505361],[28.1325794,40.2590415],[28.1258101,40.2575026],[28.1097623,40.2632325],[28.1102919,40.2501217],[28.1069363,40.2484331],[28.1074662,40.2310163],[28.1142113,40.2259518],[28.1204635,40.2163832],[28.131409,40.1851905],[28.1282673,40.1716128],[28.1128601,40.1473324],[28.1336072,40.1269441],[28.1448379,40.1108163],[28.1919228,40.0742828]]]}},{"type":"Feature","properties":{"code":"16-08","provinceCode":"16","name":"Keles"},"geometry":{"type":"Polygon","coordinates":[[[29.4238387,39.8269099],[29.4219367,39.833684],[29.4175005,39.8373577],[29.4211538,39.8421666],[29.4256771,39.8437028],[29.4302873,39.8405637],[29.4419433,39.8499136],[29.4427261,39.8591955],[29.4403775,39.8676083],[29.4490761,39.8770213],[29.4489891,39.886433],[29.453178,39.8981573],[29.4533519,39.9036292],[29.4515253,39.9065652],[29.429605,39.9183079],[29.4220373,39.909501],[29.4144696,39.9066986],[29.4008129,39.9130373],[29.3937671,39.9093676],[29.3861994,39.9076995],[29.3823721,39.9085669],[29.3763701,39.9153057],[29.3735866,39.9137712],[29.3691503,39.924512],[29.3642792,39.9296483],[29.3641052,39.9325165],[29.3689764,39.9384526],[29.3693243,39.9421207],[29.3674106,39.9447883],[29.3531451,39.9478559],[29.3577553,39.9549908],[29.3574074,39.9577246],[29.3506225,39.9580579],[29.347839,39.9637251],[29.3375747,39.9672585],[29.3255708,39.9771244],[29.3212215,39.9841897],[29.3144367,39.9870556],[29.30713,39.9949195],[29.3039985,40.0013166],[29.3076519,40.0087791],[29.3033026,40.018639],[29.2986054,40.0219697],[29.297103,40.0318721],[29.2684283,40.0423515],[29.2602986,40.0475216],[29.2497475,40.0468893],[29.2478408,40.0442996],[29.2470412,40.0344577],[29.2386146,40.0334687],[29.2251942,40.0237367],[29.2239425,40.0171708],[29.2174365,40.012483],[29.2153426,40.0072935],[29.2097675,40.0012484],[29.2085988,39.9968193],[29.2014024,39.9925783],[29.2012794,39.9844727],[29.1938369,39.9845199],[29.1753231,39.9801368],[29.1641287,39.9851325],[29.1606227,39.9815036],[29.1555791,39.9803724],[29.150474,39.9852268],[29.1509045,39.9877245],[29.1434809,39.9944969],[29.1436284,39.9973582],[29.1275504,40.0080865],[29.1222586,40.0093882],[29.0993088,39.9885378],[29.0861828,39.9815578],[29.0858895,39.9745745],[29.080911,39.9720143],[29.0750154,39.9648351],[29.0828107,39.9662409],[29.1023972,39.9651363],[29.1030522,39.9621741],[29.110913,39.958559],[29.1191668,39.959764],[29.125259,39.9632285],[29.130565,39.9634293],[29.1325957,39.959513],[29.1312201,39.9574543],[29.1352245,39.9492243],[29.1399554,39.9446444],[29.1482776,39.9423676],[29.1515581,39.9369929],[29.1481192,39.9320415],[29.1438718,39.9302938],[29.1400388,39.9306645],[29.1385539,39.9284667],[29.1293658,39.9279732],[29.1259009,39.9258046],[29.1225181,39.9196445],[29.110998,39.9167967],[29.1079702,39.9059337],[29.1086539,39.902637],[29.0954729,39.8959991],[29.0929486,39.8913167],[29.0936169,39.8884476],[29.0915359,39.8876838],[29.0916894,39.884532],[29.0888025,39.8819485],[29.092315,39.8753719],[29.0921429,39.8712582],[29.09004,39.8691331],[29.0908581,39.8636685],[29.098624,39.8622234],[29.1006674,39.8630892],[29.1045226,39.8604822],[29.1024971,39.856682],[29.105493,39.8553323],[29.1059366,39.852587],[29.1039759,39.8504129],[29.1023012,39.8507018],[29.1018362,39.8483951],[29.1053818,39.8449723],[29.1128012,39.8454373],[29.1192212,39.8396676],[29.131517,39.833777],[29.1328763,39.8315677],[29.1312959,39.8292634],[29.1333162,39.8268654],[29.1401841,39.8267147],[29.1387043,39.82286],[29.1407644,39.8197498],[29.1492546,39.8173136],[29.1461209,39.8154299],[29.1495952,39.8064816],[29.1559982,39.8016742],[29.1609355,39.8020321],[29.162985,39.7994556],[29.1667112,39.7920833],[29.1653026,39.7791491],[29.1663479,39.7777553],[29.1711672,39.7800384],[29.1738871,39.77389],[29.1771463,39.7709262],[29.1762047,39.7679064],[29.1888599,39.7667954],[29.1980363,39.7639536],[29.2001489,39.7660849],[29.208005,39.7676073],[29.2117019,39.7621267],[29.219294,39.7622789],[29.2325635,39.7579145],[29.2361284,39.753702],[29.2445126,39.7501999],[29.2416739,39.7450732],[29.2447107,39.7431951],[29.2462291,39.7474589],[29.2489358,39.7467991],[29.2501901,39.7429413],[29.2490678,39.7343619],[29.2517745,39.7345142],[29.2567259,39.7380679],[29.2607253,39.7376195],[29.2614139,39.7465005],[29.2644283,39.7494364],[29.2865207,39.7576881],[29.3002075,39.7591756],[29.3027633,39.7612079],[29.3131925,39.7641352],[29.3203839,39.7703862],[29.3125988,39.7819367],[29.3139649,39.7828027],[29.3164559,39.7799647],[29.3210879,39.7805102],[29.3250756,39.7779056],[29.3362438,39.7780028],[29.3422457,39.7759972],[29.3507757,39.7803527],[29.3641108,39.7832043],[29.3761534,39.7903109],[29.4019949,39.7938285],[29.4111293,39.7996837],[29.4253899,39.8171407],[29.4238387,39.8269099]]]}},{"type":"Feature","properties":{"code":"16-09","provinceCode":"16","name":"Kestel"},"geometry":{"type":"Polygon","coordinates":[[[29.2167042,40.0729586],[29.2198702,40.0755038],[29.2324363,40.0590778],[29.2423081,40.0559933],[29.3458586,40.0944079],[29.3649708,40.1139652],[29.3751045,40.1199749],[29.3850703,40.1564664],[29.3921693,40.17195],[29.4012761,40.1851469],[29.4186026,40.1898419],[29.434679,40.1967884],[29.4451904,40.202794],[29.4549559,40.2139153],[29.4524598,40.2189871],[29.4334408,40.2281393],[29.4208148,40.2385104],[29.4149013,40.2457082],[29.4118647,40.2532711],[29.412504,40.2647359],[29.4172987,40.275711],[29.4176183,40.281076],[29.4113852,40.2897322],[29.3976405,40.2970464],[29.3542363,40.3091702],[29.3364282,40.3178877],[29.2986808,40.3118262],[29.2910033,40.3017332],[29.2836013,40.2828817],[29.2809668,40.2659397],[29.2728121,40.2478443],[29.2661629,40.2354907],[29.25575,40.2239012],[29.2484735,40.2183452],[29.2399425,40.2161418],[29.2313588,40.210906],[29.2267893,40.2101014],[29.2144357,40.2116071],[29.2146303,40.2097865],[29.2091681,40.2091331],[29.2053457,40.2052495],[29.2017575,40.204582],[29.1968255,40.1987193],[29.1924296,40.1989695],[29.1932543,40.1919799],[29.1953347,40.1901721],[29.194843,40.1879265],[29.1927814,40.1877082],[29.2027972,40.1864791],[29.2017644,40.1811278],[29.2112534,40.1753109],[29.2149349,40.167245],[29.2120994,40.1654037],[29.2008617,40.1665634],[29.2078959,40.1624495],[29.2006325,40.144179],[29.2025062,40.140149],[29.1992745,40.1314469],[29.1987979,40.1232198],[29.2192405,40.122214],[29.2250369,40.1234389],[29.2024691,40.0955043],[29.2186614,40.078303],[29.2167042,40.0729586]]]}},{"type":"Feature","properties":{"code":"16-10","provinceCode":"16","name":"Mudanya"},"geometry":{"type":"Polygon","coordinates":[[[28.9325699,40.2805398],[28.9378006,40.2911499],[28.9403528,40.2903566],[28.9418794,40.2936074],[28.9465205,40.29451],[28.9468875,40.2969863],[28.9503859,40.2988489],[28.9543011,40.2979551],[28.9520082,40.3005627],[28.95879,40.2993279],[28.9599538,40.3080554],[28.9661949,40.3105285],[28.9675488,40.3149789],[28.9778739,40.3236918],[28.9818314,40.3245695],[28.9841406,40.3268803],[28.9848076,40.3278766],[28.9754334,40.3388336],[28.9855819,40.3427394],[28.9879611,40.3462313],[28.9862213,40.3505135],[28.9850943,40.3562516],[28.97343,40.3558134],[28.9604266,40.359149],[28.9517491,40.3589659],[28.9449256,40.3560881],[28.9305404,40.355918],[28.9351323,40.3571934],[28.9309352,40.356958],[28.929678,40.3554619],[28.9283425,40.3577344],[28.9253853,40.3560049],[28.9107478,40.3625303],[28.9018339,40.3691974],[28.8935093,40.3710893],[28.8845437,40.3789763],[28.8841575,40.377989],[28.8771794,40.3825004],[28.8721841,40.3826311],[28.8698025,40.3841583],[28.8735538,40.3835396],[28.8655665,40.3853967],[28.852861,40.381119],[28.8421394,40.3815631],[28.83648,40.383691],[28.8293717,40.3837295],[28.8273387,40.3862074],[28.8148833,40.391066],[28.8039487,40.391032],[28.8000586,40.3927614],[28.8033167,40.3925918],[28.7965292,40.3942396],[28.7713171,40.3942159],[28.763143,40.390995],[28.753719,40.390111],[28.7414329,40.3856168],[28.739173,40.385966],[28.735389,40.382428],[28.727341,40.382806],[28.725736,40.379107],[28.723555,40.37914],[28.7228309,40.3776511],[28.71782,40.378069],[28.710727,40.376377],[28.699673,40.377311],[28.692903,40.375099],[28.6756414,40.374605],[28.6742143,40.3725312],[28.6771654,40.3712225],[28.6755769,40.3684425],[28.6768502,40.369829],[28.6784829,40.368147],[28.6771742,40.3657659],[28.6705761,40.36243],[28.6608243,40.361101],[28.6377442,40.3629468],[28.6347843,40.3651686],[28.6320094,40.3644638],[28.6105678,40.3674707],[28.5685878,40.3768829],[28.5669811,40.3747914],[28.570032,40.3401068],[28.5676361,40.3356443],[28.5541861,40.3234743],[28.5508718,40.3121607],[28.558422,40.3070513],[28.5603615,40.3017991],[28.5629221,40.3062625],[28.5648883,40.3062679],[28.5631491,40.3048951],[28.5643864,40.3033012],[28.5668688,40.3036903],[28.5688001,40.3059515],[28.577398,40.3066836],[28.5765131,40.3092296],[28.5836328,40.3063769],[28.5830295,40.3090148],[28.5848925,40.3111779],[28.5871749,40.3092135],[28.5939848,40.3153057],[28.5951801,40.3131387],[28.5983505,40.3121295],[28.5971273,40.3093973],[28.5998944,40.308898],[28.6014638,40.3104082],[28.6067216,40.3108859],[28.6103418,40.3069597],[28.6153006,40.3074866],[28.6174137,40.3094078],[28.6179131,40.3103437],[28.6160417,40.3102106],[28.6179022,40.3136274],[28.6153797,40.3140304],[28.6151421,40.3155578],[28.6229709,40.3143326],[28.625959,40.3151789],[28.6282976,40.3116923],[28.6230419,40.3047212],[28.6242613,40.2971327],[28.6262656,40.2973583],[28.6274157,40.3021947],[28.6316871,40.300591],[28.632925,40.296142],[28.6426176,40.2953269],[28.6487122,40.2916243],[28.6505605,40.2895462],[28.6472681,40.2881956],[28.647319,40.2854684],[28.6537345,40.284466],[28.6534907,40.2827148],[28.6498967,40.2821399],[28.649388,40.2773482],[28.6504709,40.2760183],[28.6532351,40.2762843],[28.6526093,40.2790934],[28.6576586,40.2784391],[28.6617634,40.2756759],[28.6627458,40.2690897],[28.6709295,40.2715346],[28.673125,40.2745865],[28.6817867,40.2785331],[28.6830936,40.2805138],[28.6818016,40.2840612],[28.6857946,40.2827254],[28.6919785,40.2702894],[28.693085,40.2734215],[28.6981535,40.2743251],[28.6966405,40.2786086],[28.7017232,40.281272],[28.7060638,40.2798635],[28.7055736,40.2782953],[28.7107879,40.2746656],[28.7114777,40.2716364],[28.716047,40.2713622],[28.719571,40.2741775],[28.7349509,40.2727312],[28.7363284,40.2795659],[28.7420624,40.2846655],[28.7376406,40.2952003],[28.7390843,40.2998797],[28.7421519,40.3014853],[28.7523775,40.2996503],[28.7512346,40.2898782],[28.7527384,40.2882264],[28.7498507,40.2826534],[28.7514729,40.2806469],[28.7613945,40.2779415],[28.7632017,40.2786935],[28.765666,40.2768134],[28.7632427,40.2750273],[28.7653374,40.2732725],[28.7651033,40.2700253],[28.767966,40.2720817],[28.7699374,40.2709535],[28.7675963,40.2699821],[28.7699785,40.2698567],[28.7712517,40.2664408],[28.773675,40.267569],[28.7761154,40.2659162],[28.7754411,40.264529],[28.7803286,40.2628366],[28.7816018,40.264529],[28.7849697,40.2630873],[28.7924448,40.2644663],[28.7926091,40.2620217],[28.7948663,40.261191],[28.7968806,40.2613635],[28.7971681,40.2633067],[28.801412,40.2639163],[28.8028646,40.2661857],[28.8052052,40.2645929],[28.8121961,40.2644921],[28.8137252,40.2626657],[28.8090381,40.2606617],[28.8125617,40.256958],[28.8155202,40.2591904],[28.8190106,40.2573386],[28.8181388,40.2604374],[28.8234741,40.264474],[28.8275857,40.2582731],[28.8299684,40.2595233],[28.8289721,40.2634164],[28.8326871,40.264518],[28.8350137,40.2632236],[28.8349042,40.2605948],[28.8412015,40.2607409],[28.8408583,40.2625792],[28.845411,40.2627452],[28.8458653,40.2654718],[28.8492694,40.2672919],[28.8455862,40.272106],[28.8490756,40.2717205],[28.8517963,40.2747178],[28.8543067,40.2748476],[28.8610508,40.2719583],[28.8627954,40.2767305],[28.8662981,40.2764683],[28.8684454,40.2798229],[28.8700093,40.2778267],[28.873922,40.2771362],[28.8756666,40.279441],[28.8769857,40.2769901],[28.8788824,40.2776951],[28.8830097,40.273585],[28.8849799,40.2737057],[28.8849484,40.2754136],[28.8827868,40.2776938],[28.8887839,40.2809711],[28.891886,40.2795331],[28.8916721,40.2768664],[28.8937539,40.276213],[28.8966939,40.2776207],[28.8992324,40.2746317],[28.9024236,40.2749239],[28.909423,40.2725053],[28.9123809,40.2746093],[28.9189253,40.2743206],[28.9218814,40.2762953],[28.9259108,40.2749836],[28.9303805,40.2772009],[28.9299851,40.2799359],[28.9325699,40.2805398]]]}},{"type":"Feature","properties":{"code":"16-11","provinceCode":"16","name":"Mustafakemalpaşa"},"geometry":{"type":"Polygon","coordinates":[[[28.5628863,39.7523824],[28.5803208,39.7597387],[28.6069245,39.7636761],[28.6332288,39.7709081],[28.6693868,39.7758507],[28.6924143,39.7623526],[28.7183608,39.750213],[28.7253908,39.7599323],[28.7299678,39.7658342],[28.7294976,39.7679728],[28.7235412,39.7745086],[28.7113541,39.7801705],[28.7057505,39.785862],[28.7049667,39.7887227],[28.7014007,39.79071],[28.7022236,39.7954372],[28.6974429,39.7978759],[28.6936418,39.8107607],[28.6915257,39.8117239],[28.6916615,39.8189447],[28.6847723,39.8266019],[28.6911477,39.82627],[28.7074854,39.816492],[28.7379377,39.8164344],[28.7499386,39.8211008],[28.7530138,39.8210432],[28.7608144,39.8177018],[28.7679399,39.8123438],[28.7712402,39.8124014],[28.7750654,39.8161463],[28.7743154,39.8216768],[28.7682399,39.828647],[28.7723652,39.8322182],[28.7737024,39.8426985],[28.7681893,39.8462066],[28.7629731,39.8461176],[28.7636686,39.852792],[28.760032,39.8535676],[28.7613102,39.858374],[28.7670451,39.8624967],[28.7671362,39.8642435],[28.7616743,39.8664794],[28.7586702,39.8738852],[28.7540276,39.8708112],[28.7480196,39.869903],[28.743559,39.8722784],[28.7343649,39.8708811],[28.7373689,39.8774481],[28.731816,39.8803123],[28.7286299,39.8843638],[28.7312698,39.88618],[28.7287209,39.8918376],[28.7253528,39.8916281],[28.7272644,39.8949107],[28.725899,39.8963075],[28.7315429,39.8980535],[28.7315429,39.9082491],[28.7307236,39.9223528],[28.7245335,39.9310789],[28.7528442,39.946155],[28.7615832,39.9491558],[28.7744187,39.9652745],[28.7776048,39.9653442],[28.7852514,39.970507],[28.7935352,39.9836911],[28.7932621,39.9910145],[28.7973585,39.995478],[28.7959931,40.0021028],[28.7770586,40.0016147],[28.7690478,40.0154203],[28.766806,40.0159849],[28.7662589,40.013218],[28.7641267,40.0123737],[28.7611094,40.0150421],[28.7636777,40.0208198],[28.7692306,40.0246539],[28.770323,40.0271633],[28.768466,40.0313182],[28.768997,40.0393637],[28.7612465,40.0441518],[28.7639585,40.0492269],[28.7544641,40.0641306],[28.7512626,40.066555],[28.742091,40.069396],[28.7348847,40.069396],[28.7224374,40.0725711],[28.7036573,40.0815942],[28.7080248,40.1000544],[28.7002726,40.1051488],[28.7018012,40.1064015],[28.7019104,40.112247],[28.7002726,40.1160881],[28.6942673,40.1156706],[28.6849865,40.1203464],[28.6711198,40.1144181],[28.6701371,40.1159211],[28.6705739,40.1241036],[28.6681718,40.1241871],[28.6679534,40.1263577],[28.6817109,40.1337042],[28.6793088,40.1369597],[28.6371902,40.1472479],[28.5801666,40.1595927],[28.5008413,40.1611705],[28.463977,40.1678923],[28.449296,40.1622054],[28.4278812,40.1510834],[28.4145436,40.1389464],[28.3744821,40.1102792],[28.3692197,40.1048743],[28.3522297,40.0993541],[28.3032177,40.0896445],[28.2914608,40.091163],[28.2871937,40.0901449],[28.2561974,40.0907248],[28.1991223,40.0739761],[28.1919228,40.0742828],[28.1969131,40.059918],[28.1886066,40.0410994],[28.1983295,40.0347134],[28.1942743,40.0256278],[28.2055595,39.9935653],[28.2115372,39.9868412],[28.21867,39.9820167],[28.2267905,39.9779148],[28.2379672,39.9787007],[28.2527736,39.9683223],[28.2660353,39.92889],[28.2875376,39.9112132],[28.2983993,39.9042779],[28.3159539,39.8979599],[28.3264703,39.8898316],[28.3506995,39.8627445],[28.3624603,39.8576955],[28.3764589,39.8550762],[28.4063314,39.8566275],[28.4285376,39.8615635],[28.4357304,39.8595496],[28.4498703,39.8485107],[28.4511106,39.8133313],[28.4834818,39.8095332],[28.4920055,39.7944958],[28.4880486,39.7774884],[28.5133285,39.7599943],[28.527387,39.7538622],[28.5628863,39.7523824]]]}},{"type":"Feature","properties":{"code":"16-12","provinceCode":"16","name":"Nilüfer"},"geometry":{"type":"Polygon","coordinates":[[[28.9265656,40.0824124],[28.9204905,40.0931614],[28.9250244,40.0948488],[28.9214708,40.1003791],[28.926985,40.1064714],[28.931521,40.1156504],[28.9274872,40.1220009],[28.930876,40.1250478],[28.9308918,40.1274703],[28.9352683,40.1277221],[28.9375741,40.1303164],[28.9403917,40.130087],[28.9466111,40.1328761],[28.9506971,40.1414442],[28.9546995,40.1408724],[28.9568956,40.1368957],[28.964549,40.1365075],[28.9665925,40.1434859],[28.9738118,40.1484439],[28.9737675,40.1522273],[28.9772713,40.1581432],[28.9751061,40.1649597],[28.9799497,40.1714496],[28.9799985,40.1754797],[28.9868395,40.1766614],[28.9873766,40.1817364],[28.9891575,40.1807934],[28.9935101,40.18198],[28.9984835,40.1855682],[28.9990604,40.1912088],[28.9963675,40.194782],[28.9995139,40.2053023],[29.0095691,40.2131991],[29.0023399,40.2148597],[28.9902638,40.2266971],[28.9560786,40.2516558],[28.9472057,40.2694417],[28.9359833,40.2797556],[28.9337633,40.2781495],[28.9325699,40.2805398],[28.9299851,40.2799359],[28.9303805,40.2772009],[28.9259108,40.2749836],[28.9218814,40.2762953],[28.9189253,40.2743206],[28.9123809,40.2746093],[28.909423,40.2725053],[28.9024236,40.2749239],[28.8992324,40.2746317],[28.8966939,40.2776207],[28.8937539,40.276213],[28.8916721,40.2768664],[28.891886,40.2795331],[28.8887839,40.2809711],[28.8827868,40.2776938],[28.8849484,40.2754136],[28.8849799,40.2737057],[28.8830097,40.273585],[28.8788824,40.2776951],[28.8769857,40.2769901],[28.8756666,40.279441],[28.873922,40.2771362],[28.8700093,40.2778267],[28.8684454,40.2798229],[28.8662981,40.2764683],[28.8627954,40.2767305],[28.8610508,40.2719583],[28.8543067,40.2748476],[28.8517963,40.2747178],[28.8490756,40.2717205],[28.8455862,40.272106],[28.8492694,40.2672919],[28.8458653,40.2654718],[28.845411,40.2627452],[28.8408583,40.2625792],[28.8412015,40.2607409],[28.8349042,40.2605948],[28.8350137,40.2632236],[28.8326871,40.264518],[28.8289721,40.2634164],[28.8299684,40.2595233],[28.8275857,40.2582731],[28.8234741,40.264474],[28.8181388,40.2604374],[28.8190106,40.2573386],[28.8155202,40.2591904],[28.8125617,40.256958],[28.8090381,40.2606617],[28.8137252,40.2626657],[28.8121961,40.2644921],[28.8052052,40.2645929],[28.8028646,40.2661857],[28.801412,40.2639163],[28.7971681,40.2633067],[28.7968806,40.2613635],[28.7948663,40.261191],[28.7926091,40.2620217],[28.7924448,40.2644663],[28.7849697,40.2630873],[28.7816018,40.264529],[28.7803286,40.2628366],[28.7754411,40.264529],[28.7761154,40.2659162],[28.773675,40.267569],[28.7712517,40.2664408],[28.7699785,40.2698567],[28.7675963,40.2699821],[28.7699374,40.2709535],[28.767966,40.2720817],[28.7651033,40.2700253],[28.7653374,40.2732725],[28.7632427,40.2750273],[28.765666,40.2768134],[28.7632017,40.2786935],[28.7613945,40.2779415],[28.7514729,40.2806469],[28.7498507,40.2826534],[28.7527384,40.2882264],[28.7512346,40.2898782],[28.7523775,40.2996503],[28.7421519,40.3014853],[28.7390843,40.2998797],[28.7376406,40.2952003],[28.7420624,40.2846655],[28.7363284,40.2795659],[28.7349509,40.2727312],[28.719571,40.2741775],[28.716047,40.2713622],[28.7114777,40.2716364],[28.7107879,40.2746656],[28.7055736,40.2782953],[28.7060638,40.2798635],[28.7017232,40.281272],[28.6966405,40.2786086],[28.6981535,40.2743251],[28.693085,40.2734215],[28.6919785,40.2702894],[28.6857946,40.2827254],[28.6818016,40.2840612],[28.6830936,40.2805138],[28.6817867,40.2785331],[28.673125,40.2745865],[28.6709295,40.2715346],[28.6627458,40.2690897],[28.6649449,40.2638407],[28.6644938,40.2582469],[28.6682153,40.2527388],[28.6695685,40.245853],[28.6678769,40.2445618],[28.6710346,40.2418934],[28.6850183,40.2393109],[28.6838906,40.2231249],[28.6858077,40.2218333],[28.6814096,40.2185612],[28.6811841,40.2100356],[28.6785284,40.2093463],[28.6776069,40.206396],[28.6748853,40.2051584],[28.6756337,40.2032011],[28.6711326,40.1914882],[28.6694273,40.1704437],[28.663784,40.1618367],[28.6371902,40.1472479],[28.6793088,40.1369597],[28.6817109,40.1337042],[28.6679534,40.1263577],[28.6681718,40.1241871],[28.6705739,40.1241036],[28.6701371,40.1159211],[28.6711198,40.1144181],[28.6849865,40.1203464],[28.6942673,40.1156706],[28.7002726,40.1160881],[28.7019104,40.112247],[28.7018012,40.1064015],[28.7002726,40.1051488],[28.7080248,40.1000544],[28.7036573,40.0815942],[28.7224374,40.0725711],[28.7348847,40.069396],[28.742091,40.069396],[28.7512626,40.066555],[28.7544641,40.0641306],[28.7597899,40.065598],[28.7599719,40.0720245],[28.7638868,40.0764009],[28.7706673,40.0799865],[28.7746048,40.0798683],[28.7816306,40.0827628],[28.7894284,40.0803409],[28.7975351,40.0804],[28.8111234,40.0772689],[28.8216235,40.083708],[28.8250978,40.0829991],[28.8284949,40.0858936],[28.8305795,40.0840033],[28.8399214,40.0858936],[28.8606128,40.0835898],[28.870804,40.0847713],[28.8806092,40.081227],[28.8912637,40.0740197],[28.8964366,40.0741379],[28.9050065,40.0832354],[28.9102565,40.0858936],[28.9265656,40.0824124]]]}},{"type":"Feature","properties":{"code":"16-13","provinceCode":"16","name":"Orhaneli"},"geometry":{"type":"Polygon","coordinates":[[[29.0861828,39.9815578],[29.0824108,39.9866454],[29.0796895,39.9870406],[29.0778293,39.9907346],[29.0787404,39.9951265],[29.0691355,40.004491],[29.0695151,40.0085912],[29.0724384,40.0109465],[29.0720587,40.0141159],[29.079711,40.0164479],[29.0772753,40.0175428],[29.0790756,40.0230577],[29.0782813,40.0307615],[29.0693327,40.0421535],[29.0693353,40.0466159],[29.0628868,40.0476754],[29.0586411,40.0514301],[29.0539889,40.0453276],[29.0456292,40.0437776],[29.0457351,40.040859],[29.0405459,40.0410211],[29.0321268,40.0457234],[29.0251902,40.0430074],[29.0241842,40.0469394],[29.0258786,40.0483176],[29.021113,40.0522087],[29.0154473,40.0485202],[29.0121644,40.0511954],[28.9897663,40.0479933],[28.9842594,40.0484392],[28.9809903,40.0452794],[28.9625689,40.0418971],[28.9508871,40.0535338],[28.9383816,40.0534192],[28.9379323,40.0555973],[28.9349369,40.05554],[28.9362099,40.0519862],[28.9213455,40.0582572],[28.9263565,40.0609118],[28.9289173,40.0673457],[28.9279786,40.0747226],[28.9297325,40.0764862],[28.9262671,40.0746383],[28.9229165,40.0764016],[28.9235386,40.0809133],[28.926297,40.0799109],[28.9265656,40.0824124],[28.9102565,40.0858936],[28.9050065,40.0832354],[28.8964366,40.0741379],[28.8912637,40.0740197],[28.8806092,40.081227],[28.870804,40.0847713],[28.8606128,40.0835898],[28.8399214,40.0858936],[28.8305795,40.0840033],[28.8284949,40.0858936],[28.8250978,40.0829991],[28.8216235,40.083708],[28.8111234,40.0772689],[28.7975351,40.0804],[28.7894284,40.0803409],[28.7816306,40.0827628],[28.7746048,40.0798683],[28.7706673,40.0799865],[28.7638868,40.0764009],[28.7599719,40.0720245],[28.7597899,40.065598],[28.7544641,40.0641306],[28.7639585,40.0492269],[28.7612465,40.0441518],[28.768997,40.0393637],[28.768466,40.0313182],[28.770323,40.0271633],[28.7692306,40.0246539],[28.7636777,40.0208198],[28.7611094,40.0150421],[28.7641267,40.0123737],[28.7662589,40.013218],[28.766806,40.0159849],[28.7690478,40.0154203],[28.7770586,40.0016147],[28.7959931,40.0021028],[28.7973585,39.995478],[28.7932621,39.9910145],[28.7935352,39.9836911],[28.7852514,39.970507],[28.7776048,39.9653442],[28.7744187,39.9652745],[28.7615832,39.9491558],[28.7528442,39.946155],[28.7245335,39.9310789],[28.7307236,39.9223528],[28.7315429,39.9082491],[28.7315429,39.8980535],[28.725899,39.8963075],[28.7272644,39.8949107],[28.7253528,39.8916281],[28.7287209,39.8918376],[28.7312698,39.88618],[28.7286299,39.8843638],[28.731816,39.8803123],[28.7373689,39.8774481],[28.7343649,39.8708811],[28.743559,39.8722784],[28.7480196,39.869903],[28.7540276,39.8708112],[28.7586702,39.8738852],[28.7616743,39.8664794],[28.7671362,39.8642435],[28.7670451,39.8624967],[28.7613102,39.858374],[28.760032,39.8535676],[28.7636686,39.852792],[28.7629731,39.8461176],[28.7681893,39.8462066],[28.7737024,39.8426985],[28.7811719,39.8441597],[28.7847653,39.8432697],[28.7888223,39.8397986],[28.7878061,39.8344685],[28.7901416,39.8333125],[28.7917167,39.8346949],[28.7941919,39.8325638],[28.8021527,39.8327668],[28.807253,39.8294732],[28.8142079,39.8305415],[28.8269587,39.824488],[28.8307839,39.8262685],[28.8328704,39.8353482],[28.8426073,39.8454946],[28.8473019,39.8553282],[28.8476497,39.8621796],[28.8455052,39.8663614],[28.838956,39.8689859],[28.8464326,39.8747241],[28.8521679,39.8766923],[28.8597025,39.8762567],[28.8643846,39.8736337],[28.8688926,39.8669026],[28.8733187,39.8654556],[28.8904494,39.8628132],[28.9106128,39.8619953],[28.9141373,39.8552001],[28.9120882,39.8542563],[28.9102849,39.8492223],[28.9081539,39.8489076],[28.9079899,39.8453836],[28.9041376,39.8441879],[28.9047113,39.8377686],[28.9154487,39.838335],[28.9154487,39.8277607],[28.9229895,39.8275089],[28.9263501,39.825054],[28.9313499,39.8242356],[28.9479888,39.8258093],[28.945202,39.819766],[28.9449561,39.8133444],[28.9417595,39.8094407],[28.9448742,39.7960282],[28.9435967,39.7840648],[28.9548176,39.7857538],[28.9578708,39.7843838],[28.968977,39.7847303],[28.9813947,39.7884778],[28.9852061,39.7883204],[28.9823373,39.7742422],[28.9706163,39.7690134],[28.9747146,39.7649812],[28.9892224,39.7582394],[29.0003696,39.7583024],[29.0026646,39.7598777],[28.9984844,39.7659263],[29.0147955,39.7614529],[29.0139758,39.7496694],[29.0107792,39.7408463],[29.0131562,39.733787],[29.0198773,39.73385],[29.0211887,39.7287442],[29.0432713,39.7228445],[29.0483092,39.7201201],[29.0559455,39.7129054],[29.071071,39.7084587],[29.0818612,39.712609],[29.0822335,39.7144106],[29.076152,39.7136047],[29.0642418,39.7195425],[29.0777939,39.7253546],[29.0815066,39.7248045],[29.0820516,39.7272408],[29.0744552,39.7409818],[29.0805182,39.7510909],[29.0839925,39.7542334],[29.0906686,39.7524003],[29.1049063,39.7597847],[29.0966898,39.7764086],[29.1008749,39.7768237],[29.1050324,39.7744228],[29.1151438,39.7761882],[29.1179885,39.7747521],[29.1277298,39.7747808],[29.128184,39.7764164],[29.1312307,39.7769906],[29.1309098,39.7795075],[29.1345165,39.7811169],[29.1354249,39.7842732],[29.149094,39.7950382],[29.1513013,39.8012124],[29.1472362,39.8042819],[29.1495952,39.8064816],[29.1461209,39.8154299],[29.1492546,39.8173136],[29.1407644,39.8197498],[29.1387043,39.82286],[29.1401841,39.8267147],[29.1333162,39.8268654],[29.1312959,39.8292634],[29.1328763,39.8315677],[29.131517,39.833777],[29.1192212,39.8396676],[29.1128012,39.8454373],[29.1053818,39.8449723],[29.1018362,39.8483951],[29.1023012,39.8507018],[29.1039759,39.8504129],[29.1059366,39.852587],[29.105493,39.8553323],[29.1024971,39.856682],[29.1045226,39.8604822],[29.1006674,39.8630892],[29.098624,39.8622234],[29.0908581,39.8636685],[29.09004,39.8691331],[29.0921429,39.8712582],[29.092315,39.8753719],[29.0888025,39.8819485],[29.0916894,39.884532],[29.0915359,39.8876838],[29.0936169,39.8884476],[29.0929486,39.8913167],[29.0954729,39.8959991],[29.1086539,39.902637],[29.1079702,39.9059337],[29.110998,39.9167967],[29.1225181,39.9196445],[29.1259009,39.9258046],[29.1293658,39.9279732],[29.1385539,39.9284667],[29.1400388,39.9306645],[29.1438718,39.9302938],[29.1481192,39.9320415],[29.1515581,39.9369929],[29.1482776,39.9423676],[29.1399554,39.9446444],[29.1352245,39.9492243],[29.1312201,39.9574543],[29.1325957,39.959513],[29.130565,39.9634293],[29.125259,39.9632285],[29.1191668,39.959764],[29.110913,39.958559],[29.1030522,39.9621741],[29.1023972,39.9651363],[29.0828107,39.9662409],[29.0750154,39.9648351],[29.080911,39.9720143],[29.0858895,39.9745745],[29.0861828,39.9815578]]]}},{"type":"Feature","properties":{"code":"16-14","provinceCode":"16","name":"Orhangazi"},"geometry":{"type":"Polygon","coordinates":[[[29.5109472,40.3634968],[29.5157899,40.38488],[29.524982,40.4921633],[29.5251797,40.4976498],[29.5210288,40.5134305],[29.5169767,40.5198169],[29.5187899,40.5260066],[29.5145529,40.5299579],[29.5052988,40.5308466],[29.5002986,40.5283885],[29.4983334,40.5247959],[29.4933331,40.5377286],[29.4971693,40.5423998],[29.4934577,40.5463698],[29.4917338,40.5560198],[29.4843106,40.5571959],[29.4810916,40.5612051],[29.4826923,40.5624346],[29.4818047,40.5639722],[29.4700065,40.5679418],[29.4572032,40.564306],[29.4567789,40.5554699],[29.4472155,40.5529239],[29.4504927,40.5486551],[29.4469034,40.5418957],[29.4451867,40.5416585],[29.4423777,40.5443861],[29.4380081,40.5428444],[29.4277083,40.5452162],[29.4230266,40.5437931],[29.4202175,40.5455719],[29.4045067,40.5517399],[29.397121,40.5512639],[29.3881985,40.5551622],[29.3832319,40.5606307],[29.3474836,40.569099],[29.3330341,40.5583791],[29.3250984,40.5405429],[29.3165585,40.5314019],[29.3173491,40.528096],[29.3150028,40.5245527],[29.3128058,40.5280248],[29.3085388,40.5282255],[29.3044127,40.5262856],[29.3015398,40.5299557],[29.2888028,40.535332],[29.2786134,40.5361042],[29.2745675,40.5330061],[29.2700587,40.5364596],[29.2671758,40.5364946],[29.2564811,40.5360192],[29.2536627,40.5324271],[29.2416845,40.5320995],[29.237593,40.5293064],[29.2341405,40.5219572],[29.2304253,40.5206105],[29.226054,40.5213111],[29.2296491,40.4855276],[29.2342414,40.4738992],[29.2338588,40.4674784],[29.228119,40.4577164],[29.2271625,40.4477889],[29.2369846,40.4269271],[29.2418941,40.4108407],[29.2558671,40.3849564],[29.2844919,40.3708646],[29.2920553,40.3740283],[29.3075275,40.371568],[29.3196567,40.3763413],[29.3281441,40.3758156],[29.3367064,40.3723431],[29.3491464,40.3645296],[29.3948925,40.34959],[29.4110064,40.3443268],[29.4227891,40.3429452],[29.4753579,40.3592924],[29.5109472,40.3634968]]]}},{"type":"Feature","properties":{"code":"16-15","provinceCode":"16","name":"Osmangazi"},"geometry":{"type":"Polygon","coordinates":[[[29.1350846,40.2517791],[29.1337394,40.2580775],[29.1354239,40.2627934],[29.1310733,40.2666453],[29.133718,40.2708694],[29.1470493,40.2775747],[29.1496312,40.2819566],[29.1579199,40.2847391],[29.1615574,40.2805349],[29.1695591,40.2832938],[29.1837235,40.2827612],[29.1948118,40.2858411],[29.1968867,40.2878413],[29.1945592,40.2926392],[29.2056199,40.2986695],[29.2047187,40.3034277],[29.2003594,40.3080866],[29.2207254,40.3097911],[29.2244498,40.3113784],[29.2207843,40.3139788],[29.2313269,40.3233077],[29.2285961,40.3307364],[29.2257366,40.3418349],[29.2178219,40.3407533],[29.2129784,40.3424657],[29.213874,40.3433379],[29.2078493,40.34315],[29.1894057,40.348136],[29.1873891,40.3505524],[29.1734253,40.3465676],[29.1733325,40.3449175],[29.167686,40.3429948],[29.1671494,40.344433],[29.1607392,40.3420751],[29.1602831,40.344422],[29.1519897,40.3422649],[29.1490307,40.347574],[29.1486631,40.3566085],[29.146541,40.3555554],[29.1432994,40.3599008],[29.1395394,40.3611504],[29.1385767,40.3588332],[29.1322148,40.3561588],[29.1300618,40.3532544],[29.1257606,40.3529937],[29.1150372,40.3473875],[29.1017973,40.3539489],[29.0912435,40.3566154],[29.0872029,40.3601309],[29.0776192,40.3624921],[29.0665619,40.3605743],[29.0643537,40.3575914],[29.0572742,40.3542978],[29.0543734,40.3513256],[29.0544933,40.345257],[29.0512743,40.3440937],[29.0504489,40.3450548],[29.0450123,40.3441528],[29.0416341,40.3465901],[29.0368588,40.3463249],[29.0342227,40.3428473],[29.0304605,40.3428562],[29.024432,40.3463345],[29.0004037,40.3476985],[28.9947969,40.3490055],[28.9936545,40.350602],[28.9862213,40.3505135],[28.9879611,40.3462313],[28.9855819,40.3427394],[28.9754334,40.3388336],[28.9848076,40.3278766],[28.9841406,40.3268803],[28.9818314,40.3245695],[28.9778739,40.3236918],[28.9675488,40.3149789],[28.9661949,40.3105285],[28.9599538,40.3080554],[28.95879,40.2993279],[28.9520082,40.3005627],[28.9543011,40.2979551],[28.9503859,40.2988489],[28.9468875,40.2969863],[28.9465205,40.29451],[28.9418794,40.2936074],[28.9403528,40.2903566],[28.9378006,40.2911499],[28.9325699,40.2805398],[28.9337633,40.2781495],[28.9359833,40.2797556],[28.9472057,40.2694417],[28.9560786,40.2516558],[28.9902638,40.2266971],[29.0023399,40.2148597],[29.0095691,40.2131991],[28.9995139,40.2053023],[28.9963675,40.194782],[28.9990604,40.1912088],[28.9984835,40.1855682],[28.9935101,40.18198],[28.9891575,40.1807934],[28.9873766,40.1817364],[28.9868395,40.1766614],[28.9799985,40.1754797],[28.9799497,40.1714496],[28.9751061,40.1649597],[28.9772713,40.1581432],[28.9737675,40.1522273],[28.9738118,40.1484439],[28.9665925,40.1434859],[28.964549,40.1365075],[28.9568956,40.1368957],[28.9546995,40.1408724],[28.9506971,40.1414442],[28.9466111,40.1328761],[28.9403917,40.130087],[28.9375741,40.1303164],[28.9352683,40.1277221],[28.9308918,40.1274703],[28.930876,40.1250478],[28.9274872,40.1220009],[28.931521,40.1156504],[28.926985,40.1064714],[28.9214708,40.1003791],[28.9250244,40.0948488],[28.9204905,40.0931614],[28.9265656,40.0824124],[28.926297,40.0799109],[28.9235386,40.0809133],[28.9229165,40.0764016],[28.9262671,40.0746383],[28.9297325,40.0764862],[28.9279786,40.0747226],[28.9289173,40.0673457],[28.9263565,40.0609118],[28.9213455,40.0582572],[28.9362099,40.0519862],[28.9349369,40.05554],[28.9379323,40.0555973],[28.9383816,40.0534192],[28.9508871,40.0535338],[28.9625689,40.0418971],[28.9809903,40.0452794],[28.9842594,40.0484392],[28.9897663,40.0479933],[29.0121644,40.0511954],[29.0154473,40.0485202],[29.021113,40.0522087],[29.0258786,40.0483176],[29.0241842,40.0469394],[29.0251902,40.0430074],[29.0321268,40.0457234],[29.0405459,40.0410211],[29.0457351,40.040859],[29.0456292,40.0437776],[29.0539889,40.0453276],[29.0586411,40.0514301],[29.0628868,40.0476754],[29.0693353,40.0466159],[29.0693327,40.0421535],[29.0782813,40.0307615],[29.0790756,40.0230577],[29.0772753,40.0175428],[29.079711,40.0164479],[29.0720587,40.0141159],[29.0724384,40.0109465],[29.0695151,40.0085912],[29.0691355,40.004491],[29.0787404,39.9951265],[29.0778293,39.9907346],[29.0796895,39.9870406],[29.0824108,39.9866454],[29.0861828,39.9815578],[29.0993088,39.9885378],[29.1222586,40.0093882],[29.1275504,40.0080865],[29.1436284,39.9973582],[29.1434809,39.9944969],[29.1509045,39.9877245],[29.150474,39.9852268],[29.1555791,39.9803724],[29.1606227,39.9815036],[29.1641287,39.9851325],[29.1753231,39.9801368],[29.1938369,39.9845199],[29.2012794,39.9844727],[29.2014024,39.9925783],[29.2085988,39.9968193],[29.2097675,40.0012484],[29.2153426,40.0072935],[29.2174365,40.012483],[29.2239425,40.0171708],[29.2251942,40.0237367],[29.2386146,40.0334687],[29.2470412,40.0344577],[29.2478408,40.0442996],[29.2497475,40.0468893],[29.2602986,40.0475216],[29.2497283,40.051048],[29.2423081,40.0559933],[29.2324363,40.0590778],[29.2198702,40.0755038],[29.2167042,40.0729586],[29.2125055,40.0780702],[29.206782,40.078496],[29.2058522,40.0804622],[29.2022344,40.0793699],[29.1939478,40.0801662],[29.1746912,40.0859578],[29.1736105,40.1009416],[29.1399522,40.1219557],[29.141467,40.1268764],[29.1369795,40.1411354],[29.1187392,40.1510645],[29.0738957,40.1418484],[29.0751132,40.1464202],[29.0622825,40.1664846],[29.0625134,40.1764187],[29.0758505,40.1858777],[29.0861332,40.1993161],[29.0907664,40.2320786],[29.0961157,40.2319259],[29.0994228,40.2373725],[29.1188485,40.2386626],[29.1163389,40.2425464],[29.1224239,40.2434911],[29.1350846,40.2517791]]]}},{"type":"Feature","properties":{"code":"16-16","provinceCode":"16","name":"Yenişehir"},"geometry":{"type":"Polygon","coordinates":[[[29.8433413,40.2934884],[29.8467964,40.3028013],[29.8454364,40.3116566],[29.8502835,40.3152729],[29.8486917,40.3175091],[29.8525008,40.3280368],[29.8258605,40.3528064],[29.7980765,40.3697995],[29.7201275,40.3658057],[29.7114411,40.3628642],[29.6834717,40.3641444],[29.6757036,40.3498049],[29.6683663,40.3468162],[29.6458327,40.3521549],[29.6278058,40.3589632],[29.6127438,40.3611623],[29.6015758,40.3596561],[29.5743971,40.3601833],[29.5683684,40.3589783],[29.5214233,40.3615388],[29.5109472,40.3634968],[29.4753579,40.3592924],[29.4227891,40.3429452],[29.4110064,40.3443268],[29.3948925,40.34959],[29.3364282,40.3178877],[29.3542363,40.3091702],[29.3976405,40.2970464],[29.4113852,40.2897322],[29.4176183,40.281076],[29.4172987,40.275711],[29.412504,40.2647359],[29.4118647,40.2532711],[29.4149013,40.2457082],[29.4208148,40.2385104],[29.4334408,40.2281393],[29.4524598,40.2189871],[29.4549559,40.2139153],[29.4668544,40.2081804],[29.4828262,40.2039748],[29.5087175,40.2000686],[29.5194256,40.1953076],[29.5357276,40.1861509],[29.5496322,40.1727189],[29.5633759,40.1637193],[29.5649752,40.1540318],[29.5724869,40.1518329],[29.580584,40.1526684],[29.5945425,40.1572077],[29.6095659,40.1567191],[29.6282151,40.1498018],[29.6348348,40.1448746],[29.6359367,40.1371723],[29.6440877,40.1300852],[29.656394,40.1269079],[29.6683808,40.1265413],[29.7144098,40.1358282],[29.7237694,40.1355904],[29.7261279,40.1645134],[29.7290517,40.1703783],[29.7774769,40.1888075],[29.7908166,40.2016492],[29.7970297,40.2234186],[29.8015981,40.2281623],[29.8286008,40.2433108],[29.8276977,40.2665249],[29.834319,40.2765036],[29.8394733,40.2919499],[29.8427513,40.2919765],[29.8433413,40.2934884]]]}},{"type":"Feature","properties":{"code":"16-17","provinceCode":"16","name":"Yıldırım"},"geometry":{"type":"Polygon","coordinates":[[[29.1350846,40.2517791],[29.1224239,40.2434911],[29.1163389,40.2425464],[29.1188485,40.2386626],[29.0994228,40.2373725],[29.0961157,40.2319259],[29.0907664,40.2320786],[29.0861332,40.1993161],[29.0758505,40.1858777],[29.0625134,40.1764187],[29.0622825,40.1664846],[29.0751132,40.1464202],[29.0738957,40.1418484],[29.1187392,40.1510645],[29.1369795,40.1411354],[29.141467,40.1268764],[29.1399522,40.1219557],[29.1736105,40.1009416],[29.1746912,40.0859578],[29.1939478,40.0801662],[29.2022344,40.0793699],[29.2058522,40.0804622],[29.206782,40.078496],[29.2125055,40.0780702],[29.2167042,40.0729586],[29.2186614,40.078303],[29.2024691,40.0955043],[29.2250369,40.1234389],[29.2192405,40.122214],[29.1987979,40.1232198],[29.1992745,40.1314469],[29.2025062,40.140149],[29.2006325,40.144179],[29.2078959,40.1624495],[29.2008617,40.1665634],[29.2120994,40.1654037],[29.2149349,40.167245],[29.2112534,40.1753109],[29.2017644,40.1811278],[29.2027972,40.1864791],[29.1927814,40.1877082],[29.194843,40.1879265],[29.1953347,40.1901721],[29.1932543,40.1919799],[29.1924296,40.1989695],[29.1788157,40.1983781],[29.1780319,40.2059989],[29.1756136,40.2096632],[29.1795138,40.2132118],[29.1770957,40.2150998],[29.176125,40.2193149],[29.1673325,40.2223971],[29.1671874,40.2272934],[29.1635847,40.2280953],[29.1635316,40.2249944],[29.16005,40.2240119],[29.1596515,40.225319],[29.1556603,40.225711],[29.1548654,40.2239571],[29.1387592,40.229948],[29.140434,40.2344639],[29.1457274,40.2362736],[29.1446605,40.2389224],[29.141317,40.2382095],[29.1432932,40.2445767],[29.1398115,40.246239],[29.1412788,40.2511496],[29.1437225,40.2511267],[29.1430667,40.2540391],[29.1350846,40.2517791]]]}}]}