{"type":"FeatureCollection","features":[{"type":"Feature","properties":{"code":"01-01","provinceCode":"01","name":"Aladağ"},"geometry":{"type":"Polygon","coordinates":[[[35.1058177,37.4589134],[35.1242839,37.4500132],[35.1625351,37.439192],[35.2188128,37.4466972],[35.2306839,37.4493151],[35.251156,37.45791],[35.2697046,37.4590006],[35.2837877,37.4442756],[35.2848182,37.433639],[35.2920316,37.4246376],[35.3002754,37.4189089],[35.314702,37.4139982],[35.3308461,37.4131797],[35.3531731,37.3989914],[35.3675998,37.397627],[35.3940486,37.3856192],[35.4036664,37.3692417],[35.4457565,37.3302001],[35.4557428,37.3165796],[35.4670299,37.318726],[35.4714931,37.312719],[35.4781879,37.3088961],[35.4845394,37.3083499],[35.4896892,37.3108075],[35.4920925,37.3162686],[35.4896892,37.3270531],[35.485741,37.3285546],[35.4836811,37.3266436],[35.4840244,37.3196816],[35.4816211,37.3179069],[35.4793895,37.3188625],[35.4791426,37.3227882],[35.4717378,37.3250022],[35.4700173,37.3302627],[35.473534,37.3338901],[35.4746688,37.3402927],[35.4793249,37.3440127],[35.4898227,37.3446749],[35.4947317,37.3481238],[35.4944966,37.3503533],[35.4902901,37.3520201],[35.4848556,37.3600332],[35.4739224,37.366955],[35.4750746,37.3689451],[35.4801671,37.3705083],[35.4794189,37.3738993],[35.4700482,37.3761452],[35.4670441,37.3813287],[35.454562,37.3943228],[35.4431236,37.3969711],[35.4438458,37.4019305],[35.4493061,37.4054485],[35.4528821,37.4054515],[35.4640874,37.3992112],[35.4675881,37.4009598],[35.4620659,37.4141949],[35.4554569,37.4232613],[35.4611035,37.4275382],[35.4777729,37.4465697],[35.4831352,37.4499074],[35.4987156,37.4445935],[35.5015954,37.4469389],[35.5017216,37.4505733],[35.4962265,37.4574717],[35.4969219,37.4606905],[35.507145,37.462167],[35.5135392,37.4678896],[35.4967767,37.4913505],[35.4973233,37.4930795],[35.5029823,37.4946957],[35.509076,37.4998326],[35.5174016,37.5003093],[35.5238389,37.5089567],[35.5208348,37.5163096],[35.5208348,37.5226407],[35.5257271,37.5275418],[35.528107,37.533168],[35.5224316,37.5411221],[35.5202671,37.5540314],[35.5289746,37.561001],[35.5299381,37.5658875],[35.5375718,37.5731341],[35.5392884,37.5846978],[35.5503606,37.5896629],[35.5573128,37.5894588],[35.562291,37.5936075],[35.5698441,37.5960557],[35.574479,37.601428],[35.5849429,37.605668],[35.5856266,37.610203],[35.5810021,37.6152311],[35.5801438,37.6256326],[35.5766247,37.6311387],[35.5767964,37.6350132],[35.5733632,37.6357609],[35.5705308,37.6393632],[35.5770539,37.6535669],[35.5832337,37.6591389],[35.5807446,37.6634875],[35.5763673,37.6657296],[35.5631493,37.6666808],[35.5576999,37.6716517],[35.5507897,37.6742899],[35.5449528,37.6743055],[35.5401467,37.6776865],[35.535426,37.6776186],[35.4824597,37.7079578],[35.4785669,37.7135522],[35.4808022,37.7193861],[35.4743869,37.7241721],[35.4429342,37.71056],[35.4290472,37.6979731],[35.4051022,37.6914408],[35.3997269,37.6934553],[35.3887822,37.6942033],[35.3589297,37.7036056],[35.3350933,37.7038858],[35.3206733,37.7056078],[35.3111078,37.7175514],[35.0910019,37.6495881],[35.05271,37.6500269],[35.0342587,37.6120999],[35.0919653,37.5315145],[35.0923088,37.5110821],[35.1120435,37.4814697],[35.1114807,37.4736539],[35.1058177,37.4589134]]]}},{"type":"Feature","properties":{"code":"01-02","provinceCode":"01","name":"Ceyhan"},"geometry":{"type":"Polygon","coordinates":[[[36.03544,37.211833],[36.0271818,37.2108955],[36.0217951,37.2129096],[36.0059856,37.2140511],[35.9928366,37.2184161],[35.9845179,37.2164869],[35.9724475,37.2200863],[35.9679642,37.2181287],[35.9635894,37.2109517],[35.9580721,37.2061788],[35.9533397,37.2065549],[35.9470695,37.2102046],[35.9452633,37.2087903],[35.9458595,37.2045365],[35.9353336,37.2046422],[35.9318125,37.2027183],[35.9311151,37.1948597],[35.9281894,37.1926916],[35.9097515,37.1877036],[35.9031388,37.1837567],[35.895856,37.1835032],[35.9001671,37.1761652],[35.8989587,37.1746212],[35.8914326,37.1776745],[35.884207,37.174552],[35.8813493,37.174834],[35.8826922,37.1810007],[35.8800768,37.1838235],[35.8764549,37.1849843],[35.8802836,37.1870809],[35.8798051,37.1914003],[35.8813467,37.1939834],[35.8841374,37.1948302],[35.8844776,37.1990501],[35.8869441,37.2009199],[35.8873694,37.2084485],[35.8926053,37.2114755],[35.8912764,37.2138038],[35.9002067,37.2272011],[35.8997893,37.228663],[35.9064526,37.2333592],[35.8535439,37.2539897],[35.8293543,37.2587293],[35.8121192,37.271466],[35.8002187,37.2730988],[35.79591,37.2678281],[35.7902634,37.2669921],[35.7847481,37.2623938],[35.7722732,37.2559139],[35.7415454,37.2502174],[35.7385908,37.2427695],[35.7394115,37.2341447],[35.7351438,37.2297012],[35.6760518,37.221467],[35.663741,37.2138855],[35.6376421,37.2144084],[35.629599,37.2089179],[35.6177806,37.2052574],[35.6076037,37.2040807],[35.5977551,37.2060418],[35.5864291,37.2006815],[35.5774012,37.2010737],[35.5670601,37.19519],[35.5760688,37.1899596],[35.5816086,37.1745934],[35.5783258,37.1616768],[35.5731963,37.1572618],[35.5719652,37.1489216],[35.5756584,37.1412347],[35.5756584,37.1338741],[35.5959713,37.1338741],[35.6037681,37.1289667],[35.6168997,37.1337105],[35.6210033,37.1314205],[35.6212084,37.1266765],[35.6273638,37.120787],[35.6236706,37.1163695],[35.6203877,37.0995155],[35.6324934,37.0918236],[35.642342,37.0888775],[35.6630652,37.0877318],[35.6796848,37.0901869],[35.6800952,37.0715263],[35.6774278,37.0587558],[35.6782486,37.0479484],[35.6737346,37.0318981],[35.6567046,37.0106017],[35.6427524,36.9809406],[35.6570024,36.9824315],[35.6675413,36.9829178],[35.6687179,36.9704298],[35.6624988,36.9574026],[35.6625829,36.94753],[35.6609282,36.944967],[35.6625271,36.9416838],[35.6717175,36.9340365],[35.6687332,36.9263103],[35.6688702,36.9219863],[35.6669189,36.9207821],[35.6635575,36.9127625],[35.6382212,36.88849],[35.6485952,36.8842888],[35.6591004,36.874205],[35.6673578,36.8771861],[35.6834082,36.8745513],[35.6866268,36.8641571],[35.6802422,36.8599174],[35.6826058,36.8575008],[35.6882524,36.8555045],[35.6945555,36.8582363],[35.7026971,36.8405828],[35.7267459,36.8465801],[35.7349148,36.8457967],[35.7435916,36.8478831],[35.7663666,36.8611815],[35.8371538,36.8821914],[35.8470024,36.8876071],[35.8607495,36.8990937],[35.8796261,36.9054926],[35.8962724,36.9087185],[35.9233036,36.9086449],[35.9410487,36.906597],[35.9474325,36.9336066],[35.9843527,36.9670257],[36.0076561,36.9712209],[36.0216368,36.982258],[36.0305679,36.9942728],[36.0428257,37.0042587],[36.0497375,37.0072065],[36.0575643,37.0082109],[36.0554494,37.0185091],[36.0571269,37.0459331],[36.0645587,37.0569374],[36.0718256,37.0572131],[36.0825256,37.0606599],[36.0864521,37.0572914],[36.0923052,37.0581042],[36.0950968,37.0610369],[36.0895003,37.0809415],[36.099166,37.0845361],[36.0946673,37.0938374],[36.0881455,37.1001697],[36.0779916,37.105474],[36.0773473,37.115512],[36.0828998,37.1221819],[36.0940849,37.134693],[36.0965447,37.1434541],[36.0961582,37.1549804],[36.0856055,37.1583788],[36.0831514,37.1616548],[36.0767706,37.1655173],[36.0724488,37.1790489],[36.0736975,37.1999082],[36.03544,37.211833]]]}},{"type":"Feature","properties":{"code":"01-03","provinceCode":"01","name":"Çukurova"},"geometry":{"type":"Polygon","coordinates":[[[35.332769,37.0417413],[35.3337522,37.0445551],[35.3317945,37.0482765],[35.2913986,37.0814665],[35.2905403,37.0913261],[35.2965484,37.0994045],[35.3054748,37.1031012],[35.3170393,37.0989397],[35.3250157,37.0981211],[35.32636,37.1019161],[35.3248726,37.1085773],[35.3225548,37.1135991],[35.3167766,37.1175286],[35.3168097,37.1193199],[35.3265473,37.1222373],[35.3258271,37.1291054],[35.3215633,37.1323669],[35.3149659,37.1321372],[35.3097226,37.1275664],[35.3071874,37.1203077],[35.3025779,37.119297],[35.2993801,37.1201239],[35.299697,37.1273367],[35.3024627,37.134457],[35.2994301,37.1371158],[35.2878442,37.1368374],[35.2837388,37.1381374],[35.2898154,37.14323],[35.2870992,37.1452674],[35.2738033,37.1473098],[35.2708851,37.1510725],[35.27243,37.1559295],[35.280069,37.1591446],[35.2819167,37.1616298],[35.2808599,37.1638135],[35.1826747,37.1466797],[35.1476313,37.128515],[35.1332109,37.1306719],[35.1197043,37.1264093],[35.089455,37.1344856],[35.0769332,37.139645],[35.0722903,37.1517569],[35.038383,37.1772081],[35.0331773,37.1768718],[35.0255798,37.1732845],[35.0205148,37.1543361],[35.01953,37.1407665],[35.0096814,37.1241658],[35.0067268,37.111825],[35.0065807,37.0769864],[35.0118598,37.0647887],[35.0210983,37.0668949],[35.0327563,37.0658418],[35.0374855,37.0682991],[35.041005,37.0682991],[35.046834,37.0657541],[35.0533229,37.0675093],[35.0660808,37.0573287],[35.0814782,37.0646132],[35.0810383,37.0508336],[35.0983054,37.0436355],[35.1225013,37.0406508],[35.1213211,37.0326384],[35.1333332,37.0366462],[35.1608419,37.0399605],[35.1976818,37.0302228],[35.2249249,37.0290478],[35.2412419,37.0321865],[35.2523482,37.0327151],[35.2735591,37.0302313],[35.2756673,37.0271907],[35.280375,37.0300866],[35.2848297,37.0281757],[35.2936649,37.031713],[35.3014487,37.0285183],[35.3078914,37.0303341],[35.3109062,37.0290408],[35.3135915,37.0297438],[35.3240632,37.0242572],[35.3344653,37.0290534],[35.3319379,37.0394403],[35.332769,37.0417413]]]}},{"type":"Feature","properties":{"code":"01-04","provinceCode":"01","name":"Feke"},"geometry":{"type":"Polygon","coordinates":[[[35.5798258,37.7896917],[35.5892307,37.7886444],[35.5956807,37.7855117],[35.6041463,37.7838125],[35.6097901,37.7865206],[35.6225556,37.785671],[35.6336415,37.7801485],[35.6367993,37.7761657],[35.6322306,37.7640567],[35.6362618,37.756036],[35.6369337,37.7479613],[35.641704,37.7426485],[35.6410993,37.7374948],[35.650304,37.7340942],[35.6532602,37.7313842],[35.6525212,37.7287273],[35.6650058,37.721927],[35.6814438,37.7169664],[35.6993211,37.7136762],[35.6979442,37.7094292],[35.7166668,37.7081209],[35.7196708,37.7047936],[35.7242078,37.7051558],[35.7289558,37.7096203],[35.7329049,37.7087097],[35.7418767,37.7101721],[35.7521148,37.7054047],[35.7698818,37.7072382],[35.7777782,37.7051331],[35.7788082,37.7028921],[35.791082,37.700719],[35.7928844,37.6960331],[35.8041725,37.6986518],[35.8121688,37.691969],[35.8208598,37.6947092],[35.82232,37.6982768],[35.8264767,37.7014946],[35.8359673,37.703141],[35.838101,37.7056859],[35.8423446,37.7060445],[35.8479013,37.7165606],[35.8528639,37.7186677],[35.8558024,37.7149454],[35.8676343,37.7154857],[35.8732867,37.7137582],[35.8733216,37.7205533],[35.876563,37.7298533],[35.8827281,37.7283453],[35.8899689,37.7290843],[35.9013502,37.7250778],[35.9013502,37.7207041],[35.904973,37.717939],[35.9054179,37.7129113],[35.9016045,37.70909],[35.9070068,37.705721],[35.9070124,37.7004435],[35.9124091,37.7011451],[35.920608,37.7052182],[35.9226463,37.7162298],[35.9288068,37.7231172],[35.9354803,37.7225642],[35.9375141,37.7242232],[35.9408826,37.7240723],[35.9434884,37.7207544],[35.9425351,37.7158274],[35.9457765,37.7133638],[35.9459672,37.7097436],[35.9544838,37.7072295],[35.9589328,37.7026537],[35.9668138,37.7100453],[35.976453,37.7101999],[35.9816226,37.7048662],[35.9951741,37.7008427],[36.0057185,37.6954145],[36.0112256,37.6976961],[36.0208376,37.7125046],[36.0309427,37.7102967],[36.0499462,37.7198997],[36.0367923,37.7259042],[36.03028,37.7396787],[36.0322931,37.7432251],[36.0322381,37.7477966],[36.0411753,37.756038],[36.052552,37.7573948],[36.0577001,37.7559375],[36.0549036,37.7598569],[36.0584421,37.7649612],[36.0642691,37.7631467],[36.068238,37.7689988],[36.0683028,37.7749905],[36.0814704,37.7979846],[36.0808984,37.804262],[36.0840127,37.8092333],[36.0790552,37.8134009],[36.0814704,37.8191247],[36.0765765,37.8213337],[36.0744156,37.8241452],[36.0686955,37.8257517],[36.0662803,37.8283621],[36.0447345,37.8324785],[36.0434634,37.8381506],[36.0388356,37.8420999],[36.0376797,37.8474359],[36.0273648,37.8486897],[36.0200109,37.8571716],[36.0149899,37.8587774],[36.0104245,37.8634684],[36.0025963,37.8667053],[35.9781681,37.8856132],[35.9797794,37.8946973],[35.9683116,37.8983149],[35.9666867,37.9035241],[35.9583607,37.9104444],[35.9585198,37.9252995],[35.9475561,37.933006],[35.9469841,37.9472915],[35.9483639,37.9533966],[35.9596413,37.9570034],[35.9626974,37.9637357],[35.9610795,37.9733018],[35.9525113,37.9783108],[35.9458893,37.9739395],[35.944541,37.9663577],[35.9332157,37.9630272],[35.9270138,37.9677749],[35.9273734,37.9726641],[35.9214411,37.9805286],[35.9113301,37.9821526],[35.9032288,37.9889078],[35.9184791,37.9942928],[35.921834,37.9971848],[35.9284246,37.9971103],[35.9321456,38.0029001],[35.9313917,38.0063716],[35.9341322,38.009261],[35.9352278,38.0171063],[35.9459464,38.0211866],[35.9451801,38.0277323],[35.950014,38.0326015],[35.9548647,38.0333574],[35.9562426,38.044415],[35.9525563,38.0496204],[35.955666,38.0533289],[35.9517936,38.0607305],[35.9554799,38.0629323],[35.9550598,38.065753],[35.9485691,38.070269],[35.9479802,38.0731398],[35.9356502,38.0899492],[35.9373414,38.0955106],[35.9198094,38.1098517],[35.9140978,38.1034464],[35.9065489,38.1008344],[35.8992117,38.0911956],[35.8913319,38.0908586],[35.8881014,38.0881453],[35.8747303,38.0845494],[35.8517442,38.0902456],[35.8352183,38.076065],[35.8035581,38.0758658],[35.79525,38.0778381],[35.7896992,38.0811531],[35.7993536,38.0982167],[35.8065383,38.0994739],[35.8157536,38.10852],[35.8015578,38.1143197],[35.8006214,38.1208911],[35.7962567,38.1167914],[35.7909247,38.1160319],[35.7865617,38.1084581],[35.7776917,38.1073769],[35.7698967,38.1024428],[35.7709272,38.1006078],[35.7778689,38.0989714],[35.7767231,38.0534706],[35.7659889,38.0579056],[35.7616667,38.0708164],[35.7645975,38.055215],[35.7638817,38.0437833],[35.7596694,38.0416281],[35.7484336,38.0407119],[35.7411158,38.0456275],[35.7399253,38.0541503],[35.7224917,38.0626483],[35.7217047,38.0602969],[35.7246611,38.0548339],[35.7237453,38.0516386],[35.7196542,38.0452081],[35.7163153,38.0447947],[35.7098503,38.0348533],[35.7119661,38.028445],[35.6929583,37.9958161],[35.6891194,37.9793514],[35.69,37.9736461],[35.6709506,37.9837753],[35.6483517,37.9780503],[35.6395108,37.9736617],[35.6315275,37.9722561],[35.6276064,37.9732044],[35.6194275,37.9717892],[35.6110408,37.9683939],[35.6047461,37.9680317],[35.5981667,37.9654569],[35.5912942,37.9592892],[35.5839969,37.9490386],[35.5756911,37.9414231],[35.5767414,37.9311053],[35.5864217,37.9211136],[35.5944075,37.9051442],[35.5908047,37.8951592],[35.5863589,37.8912989],[35.58658,37.8851875],[35.5961361,37.8729753],[35.5948211,37.8704444],[35.5980825,37.866995],[35.5972875,37.8601467],[35.6040069,37.8600436],[35.6075342,37.8527958],[35.6167069,37.8486853],[35.6189331,37.8496997],[35.6121797,37.8427561],[35.6235522,37.8408322],[35.6158336,37.8309619],[35.6099822,37.8270044],[35.6045928,37.8106253],[35.6037414,37.8017789],[35.5925325,37.7990381],[35.5798258,37.7896917]]]}},{"type":"Feature","properties":{"code":"01-05","provinceCode":"01","name":"İmamoğlu"},"geometry":{"type":"Polygon","coordinates":[[[35.5670601,37.19519],[35.5774012,37.2010737],[35.5864291,37.2006815],[35.5977551,37.2060418],[35.6076037,37.2040807],[35.6177806,37.2052574],[35.629599,37.2089179],[35.6376421,37.2144084],[35.663741,37.2138855],[35.6760518,37.221467],[35.7351438,37.2297012],[35.7394115,37.2341447],[35.7385908,37.2427695],[35.7415454,37.2502174],[35.7722732,37.2559139],[35.7847481,37.2623938],[35.7902634,37.2669921],[35.79591,37.2678281],[35.8002187,37.2730988],[35.7926271,37.2775071],[35.7907804,37.2810988],[35.7782645,37.2897509],[35.7756508,37.2954226],[35.7666376,37.2975211],[35.7470723,37.3256713],[35.7090408,37.344374],[35.6844193,37.3658675],[35.6558408,37.3597521],[35.6389135,37.3595774],[35.634297,37.35783],[35.634297,37.3501411],[35.63034,37.3476945],[35.6162002,37.353221],[35.5971783,37.3457945],[35.588399,37.3470472],[35.5656628,37.3552788],[35.5479916,37.3700397],[35.5349352,37.3976751],[35.5351603,37.4114443],[35.5306581,37.4139475],[35.5110734,37.4177022],[35.4995928,37.4193113],[35.4908135,37.4179704],[35.4730297,37.4252109],[35.4611035,37.4275382],[35.4554569,37.4232613],[35.4620659,37.4141949],[35.4675881,37.4009598],[35.4640874,37.3992112],[35.4528821,37.4054515],[35.4493061,37.4054485],[35.4438458,37.4019305],[35.4431236,37.3969711],[35.454562,37.3943228],[35.4670441,37.3813287],[35.4700482,37.3761452],[35.4794189,37.3738993],[35.4801671,37.3705083],[35.4750746,37.3689451],[35.4739224,37.366955],[35.4848556,37.3600332],[35.4902901,37.3520201],[35.4944966,37.3503533],[35.4947317,37.3481238],[35.4898227,37.3446749],[35.4793249,37.3440127],[35.4746688,37.3402927],[35.473534,37.3338901],[35.4700173,37.3302627],[35.4717378,37.3250022],[35.4791426,37.3227882],[35.4793895,37.3188625],[35.4816211,37.3179069],[35.4840244,37.3196816],[35.4836811,37.3266436],[35.485741,37.3285546],[35.4896892,37.3270531],[35.4920925,37.3162686],[35.4896892,37.3108075],[35.4845394,37.3083499],[35.4781879,37.3088961],[35.4714931,37.312719],[35.4670299,37.318726],[35.4557428,37.3165796],[35.4481471,37.3079403],[35.4371608,37.3028882],[35.4354442,37.2971531],[35.4390491,37.2901883],[35.4376758,37.2870471],[35.4235996,37.284179],[35.4139865,37.2743446],[35.4172481,37.2676509],[35.4169048,37.2605468],[35.3958339,37.2518864],[35.4007349,37.2454308],[35.4103021,37.2374784],[35.4126939,37.2276208],[35.4184624,37.2224674],[35.4295772,37.2214591],[35.4411142,37.2234757],[35.4595451,37.2214591],[35.469163,37.2175467],[35.4805129,37.2200712],[35.4871675,37.2241827],[35.5004984,37.2227094],[35.5108535,37.2299509],[35.5203982,37.2335355],[35.5438097,37.2383387],[35.5619087,37.2384103],[35.5642498,37.2201281],[35.5498427,37.2232113],[35.5494825,37.2202715],[35.5510133,37.2143198],[35.5621788,37.1981835],[35.5670601,37.19519]]]}},{"type":"Feature","properties":{"code":"01-06","provinceCode":"01","name":"Kadirli"},"geometry":{"type":"Polygon","coordinates":[[[36.2644722,37.2456881],[36.2647802,37.2574816],[36.2662322,37.2594419],[36.2703092,37.2595786],[36.2755019,37.2554797],[36.2782056,37.2564703],[36.2763999,37.2663937],[36.2699961,37.2718475],[36.2673051,37.2783964],[36.2643869,37.280172],[36.2547364,37.2801212],[36.2534005,37.2902789],[36.285112,37.3526451],[36.2734459,37.3587707],[36.2627089,37.3932502],[36.2570544,37.3968021],[36.2666554,37.4076548],[36.2616854,37.410309],[36.2635019,37.4150698],[36.2624175,37.4186809],[36.2554004,37.4154785],[36.2526229,37.4160966],[36.2578845,37.4245901],[36.2522692,37.4239969],[36.2519707,37.4252663],[36.2605601,37.4318935],[36.2569325,37.4364588],[36.2539552,37.4351273],[36.2522099,37.4365403],[36.2578753,37.4452756],[36.2548108,37.4464578],[36.2521602,37.4502485],[36.2543386,37.4547668],[36.2578258,37.4561266],[36.258985,37.4614305],[36.2565433,37.4626959],[36.2532851,37.4727896],[36.2456918,37.4768638],[36.2498167,37.4809636],[36.2457178,37.4868017],[36.2515947,37.4951819],[36.2514984,37.4974758],[36.2451923,37.4967253],[36.2466003,37.50174],[36.2453121,37.5038443],[36.2408183,37.5057436],[36.2429539,37.5096071],[36.2409002,37.5106121],[36.2394132,37.5181108],[36.2365592,37.5202859],[36.2386826,37.5295506],[36.2376566,37.5307069],[36.2404358,37.5372099],[36.2435159,37.5391212],[36.2459614,37.5438025],[36.2463835,37.5508194],[36.2514055,37.5591895],[36.24949,37.5628518],[36.2512207,37.566259],[36.2543488,37.5678933],[36.2469379,37.5798596],[36.2494013,37.5922225],[36.2607977,37.6016746],[36.2576292,37.6049488],[36.2594201,37.6062857],[36.2581114,37.609396],[36.2606944,37.6115786],[36.2606255,37.6151797],[36.2627608,37.6158345],[36.2568241,37.6228811],[36.2562992,37.6285932],[36.2662639,37.6584109],[36.2659868,37.6685076],[36.2130232,37.7157561],[36.2134922,37.7179824],[36.2161623,37.7178397],[36.2186158,37.7196663],[36.2181828,37.7212075],[36.2222961,37.7260306],[36.2272031,37.7246893],[36.2274196,37.7266585],[36.2318215,37.7286846],[36.2336052,37.7315976],[36.2418882,37.7324515],[36.2507609,37.7423482],[36.2541637,37.7441012],[36.25884,37.7440168],[36.260667,37.7497797],[36.2035898,37.749011],[36.191109,37.7465178],[36.17403,37.7387262],[36.1547175,37.7373755],[36.1493218,37.7240674],[36.1506247,37.6821879],[36.1491589,37.6685236],[36.1422462,37.6490076],[36.1454129,37.6383502],[36.1408526,37.634223],[36.1405269,37.6246779],[36.1384096,37.6218399],[36.1400383,37.6138414],[36.137921,37.6097128],[36.1374324,37.6001645],[36.1358037,37.5962933],[36.1283117,37.5912603],[36.125543,37.5854527],[36.1239143,37.5725451],[36.1126764,37.5375544],[36.1094722,37.5359348],[36.1094039,37.5267254],[36.1079351,37.5251001],[36.1093355,37.5233935],[36.1062483,37.5134722],[36.0960768,37.5077],[36.0926677,37.5083909],[36.0969256,37.5029387],[36.0985613,37.502999],[36.0981398,37.5003191],[36.1005014,37.4974798],[36.0980299,37.49676],[36.0980285,37.4945789],[36.0951577,37.4931099],[36.0889717,37.4680518],[36.0801302,37.4484712],[36.0680196,37.4354344],[36.0521199,37.4218051],[36.0320594,37.3968413],[36.0121089,37.3885486],[36.0049113,37.3866116],[35.9991067,37.3868883],[35.9811127,37.391408],[35.9522061,37.3939905],[35.949536,37.3954662],[35.9194984,37.3961945],[35.9140677,37.3840286],[35.9169955,37.373484],[35.9159589,37.3498662],[35.9202763,37.3456826],[35.9109888,37.3309682],[35.9109377,37.3178879],[35.9092367,37.3170627],[35.9071006,37.3043251],[35.9052129,37.3023291],[35.9065003,37.3007435],[35.9034194,37.2846208],[35.9125972,37.2690235],[35.9114344,37.2683956],[35.9127633,37.2584472],[35.9172966,37.2533962],[35.9173498,37.2516402],[35.9154361,37.2509632],[35.9169511,37.2431774],[35.9119012,37.2426061],[35.9130789,37.2376693],[35.9147157,37.2373265],[35.9139212,37.2343327],[35.9064526,37.2333592],[35.8997893,37.228663],[35.9002067,37.2272011],[35.8912764,37.2138038],[35.8926053,37.2114755],[35.8873694,37.2084485],[35.8869441,37.2009199],[35.8844776,37.1990501],[35.8841374,37.1948302],[35.8813467,37.1939834],[35.8798051,37.1914003],[35.8802836,37.1870809],[35.8764549,37.1849843],[35.8800768,37.1838235],[35.8826922,37.1810007],[35.8813493,37.174834],[35.884207,37.174552],[35.8914326,37.1776745],[35.8989587,37.1746212],[35.9001671,37.1761652],[35.895856,37.1835032],[35.9031388,37.1837567],[35.9097515,37.1877036],[35.9281894,37.1926916],[35.9311151,37.1948597],[35.9318125,37.2027183],[35.9353336,37.2046422],[35.9458595,37.2045365],[35.9452633,37.2087903],[35.9470695,37.2102046],[35.9533397,37.2065549],[35.9580721,37.2061788],[35.9635894,37.2109517],[35.9679642,37.2181287],[35.9724475,37.2200863],[35.9845179,37.2164869],[35.9928366,37.2184161],[36.0059856,37.2140511],[36.0217951,37.2129096],[36.0271818,37.2108955],[36.03544,37.211833],[36.0406592,37.2175271],[36.0638614,37.2349395],[36.0771569,37.2403991],[36.1105074,37.2505603],[36.12132,37.251783],[36.1380343,37.2507192],[36.1456963,37.2496103],[36.163226,37.2436035],[36.1714684,37.2436959],[36.1783178,37.24462],[36.1853993,37.2507192],[36.1956153,37.2548774],[36.1984015,37.2545078],[36.2049026,37.2498875],[36.2114984,37.2419769],[36.2142326,37.2408413],[36.2426441,37.2413145],[36.2644722,37.2456881]]]}},{"type":"Feature","properties":{"code":"01-07","provinceCode":"01","name":"Karaisalı"},"geometry":{"type":"Polygon","coordinates":[[[35.3958339,37.2518864],[35.4169048,37.2605468],[35.4172481,37.2676509],[35.4139865,37.2743446],[35.4235996,37.284179],[35.4376758,37.2870471],[35.4390491,37.2901883],[35.4354442,37.2971531],[35.4371608,37.3028882],[35.4481471,37.3079403],[35.4557428,37.3165796],[35.4457565,37.3302001],[35.4036664,37.3692417],[35.3940486,37.3856192],[35.3675998,37.397627],[35.3531731,37.3989914],[35.3308461,37.4131797],[35.314702,37.4139982],[35.3002754,37.4189089],[35.2920316,37.4246376],[35.2848182,37.433639],[35.2837877,37.4442756],[35.2697046,37.4590006],[35.251156,37.45791],[35.2306839,37.4493151],[35.2188128,37.4466972],[35.1625351,37.439192],[35.1242839,37.4500132],[35.1058177,37.4589134],[35.0449323,37.4720907],[35.0305111,37.4938058],[34.9624503,37.4720348],[34.9416814,37.4110713],[34.9406509,37.361945],[34.9427119,37.34092],[34.9375183,37.3197799],[34.9349448,37.2918434],[34.9551286,37.2832491],[34.9745713,37.2676679],[34.9691156,37.248685],[34.971331,37.2379302],[34.9688144,37.2303255],[34.9637762,37.2251677],[34.9623193,37.2188807],[34.9568239,37.2156264],[34.9374539,37.2096921],[34.9308795,37.2054238],[34.9308191,37.1985686],[34.9377624,37.1866776],[34.9513348,37.174799],[34.954639,37.1661495],[34.9505122,37.1546421],[34.9528802,37.1470524],[34.9645066,37.1339549],[34.9816055,37.120896],[34.9997043,37.0840983],[35.0065807,37.0769864],[35.0067268,37.111825],[35.0096814,37.1241658],[35.01953,37.1407665],[35.0205148,37.1543361],[35.0255798,37.1732845],[35.0331773,37.1768718],[35.038383,37.1772081],[35.0722903,37.1517569],[35.0769332,37.139645],[35.089455,37.1344856],[35.1197043,37.1264093],[35.1332109,37.1306719],[35.1476313,37.128515],[35.1826747,37.1466797],[35.2808599,37.1638135],[35.2726017,37.1692676],[35.2714155,37.173746],[35.2755318,37.1760335],[35.2837597,37.17002],[35.2884804,37.1753545],[35.2859913,37.1791158],[35.2784382,37.1799364],[35.2722872,37.1860146],[35.2739704,37.1908276],[35.2771309,37.1935456],[35.2757972,37.1996556],[35.2777101,37.2047848],[35.3128298,37.2202411],[35.3252376,37.2500261],[35.3441204,37.2584975],[35.3527034,37.2593172],[35.3667797,37.2528955],[35.3958339,37.2518864]]]}},{"type":"Feature","properties":{"code":"01-08","provinceCode":"01","name":"Karataş"},"geometry":{"type":"Polygon","coordinates":[[[35.1683092,36.7954249],[35.1538663,36.7986515],[35.1495843,36.7969023],[35.1452299,36.7920359],[35.1403792,36.7908298],[35.1326398,36.788099],[35.1293782,36.78968],[35.1305798,36.7926012],[35.1190356,36.7919139],[35.0956467,36.7832184],[35.0877932,36.7876522],[35.0817422,36.7972062],[35.0738457,36.7985808],[35.0693396,36.7873429],[35.056465,36.7829091],[35.0496415,36.7785782],[35.0477103,36.7678186],[35.0421742,36.7642432],[35.0375394,36.765309],[35.0370673,36.7737314],[35.034149,36.778647],[35.0292567,36.7793688],[35.0266818,36.778372],[35.0244931,36.7746939],[35.0244073,36.7695719],[35.0310162,36.7622492],[35.0283984,36.7580203],[35.025566,36.7569199],[35.0198582,36.7577108],[35.0114039,36.7658247],[35.005267,36.7679218],[35.0011901,36.7652746],[35.0105371,36.7558868],[35.0084886,36.7511808],[35.0029107,36.7522051],[34.9980663,36.7596655],[34.9932652,36.760855],[34.9815733,36.7607536],[34.9756155,36.7575355],[34.9711821,36.7596549],[34.9690843,36.7591791],[34.9688518,36.7516475],[34.9652023,36.7518097],[34.9607148,36.7545401],[34.9577141,36.7539183],[34.9566328,36.7517827],[34.9598214,36.7432727],[34.9579206,36.7412663],[34.9476248,36.7405271],[34.9452488,36.7417415],[34.943638,36.7458843],[34.9385355,36.7410859],[34.9353591,36.740106],[34.9325206,36.7406804],[34.9297834,36.7452761],[34.9271477,36.7451071],[34.9258974,36.7417618],[34.9270125,36.7379771],[34.9230927,36.7375378],[34.9114609,36.728669],[34.974934,36.719056],[34.9984433,36.7118066],[35.0190427,36.7034771],[35.0862324,36.6716092],[35.1072906,36.6607776],[35.1082817,36.6577051],[35.109795,36.6584808],[35.113948,36.656945],[35.2152233,36.6106187],[35.3252397,36.5573357],[35.3374595,36.5470656],[35.3394351,36.5433542],[35.3381319,36.5413479],[35.3391955,36.5388127],[35.3480861,36.5446079],[35.3544014,36.5445453],[35.3601758,36.5505393],[35.3715172,36.5514008],[35.3803722,36.5564598],[35.3818154,36.5556697],[35.3827944,36.5557805],[35.3850449,36.5575587],[35.3821573,36.5558321],[35.3792258,36.557619],[35.3802536,36.5587411],[35.3813675,36.5575963],[35.3810452,36.5592088],[35.3821516,36.5580801],[35.3818415,36.5596445],[35.3836912,36.5579372],[35.3864729,36.5634749],[35.3935135,36.5679261],[35.4086711,36.5738247],[35.4057204,36.5755685],[35.4045054,36.5794675],[35.4077857,36.5856246],[35.4217098,36.5906596],[35.4400897,36.5917161],[35.4519482,36.5899722],[35.4561234,36.5914883],[35.4988939,36.5856446],[35.53183,36.576743],[35.5596417,36.5654214],[35.5594077,36.5773149],[35.5621543,36.5835181],[35.5794921,36.5991615],[35.5904784,36.6064653],[35.5929675,36.6110127],[35.5912509,36.614733],[35.5846419,36.619142],[35.582582,36.6326431],[35.5757155,36.6361558],[35.5684199,36.6469682],[35.560781,36.6480701],[35.5654158,36.6566086],[35.5634417,36.6585366],[35.5568328,36.6599825],[35.5459323,36.6597759],[35.5398383,36.6614972],[35.5358901,36.6638382],[35.5324568,36.6705162],[35.5261912,36.6721685],[35.5239596,36.6701032],[35.5255904,36.6551627],[35.5231871,36.6486554],[35.5182519,36.6453843],[35.5111279,36.6446268],[35.4878678,36.6501015],[35.4866662,36.6527871],[35.4909577,36.6655938],[35.4861083,36.667315],[35.4726329,36.6685886],[35.466496,36.6731667],[35.4660668,36.6777101],[35.4694142,36.6873467],[35.4754653,36.694126],[35.4807009,36.7150451],[35.4916014,36.7186916],[35.4980817,36.7229914],[35.5016865,36.735133],[35.4980817,36.7406357],[35.4978671,36.7481668],[35.4940476,36.7544937],[35.4899707,36.7577945],[35.4834904,36.7579664],[35.4846491,36.761989],[35.4894557,36.7665272],[35.4894128,36.7700337],[35.4879965,36.7743307],[35.4835333,36.7760495],[35.4787697,36.7818929],[35.4791989,36.7866017],[35.4840054,36.7932347],[35.4872241,36.7950561],[35.4681985,36.7963648],[35.4220448,36.7902167],[35.4035994,36.7914115],[35.3672511,36.7797889],[35.3610122,36.7715326],[35.2305381,36.7500185],[35.2042263,36.7414329],[35.1982586,36.7547999],[35.1924266,36.7617542],[35.1833396,36.76773],[35.1780501,36.7517572],[35.1887647,36.7376288],[35.1642902,36.7304753],[35.1541181,36.7306112],[35.1620862,36.7606337],[35.1683092,36.7954249]]]}},{"type":"Feature","properties":{"code":"01-09","provinceCode":"01","name":"Kozan"},"geometry":{"type":"Polygon","coordinates":[[[35.8002187,37.2730988],[35.8121192,37.271466],[35.8293543,37.2587293],[35.8535439,37.2539897],[35.9064526,37.2333592],[35.9139212,37.2343327],[35.9147157,37.2373265],[35.9130789,37.2376693],[35.9119012,37.2426061],[35.9169511,37.2431774],[35.9154361,37.2509632],[35.9173498,37.2516402],[35.9172966,37.2533962],[35.9127633,37.2584472],[35.9114344,37.2683956],[35.9125972,37.2690235],[35.9034194,37.2846208],[35.9065003,37.3007435],[35.9052129,37.3023291],[35.9071006,37.3043251],[35.9092367,37.3170627],[35.9109377,37.3178879],[35.9109888,37.3309682],[35.9202763,37.3456826],[35.9159589,37.3498662],[35.9169955,37.373484],[35.9140677,37.3840286],[35.9194984,37.3961945],[35.921234,37.4086873],[35.9193006,37.408836],[35.9218433,37.4094908],[35.9208876,37.4136057],[35.9224948,37.4235711],[35.9195809,37.4439894],[35.9143839,37.4587829],[35.9146673,37.4631844],[35.9210757,37.4725333],[35.9205885,37.4752351],[35.9293736,37.483881],[35.9377427,37.4873044],[35.947189,37.4885968],[35.9516687,37.5069188],[35.9567983,37.5097878],[35.9621729,37.5168932],[35.9650666,37.5285815],[35.9616479,37.534735],[35.9644281,37.5494389],[35.9716379,37.5663131],[35.9934992,37.5875469],[36.0259136,37.6082843],[36.0372039,37.6131543],[36.0694029,37.6408679],[36.0872151,37.6625165],[36.1034376,37.6861197],[36.1277693,37.7096089],[36.1407915,37.7270891],[36.1465721,37.7327001],[36.1547175,37.7373755],[36.17403,37.7387262],[36.191109,37.7465178],[36.2035898,37.749011],[36.1728515,37.7535268],[36.1233469,37.7521289],[36.0840969,37.741504],[36.0322931,37.7432251],[36.03028,37.7396787],[36.0367923,37.7259042],[36.0499462,37.7198997],[36.0309427,37.7102967],[36.0208376,37.7125046],[36.0112256,37.6976961],[36.0057185,37.6954145],[35.9951741,37.7008427],[35.9816226,37.7048662],[35.976453,37.7101999],[35.9668138,37.7100453],[35.9589328,37.7026537],[35.9544838,37.7072295],[35.9459672,37.7097436],[35.9457765,37.7133638],[35.9425351,37.7158274],[35.9434884,37.7207544],[35.9408826,37.7240723],[35.9375141,37.7242232],[35.9354803,37.7225642],[35.9288068,37.7231172],[35.9226463,37.7162298],[35.920608,37.7052182],[35.9124091,37.7011451],[35.9070124,37.7004435],[35.9070068,37.705721],[35.9016045,37.70909],[35.9054179,37.7129113],[35.904973,37.717939],[35.9013502,37.7207041],[35.9013502,37.7250778],[35.8899689,37.7290843],[35.8827281,37.7283453],[35.876563,37.7298533],[35.8733216,37.7205533],[35.8732867,37.7137582],[35.8676343,37.7154857],[35.8558024,37.7149454],[35.8528639,37.7186677],[35.8479013,37.7165606],[35.8423446,37.7060445],[35.838101,37.7056859],[35.8359673,37.703141],[35.8264767,37.7014946],[35.82232,37.6982768],[35.8208598,37.6947092],[35.8121688,37.691969],[35.8041725,37.6986518],[35.7928844,37.6960331],[35.791082,37.700719],[35.7788082,37.7028921],[35.7777782,37.7051331],[35.7698818,37.7072382],[35.7521148,37.7054047],[35.7418767,37.7101721],[35.7329049,37.7087097],[35.7289558,37.7096203],[35.7242078,37.7051558],[35.7196708,37.7047936],[35.7166668,37.7081209],[35.6979442,37.7094292],[35.6993211,37.7136762],[35.6814438,37.7169664],[35.6650058,37.721927],[35.6525212,37.7287273],[35.6532602,37.7313842],[35.650304,37.7340942],[35.6410993,37.7374948],[35.641704,37.7426485],[35.6369337,37.7479613],[35.6362618,37.756036],[35.6322306,37.7640567],[35.6367993,37.7761657],[35.6336415,37.7801485],[35.6225556,37.785671],[35.6097901,37.7865206],[35.6041463,37.7838125],[35.5956807,37.7855117],[35.5892307,37.7886444],[35.5798258,37.7896917],[35.5761028,37.7880553],[35.5611436,37.8023097],[35.5387681,37.7995325],[35.5396628,37.7983608],[35.5187469,37.8010114],[35.5299356,37.7761303],[35.5262367,37.7667844],[35.5174089,37.7606489],[35.5226556,37.7495978],[35.5195961,37.7251739],[35.5128047,37.7183186],[35.49924,37.7163892],[35.4824597,37.7079578],[35.535426,37.6776186],[35.5401467,37.6776865],[35.5449528,37.6743055],[35.5507897,37.6742899],[35.5576999,37.6716517],[35.5631493,37.6666808],[35.5763673,37.6657296],[35.5807446,37.6634875],[35.5832337,37.6591389],[35.5770539,37.6535669],[35.5705308,37.6393632],[35.5733632,37.6357609],[35.5767964,37.6350132],[35.5766247,37.6311387],[35.5801438,37.6256326],[35.5810021,37.6152311],[35.5856266,37.610203],[35.5849429,37.605668],[35.574479,37.601428],[35.5698441,37.5960557],[35.562291,37.5936075],[35.5573128,37.5894588],[35.5503606,37.5896629],[35.5392884,37.5846978],[35.5375718,37.5731341],[35.5299381,37.5658875],[35.5289746,37.561001],[35.5202671,37.5540314],[35.5224316,37.5411221],[35.528107,37.533168],[35.5257271,37.5275418],[35.5208348,37.5226407],[35.5208348,37.5163096],[35.5238389,37.5089567],[35.5174016,37.5003093],[35.509076,37.4998326],[35.5029823,37.4946957],[35.4973233,37.4930795],[35.4967767,37.4913505],[35.5135392,37.4678896],[35.507145,37.462167],[35.4969219,37.4606905],[35.4962265,37.4574717],[35.5017216,37.4505733],[35.5015954,37.4469389],[35.4987156,37.4445935],[35.4831352,37.4499074],[35.4777729,37.4465697],[35.4611035,37.4275382],[35.4730297,37.4252109],[35.4908135,37.4179704],[35.4995928,37.4193113],[35.5110734,37.4177022],[35.5306581,37.4139475],[35.5351603,37.4114443],[35.5349352,37.3976751],[35.5479916,37.3700397],[35.5656628,37.3552788],[35.588399,37.3470472],[35.5971783,37.3457945],[35.6162002,37.353221],[35.63034,37.3476945],[35.634297,37.3501411],[35.634297,37.35783],[35.6389135,37.3595774],[35.6558408,37.3597521],[35.6844193,37.3658675],[35.7090408,37.344374],[35.7470723,37.3256713],[35.7666376,37.2975211],[35.7756508,37.2954226],[35.7782645,37.2897509],[35.7907804,37.2810988],[35.7926271,37.2775071],[35.8002187,37.2730988]]]}},{"type":"Feature","properties":{"code":"01-10","provinceCode":"01","name":"Pozantı"},"geometry":{"type":"Polygon","coordinates":[[[34.7747918,37.4208587],[34.7696835,37.4139628],[34.7731858,37.4003734],[34.7875428,37.3758109],[34.7872577,37.3493016],[34.7787786,37.3308687],[34.8043837,37.3150165],[34.8174441,37.3090027],[34.8715757,37.2960167],[34.906095,37.2967214],[34.9349448,37.2918434],[34.9375183,37.3197799],[34.9427119,37.34092],[34.9406509,37.361945],[34.9416814,37.4110713],[34.9624503,37.4720348],[35.0305111,37.4938058],[35.0449323,37.4720907],[35.1058177,37.4589134],[35.1114807,37.4736539],[35.1120435,37.4814697],[35.0923088,37.5110821],[35.0919653,37.5315145],[35.0342587,37.6120999],[35.05271,37.6500269],[34.9896636,37.6702122],[34.9693458,37.6743271],[34.9568771,37.6848777],[34.9365085,37.6936459],[34.9055869,37.6948434],[34.8918344,37.6908597],[34.8795525,37.6819709],[34.8552334,37.6339023],[34.858036,37.6230284],[34.8476525,37.6087017],[34.8585847,37.6012564],[34.8548449,37.588472],[34.8652974,37.5821079],[34.8689415,37.5734439],[34.8695169,37.560826],[34.8474673,37.5395568],[34.8499295,37.5147164],[34.8320547,37.4822985],[34.8226562,37.4734906],[34.8020667,37.4660784],[34.796274,37.4558891],[34.7994913,37.446447],[34.797161,37.4315526],[34.7882041,37.4239896],[34.7747918,37.4208587]]]}},{"type":"Feature","properties":{"code":"01-11","provinceCode":"01","name":"Saimbeyli"},"geometry":{"type":"Polygon","coordinates":[[[36.2660884,38.0537065],[36.2594412,38.0551804],[36.2601366,38.0666099],[36.2561381,38.0763269],[36.2591804,38.0954835],[36.2629181,38.1008191],[36.2629181,38.1031447],[36.259615,38.1052651],[36.2570073,38.1116258],[36.2584211,38.114375],[36.2572737,38.1215508],[36.2524199,38.1230223],[36.2431357,38.1215816],[36.2358624,38.1248806],[36.2287876,38.1206717],[36.2257996,38.1224881],[36.2131403,38.1210346],[36.2077555,38.1222819],[36.2001065,38.1052207],[36.1959433,38.1037255],[36.186684,38.1049631],[36.1813871,38.1078486],[36.1767693,38.1073143],[36.1748057,38.1135939],[36.1672621,38.1128712],[36.1497416,38.1063524],[36.1320789,38.0966758],[36.124751,38.0899994],[36.1098111,38.0830509],[36.0872653,38.0692589],[36.0801841,38.0777167],[36.0504814,38.0908263],[36.0467915,38.0983367],[36.0453895,38.1131943],[36.0391857,38.1196032],[36.0361977,38.1272961],[36.0264934,38.1275089],[36.021801,38.131249],[36.0169654,38.1321981],[36.0032823,38.1395836],[35.9930264,38.1560553],[35.9908033,38.1503558],[35.9729153,38.1390475],[35.9708658,38.1280147],[35.9744614,38.1172944],[35.9679936,38.1159144],[35.9635264,38.1092044],[35.9541589,38.1055908],[35.945245,38.0968586],[35.9373414,38.0955106],[35.9356502,38.0899492],[35.9479802,38.0731398],[35.9485691,38.070269],[35.9550598,38.065753],[35.9554799,38.0629323],[35.9517936,38.0607305],[35.955666,38.0533289],[35.9525563,38.0496204],[35.9562426,38.044415],[35.9548647,38.0333574],[35.950014,38.0326015],[35.9451801,38.0277323],[35.9459464,38.0211866],[35.9352278,38.0171063],[35.9341322,38.009261],[35.9313917,38.0063716],[35.9321456,38.0029001],[35.9284246,37.9971103],[35.921834,37.9971848],[35.9184791,37.9942928],[35.9032288,37.9889078],[35.9113301,37.9821526],[35.9214411,37.9805286],[35.9273734,37.9726641],[35.9270138,37.9677749],[35.9332157,37.9630272],[35.944541,37.9663577],[35.9458893,37.9739395],[35.9525113,37.9783108],[35.9610795,37.9733018],[35.9626974,37.9637357],[35.9596413,37.9570034],[35.9483639,37.9533966],[35.9469841,37.9472915],[35.9475561,37.933006],[35.9585198,37.9252995],[35.9583607,37.9104444],[35.9666867,37.9035241],[35.9683116,37.8983149],[35.9797794,37.8946973],[35.9781681,37.8856132],[36.0025963,37.8667053],[36.0104245,37.8634684],[36.0149899,37.8587774],[36.0200109,37.8571716],[36.0273648,37.8486897],[36.0376797,37.8474359],[36.0388356,37.8420999],[36.0434634,37.8381506],[36.0447345,37.8324785],[36.0662803,37.8283621],[36.0686955,37.8257517],[36.0744156,37.8241452],[36.0765765,37.8213337],[36.0814704,37.8191247],[36.0790552,37.8134009],[36.0840127,37.8092333],[36.0808984,37.804262],[36.0814704,37.7979846],[36.0683028,37.7749905],[36.068238,37.7689988],[36.0642691,37.7631467],[36.0584421,37.7649612],[36.0549036,37.7598569],[36.0577001,37.7559375],[36.052552,37.7573948],[36.0411753,37.756038],[36.0322381,37.7477966],[36.0322931,37.7432251],[36.0840969,37.741504],[36.1233469,37.7521289],[36.1728515,37.7535268],[36.2035898,37.749011],[36.260667,37.7497797],[36.2611519,37.7516016],[36.2672972,37.7556632],[36.2699156,37.7651448],[36.2698275,37.7720868],[36.2684122,37.7778333],[36.2555254,37.7898151],[36.2611416,37.7964598],[36.2694593,37.816237],[36.2709921,37.8447965],[36.2826601,37.8678701],[36.2832379,37.8828419],[36.2928034,37.8943859],[36.2923058,37.906644],[36.2679566,37.9220816],[36.2353572,37.9466038],[36.2018762,37.934954],[36.2052291,37.9391591],[36.2013033,37.9430333],[36.2047153,37.9480957],[36.2056757,37.9576615],[36.2132915,37.9650807],[36.2118256,37.9706131],[36.2157009,37.9750295],[36.2152291,37.9783963],[36.2209746,37.9864841],[36.2257682,37.9893857],[36.2258188,37.9928979],[36.229753,37.9951353],[36.2261979,38.0017542],[36.2337968,38.0138751],[36.2349594,38.0182291],[36.2337968,38.0215807],[36.2435356,38.0218992],[36.2484134,38.0272548],[36.2508734,38.0250648],[36.2544033,38.0260337],[36.2568716,38.0294978],[36.2536535,38.0365448],[36.2551367,38.0411649],[36.2600046,38.0440817],[36.2613713,38.0485066],[36.2641048,38.0498087],[36.2660884,38.0537065]]]}},{"type":"Feature","properties":{"code":"01-12","provinceCode":"01","name":"Sarıçam"},"geometry":{"type":"Polygon","coordinates":[[[35.6570024,36.9824315],[35.6427524,36.9809406],[35.6567046,37.0106017],[35.6737346,37.0318981],[35.6782486,37.0479484],[35.6774278,37.0587558],[35.6800952,37.0715263],[35.6796848,37.0901869],[35.6630652,37.0877318],[35.642342,37.0888775],[35.6324934,37.0918236],[35.6203877,37.0995155],[35.6236706,37.1163695],[35.6273638,37.120787],[35.6212084,37.1266765],[35.6210033,37.1314205],[35.6168997,37.1337105],[35.6037681,37.1289667],[35.5959713,37.1338741],[35.5756584,37.1338741],[35.5756584,37.1412347],[35.5719652,37.1489216],[35.5731963,37.1572618],[35.5783258,37.1616768],[35.5816086,37.1745934],[35.5760688,37.1899596],[35.5670601,37.19519],[35.5621788,37.1981835],[35.5510133,37.2143198],[35.5494825,37.2202715],[35.5498427,37.2232113],[35.5642498,37.2201281],[35.5619087,37.2384103],[35.5438097,37.2383387],[35.5203982,37.2335355],[35.5108535,37.2299509],[35.5004984,37.2227094],[35.4871675,37.2241827],[35.4805129,37.2200712],[35.469163,37.2175467],[35.4595451,37.2214591],[35.4411142,37.2234757],[35.4295772,37.2214591],[35.4184624,37.2224674],[35.4126939,37.2276208],[35.4103021,37.2374784],[35.4007349,37.2454308],[35.3958339,37.2518864],[35.3667797,37.2528955],[35.3527034,37.2593172],[35.3441204,37.2584975],[35.3252376,37.2500261],[35.3128298,37.2202411],[35.2777101,37.2047848],[35.2757972,37.1996556],[35.2771309,37.1935456],[35.2739704,37.1908276],[35.2722872,37.1860146],[35.2784382,37.1799364],[35.2859913,37.1791158],[35.2884804,37.1753545],[35.2837597,37.17002],[35.2755318,37.1760335],[35.2714155,37.173746],[35.2726017,37.1692676],[35.2808599,37.1638135],[35.2819167,37.1616298],[35.280069,37.1591446],[35.27243,37.1559295],[35.2708851,37.1510725],[35.2738033,37.1473098],[35.2870992,37.1452674],[35.2898154,37.14323],[35.2837388,37.1381374],[35.2878442,37.1368374],[35.2994301,37.1371158],[35.3024627,37.134457],[35.299697,37.1273367],[35.2993801,37.1201239],[35.3025779,37.119297],[35.3071874,37.1203077],[35.3097226,37.1275664],[35.3149659,37.1321372],[35.3215633,37.1323669],[35.3258271,37.1291054],[35.3265473,37.1222373],[35.3168097,37.1193199],[35.3167766,37.1175286],[35.3225548,37.1135991],[35.3248726,37.1085773],[35.32636,37.1019161],[35.3250157,37.0981211],[35.3170393,37.0989397],[35.3054748,37.1031012],[35.2965484,37.0994045],[35.2905403,37.0913261],[35.2913986,37.0814665],[35.3317945,37.0482765],[35.3337522,37.0445551],[35.332769,37.0417413],[35.3471269,37.0406389],[35.3463183,37.0324898],[35.3475045,37.0313227],[35.3582977,37.02946],[35.3617354,37.0262794],[35.3694546,37.0232985],[35.3772133,37.0156957],[35.3854238,37.0145389],[35.3910245,37.0090108],[35.3913052,36.9911919],[35.3997256,36.9894644],[35.4101988,36.9825572],[35.4361255,36.9818808],[35.5389604,36.9690932],[35.6180735,36.9651042],[35.6386059,36.9682624],[35.6445581,36.9704726],[35.6570024,36.9824315]]]}},{"type":"Feature","properties":{"code":"01-13","provinceCode":"01","name":"Seyhan"},"geometry":{"type":"Polygon","coordinates":[[[35.3240632,37.0242572],[35.3135915,37.0297438],[35.3109062,37.0290408],[35.3078914,37.0303341],[35.3014487,37.0285183],[35.2936649,37.031713],[35.2848297,37.0281757],[35.280375,37.0300866],[35.2756673,37.0271907],[35.2735591,37.0302313],[35.2523482,37.0327151],[35.2412419,37.0321865],[35.2249249,37.0290478],[35.1976818,37.0302228],[35.1608419,37.0399605],[35.1333332,37.0366462],[35.1213211,37.0326384],[35.118565,37.0281585],[35.1188167,37.0236403],[35.1208609,37.0210705],[35.1200241,37.0170229],[35.1167679,37.0139903],[35.117138,37.0127823],[35.1208234,37.0123197],[35.1215637,37.0101351],[35.1171648,37.0081046],[35.1196646,37.0057571],[35.118227,37.0024242],[35.1158129,37.0024071],[35.1160382,37.0000679],[35.1142359,37.0002564],[35.1209843,36.9919103],[35.1208019,36.984806],[35.0939391,36.9803981],[35.0941837,36.9778382],[35.0891411,36.9778981],[35.093776,36.9754897],[35.0915766,36.971264],[35.0881251,36.9695794],[35.0882077,36.967038],[35.0961041,36.9663865],[35.0962436,36.9640806],[35.0984216,36.9645692],[35.0991511,36.9628718],[35.098419,36.9522845],[35.0962398,36.9477387],[35.107917,36.9494985],[35.1087212,36.9464021],[35.1108777,36.9450644],[35.1145041,36.9469937],[35.1159954,36.9419518],[35.1200294,36.9413515],[35.1267511,36.9250744],[35.1236021,36.9164199],[35.131166,36.9153004],[35.1305973,36.9128428],[35.1289129,36.9133318],[35.1279258,36.911333],[35.1307904,36.9076485],[35.1341164,36.9115904],[35.1395881,36.9095273],[35.1401299,36.9106596],[35.1453388,36.9102092],[35.1438443,36.8958713],[35.1379152,36.8868438],[35.141294,36.8847525],[35.1401675,36.8792344],[35.1437823,36.8757398],[35.1402477,36.8709169],[35.1401501,36.865522],[35.1371361,36.862098],[35.1515373,36.8590795],[35.1516494,36.8579385],[35.1438348,36.8464945],[35.1463857,36.84517],[35.1418354,36.8376988],[35.1439819,36.8367316],[35.1390627,36.830352],[35.1244182,36.8223629],[35.1253682,36.8154032],[35.1414174,36.8127871],[35.1464908,36.8077033],[35.1449275,36.8068319],[35.1465679,36.8045367],[35.143273,36.8026195],[35.1470746,36.799052],[35.1444508,36.7983382],[35.1403792,36.7908298],[35.1452299,36.7920359],[35.1495843,36.7969023],[35.1538663,36.7986515],[35.1683092,36.7954249],[35.173653,36.795433],[35.1786347,36.7977599],[35.1806531,36.8106495],[35.1882169,36.8162513],[35.197178,36.815271],[35.2025155,36.8169868],[35.2044097,36.8280922],[35.2082664,36.8292127],[35.2167573,36.8263354],[35.2241514,36.8264128],[35.2274588,36.8284773],[35.2288894,36.8335231],[35.2368368,36.8362366],[35.2364418,36.8384181],[35.2303115,36.8420793],[35.2284883,36.8450357],[35.2307252,36.8502674],[35.2357374,36.8542045],[35.2412306,36.8549943],[35.2547553,36.8510514],[35.2608543,36.852513],[35.2623682,36.8560344],[35.2606567,36.8601318],[35.2505003,36.8735867],[35.2530752,36.8808473],[35.2560364,36.882289],[35.2600704,36.8812592],[35.264834,36.87175],[35.271958,36.8677331],[35.2761207,36.8738785],[35.2887808,36.8787876],[35.2901111,36.8819801],[35.288652,36.8917283],[35.2913986,36.89341],[35.3162895,36.880504],[35.3229843,36.8818428],[35.3213964,36.8898062],[35.3227697,36.8930668],[35.3140579,36.8975972],[35.3109251,36.9030538],[35.3119551,36.9048726],[35.3174447,36.9062273],[35.3217827,36.9047697],[35.3267609,36.8993818],[35.3305803,36.8998622],[35.331739,36.9023331],[35.3262888,36.90676],[35.3266321,36.9100542],[35.3304516,36.9146179],[35.3353868,36.9146865],[35.337641,36.9185032],[35.3319075,36.9255503],[35.3248694,36.9412613],[35.3341391,36.9491501],[35.3337958,36.9514822],[35.3273585,36.9569007],[35.3258135,36.9607414],[35.3337872,36.9734625],[35.3355124,36.9790165],[35.3349545,36.9895407],[35.3383448,36.9946138],[35.3375294,37.0024969],[35.3342628,37.0100409],[35.3274436,37.0164917],[35.3240632,37.0242572]]]}},{"type":"Feature","properties":{"code":"01-14","provinceCode":"01","name":"Tufanbeyli"},"geometry":{"type":"Polygon","coordinates":[[[36.4095784,38.2628794],[36.4061731,38.2702522],[36.4091283,38.2810308],[36.4023322,38.2829406],[36.4020161,38.28509],[36.3989894,38.2839644],[36.385425,38.2881342],[36.3778239,38.2877603],[36.3761906,38.2908564],[36.3625478,38.2947128],[36.3624581,38.2994336],[36.3562944,38.2999364],[36.3648519,38.3085517],[36.3693514,38.3229992],[36.3656653,38.3279908],[36.3672658,38.3358608],[36.3693811,38.3354283],[36.3731164,38.3376406],[36.3769372,38.3363872],[36.3793878,38.3426356],[36.3878464,38.3486228],[36.388135,38.3537781],[36.3848369,38.3538464],[36.3803508,38.3566003],[36.3803906,38.3639369],[36.3786031,38.3636736],[36.3823931,38.3662217],[36.3795419,38.3683106],[36.3810267,38.3699],[36.3747044,38.37838],[36.3686578,38.3807433],[36.3622094,38.3802178],[36.3528197,38.3830722],[36.3422578,38.37978],[36.3374078,38.3808217],[36.3358133,38.3779936],[36.2919519,38.38409],[36.2887472,38.3894964],[36.2853058,38.3913417],[36.2875147,38.3945111],[36.2844528,38.3958956],[36.2845992,38.3998528],[36.2807964,38.4046019],[36.2282653,38.3995853],[36.2060719,38.3930628],[36.1795194,38.3836617],[36.1872906,38.3595392],[36.1846264,38.3489997],[36.1649944,38.3436722],[36.1517558,38.3256028],[36.1494864,38.3239303],[36.1436094,38.3230831],[36.1356233,38.32221],[36.1395169,38.3435792],[36.1347325,38.3415181],[36.1240617,38.3407033],[36.1128167,38.3317122],[36.1085547,38.3304958],[36.0982592,38.3141942],[36.077975,38.3001944],[36.0619117,38.2808425],[36.0496889,38.2724647],[36.0486153,38.2684211],[36.0451733,38.2647411],[36.0454786,38.2597694],[36.0247014,38.2469742],[36.0127981,38.2422206],[36.003975,38.2323297],[35.9903569,38.22343],[35.9945408,38.2121014],[35.9949558,38.2039444],[36.0003833,38.1950336],[36.0209181,38.1897481],[36.0123925,38.1847914],[36.0117728,38.1808081],[36.0054483,38.1805706],[36.0021086,38.1764267],[35.9979828,38.1759211],[35.9951581,38.1735192],[35.9916067,38.1673339],[35.9930264,38.1560553],[36.0032823,38.1395836],[36.0169654,38.1321981],[36.021801,38.131249],[36.0264934,38.1275089],[36.0361977,38.1272961],[36.0391857,38.1196032],[36.0453895,38.1131943],[36.0467915,38.0983367],[36.0504814,38.0908263],[36.0801841,38.0777167],[36.0872653,38.0692589],[36.1098111,38.0830509],[36.124751,38.0899994],[36.1320789,38.0966758],[36.1497416,38.1063524],[36.1672621,38.1128712],[36.1748057,38.1135939],[36.1767693,38.1073143],[36.1813871,38.1078486],[36.186684,38.1049631],[36.1959433,38.1037255],[36.2001065,38.1052207],[36.2077555,38.1222819],[36.2131403,38.1210346],[36.2257996,38.1224881],[36.2287876,38.1206717],[36.2358624,38.1248806],[36.2431357,38.1215816],[36.2524199,38.1230223],[36.2572737,38.1215508],[36.2584211,38.114375],[36.2570073,38.1116258],[36.259615,38.1052651],[36.2629181,38.1031447],[36.2629181,38.1008191],[36.2591804,38.0954835],[36.2561381,38.0763269],[36.2601366,38.0666099],[36.2594412,38.0551804],[36.2660884,38.0537065],[36.2899255,38.0545152],[36.3192213,38.0618439],[36.3321715,38.0675739],[36.3406973,38.0582082],[36.3492538,38.0535027],[36.3516985,38.0685808],[36.343142,38.0824798],[36.3427345,38.0859007],[36.3462658,38.089749],[36.3527851,38.0914593],[36.3571313,38.0970175],[36.3582178,38.1047128],[36.3511553,38.1128347],[36.3480314,38.1224515],[36.3626707,38.1411666],[36.3516985,38.1484108],[36.3606625,38.1596248],[36.3609342,38.1636828],[36.372207,38.1722253],[36.3738914,38.1763947],[36.3889127,38.1862114],[36.3893201,38.1908016],[36.3860301,38.1980188],[36.3909499,38.2061716],[36.3890485,38.2085195],[36.3940737,38.2131083],[36.3913574,38.2157761],[36.3807227,38.2108006],[36.3848381,38.2268732],[36.3838874,38.2327411],[36.3805386,38.2338591],[36.3820106,38.2374175],[36.3777756,38.2434089],[36.3804874,38.2451958],[36.3824384,38.2510295],[36.3793868,38.2539649],[36.3788353,38.2571889],[36.3825722,38.2586],[36.3869873,38.2550458],[36.3856107,38.249493],[36.3891218,38.2415567],[36.3914932,38.2430889],[36.3977408,38.2430889],[36.4072481,38.2555682],[36.4095784,38.2628794]]]}},{"type":"Feature","properties":{"code":"01-15","provinceCode":"01","name":"Yumurtalık"},"geometry":{"type":"Polygon","coordinates":[[[35.4872241,36.7950561],[35.4840054,36.7932347],[35.4791989,36.7866017],[35.4787697,36.7818929],[35.4835333,36.7760495],[35.4879965,36.7743307],[35.4894128,36.7700337],[35.4894557,36.7665272],[35.4846491,36.761989],[35.4834904,36.7579664],[35.4899707,36.7577945],[35.4940476,36.7544937],[35.4978671,36.7481668],[35.4980817,36.7406357],[35.5016865,36.735133],[35.4980817,36.7229914],[35.4916014,36.7186916],[35.4807009,36.7150451],[35.4754653,36.694126],[35.4694142,36.6873467],[35.4660668,36.6777101],[35.466496,36.6731667],[35.4726329,36.6685886],[35.4861083,36.667315],[35.4909577,36.6655938],[35.4866662,36.6527871],[35.4878678,36.6501015],[35.5111279,36.6446268],[35.5182519,36.6453843],[35.5231871,36.6486554],[35.5255904,36.6551627],[35.5239596,36.6701032],[35.5261912,36.6721685],[35.5324568,36.6705162],[35.5358901,36.6638382],[35.5398383,36.6614972],[35.5459323,36.6597759],[35.5568328,36.6599825],[35.5634417,36.6585366],[35.5654158,36.6566086],[35.560781,36.6480701],[35.5684199,36.6469682],[35.5757155,36.6361558],[35.582582,36.6326431],[35.5846419,36.619142],[35.5912509,36.614733],[35.5929675,36.6110127],[35.5904784,36.6064653],[35.5794921,36.5991615],[35.5621543,36.5835181],[35.5594077,36.5773149],[35.5596417,36.5654214],[35.5685956,36.5662654],[35.580539,36.585844],[35.585106,36.589084],[35.61214,36.597356],[35.625834,36.6053459],[35.631986,36.614256],[35.636889,36.627247],[35.6362008,36.6484139],[35.6378952,36.6566572],[35.6466058,36.6702888],[35.655967,36.677036],[35.685125,36.690251],[35.7071081,36.7035978],[35.7146352,36.7064994],[35.7159424,36.7098907],[35.7245432,36.7184147],[35.7226615,36.722712],[35.7229189,36.7172408],[35.7115993,36.7060839],[35.6971997,36.7059327],[35.695164,36.703766],[35.693266,36.704194],[35.685792,36.700253],[35.677593,36.69376],[35.674401,36.693704],[35.670719,36.697896],[35.678457,36.70029],[35.679799,36.702186],[35.687134,36.70215],[35.686249,36.704224],[35.692386,36.706397],[35.693926,36.704821],[35.694829,36.707883],[35.693546,36.709108],[35.7020012,36.7093041],[35.6930391,36.709543],[35.683174,36.707504],[35.665917,36.706608],[35.644369,36.698315],[35.657904,36.705503],[35.671083,36.708418],[35.66087,36.708262],[35.645616,36.70064],[35.643699,36.700554],[35.644717,36.70233],[35.636381,36.701101],[35.633872,36.69769],[35.629544,36.697015],[35.630155,36.696231],[35.62616,36.700686],[35.627044,36.703235],[35.623846,36.707672],[35.622331,36.700641],[35.620397,36.700042],[35.620135,36.701717],[35.617249,36.701267],[35.615535,36.702461],[35.61582,36.715554],[35.61406,36.710712],[35.611615,36.713848],[35.610541,36.710404],[35.607117,36.71292],[35.609476,36.710468],[35.6060818,36.709695],[35.61091,36.707186],[35.609905,36.701044],[35.611412,36.698442],[35.609357,36.699001],[35.608858,36.703121],[35.606533,36.705098],[35.601919,36.700705],[35.598697,36.699748],[35.597156,36.701323],[35.599456,36.703327],[35.597225,36.703376],[35.59539,36.705728],[35.599258,36.706927],[35.597122,36.709799],[35.593926,36.709612],[35.595765,36.712141],[35.59453,36.718075],[35.599726,36.720787],[35.602829,36.727654],[35.606302,36.72655],[35.605591,36.729134],[35.610362,36.733396],[35.61546,36.733155],[35.613731,36.729213],[35.61529,36.728151],[35.615186,36.725071],[35.621042,36.737785],[35.624275,36.738997],[35.628054,36.746876],[35.636319,36.745923],[35.635173,36.746549],[35.637434,36.750521],[35.640305,36.750457],[35.641473,36.751973],[35.641783,36.756332],[35.646988,36.75917],[35.65113,36.758949],[35.652175,36.761494],[35.658563,36.761609],[35.666729,36.766948],[35.673454,36.767567],[35.6816494,36.7657238],[35.6884475,36.7680008],[35.6983499,36.7673116],[35.7023704,36.7649523],[35.7048025,36.7597432],[35.711007,36.7589081],[35.7200889,36.7628894],[35.723686,36.762376],[35.7402875,36.7677765],[35.755838,36.7699873],[35.7829746,36.7679477],[35.7896647,36.7657574],[35.7899125,36.7667019],[35.7956713,36.7663186],[35.7914419,36.7670373],[35.7932106,36.7674754],[35.7918179,36.7694398],[35.7960986,36.7743265],[35.8014814,36.7784191],[35.8103675,36.779165],[35.8130333,36.781875],[35.8307028,36.7889438],[35.8351373,36.793364],[35.8456211,36.7979481],[35.8441771,36.7975787],[35.844647,36.8000417],[35.8466196,36.8014556],[35.8500441,36.8104619],[35.8538132,36.8133012],[35.861331,36.814945],[35.8692088,36.8191763],[35.8697316,36.8224676],[35.8761391,36.8284295],[35.8848426,36.8329938],[35.884142,36.835453],[35.8861308,36.8372614],[35.8972631,36.8392436],[35.9064646,36.8342361],[35.8980886,36.8390446],[35.900765,36.8438864],[35.8988636,36.8464979],[35.9099642,36.8581782],[35.9106307,36.8626415],[35.9142533,36.8665231],[35.9184041,36.8682537],[35.9326744,36.8552098],[35.9328889,36.8513724],[35.9329104,36.8553043],[35.9185988,36.8686214],[35.9221307,36.8696791],[35.9195902,36.8693422],[35.9178506,36.8718772],[35.9231916,36.8766439],[35.936039,36.880795],[35.9373241,36.8798474],[35.940831,36.8823443],[35.9374858,36.8803142],[35.936445,36.8810706],[35.93688,36.886039],[35.9435262,36.8895176],[35.9396508,36.8935745],[35.9386705,36.8987155],[35.9410487,36.906597],[35.9233036,36.9086449],[35.8962724,36.9087185],[35.8796261,36.9054926],[35.8607495,36.8990937],[35.8470024,36.8876071],[35.8371538,36.8821914],[35.7663666,36.8611815],[35.7435916,36.8478831],[35.7349148,36.8457967],[35.7267459,36.8465801],[35.7026971,36.8405828],[35.6805356,36.8327431],[35.6280378,36.810376],[35.62387,36.8062691],[35.6225877,36.7906095],[35.5995049,36.7857313],[35.5767427,36.791123],[35.5514158,36.7916365],[35.5289742,36.7972845],[35.5022874,36.7973242],[35.4989829,36.7940939],[35.4872241,36.7950561]]]}},{"type":"Feature","properties":{"code":"01-16","provinceCode":"01","name":"Yüreğir"},"geometry":{"type":"Polygon","coordinates":[[[35.1683092,36.7954249],[35.1620862,36.7606337],[35.1541181,36.7306112],[35.1642902,36.7304753],[35.1887647,36.7376288],[35.1780501,36.7517572],[35.1833396,36.76773],[35.1924266,36.7617542],[35.1982586,36.7547999],[35.2042263,36.7414329],[35.2305381,36.7500185],[35.3610122,36.7715326],[35.3672511,36.7797889],[35.4035994,36.7914115],[35.4220448,36.7902167],[35.4681985,36.7963648],[35.4872241,36.7950561],[35.4989829,36.7940939],[35.5022874,36.7973242],[35.5289742,36.7972845],[35.5514158,36.7916365],[35.5767427,36.791123],[35.5995049,36.7857313],[35.6225877,36.7906095],[35.62387,36.8062691],[35.6280378,36.810376],[35.6805356,36.8327431],[35.7026971,36.8405828],[35.6945555,36.8582363],[35.6882524,36.8555045],[35.6826058,36.8575008],[35.6802422,36.8599174],[35.6866268,36.8641571],[35.6834082,36.8745513],[35.6673578,36.8771861],[35.6591004,36.874205],[35.6485952,36.8842888],[35.6382212,36.88849],[35.6635575,36.9127625],[35.6669189,36.9207821],[35.6688702,36.9219863],[35.6687332,36.9263103],[35.6717175,36.9340365],[35.6625271,36.9416838],[35.6609282,36.944967],[35.6625829,36.94753],[35.6624988,36.9574026],[35.6687179,36.9704298],[35.6675413,36.9829178],[35.6570024,36.9824315],[35.6445581,36.9704726],[35.6386059,36.9682624],[35.6180735,36.9651042],[35.5389604,36.9690932],[35.4361255,36.9818808],[35.4101988,36.9825572],[35.3997256,36.9894644],[35.3913052,36.9911919],[35.3910245,37.0090108],[35.3854238,37.0145389],[35.3772133,37.0156957],[35.3694546,37.0232985],[35.3617354,37.0262794],[35.3582977,37.02946],[35.3475045,37.0313227],[35.3463183,37.0324898],[35.3471269,37.0406389],[35.332769,37.0417413],[35.3319379,37.0394403],[35.3344653,37.0290534],[35.3240632,37.0242572],[35.3274436,37.0164917],[35.3342628,37.0100409],[35.3375294,37.0024969],[35.3383448,36.9946138],[35.3349545,36.9895407],[35.3355124,36.9790165],[35.3337872,36.9734625],[35.3258135,36.9607414],[35.3273585,36.9569007],[35.3337958,36.9514822],[35.3341391,36.9491501],[35.3248694,36.9412613],[35.3319075,36.9255503],[35.337641,36.9185032],[35.3353868,36.9146865],[35.3304516,36.9146179],[35.3266321,36.9100542],[35.3262888,36.90676],[35.331739,36.9023331],[35.3305803,36.8998622],[35.3267609,36.8993818],[35.3217827,36.9047697],[35.3174447,36.9062273],[35.3119551,36.9048726],[35.3109251,36.9030538],[35.3140579,36.8975972],[35.3227697,36.8930668],[35.3213964,36.8898062],[35.3229843,36.8818428],[35.3162895,36.880504],[35.2913986,36.89341],[35.288652,36.8917283],[35.2901111,36.8819801],[35.2887808,36.8787876],[35.2761207,36.8738785],[35.271958,36.8677331],[35.264834,36.87175],[35.2600704,36.8812592],[35.2560364,36.882289],[35.2530752,36.8808473],[35.2505003,36.8735867],[35.2606567,36.8601318],[35.2623682,36.8560344],[35.2608543,36.852513],[35.2547553,36.8510514],[35.2412306,36.8549943],[35.2357374,36.8542045],[35.2307252,36.8502674],[35.2284883,36.8450357],[35.2303115,36.8420793],[35.2364418,36.8384181],[35.2368368,36.8362366],[35.2288894,36.8335231],[35.2274588,36.8284773],[35.2241514,36.8264128],[35.2167573,36.8263354],[35.2082664,36.8292127],[35.2044097,36.8280922],[35.2025155,36.8169868],[35.197178,36.815271],[35.1882169,36.8162513],[35.1806531,36.8106495],[35.1786347,36.7977599],[35.173653,36.795433],[35.1683092,36.7954249]]]}}]}