{"type":"FeatureCollection","features":[{"type":"Feature","properties":{"code":"75-01","provinceCode":"75","name":"Ardahan"},"geometry":{"type":"Polygon","coordinates":[[[43.03662,40.9571713],[43.0528134,40.9628208],[43.0451626,40.9801309],[43.023346,41.0002426],[43.0136993,41.0178227],[43.0066737,41.038711],[43.0041941,41.063955],[42.9951022,41.0789099],[42.9847704,41.086386],[42.9550151,41.087632],[42.936418,41.0938614],[42.9244332,41.1081866],[42.9236066,41.1187729],[42.9173038,41.1379501],[42.9166687,41.1466942],[42.9185501,41.1496079],[42.9026968,41.1636379],[42.8891084,41.1663313],[42.8244747,41.1702514],[42.7891329,41.1754682],[42.7245182,41.1805117],[42.6402799,41.2046428],[42.5701639,41.2600522],[42.5129021,41.1825704],[42.5016164,41.1722446],[42.3844015,41.1014395],[42.3696259,41.0896188],[42.3579362,41.0787422],[42.3593904,41.0631445],[42.3724337,41.0149614],[42.4260509,41.0138331],[42.4792182,40.9969614],[42.5508114,40.9917661],[42.6080478,41.0141155],[42.6297678,41.0100795],[42.6624869,41.0148793],[42.6716209,40.9886835],[42.682408,40.971737],[42.6886522,40.9661854],[42.7583439,40.9750011],[42.8142475,40.9559185],[42.8314781,40.9362518],[42.8865523,40.8875493],[42.9064207,40.8832757],[42.9503745,40.8772707],[42.9725773,40.9132992],[43.002117,40.9337017],[43.0144118,40.9476252],[43.03662,40.9571713]]]}},{"type":"Feature","properties":{"code":"75-02","provinceCode":"75","name":"Çıldır"},"geometry":{"type":"Polygon","coordinates":[[[42.9185501,41.1496079],[42.9166687,41.1466942],[42.9173038,41.1379501],[42.9236066,41.1187729],[42.9244332,41.1081866],[42.936418,41.0938614],[42.9550151,41.087632],[42.9847704,41.086386],[42.9951022,41.0789099],[43.0041941,41.063955],[43.0066737,41.038711],[43.0136993,41.0178227],[43.023346,41.0002426],[43.0451626,40.9801309],[43.0528134,40.9628208],[43.0783397,40.9750708],[43.1048806,40.975699],[43.1500589,40.9684638],[43.1740034,40.9717269],[43.2055322,40.984555],[43.2306865,41.0021978],[43.3141835,41.0795029],[43.3435739,41.0951827],[43.3616774,41.0964801],[43.4246991,41.0697983],[43.4506255,41.0417937],[43.4620706,41.0331609],[43.4682566,41.0332775],[43.471514,41.0675026],[43.4587173,41.0748439],[43.4565482,41.0843359],[43.4493929,41.0877544],[43.4471395,41.0988144],[43.4519282,41.1058417],[43.4563093,41.109098],[43.4586328,41.1197223],[43.474145,41.123038],[43.463506,41.148642],[43.44848,41.176399],[43.4116,41.186982],[43.382807,41.200669],[43.375119,41.20299],[43.370117,41.202005],[43.367357,41.203384],[43.358327,41.201243],[43.3482598,41.2027044],[43.337328,41.200621],[43.330236,41.200884],[43.322292,41.195389],[43.309994,41.19091],[43.293921,41.189621],[43.288662,41.186981],[43.281736,41.186729],[43.27309,41.183947],[43.263523,41.179413],[43.246875,41.177148],[43.24198,41.174557],[43.234263,41.175674],[43.229621,41.1723443],[43.229017,41.174908],[43.237638,41.184119],[43.2014832,41.2335088],[43.199403,41.244919],[43.194366,41.253988],[43.190147,41.253144],[43.176653,41.254578],[43.167697,41.249724],[43.164122,41.249713],[43.153266,41.245698],[43.1471093,41.246284],[43.135435,41.252591],[43.127956,41.253476],[43.131082,41.2560989],[43.1377937,41.2582433],[43.1414633,41.257593],[43.140668,41.2594131],[43.1469159,41.2623141],[43.1510179,41.2619195],[43.1560543,41.26802],[43.1585072,41.2677724],[43.162534,41.270676],[43.169272,41.272521],[43.173417,41.271718],[43.1759093,41.2735606],[43.1789592,41.2723916],[43.1805561,41.273768],[43.179673,41.275659],[43.185305,41.27808],[43.186427,41.281345],[43.1974842,41.2858546],[43.201532,41.284384],[43.203704,41.286979],[43.211935,41.289806],[43.212062,41.297343],[43.214916,41.299446],[43.2125941,41.3062313],[43.2043793,41.3055176],[43.1986739,41.3086032],[43.1891864,41.3042358],[43.1831532,41.3046148],[43.176916,41.307174],[43.1661991,41.3084169],[43.1594162,41.3160935],[43.1354266,41.3187299],[43.1319379,41.3208293],[43.108759,41.349472],[43.096154,41.357131],[43.084196,41.359174],[43.073953,41.364811],[43.060552,41.366324],[43.055365,41.372302],[43.042722,41.376845],[43.039101,41.376097],[43.03252,41.370816],[43.018652,41.375661],[43.021633,41.379462],[43.013982,41.389438],[43.012084,41.394928],[43.007889,41.397051],[42.9974662,41.369036],[43.0264227,41.343874],[43.047806,41.3312028],[43.0462993,41.3272497],[43.0206085,41.3142212],[43.030863,41.2758675],[43.0424377,41.2520099],[43.0779854,41.2042749],[43.0827251,41.1926589],[43.0946505,41.1760357],[43.090698,41.1721672],[43.09566,41.1731796],[43.0941835,41.1683658],[43.0962691,41.1666287],[43.0952041,41.1650921],[43.0905892,41.1670296],[43.0886367,41.1710381],[43.0816874,41.1693056],[43.0814924,41.1650587],[43.0786081,41.1684326],[43.0731944,41.1704034],[43.059075,41.1653552],[43.0534484,41.1701073],[43.0517444,41.1700004],[43.045106,41.1677557],[43.047023,41.1647091],[43.0436505,41.1628918],[43.0342076,41.1637203],[43.0144699,41.1615288],[43.0032875,41.1570654],[42.9998086,41.1540451],[42.9939157,41.1539649],[42.983459,41.1561393],[42.9769824,41.154446],[42.9759174,41.1553281],[42.9804613,41.160139],[42.9758109,41.1638539],[42.9589131,41.1665531],[42.9542982,41.1693858],[42.9377909,41.1675152],[42.9330694,41.1644686],[42.930123,41.1599787],[42.9304425,41.1551944],[42.9199346,41.1514256],[42.9185501,41.1496079]]]}},{"type":"Feature","properties":{"code":"75-03","provinceCode":"75","name":"Damal"},"geometry":{"type":"Polygon","coordinates":[[[43.007889,41.397051],[42.9959817,41.4004751],[42.9876468,41.4049393],[42.956234,41.4070743],[42.9510806,41.4047046],[42.9311402,41.4161831],[42.9239669,41.4167269],[42.9079065,41.4221503],[42.8756534,41.4154782],[42.8200446,41.4288217],[42.7826014,41.4310453],[42.7581352,41.4233937],[42.7189293,41.4170072],[42.6619303,41.3978911],[42.6206871,41.387114],[42.6405432,41.3716256],[42.7189614,41.3642692],[42.7318736,41.3604344],[42.7563793,41.3262256],[42.7716953,41.310984],[42.777674,41.3017129],[42.78388,41.2994805],[42.7986215,41.3013604],[42.8006436,41.3032358],[42.8268637,41.3099141],[42.8523497,41.3034711],[42.8626421,41.3042075],[42.9016061,41.3143317],[42.9337086,41.3388074],[42.9650758,41.3513177],[42.9856606,41.3669522],[42.9974662,41.369036],[43.007889,41.397051]]]}},{"type":"Feature","properties":{"code":"75-04","provinceCode":"75","name":"Göle"},"geometry":{"type":"Polygon","coordinates":[[[42.3293815,40.826141],[42.3418058,40.8280458],[42.3566663,40.8260181],[42.3353635,40.8214913],[42.340696,40.8169642],[42.33872,40.8103882],[42.3414321,40.8065167],[42.3590482,40.807151],[42.3603205,40.7923978],[42.367304,40.7938323],[42.3720681,40.7917421],[42.3935602,40.7881762],[42.3984325,40.7946315],[42.4137802,40.8032991],[42.4162163,40.8066184],[42.4213322,40.8075403],[42.420845,40.8114125],[42.4247428,40.816575],[42.4343,40.8158538],[42.4403292,40.8196344],[42.4641012,40.820938],[42.4687523,40.8196344],[42.4775376,40.8217202],[42.4871842,40.8178093],[42.4922273,40.8059011],[42.5001038,40.8037283],[42.4982089,40.7918615],[42.4921798,40.7916006],[42.4881018,40.7859996],[42.4940747,40.7884705],[42.5052716,40.7874271],[42.5106135,40.7925667],[42.5255985,40.7872967],[42.5274338,40.7823278],[42.5371049,40.7817099],[42.5448155,40.7785496],[42.5510799,40.7799754],[42.5637741,40.7770556],[42.5736394,40.752967],[42.593681,40.7463631],[42.5807873,40.7316712],[42.5980134,40.7120855],[42.5991595,40.6934598],[42.6201865,40.6801472],[42.6112329,40.6529988],[42.5922246,40.6310563],[42.6023765,40.6291667],[42.6182058,40.6447048],[42.6707411,40.6538197],[42.7478535,40.6933379],[42.8001659,40.7089163],[42.8514048,40.7313047],[42.8577784,40.7907771],[42.8614301,40.809982],[42.8937926,40.8180681],[42.9064207,40.8832757],[42.8865523,40.8875493],[42.8314781,40.9362518],[42.8142475,40.9559185],[42.7583439,40.9750011],[42.6886522,40.9661854],[42.682408,40.971737],[42.6716209,40.9886835],[42.6624869,41.0148793],[42.6297678,41.0100795],[42.6080478,41.0141155],[42.5508114,40.9917661],[42.4792182,40.9969614],[42.4260509,41.0138331],[42.3724337,41.0149614],[42.3763413,40.9950234],[42.3626239,40.9553273],[42.3518279,40.9449936],[42.3396562,40.9379257],[42.3388563,40.9320536],[42.3479293,40.9281801],[42.3499458,40.9253686],[42.3472291,40.9229361],[42.3499953,40.9211229],[42.3313159,40.9123355],[42.3181256,40.8906477],[42.3159224,40.8826081],[42.3284606,40.8969669],[42.3340257,40.8988657],[42.359526,40.8937155],[42.3641438,40.8954006],[42.3571383,40.8566668],[42.3501969,40.8535488],[42.3408664,40.8536961],[42.3324131,40.8292952],[42.3293815,40.826141]]]}},{"type":"Feature","properties":{"code":"75-05","provinceCode":"75","name":"Hanak"},"geometry":{"type":"Polygon","coordinates":[[[42.9974662,41.369036],[42.9856606,41.3669522],[42.9650758,41.3513177],[42.9337086,41.3388074],[42.9016061,41.3143317],[42.8626421,41.3042075],[42.8523497,41.3034711],[42.8268637,41.3099141],[42.8006436,41.3032358],[42.7986215,41.3013604],[42.78388,41.2994805],[42.777674,41.3017129],[42.7716953,41.310984],[42.7563793,41.3262256],[42.7318736,41.3604344],[42.7189614,41.3642692],[42.6405432,41.3716256],[42.6206871,41.387114],[42.6044679,41.385807],[42.5907201,41.3785504],[42.5691965,41.3719835],[42.5822617,41.3615284],[42.591089,41.3492056],[42.5916385,41.3363045],[42.5879487,41.3168014],[42.5701639,41.2600522],[42.6402799,41.2046428],[42.7245182,41.1805117],[42.7891329,41.1754682],[42.8244747,41.1702514],[42.8891084,41.1663313],[42.9026968,41.1636379],[42.9185501,41.1496079],[42.9199346,41.1514256],[42.9304425,41.1551944],[42.930123,41.1599787],[42.9330694,41.1644686],[42.9377909,41.1675152],[42.9542982,41.1693858],[42.9589131,41.1665531],[42.9758109,41.1638539],[42.9804613,41.160139],[42.9759174,41.1553281],[42.9769824,41.154446],[42.983459,41.1561393],[42.9939157,41.1539649],[42.9998086,41.1540451],[43.0032875,41.1570654],[43.0144699,41.1615288],[43.0342076,41.1637203],[43.0436505,41.1628918],[43.047023,41.1647091],[43.045106,41.1677557],[43.0517444,41.1700004],[43.0534484,41.1701073],[43.059075,41.1653552],[43.0731944,41.1704034],[43.0786081,41.1684326],[43.0814924,41.1650587],[43.0816874,41.1693056],[43.0886367,41.1710381],[43.0905892,41.1670296],[43.0952041,41.1650921],[43.0962691,41.1666287],[43.0941835,41.1683658],[43.09566,41.1731796],[43.090698,41.1721672],[43.0946505,41.1760357],[43.0827251,41.1926589],[43.0779854,41.2042749],[43.0424377,41.2520099],[43.030863,41.2758675],[43.0206085,41.3142212],[43.0462993,41.3272497],[43.047806,41.3312028],[43.0264227,41.343874],[42.9974662,41.369036]]]}},{"type":"Feature","properties":{"code":"75-06","provinceCode":"75","name":"Posof"},"geometry":{"type":"Polygon","coordinates":[[[42.5691965,41.3719835],[42.5907201,41.3785504],[42.6044679,41.385807],[42.6206871,41.387114],[42.6619303,41.3978911],[42.7189293,41.4170072],[42.7581352,41.4233937],[42.7826014,41.4310453],[42.8200446,41.4288217],[42.8756534,41.4154782],[42.9079065,41.4221503],[42.9239669,41.4167269],[42.9311402,41.4161831],[42.9510806,41.4047046],[42.956234,41.4070743],[42.9876468,41.4049393],[42.9959817,41.4004751],[43.007889,41.397051],[43.003645,41.406719],[42.9902526,41.4114247],[42.989095,41.4245173],[42.977558,41.428119],[42.968384,41.432914],[42.968066,41.437253],[42.971399,41.441474],[42.967043,41.451539],[42.95899,41.452448],[42.943265,41.457611],[42.936054,41.464525],[42.931803,41.464357],[42.929584,41.467227],[42.931771,41.469187],[42.926494,41.472613],[42.89941,41.478982],[42.896989,41.487102],[42.899082,41.488192],[42.899257,41.497845],[42.900942,41.5003],[42.890953,41.502541],[42.875751,41.502307],[42.863313,41.492958],[42.861177,41.482079],[42.857688,41.477212],[42.858424,41.473338],[42.856061,41.471236],[42.851401,41.470554],[42.849119,41.473393],[42.846021,41.473289],[42.837051,41.477877],[42.830394,41.478712],[42.822804,41.487441],[42.80239,41.495777],[42.8011303,41.501715],[42.804119,41.507609],[42.802284,41.511508],[42.798001,41.5140225],[42.798098,41.518316],[42.80674,41.530893],[42.816916,41.539593],[42.818973,41.552649],[42.82095,41.555402],[42.8293295,41.5577655],[42.834997,41.572343],[42.833284,41.574415],[42.833724,41.579454],[42.8403764,41.5892639],[42.8271487,41.5907469],[42.8265845,41.5927041],[42.8219744,41.5874715],[42.815753,41.588586],[42.793404,41.588342],[42.793217,41.586692],[42.783286,41.583163],[42.780882,41.576896],[42.7746387,41.578535],[42.7692368,41.5851104],[42.763379,41.586367],[42.761956,41.585242],[42.752686,41.585564],[42.740135,41.596111],[42.713653,41.595541],[42.697506,41.600269],[42.684129,41.5998375],[42.6603274,41.5927009],[42.600945,41.584851],[42.591309,41.573697],[42.576574,41.565475],[42.573749,41.557961],[42.576347,41.555237],[42.580754,41.543211],[42.573938,41.535018],[42.569949,41.533436],[42.568357,41.528829],[42.564778,41.525278],[42.572898,41.509911],[42.571324,41.508095],[42.560005,41.506529],[42.55519,41.498697],[42.549521,41.498988],[42.544911,41.493013],[42.532349,41.49064],[42.526439,41.47972],[42.517959,41.476445],[42.512774,41.472079],[42.513316,41.465871],[42.518659,41.459698],[42.516791,41.457646],[42.521334,41.453308],[42.520686,41.447188],[42.52445,41.444114],[42.520234,41.436706],[42.5200423,41.4075304],[42.533032,41.3945861],[42.5691965,41.3719835]]]}}]}