{"type":"FeatureCollection","features":[{"type":"Feature","properties":{"code":"28-01","provinceCode":"28","name":"Alucra"},"geometry":{"type":"Polygon","coordinates":[[[38.6266079,40.1996423],[38.6477287,40.2019019],[38.6615751,40.2011662],[38.6785335,40.2047052],[38.6909063,40.215847],[38.6986642,40.2201232],[38.7136097,40.2211194],[38.7289332,40.2162661],[38.7359214,40.2218794],[38.7550149,40.2235645],[38.7647692,40.2313866],[38.7834547,40.2286941],[38.7813614,40.235636],[38.7964848,40.2449886],[38.7962139,40.2330556],[38.8043876,40.2270688],[38.8185805,40.2289938],[38.8415768,40.223016],[38.855304,40.2213219],[38.8460988,40.2100758],[38.8410918,40.2002472],[38.8479348,40.1950561],[38.8527689,40.1962057],[38.8564966,40.1883726],[38.8600809,40.185247],[38.8589674,40.181984],[38.8615496,40.1791541],[38.8684902,40.1914819],[38.8730954,40.1911854],[38.8775252,40.2018217],[38.8916451,40.203727],[38.8917731,40.2128341],[38.9009984,40.2145441],[38.9083992,40.2227251],[38.9099459,40.2293934],[38.9046477,40.233281],[38.9077039,40.2468296],[38.9153651,40.2500372],[38.9315985,40.2520185],[38.9362885,40.2560841],[38.9368725,40.2592268],[38.9489006,40.2647941],[38.9659432,40.288917],[38.9770718,40.2982956],[38.982381,40.3052456],[39.0052412,40.3229907],[39.0133382,40.3350078],[39.0313338,40.3346376],[39.0345953,40.3402641],[39.0440733,40.3470237],[39.0655781,40.3546858],[39.0747478,40.361089],[39.0696849,40.3784936],[39.0604495,40.382297],[39.0273141,40.3860603],[39.023609,40.3937575],[39.0163992,40.3972874],[39.012451,40.4093136],[39.0073012,40.4128427],[39.0069578,40.4184626],[39.0102024,40.4244095],[39.0085028,40.4334904],[39.002838,40.4447263],[38.9814024,40.4559506],[38.9649008,40.4617074],[38.9163243,40.472598],[38.9080809,40.4686292],[38.8972662,40.4725469],[38.8837951,40.4717459],[38.8829417,40.476644],[38.8852499,40.4809038],[38.8741119,40.4825019],[38.8595278,40.4884692],[38.8295438,40.4903033],[38.8205336,40.4974841],[38.8117165,40.4978306],[38.8006209,40.5014001],[38.7811388,40.4978137],[38.7669752,40.4997032],[38.7675554,40.5037877],[38.7580299,40.5056869],[38.7549589,40.5088399],[38.7575989,40.5173072],[38.750523,40.529776],[38.7571959,40.5419238],[38.7474918,40.5489612],[38.7411941,40.547519],[38.7325757,40.550252],[38.7219142,40.5473307],[38.7060485,40.5482909],[38.6998557,40.5502004],[38.6962276,40.5576386],[38.6795138,40.5507221],[38.6833082,40.533525],[38.6653313,40.537127],[38.6604746,40.5500036],[38.633222,40.5494565],[38.6343062,40.5543985],[38.6253627,40.5615114],[38.6125198,40.5603261],[38.6083601,40.556461],[38.6023204,40.5581739],[38.591194,40.55007],[38.5867741,40.5380966],[38.5751474,40.5354042],[38.5583656,40.5440492],[38.5419433,40.5433779],[38.549212,40.5326272],[38.5493535,40.526999],[38.546147,40.5260156],[38.5427876,40.5179355],[38.5339209,40.5114212],[38.5344828,40.509211],[38.5170567,40.4990829],[38.5199545,40.491218],[38.5303426,40.4812694],[38.5387484,40.476063],[38.5463922,40.4744701],[38.553708,40.4690116],[38.5657463,40.469002],[38.5709892,40.4770146],[38.5919817,40.4782305],[38.6149067,40.4765775],[38.6248079,40.4685691],[38.6305412,40.4554022],[38.6281837,40.4483394],[38.6360637,40.4431398],[38.6420344,40.4347196],[38.6488247,40.4204141],[38.6560614,40.3960936],[38.641084,40.3897445],[38.6435693,40.3871767],[38.6436132,40.3842247],[38.6420683,40.3832218],[38.6429787,40.3787418],[38.6410594,40.3787605],[38.6460192,40.3744537],[38.6459809,40.3703057],[38.6493767,40.369912],[38.6509379,40.3677147],[38.6690018,40.3685514],[38.6726836,40.3667862],[38.6774509,40.3680414],[38.6809444,40.3574156],[38.6884597,40.3459996],[38.6761367,40.3413765],[38.6678992,40.3299667],[38.6540489,40.3263905],[38.661798,40.3207011],[38.6609062,40.3174535],[38.650364,40.3066535],[38.6473094,40.2969706],[38.6295046,40.2893147],[38.6059083,40.2726164],[38.5984158,40.2618856],[38.5979017,40.253572],[38.600317,40.2460547],[38.6132789,40.2343094],[38.6095894,40.2258211],[38.6154743,40.2076619],[38.6266079,40.1996423]]]}},{"type":"Feature","properties":{"code":"28-02","provinceCode":"28","name":"Bulancak"},"geometry":{"type":"Polygon","coordinates":[[[38.1596396,40.5248178],[38.1598089,40.5327199],[38.167362,40.5379385],[38.1703355,40.5452382],[38.1704781,40.566339],[38.1744011,40.5739018],[38.177633,40.5875242],[38.1848553,40.5933605],[38.1911042,40.6131739],[38.196977,40.6210831],[38.2109959,40.6338796],[38.2193315,40.647536],[38.2244465,40.6498358],[38.2382759,40.6511294],[38.2585465,40.6669378],[38.2528632,40.6699553],[38.2514257,40.6962723],[38.238633,40.7020496],[38.2410048,40.7069294],[38.2506178,40.7146065],[38.2617794,40.7174591],[38.255227,40.7220045],[38.257223,40.7231175],[38.2525061,40.7341207],[38.2643507,40.7502482],[38.2640074,40.7540193],[38.2529876,40.7529843],[38.2533644,40.7577903],[38.2580124,40.7633134],[38.2544693,40.7794218],[38.2587325,40.7850156],[38.2604025,40.7915894],[38.2752571,40.8041065],[38.276578,40.8098327],[38.2748969,40.8126502],[38.2612075,40.8112869],[38.2574849,40.8136499],[38.2490792,40.8288257],[38.2482386,40.837457],[38.2568845,40.8535356],[38.2809782,40.875062],[38.2835256,40.8852056],[38.2894693,40.8927801],[38.2976208,40.8975298],[38.2998285,40.9007389],[38.2937149,40.9063864],[38.2937149,40.9085683],[38.2996587,40.9137019],[38.3013569,40.9243527],[38.3074248,40.9315838],[38.3070871,40.9336951],[38.309416,40.932584],[38.3048118,40.9351874],[38.28873,40.938723],[38.2882244,40.9430578],[38.2830075,40.9456219],[38.2513564,40.9435323],[38.2535558,40.9454939],[38.251049,40.9433034],[38.2418351,40.9410691],[38.2317291,40.940458],[38.2315231,40.9417223],[38.2316196,40.9404527],[38.2224615,40.9388006],[38.2197085,40.9390279],[38.2209005,40.9398858],[38.2182091,40.9384736],[38.205054,40.937903],[38.1994648,40.9393233],[38.1891136,40.9391475],[38.185395,40.9428909],[38.1842116,40.9408968],[38.181185,40.943015],[38.1879844,40.9440786],[38.1829284,40.9446426],[38.179828,40.943262],[38.1758699,40.9456892],[38.1675645,40.946529],[38.1660329,40.9428627],[38.1679606,40.9379358],[38.1645425,40.9333646],[38.1589569,40.930221],[38.1550637,40.9113596],[38.1513976,40.9097505],[38.1437587,40.9101397],[38.1346225,40.9028372],[38.1307124,40.8913261],[38.1247901,40.8842533],[38.1268561,40.8791308],[38.1351743,40.8777963],[38.1461839,40.8700833],[38.1453556,40.8665009],[38.1408961,40.8634485],[38.1410591,40.8596367],[38.1447863,40.8535544],[38.1387962,40.8505812],[38.1400224,40.8467897],[38.1372869,40.8433848],[38.1240656,40.8346705],[38.1198588,40.8284561],[38.1122466,40.8248181],[38.1028315,40.8266371],[38.0978234,40.8258792],[38.087607,40.8172384],[38.0719818,40.8117804],[38.0551548,40.8105675],[38.040227,40.7874574],[38.048315,40.7832061],[38.0289857,40.7775395],[38.0253982,40.7746269],[38.0028609,40.770954],[37.9957156,40.7648132],[37.9894889,40.763462],[37.9874457,40.7607709],[37.9880353,40.754135],[37.9813976,40.7532012],[37.9807338,40.7470952],[37.9717139,40.7456924],[37.9682625,40.7508789],[37.9653639,40.7500241],[37.9644241,40.7470233],[37.9603505,40.7467136],[37.9691653,40.7359593],[37.9679943,40.7288304],[37.9735058,40.7212991],[37.970398,40.7191441],[37.9721935,40.7171427],[37.9709669,40.7115256],[37.9748206,40.7058104],[37.9704664,40.699902],[37.9711262,40.6940088],[37.9680632,40.6898803],[37.9639433,40.6887088],[37.9625192,40.6832334],[37.9747072,40.6805752],[37.9866281,40.6843218],[37.9949611,40.6843447],[37.9941397,40.6820231],[37.9985614,40.6788657],[38.0128568,40.6725309],[38.0092619,40.6678793],[38.0018805,40.6661866],[37.9994772,40.6572016],[38.005996,40.6478231],[38.0059288,40.6382762],[38.0091955,40.6346662],[38.0140406,40.6337535],[38.015325,40.6291315],[38.0231202,40.6211285],[38.0320072,40.6204839],[38.0309708,40.6126878],[38.0341554,40.6088615],[38.0338561,40.6033702],[38.0371611,40.6016588],[38.0349397,40.6001561],[38.03541,40.5979618],[38.0654548,40.5911692],[38.0894996,40.574393],[38.0971091,40.5728848],[38.1008019,40.5434849],[38.1006056,40.5314617],[38.1067285,40.5215171],[38.1076239,40.5124942],[38.1143978,40.5123918],[38.128858,40.5042056],[38.1596396,40.5248178]]]}},{"type":"Feature","properties":{"code":"28-03","provinceCode":"28","name":"Çamoluk"},"geometry":{"type":"Polygon","coordinates":[[[38.9539366,40.0588931],[38.9565382,40.0630675],[38.9450958,40.0724143],[38.9363275,40.0865753],[38.9521121,40.0860834],[38.9503097,40.0906799],[38.9539275,40.0963587],[38.9576911,40.0975085],[38.9585685,40.1016818],[38.9608668,40.1011195],[38.9640426,40.1026951],[38.9540004,40.1068967],[38.9475631,40.1120169],[38.9467048,40.116743],[38.9480781,40.1179901],[38.9455031,40.1179245],[38.9443874,40.1156272],[38.9374733,40.1145008],[38.9279837,40.1177501],[38.9259322,40.1201909],[38.9232054,40.1196734],[38.9208125,40.133325],[38.9134462,40.1384275],[38.9055405,40.1472164],[38.8869709,40.145699],[38.8863658,40.1570325],[38.8822459,40.1616243],[38.8841342,40.1654942],[38.8818883,40.1706288],[38.8841324,40.1749703],[38.8802718,40.1799882],[38.88216,40.1858243],[38.8730954,40.1911854],[38.8684902,40.1914819],[38.8615496,40.1791541],[38.8589674,40.181984],[38.8600809,40.185247],[38.8564966,40.1883726],[38.8527689,40.1962057],[38.8479348,40.1950561],[38.8410918,40.2002472],[38.8460988,40.2100758],[38.855304,40.2213219],[38.8415768,40.223016],[38.8185805,40.2289938],[38.8043876,40.2270688],[38.7962139,40.2330556],[38.7964848,40.2449886],[38.7813614,40.235636],[38.7834547,40.2286941],[38.7647692,40.2313866],[38.7550149,40.2235645],[38.7359214,40.2218794],[38.7289332,40.2162661],[38.7136097,40.2211194],[38.6986642,40.2201232],[38.6909063,40.215847],[38.6785335,40.2047052],[38.6615751,40.2011662],[38.6477287,40.2019019],[38.6266079,40.1996423],[38.610935,40.190283],[38.6004637,40.1939546],[38.5905893,40.1886285],[38.582574,40.1891441],[38.568548,40.1830806],[38.537346,40.1690797],[38.5276613,40.1612858],[38.5233577,40.1537556],[38.5345457,40.1532934],[38.5303442,40.1434604],[38.5257911,40.1425993],[38.5223579,40.137875],[38.5223579,40.1341347],[38.5185417,40.1313484],[38.517723,40.1286224],[38.5115432,40.125341],[38.5099982,40.1198935],[38.556776,40.1135267],[38.5615825,40.1071593],[38.5582837,40.1048818],[38.5578918,40.0994781],[38.5620116,40.0986246],[38.5614966,40.0946196],[38.5806242,40.0993687],[38.5938167,40.0993105],[38.6012363,40.1062402],[38.6069011,40.1034829],[38.6232537,40.10385],[38.629732,40.1056494],[38.6408058,40.1057587],[38.6546406,40.1081172],[38.6602019,40.1074218],[38.6552238,40.0889727],[38.6577129,40.0832596],[38.6706481,40.0816914],[38.69462,40.088119],[38.6995753,40.086541],[38.7161827,40.0867658],[38.726453,40.0897921],[38.740551,40.0850924],[38.7500999,40.0851973],[38.7518691,40.0827343],[38.7561607,40.0818149],[38.7585951,40.079232],[38.765124,40.0797728],[38.7692345,40.0732393],[38.7662637,40.0732301],[38.7634479,40.0709201],[38.7670052,40.0685043],[38.770239,40.0692579],[38.7722399,40.067079],[38.7747859,40.0646725],[38.7834548,40.0651323],[38.7889501,40.0692087],[38.8007926,40.069993],[38.8189887,40.0585633],[38.8281014,40.0555634],[38.8404706,40.0562306],[38.8512163,40.0622353],[38.8669681,40.0581034],[38.8758057,40.0600173],[38.8873052,40.0548894],[38.9000129,40.0544244],[38.921403,40.0457644],[38.9368342,40.0517965],[38.9413833,40.0570523],[38.9539366,40.0588931]]]}},{"type":"Feature","properties":{"code":"28-04","provinceCode":"28","name":"Çanakçı"},"geometry":{"type":"Polygon","coordinates":[[[39.0458682,40.8163155],[39.0593719,40.8215694],[39.0658916,40.8271581],[39.0764807,40.8293979],[39.0811156,40.8373207],[39.0948485,40.8209546],[39.1065249,40.8192412],[39.1073154,40.8006265],[39.1190527,40.7854808],[39.1293524,40.7770319],[39.1373719,40.7763645],[39.1387938,40.784441],[39.1362189,40.7866506],[39.1360472,40.78925],[39.1396521,40.7918493],[39.1399954,40.798737],[39.142227,40.8019856],[39.1386221,40.8065335],[39.1370772,40.8122503],[39.1305026,40.8138255],[39.1235219,40.8177126],[39.1233252,40.8270892],[39.1275021,40.836659],[39.1307257,40.83797],[39.1314123,40.8410869],[39.1446303,40.8427751],[39.1487501,40.8452425],[39.1496084,40.8516052],[39.1458319,40.8564094],[39.1463469,40.8588762],[39.1410254,40.8600447],[39.1182295,40.8748381],[39.1081496,40.8763066],[39.1016475,40.8843416],[39.1011965,40.8901695],[39.0815037,40.9029267],[39.0766811,40.9042242],[39.0736393,40.9071678],[39.0724859,40.9185108],[39.0690204,40.9251908],[39.0679903,40.9334954],[39.0607738,40.9360808],[39.0541648,40.9432128],[39.0402602,40.9410733],[39.0185475,40.9486705],[39.0157127,40.9482696],[39.0098749,40.9419815],[39.0021555,40.9385888],[38.9930327,40.9296823],[38.9862958,40.9279856],[38.97998,40.9327573],[38.9721203,40.9329693],[38.9685516,40.9309137],[38.9702358,40.9272023],[38.9776744,40.9227484],[38.9706569,40.9172337],[38.9647621,40.9091728],[38.9642007,40.9042934],[38.9773456,40.8939609],[38.9781395,40.8843576],[38.9753607,40.8657472],[39.0008527,40.8504916],[39.0079878,40.8496575],[39.0190921,40.8430084],[39.0234373,40.8430349],[39.0321815,40.8382114],[39.0458682,40.8163155]]]}},{"type":"Feature","properties":{"code":"28-05","provinceCode":"28","name":"Dereli"},"geometry":{"type":"Polygon","coordinates":[[[38.1922901,40.4978948],[38.2005427,40.4952614],[38.211595,40.4990686],[38.2176588,40.4951344],[38.2127611,40.4929881],[38.2305069,40.4896448],[38.2536943,40.4814024],[38.2947519,40.4761688],[38.3141439,40.47591],[38.3263915,40.4684047],[38.3399999,40.4681459],[38.3539486,40.4619339],[38.3774231,40.4588276],[38.3852479,40.4531326],[38.3991966,40.4539092],[38.4087225,40.4606396],[38.4097431,40.4681459],[38.4168875,40.4753925],[38.439872,40.4848034],[38.450612,40.4818908],[38.4713743,40.4910875],[38.4772108,40.4956566],[38.4912178,40.499689],[38.4976385,40.5057075],[38.5081716,40.5236436],[38.4988585,40.5391066],[38.502567,40.5437262],[38.5140786,40.5516242],[38.5191961,40.5520698],[38.528699,40.5445679],[38.5377334,40.5479319],[38.537451,40.5505504],[38.5417196,40.5527416],[38.5431569,40.555358],[38.5468291,40.5561736],[38.5460382,40.5580192],[38.5486369,40.5590923],[38.5509532,40.5659593],[38.5550263,40.5673023],[38.5549078,40.5702937],[38.5588086,40.5721315],[38.5588086,40.5759487],[38.5606932,40.5761078],[38.560065,40.5788645],[38.5636946,40.5816212],[38.5616006,40.5841657],[38.563206,40.5900495],[38.5616006,40.5951378],[38.5639738,40.5966748],[38.5636946,40.5991657],[38.5616704,40.6000667],[38.5636248,40.6016036],[38.5628592,40.6035528],[38.5651604,40.6035644],[38.5676888,40.6057897],[38.5723112,40.6169496],[38.5709379,40.6185133],[38.5762594,40.623204],[38.5716246,40.625028],[38.5669897,40.6229434],[38.5671614,40.6272429],[38.559265,40.6288063],[38.5534285,40.6260703],[38.547077,40.6268521],[38.546047,40.6342779],[38.5517119,40.6368833],[38.5534285,40.6393583],[38.559536,40.6407463],[38.5517119,40.6495178],[38.5613329,40.6564569],[38.5703232,40.665814],[38.5682163,40.6711513],[38.5769788,40.6822907],[38.5703522,40.6936404],[38.5597221,40.6946643],[38.5549734,40.6991212],[38.5580633,40.7057582],[38.5543855,40.7111807],[38.5571802,40.7208124],[38.5670898,40.7263542],[38.569743,40.7334286],[38.5675191,40.7424306],[38.5626677,40.7448949],[38.5573808,40.7440068],[38.5372271,40.7593186],[38.5221597,40.7610362],[38.5173207,40.7693284],[38.5060682,40.7750094],[38.4950837,40.7780527],[38.4862425,40.7926583],[38.4955876,40.7984103],[38.4835633,40.8027991],[38.4764313,40.811249],[38.4729051,40.8124513],[38.4698808,40.8033687],[38.4639793,40.8013853],[38.4514616,40.8009461],[38.4375146,40.80514],[38.435488,40.7968557],[38.4294258,40.7969992],[38.4231741,40.7941308],[38.4135124,40.7807913],[38.4118074,40.7718967],[38.4041414,40.7733801],[38.3998429,40.7690091],[38.3937834,40.7683219],[38.3880959,40.752925],[38.3746762,40.7436272],[38.3732489,40.7381288],[38.3567432,40.7319744],[38.352863,40.7237546],[38.341937,40.7223057],[38.3367749,40.719474],[38.3378218,40.7101825],[38.3312933,40.7027085],[38.3299672,40.6981125],[38.3252311,40.694809],[38.3117805,40.6903561],[38.2949199,40.6824551],[38.2794569,40.6806382],[38.2585465,40.6669378],[38.2382759,40.6511294],[38.2244465,40.6498358],[38.2193315,40.647536],[38.2109959,40.6338796],[38.196977,40.6210831],[38.1911042,40.6131739],[38.1848553,40.5933605],[38.177633,40.5875242],[38.1744011,40.5739018],[38.1704781,40.566339],[38.1703355,40.5452382],[38.167362,40.5379385],[38.1598089,40.5327199],[38.1596396,40.5248178],[38.169422,40.5204547],[38.1706236,40.5152348],[38.1831549,40.5102755],[38.1903647,40.5089704],[38.1922901,40.4978948]]]}},{"type":"Feature","properties":{"code":"28-06","provinceCode":"28","name":"Espiye"},"geometry":{"type":"Polygon","coordinates":[[[38.7571959,40.5419238],[38.7724488,40.5495034],[38.7991794,40.5877501],[38.7795924,40.5862558],[38.7751292,40.5880157],[38.7779388,40.5976652],[38.7780065,40.6081735],[38.7848281,40.608805],[38.7906309,40.6149179],[38.7937545,40.6262006],[38.8017182,40.6398115],[38.8066291,40.6446335],[38.8058566,40.6493224],[38.8110065,40.6551179],[38.8099555,40.6586109],[38.8154697,40.6605222],[38.8245677,40.6679443],[38.8238811,40.6717852],[38.819332,40.673608],[38.8232802,40.6753656],[38.8277434,40.683502],[38.8270568,40.6871468],[38.8225936,40.6910517],[38.825941,40.695477],[38.8300609,40.6964531],[38.829975,40.6993814],[38.8358974,40.7044568],[38.8352965,40.7108981],[38.8437938,40.7199409],[38.8440513,40.7229332],[38.8412189,40.7252749],[38.8413047,40.7309337],[38.8449096,40.7404291],[38.8407897,40.7516786],[38.8362407,40.752979],[38.8345241,40.7512234],[38.8297176,40.7505732],[38.8302325,40.7546695],[38.8252544,40.7541493],[38.8212203,40.7600007],[38.8256835,40.7633813],[38.8236236,40.7673467],[38.815298,40.7679968],[38.8131841,40.772399],[38.8093208,40.7747535],[38.803749,40.7734429],[38.801182,40.7781935],[38.8047228,40.7788682],[38.8029144,40.787927],[38.8061835,40.7921926],[38.8037881,40.8003326],[38.8049315,40.8042507],[38.8070878,40.8054616],[38.8039577,40.8106737],[38.7973393,40.8101803],[38.7984627,40.8156749],[38.7912984,40.8216758],[38.789629,40.8299392],[38.7908811,40.8324654],[38.7837642,40.8388803],[38.7822685,40.8491595],[38.7801693,40.850304],[38.7806562,40.8559335],[38.7739788,40.8594582],[38.7759543,40.8641547],[38.7758548,40.8772146],[38.7858207,40.890932],[38.7757018,40.8974899],[38.7702935,40.9065081],[38.7518134,40.9141726],[38.748091,40.915017],[38.7460386,40.9206001],[38.7404339,40.9225048],[38.7394916,40.9254519],[38.7411848,40.9283639],[38.7736954,40.9306695],[38.7686008,40.9379823],[38.7609588,40.9445246],[38.7421731,40.9476776],[38.7415303,40.9505832],[38.731737,40.9600279],[38.7230439,40.9542145],[38.7206731,40.9533467],[38.7196927,40.954742],[38.7205051,40.9530503],[38.715176,40.9506674],[38.7069679,40.9513183],[38.6990791,40.9485016],[38.6971398,40.9485678],[38.6979559,40.9496415],[38.6919313,40.9476196],[38.6868466,40.9479846],[38.6866009,40.9469573],[38.6795545,40.9493831],[38.6749212,40.9491378],[38.671455,40.9517955],[38.6625753,40.9546119],[38.6597849,40.9580446],[38.6588373,40.9574747],[38.6579861,40.9592573],[38.6596709,40.9589259],[38.6570823,40.9618283],[38.6534232,40.9625174],[38.6552045,40.9643793],[38.6494482,40.9699449],[38.6383115,40.9623753],[38.6357459,40.9582522],[38.6366551,40.9545093],[38.6416077,40.9510121],[38.642771,40.9397481],[38.6453912,40.9358827],[38.6368187,40.9249128],[38.6334961,40.9232755],[38.6327931,40.9136062],[38.6204544,40.9111744],[38.6242834,40.9020168],[38.6231877,40.8988959],[38.6297622,40.8952966],[38.6331482,40.8913271],[38.6327681,40.8861429],[38.6368438,40.8824196],[38.661553,40.8627722],[38.6773464,40.8537813],[38.6849884,40.8356674],[38.6849884,40.8230746],[38.6922417,40.8187176],[38.7043757,40.8149659],[38.7059497,40.8117955],[38.7088679,40.8103663],[38.706808,40.8045194],[38.7199154,40.7995257],[38.7222575,40.7922391],[38.7266169,40.7898142],[38.7291422,40.78091],[38.7223493,40.7629047],[38.7268763,40.7562948],[38.7261199,40.7490777],[38.7211495,40.7399509],[38.7167452,40.7388472],[38.7036928,40.7313104],[38.6990837,40.7214741],[38.6825398,40.7149154],[38.6853281,40.6953416],[38.6944635,40.6829476],[38.6899852,40.6800523],[38.686037,40.6713947],[38.6899852,40.667749],[38.7015723,40.6660563],[38.7014007,40.6626708],[38.6975383,40.6582433],[38.7014007,40.6525132],[38.7044906,40.6519923],[38.7040614,40.6484758],[38.7014865,40.6465222],[38.7045764,40.6442428],[38.7031173,40.641768],[38.6962508,40.6387069],[38.6984824,40.6331705],[38.6930751,40.6308907],[38.6927318,40.6267868],[38.6896419,40.6253537],[38.6948775,40.6121281],[38.6971091,40.6101734],[38.6974525,40.6065244],[38.6928176,40.5943379],[38.6967658,40.5886675],[38.6947059,40.58241],[38.6958217,40.5715882],[38.6941051,40.5659811],[38.6962276,40.5576386],[38.6998557,40.5502004],[38.7060485,40.5482909],[38.7219142,40.5473307],[38.7325757,40.550252],[38.7411941,40.547519],[38.7474918,40.5489612],[38.7571959,40.5419238]]]}},{"type":"Feature","properties":{"code":"28-07","provinceCode":"28","name":"Eynesil"},"geometry":{"type":"Polygon","coordinates":[[[39.1496043,40.9510948],[39.1497785,40.9547336],[39.1468145,40.9581153],[39.1404596,40.9821276],[39.1343313,40.9856731],[39.1314983,40.9898113],[39.1444472,40.9944258],[39.1494282,41.0063322],[39.1544877,41.0074188],[39.1560476,41.0196557],[39.1529835,41.0258203],[39.1549558,41.0305762],[39.1534414,41.0348801],[39.1543571,41.0386258],[39.1621491,41.0449037],[39.1623973,41.0471298],[39.1677143,41.0469701],[39.174401,41.049947],[39.1747148,41.0611379],[39.1782191,41.0620806],[39.1824983,41.0675774],[39.1806227,41.0736897],[39.171221,41.0760676],[39.1753963,41.0768144],[39.1628226,41.0793437],[39.1436366,41.0666264],[39.1414594,41.0661733],[39.1414942,41.0672371],[39.1342832,41.0603226],[39.1265322,41.0557849],[39.1132423,41.0504061],[39.1057438,41.0490466],[39.1071285,41.0503798],[39.0964252,41.0463274],[39.0909559,41.0458933],[39.0931314,41.0379305],[39.0973629,41.0330457],[39.0955485,41.0252233],[39.1007687,41.0230894],[39.1002753,41.0212016],[39.1020726,41.0202445],[39.0998524,41.0191277],[39.1019316,41.0159902],[39.1010506,41.0145809],[39.1050328,41.0157243],[39.1058081,41.0136236],[39.100522,41.0084382],[39.0997467,41.0054597],[39.0950247,41.0034906],[39.0935059,41.0039856],[39.0943687,41.0058096],[39.0915644,41.0051119],[39.0927442,40.993124],[39.0880248,40.988804],[39.0882537,40.9865709],[39.0937304,40.9846035],[39.0997177,40.9869032],[39.101285,40.9835932],[39.099524,40.9783952],[39.1086058,40.9764464],[39.1079458,40.974035],[39.1094774,40.9730431],[39.1069808,40.9705517],[39.1114597,40.9656382],[39.1084309,40.9628457],[39.1135979,40.9589572],[39.1188206,40.9589627],[39.1213212,40.9616755],[39.1280481,40.9621808],[39.1417485,40.9519407],[39.1496043,40.9510948]]]}},{"type":"Feature","properties":{"code":"28-08","provinceCode":"28","name":"Giresun District"},"geometry":{"type":"MultiPolygon","coordinates":[[[[38.2585465,40.6669378],[38.2794569,40.6806382],[38.2949199,40.6824551],[38.3117805,40.6903561],[38.3252311,40.694809],[38.3299672,40.6981125],[38.3312933,40.7027085],[38.3378218,40.7101825],[38.3367749,40.719474],[38.341937,40.7223057],[38.352863,40.7237546],[38.3567432,40.7319744],[38.3732489,40.7381288],[38.3746762,40.7436272],[38.3880959,40.752925],[38.3937834,40.7683219],[38.3998429,40.7690091],[38.4041414,40.7733801],[38.4118074,40.7718967],[38.4135124,40.7807913],[38.4231741,40.7941308],[38.4294258,40.7969992],[38.435488,40.7968557],[38.4375146,40.80514],[38.4514616,40.8009461],[38.4639793,40.8013853],[38.4698808,40.8033687],[38.4729051,40.8124513],[38.4764313,40.811249],[38.4835633,40.8027991],[38.4955876,40.7984103],[38.4862425,40.7926583],[38.4950837,40.7780527],[38.5060682,40.7750094],[38.5138378,40.7879929],[38.5192052,40.7910737],[38.5210715,40.7944837],[38.5170504,40.7986864],[38.5175613,40.8025816],[38.5210727,40.8060808],[38.5249457,40.8385147],[38.5159012,40.8411927],[38.5033855,40.8510039],[38.4969591,40.8512511],[38.4927302,40.8582932],[38.4896156,40.8589101],[38.4884282,40.8713539],[38.4779766,40.874956],[38.4771758,40.8794286],[38.4786782,40.8803853],[38.4769547,40.8824618],[38.4721093,40.8835108],[38.4710173,40.8858748],[38.4625551,40.8894919],[38.4565115,40.9014254],[38.4579148,40.9030858],[38.4560283,40.9059616],[38.456894,40.9081082],[38.4532316,40.9097343],[38.4535486,40.9112955],[38.450694,40.9113574],[38.4488744,40.9154625],[38.4397508,40.9139426],[38.4384599,40.9150681],[38.4382054,40.9138594],[38.4370203,40.9145242],[38.4382636,40.9157549],[38.4346004,40.9152637],[38.4297038,40.9123033],[38.4205405,40.9165041],[38.4065823,40.9146775],[38.3980356,40.917353],[38.401199,40.9172261],[38.3951897,40.9192986],[38.39373,40.9236487],[38.3898991,40.9249629],[38.3860572,40.9229667],[38.3811695,40.9229001],[38.3759406,40.9205462],[38.3747407,40.918217],[38.3763809,40.920255],[38.3811365,40.9223678],[38.3852096,40.9224177],[38.3850335,40.9200138],[38.3794853,40.9173187],[38.3783074,40.9183585],[38.3794522,40.9157132],[38.3768763,40.9146234],[38.3773056,40.9168611],[38.368796,40.9100109],[38.3581519,40.9091691],[38.3459702,40.9143008],[38.3426553,40.9140393],[38.3244414,40.9199685],[38.3131255,40.9264666],[38.3074248,40.9315838],[38.3013569,40.9243527],[38.2996587,40.9137019],[38.2937149,40.9085683],[38.2937149,40.9063864],[38.2998285,40.9007389],[38.2976208,40.8975298],[38.2894693,40.8927801],[38.2835256,40.8852056],[38.2809782,40.875062],[38.2568845,40.8535356],[38.2482386,40.837457],[38.2490792,40.8288257],[38.2574849,40.8136499],[38.2612075,40.8112869],[38.2748969,40.8126502],[38.276578,40.8098327],[38.2752571,40.8041065],[38.2604025,40.7915894],[38.2587325,40.7850156],[38.2544693,40.7794218],[38.2580124,40.7633134],[38.2533644,40.7577903],[38.2529876,40.7529843],[38.2640074,40.7540193],[38.2643507,40.7502482],[38.2525061,40.7341207],[38.257223,40.7231175],[38.255227,40.7220045],[38.2617794,40.7174591],[38.2506178,40.7146065],[38.2410048,40.7069294],[38.238633,40.7020496],[38.2514257,40.6962723],[38.2528632,40.6699553],[38.2585465,40.6669378]]],[[[38.4352828,40.9293129],[38.436141,40.9279388],[38.4381111,40.9290655],[38.4370758,40.9307079],[38.4352828,40.9293129]]]]}},{"type":"Feature","properties":{"code":"28-09","provinceCode":"28","name":"Görele"},"geometry":{"type":"Polygon","coordinates":[[[39.0086978,40.8160223],[39.0291896,40.8244987],[39.0458682,40.8163155],[39.0321815,40.8382114],[39.0234373,40.8430349],[39.0190921,40.8430084],[39.0079878,40.8496575],[39.0008527,40.8504916],[38.9753607,40.8657472],[38.9781395,40.8843576],[38.9773456,40.8939609],[38.9642007,40.9042934],[38.9647621,40.9091728],[38.9706569,40.9172337],[38.9776744,40.9227484],[38.9702358,40.9272023],[38.9685516,40.9309137],[38.9721203,40.9329693],[38.97998,40.9327573],[38.9862958,40.9279856],[38.9930327,40.9296823],[39.0021555,40.9385888],[39.0098749,40.9419815],[39.0157127,40.9482696],[39.0185475,40.9486705],[39.0402602,40.9410733],[39.0541648,40.9432128],[39.0607738,40.9360808],[39.0679903,40.9334954],[39.0690204,40.9251908],[39.0724859,40.9185108],[39.0736393,40.9071678],[39.0766811,40.9042242],[39.0815037,40.9029267],[39.1011965,40.8901695],[39.1016475,40.8843416],[39.1081496,40.8763066],[39.1182295,40.8748381],[39.1410254,40.8600447],[39.1463469,40.8588762],[39.147803,40.8611613],[39.1420993,40.8650286],[39.1419026,40.8697881],[39.1468119,40.8793276],[39.154415,40.8865245],[39.1506384,40.8985927],[39.1397676,40.9044543],[39.1348456,40.9088425],[39.1389093,40.9146674],[39.1434286,40.9286887],[39.1408537,40.9384151],[39.1496043,40.9510948],[39.1417485,40.9519407],[39.1280481,40.9621808],[39.1213212,40.9616755],[39.1188206,40.9589627],[39.1135979,40.9589572],[39.1084309,40.9628457],[39.1114597,40.9656382],[39.1069808,40.9705517],[39.1094774,40.9730431],[39.1079458,40.974035],[39.1086058,40.9764464],[39.099524,40.9783952],[39.101285,40.9835932],[39.0997177,40.9869032],[39.0937304,40.9846035],[39.0882537,40.9865709],[39.0880248,40.988804],[39.0927442,40.993124],[39.0915644,41.0051119],[39.0943687,41.0058096],[39.0935059,41.0039856],[39.0950247,41.0034906],[39.0997467,41.0054597],[39.100522,41.0084382],[39.1058081,41.0136236],[39.1050328,41.0157243],[39.1010506,41.0145809],[39.1019316,41.0159902],[39.0998524,41.0191277],[39.1020726,41.0202445],[39.1002753,41.0212016],[39.1007687,41.0230894],[39.0955485,41.0252233],[39.0973629,41.0330457],[39.0931314,41.0379305],[39.0909559,41.0458933],[39.0798129,41.0442116],[39.0792096,41.0451821],[39.0777012,41.0440212],[39.0761128,41.0455025],[39.0645875,41.0412816],[39.0663791,41.0437566],[39.0639226,41.0406919],[39.0562649,41.0376472],[39.0534525,41.0382317],[39.0532174,41.0368066],[39.0506575,41.0377392],[39.0472704,41.0361629],[39.0181796,41.0322747],[39.0077092,41.0326983],[39.007657,41.0354372],[39.0063596,41.0334405],[39.0021365,41.0366523],[39.0092766,41.037007],[39.0026241,41.0372762],[38.9987058,41.0400741],[38.9887532,41.0373222],[38.983999,41.0391415],[38.9655364,41.0362074],[38.9615987,41.0376294],[38.9481645,41.0370446],[38.9505783,41.0380546],[38.9435397,41.0380214],[38.9353999,41.0416958],[38.9344926,41.0435628],[38.9337321,41.0415208],[38.9378026,41.0357547],[38.9319914,41.033728],[38.937584,41.0192101],[38.9430064,41.0148917],[38.9377662,41.0095047],[38.938511,41.0028232],[38.9403087,40.9976258],[38.9450041,40.9956699],[38.9409983,40.9879685],[38.9421605,40.9821733],[38.9400205,40.9756746],[38.9402953,40.9686207],[38.9477144,40.9634335],[38.9603543,40.9495299],[38.9592552,40.941643],[38.9633769,40.937284],[38.9633769,40.9320944],[38.9474396,40.932302],[38.9430431,40.92815],[38.9337006,40.9250359],[38.9320519,40.9212987],[38.9353492,40.9134084],[38.9353492,40.9086322],[38.9287545,40.9021943],[38.9380971,40.8955479],[38.9510117,40.8963788],[38.9551334,40.894094],[38.9559578,40.8895241],[38.9540343,40.8818378],[38.9551334,40.8691638],[38.9584308,40.8645922],[38.9567821,40.8589813],[38.9452413,40.8548247],[38.9435927,40.8500443],[38.968068,40.8389513],[38.9754979,40.838517],[38.9851059,40.8257841],[38.9851971,40.8195284],[38.9936194,40.8166053],[39.0034743,40.8193533],[39.0086978,40.8160223]]]}},{"type":"Feature","properties":{"code":"28-10","provinceCode":"28","name":"Güce"},"geometry":{"type":"Polygon","coordinates":[[[38.8805398,40.7911903],[38.8727268,40.7944591],[38.861733,40.7938404],[38.8471898,40.7962592],[38.8490384,40.8002808],[38.8466206,40.8025677],[38.8474823,40.8060513],[38.843539,40.8073158],[38.846494,40.8109195],[38.8454078,40.8147934],[38.8427833,40.8160369],[38.8440743,40.8274561],[38.8397147,40.8375757],[38.8452017,40.8412001],[38.8427381,40.8482881],[38.8447899,40.8536993],[38.8472463,40.8781651],[38.8460514,40.8840076],[38.8340411,40.895796],[38.8379545,40.9038987],[38.8329738,40.9083689],[38.822701,40.9074278],[38.8096817,40.9123047],[38.8060233,40.921199],[38.8027416,40.9246602],[38.7847711,40.9223469],[38.7785692,40.9185341],[38.767913,40.914956],[38.7518134,40.9141726],[38.7702935,40.9065081],[38.7757018,40.8974899],[38.7858207,40.890932],[38.7758548,40.8772146],[38.7759543,40.8641547],[38.7739788,40.8594582],[38.7806562,40.8559335],[38.7801693,40.850304],[38.7822685,40.8491595],[38.7837642,40.8388803],[38.7908811,40.8324654],[38.789629,40.8299392],[38.7912984,40.8216758],[38.7984627,40.8156749],[38.7973393,40.8101803],[38.8039577,40.8106737],[38.8070878,40.8054616],[38.8049315,40.8042507],[38.8037881,40.8003326],[38.8061835,40.7921926],[38.8029144,40.787927],[38.8047228,40.7788682],[38.801182,40.7781935],[38.803749,40.7734429],[38.8093208,40.7747535],[38.8131841,40.772399],[38.815298,40.7679968],[38.8236236,40.7673467],[38.8256835,40.7633813],[38.8212203,40.7600007],[38.8252544,40.7541493],[38.8302325,40.7546695],[38.8297176,40.7505732],[38.8345241,40.7512234],[38.8362407,40.752979],[38.8407897,40.7516786],[38.8449096,40.7404291],[38.8413047,40.7309337],[38.8412189,40.7252749],[38.8440513,40.7229332],[38.8437938,40.7199409],[38.8352965,40.7108981],[38.8358974,40.7044568],[38.829975,40.6993814],[38.8300609,40.6964531],[38.825941,40.695477],[38.8225936,40.6910517],[38.8270568,40.6871468],[38.8277434,40.683502],[38.8232802,40.6753656],[38.819332,40.673608],[38.8238811,40.6717852],[38.8245677,40.6679443],[38.8154697,40.6605222],[38.8099555,40.6586109],[38.8110065,40.6551179],[38.8058566,40.6493224],[38.8066291,40.6446335],[38.8017182,40.6398115],[38.7937545,40.6262006],[38.7906309,40.6149179],[38.7848281,40.608805],[38.7780065,40.6081735],[38.7779388,40.5976652],[38.7751292,40.5880157],[38.7795924,40.5862558],[38.7991794,40.5877501],[38.7978057,40.5939193],[38.8028139,40.5957089],[38.8117707,40.6055499],[38.8178386,40.6066692],[38.8222576,40.6121859],[38.8332956,40.6169102],[38.8438795,40.613301],[38.8593291,40.6126495],[38.8653372,40.614995],[38.8776968,40.6146041],[38.9056776,40.6099128],[38.9199255,40.6106947],[38.9305685,40.6057425],[38.9343451,40.6131707],[38.9458464,40.6194254],[38.9453314,40.6226828],[38.9425848,40.6252886],[38.9312552,40.629588],[38.9264487,40.6350595],[38.9218138,40.6354503],[38.9183806,40.6381859],[38.9163206,40.6522528],[38.9109991,40.6552482],[38.9096258,40.6599363],[38.9109991,40.6631917],[38.9077376,40.666447],[38.9118574,40.6702229],[38.9111708,40.6747798],[38.9149473,40.6825908],[38.9120291,40.6943057],[38.9020727,40.7021144],[38.9005278,40.7121343],[38.8958929,40.7160378],[38.8962362,40.7342508],[38.8905519,40.7361955],[38.8861385,40.741029],[38.8852241,40.7591151],[38.8794962,40.7831197],[38.8805398,40.7911903]]]}},{"type":"Feature","properties":{"code":"28-11","provinceCode":"28","name":"Keşap"},"geometry":{"type":"Polygon","coordinates":[[[38.6494482,40.9699449],[38.6442088,40.9707135],[38.64377,40.9735829],[38.6415231,40.9742787],[38.6403909,40.9716082],[38.6381089,40.9722576],[38.6338696,40.9703756],[38.6266112,40.9735631],[38.622881,40.9726684],[38.62003,40.9673983],[38.611047,40.966319],[38.6111406,40.9627693],[38.600108,40.954857],[38.5948568,40.9535417],[38.5919981,40.9477436],[38.587282,40.9445847],[38.5790903,40.9429621],[38.5657922,40.9326803],[38.557797,40.9288001],[38.558866,40.9305597],[38.5353585,40.9184647],[38.5110488,40.9176587],[38.5124917,40.9188213],[38.4818954,40.9139082],[38.4776014,40.9146439],[38.4716908,40.9186669],[38.458036,40.914868],[38.4529,40.9161045],[38.4488744,40.9154625],[38.450694,40.9113574],[38.4535486,40.9112955],[38.4532316,40.9097343],[38.456894,40.9081082],[38.4560283,40.9059616],[38.4579148,40.9030858],[38.4565115,40.9014254],[38.4625551,40.8894919],[38.4710173,40.8858748],[38.4721093,40.8835108],[38.4769547,40.8824618],[38.4786782,40.8803853],[38.4771758,40.8794286],[38.4779766,40.874956],[38.4884282,40.8713539],[38.4896156,40.8589101],[38.4927302,40.8582932],[38.4969591,40.8512511],[38.5033855,40.8510039],[38.5159012,40.8411927],[38.5249457,40.8385147],[38.5210727,40.8060808],[38.5175613,40.8025816],[38.5170504,40.7986864],[38.5210715,40.7944837],[38.5192052,40.7910737],[38.5138378,40.7879929],[38.5060682,40.7750094],[38.5173207,40.7693284],[38.5221597,40.7610362],[38.5372271,40.7593186],[38.5573808,40.7440068],[38.5626677,40.7448949],[38.5675191,40.7424306],[38.569743,40.7334286],[38.5670898,40.7263542],[38.5571802,40.7208124],[38.5543855,40.7111807],[38.5580633,40.7057582],[38.5549734,40.6991212],[38.5597221,40.6946643],[38.5703522,40.6936404],[38.57653,40.70193],[38.5970808,40.7100194],[38.5974214,40.7208774],[38.5931779,40.7341844],[38.5976512,40.7402044],[38.5940742,40.7479747],[38.5995355,40.7697428],[38.576262,40.7839359],[38.5700584,40.7971639],[38.5836359,40.8031667],[38.5854292,40.8067332],[38.5906595,40.8105113],[38.593037,40.8180944],[38.5976222,40.8229779],[38.5991779,40.8297895],[38.5966342,40.8348892],[38.5985408,40.839903],[38.5983566,40.8489141],[38.5931865,40.8568404],[38.5857166,40.8635764],[38.588015,40.8655319],[38.5889342,40.8724183],[38.5925367,40.8767767],[38.6103089,40.8873082],[38.6231877,40.8988959],[38.6242834,40.9020168],[38.6204544,40.9111744],[38.6327931,40.9136062],[38.6334961,40.9232755],[38.6368187,40.9249128],[38.6453912,40.9358827],[38.642771,40.9397481],[38.6416077,40.9510121],[38.6366551,40.9545093],[38.6357459,40.9582522],[38.6383115,40.9623753],[38.6494482,40.9699449]]]}},{"type":"Feature","properties":{"code":"28-12","provinceCode":"28","name":"Piraziz"},"geometry":{"type":"Polygon","coordinates":[[[38.1675645,40.946529],[38.1625288,40.9475009],[38.1607234,40.9500504],[38.1516875,40.9508767],[38.1504068,40.9539194],[38.1406861,40.9528918],[38.1241617,40.9539194],[38.1236548,40.9556725],[38.1220628,40.9546113],[38.1198128,40.9568815],[38.1247058,40.957092],[38.1160428,40.9579796],[38.1140584,40.9551425],[38.1154713,40.9535154],[38.1129585,40.9532386],[38.1131596,40.9513051],[38.107262,40.9486686],[38.1066163,40.9450897],[38.1038952,40.9434172],[38.1051178,40.9415316],[38.101716,40.9389936],[38.1024975,40.9358867],[38.099773,40.9325299],[38.0992554,40.9273924],[38.0942474,40.9260561],[38.0803298,40.9144856],[38.0819481,40.9083563],[38.0780124,40.8996956],[38.0663522,40.89685],[38.0558681,40.8976844],[38.0507282,40.8950331],[38.0381869,40.8991765],[38.0260046,40.8906948],[38.0184482,40.8839359],[38.0196475,40.8795161],[38.0115733,40.8665245],[38.0156713,40.8555491],[38.008747,40.8461514],[38.0112481,40.8358608],[38.0085157,40.8242826],[38.0045543,40.8171325],[38.0094384,40.8104622],[38.0154538,40.8060002],[38.0132233,40.8012966],[38.0190467,40.7989968],[38.0170726,40.7963978],[38.0196891,40.7926944],[38.0236816,40.7906146],[38.0277156,40.7909395],[38.040227,40.7874574],[38.0551548,40.8105675],[38.0719818,40.8117804],[38.087607,40.8172384],[38.0978234,40.8258792],[38.1028315,40.8266371],[38.1122466,40.8248181],[38.1198588,40.8284561],[38.1240656,40.8346705],[38.1372869,40.8433848],[38.1400224,40.8467897],[38.1387962,40.8505812],[38.1447863,40.8535544],[38.1410591,40.8596367],[38.1408961,40.8634485],[38.1453556,40.8665009],[38.1461839,40.8700833],[38.1351743,40.8777963],[38.1268561,40.8791308],[38.1247901,40.8842533],[38.1307124,40.8913261],[38.1346225,40.9028372],[38.1437587,40.9101397],[38.1513976,40.9097505],[38.1550637,40.9113596],[38.1589569,40.930221],[38.1645425,40.9333646],[38.1679606,40.9379358],[38.1660329,40.9428627],[38.1675645,40.946529]]]}},{"type":"Feature","properties":{"code":"28-13","provinceCode":"28","name":"Şebinkarahisar"},"geometry":{"type":"Polygon","coordinates":[[[38.1594705,40.4080574],[38.1532859,40.3995751],[38.1524556,40.3773438],[38.1548308,40.3672776],[38.1585916,40.3604147],[38.1473619,40.3495457],[38.1535664,40.342978],[38.1661498,40.3232182],[38.1713103,40.3055164],[38.1780949,40.298637],[38.1838864,40.2971326],[38.1861047,40.2919656],[38.177576,40.2859425],[38.1744002,40.273043],[38.177061,40.2653805],[38.1834673,40.2693744],[38.1911705,40.2673544],[38.1996344,40.2670834],[38.2021167,40.2610555],[38.1937259,40.2422458],[38.190092,40.2397801],[38.1809233,40.2440262],[38.1750757,40.2444552],[38.1692659,40.2373738],[38.1650294,40.2215021],[38.1766076,40.2180146],[38.2075309,40.2164389],[38.2195749,40.2118509],[38.215764,40.205514],[38.2402128,40.2077854],[38.2581217,40.1990882],[38.2798862,40.1978226],[38.2897547,40.1927865],[38.2990775,40.1917511],[38.301517,40.1854887],[38.3102702,40.1854308],[38.3155917,40.1872012],[38.323362,40.1861781],[38.3267859,40.1798618],[38.3263697,40.1778759],[38.3215872,40.1758424],[38.3248231,40.1690304],[38.3306608,40.1674471],[38.3367698,40.169376],[38.3757395,40.1473216],[38.395509,40.1449512],[38.3980303,40.14918],[38.4005515,40.1501555],[38.4035682,40.1472576],[38.4056281,40.1403028],[38.4100021,40.1367806],[38.4108638,40.1277692],[38.4151553,40.1232408],[38.4319531,40.1264299],[38.4410953,40.1301325],[38.4394454,40.137022],[38.4471702,40.1477825],[38.4432528,40.1549065],[38.4468021,40.1630186],[38.4521239,40.1648828],[38.4612824,40.1649],[38.4639667,40.1665864],[38.4820193,40.1638644],[38.48645,40.1603822],[38.4876019,40.1563472],[38.4930926,40.1542497],[38.50513,40.154307],[38.50897,40.1516374],[38.5122429,40.1543317],[38.5233577,40.1537556],[38.5276613,40.1612858],[38.537346,40.1690797],[38.568548,40.1830806],[38.582574,40.1891441],[38.5905893,40.1886285],[38.6004637,40.1939546],[38.610935,40.190283],[38.6266079,40.1996423],[38.6154743,40.2076619],[38.6095894,40.2258211],[38.6132789,40.2343094],[38.600317,40.2460547],[38.5979017,40.253572],[38.5984158,40.2618856],[38.6059083,40.2726164],[38.6295046,40.2893147],[38.6473094,40.2969706],[38.650364,40.3066535],[38.6609062,40.3174535],[38.661798,40.3207011],[38.6540489,40.3263905],[38.6678992,40.3299667],[38.6761367,40.3413765],[38.6884597,40.3459996],[38.6809444,40.3574156],[38.6774509,40.3680414],[38.6726836,40.3667862],[38.6690018,40.3685514],[38.6509379,40.3677147],[38.6493767,40.369912],[38.6459809,40.3703057],[38.6460192,40.3744537],[38.6410594,40.3787605],[38.6429787,40.3787418],[38.6420683,40.3832218],[38.6436132,40.3842247],[38.6435693,40.3871767],[38.641084,40.3897445],[38.6560614,40.3960936],[38.6488247,40.4204141],[38.6420344,40.4347196],[38.6360637,40.4431398],[38.6281837,40.4483394],[38.6305412,40.4554022],[38.6248079,40.4685691],[38.6149067,40.4765775],[38.5919817,40.4782305],[38.5709892,40.4770146],[38.5657463,40.469002],[38.553708,40.4690116],[38.5463922,40.4744701],[38.5387484,40.476063],[38.5303426,40.4812694],[38.5199545,40.491218],[38.5170567,40.4990829],[38.5062745,40.5007841],[38.4912178,40.499689],[38.4772108,40.4956566],[38.4713743,40.4910875],[38.450612,40.4818908],[38.439872,40.4848034],[38.4168875,40.4753925],[38.4097431,40.4681459],[38.4087225,40.4606396],[38.3991966,40.4539092],[38.3852479,40.4531326],[38.3774231,40.4588276],[38.3539486,40.4619339],[38.3399999,40.4681459],[38.3263915,40.4684047],[38.3141439,40.47591],[38.2947519,40.4761688],[38.2536943,40.4814024],[38.2305069,40.4896448],[38.2127611,40.4929881],[38.2176588,40.4951344],[38.211595,40.4990686],[38.2005427,40.4952614],[38.1922901,40.4978948],[38.1883047,40.4918708],[38.1739692,40.4885281],[38.1758895,40.4782472],[38.170808,40.4624068],[38.1726835,40.453348],[38.1700298,40.4461476],[38.1721477,40.4339134],[38.1689215,40.4218643],[38.1637142,40.4181573],[38.1594705,40.4080574]]]}},{"type":"Feature","properties":{"code":"28-14","provinceCode":"28","name":"Tirebolu"},"geometry":{"type":"Polygon","coordinates":[[[38.9435927,40.8500443],[38.9452413,40.8548247],[38.9567821,40.8589813],[38.9584308,40.8645922],[38.9551334,40.8691638],[38.9540343,40.8818378],[38.9559578,40.8895241],[38.9551334,40.894094],[38.9510117,40.8963788],[38.9380971,40.8955479],[38.9287545,40.9021943],[38.9353492,40.9086322],[38.9353492,40.9134084],[38.9320519,40.9212987],[38.9337006,40.9250359],[38.9430431,40.92815],[38.9474396,40.932302],[38.9633769,40.9320944],[38.9633769,40.937284],[38.9592552,40.941643],[38.9603543,40.9495299],[38.9477144,40.9634335],[38.9402953,40.9686207],[38.9400205,40.9756746],[38.9421605,40.9821733],[38.9409983,40.9879685],[38.9450041,40.9956699],[38.9403087,40.9976258],[38.938511,41.0028232],[38.9377662,41.0095047],[38.9430064,41.0148917],[38.937584,41.0192101],[38.9319914,41.033728],[38.9378026,41.0357547],[38.9337321,41.0415208],[38.9344926,41.0435628],[38.9262647,41.0397556],[38.9207149,41.0389184],[38.9218513,41.0403868],[38.919693,41.0399948],[38.9018895,41.0281534],[38.8998545,41.0281335],[38.9005769,41.0273294],[38.8987974,41.0276218],[38.8984538,41.0256812],[38.8931947,41.0234814],[38.8939699,41.0227038],[38.8903493,41.0201649],[38.8892746,41.020783],[38.8876801,41.0186429],[38.883531,41.0177855],[38.8791175,41.0141098],[38.8754088,41.0138771],[38.8714478,41.0111668],[38.8599397,41.0121489],[38.8475803,41.0109989],[38.8331508,41.0055213],[38.8270459,41.0059733],[38.8255308,41.0043114],[38.8229937,41.0047568],[38.8218573,41.0077682],[38.8178667,41.0069107],[38.8161313,41.007961],[38.8174262,41.0078945],[38.8174615,41.0110853],[38.824967,41.0110255],[38.8172148,41.0114044],[38.8127133,41.0095232],[38.8119733,41.0071766],[38.8034397,41.0008331],[38.7964319,40.9996534],[38.7925504,41.0011579],[38.7939818,40.9990437],[38.7913034,40.9949476],[38.7840672,40.9920776],[38.7816259,40.9926874],[38.7597419,40.9763265],[38.731737,40.9600279],[38.7415303,40.9505832],[38.7421731,40.9476776],[38.7609588,40.9445246],[38.7686008,40.9379823],[38.7736954,40.9306695],[38.7411848,40.9283639],[38.7394916,40.9254519],[38.7404339,40.9225048],[38.7460386,40.9206001],[38.748091,40.915017],[38.7518134,40.9141726],[38.767913,40.914956],[38.7785692,40.9185341],[38.7847711,40.9223469],[38.8027416,40.9246602],[38.8060233,40.921199],[38.8096817,40.9123047],[38.822701,40.9074278],[38.8329738,40.9083689],[38.8379545,40.9038987],[38.8340411,40.895796],[38.8460514,40.8840076],[38.8472463,40.8781651],[38.8447899,40.8536993],[38.8427381,40.8482881],[38.8452017,40.8412001],[38.8397147,40.8375757],[38.8440743,40.8274561],[38.8427833,40.8160369],[38.8454078,40.8147934],[38.846494,40.8109195],[38.843539,40.8073158],[38.8474823,40.8060513],[38.8466206,40.8025677],[38.8490384,40.8002808],[38.8471898,40.7962592],[38.861733,40.7938404],[38.8727268,40.7944591],[38.8805398,40.7911903],[38.8823166,40.8061733],[38.9045738,40.8469265],[38.9086955,40.8483815],[38.933151,40.8471343],[38.9435927,40.8500443]]]}},{"type":"Feature","properties":{"code":"28-15","provinceCode":"28","name":"Yağlıdere"},"geometry":{"type":"Polygon","coordinates":[[[38.5170567,40.4990829],[38.5344828,40.509211],[38.5339209,40.5114212],[38.5427876,40.5179355],[38.546147,40.5260156],[38.5493535,40.526999],[38.549212,40.5326272],[38.5419433,40.5433779],[38.5583656,40.5440492],[38.5751474,40.5354042],[38.5867741,40.5380966],[38.591194,40.55007],[38.6023204,40.5581739],[38.6083601,40.556461],[38.6125198,40.5603261],[38.6253627,40.5615114],[38.6343062,40.5543985],[38.633222,40.5494565],[38.6604746,40.5500036],[38.6653313,40.537127],[38.6833082,40.533525],[38.6795138,40.5507221],[38.6962276,40.5576386],[38.6941051,40.5659811],[38.6958217,40.5715882],[38.6947059,40.58241],[38.6967658,40.5886675],[38.6928176,40.5943379],[38.6974525,40.6065244],[38.6971091,40.6101734],[38.6948775,40.6121281],[38.6896419,40.6253537],[38.6927318,40.6267868],[38.6930751,40.6308907],[38.6984824,40.6331705],[38.6962508,40.6387069],[38.7031173,40.641768],[38.7045764,40.6442428],[38.7014865,40.6465222],[38.7040614,40.6484758],[38.7044906,40.6519923],[38.7014007,40.6525132],[38.6975383,40.6582433],[38.7014007,40.6626708],[38.7015723,40.6660563],[38.6899852,40.667749],[38.686037,40.6713947],[38.6899852,40.6800523],[38.6944635,40.6829476],[38.6853281,40.6953416],[38.6825398,40.7149154],[38.6990837,40.7214741],[38.7036928,40.7313104],[38.7167452,40.7388472],[38.7211495,40.7399509],[38.7261199,40.7490777],[38.7268763,40.7562948],[38.7223493,40.7629047],[38.7291422,40.78091],[38.7266169,40.7898142],[38.7222575,40.7922391],[38.7199154,40.7995257],[38.706808,40.8045194],[38.7088679,40.8103663],[38.7059497,40.8117955],[38.7043757,40.8149659],[38.6922417,40.8187176],[38.6849884,40.8230746],[38.6849884,40.8356674],[38.6773464,40.8537813],[38.661553,40.8627722],[38.6368438,40.8824196],[38.6327681,40.8861429],[38.6331482,40.8913271],[38.6297622,40.8952966],[38.6231877,40.8988959],[38.6103089,40.8873082],[38.5925367,40.8767767],[38.5889342,40.8724183],[38.588015,40.8655319],[38.5857166,40.8635764],[38.5931865,40.8568404],[38.5983566,40.8489141],[38.5985408,40.839903],[38.5966342,40.8348892],[38.5991779,40.8297895],[38.5976222,40.8229779],[38.593037,40.8180944],[38.5906595,40.8105113],[38.5854292,40.8067332],[38.5836359,40.8031667],[38.5700584,40.7971639],[38.576262,40.7839359],[38.5995355,40.7697428],[38.5940742,40.7479747],[38.5976512,40.7402044],[38.5931779,40.7341844],[38.5974214,40.7208774],[38.5970808,40.7100194],[38.57653,40.70193],[38.5703522,40.6936404],[38.5769788,40.6822907],[38.5682163,40.6711513],[38.5703232,40.665814],[38.5613329,40.6564569],[38.5517119,40.6495178],[38.559536,40.6407463],[38.5534285,40.6393583],[38.5517119,40.6368833],[38.546047,40.6342779],[38.547077,40.6268521],[38.5534285,40.6260703],[38.559265,40.6288063],[38.5671614,40.6272429],[38.5669897,40.6229434],[38.5716246,40.625028],[38.5762594,40.623204],[38.5709379,40.6185133],[38.5723112,40.6169496],[38.5676888,40.6057897],[38.5651604,40.6035644],[38.5628592,40.6035528],[38.5636248,40.6016036],[38.5616704,40.6000667],[38.5636946,40.5991657],[38.5639738,40.5966748],[38.5616006,40.5951378],[38.563206,40.5900495],[38.5616006,40.5841657],[38.5636946,40.5816212],[38.560065,40.5788645],[38.5606932,40.5761078],[38.5588086,40.5759487],[38.5588086,40.5721315],[38.5549078,40.5702937],[38.5550263,40.5673023],[38.5509532,40.5659593],[38.5486369,40.5590923],[38.5460382,40.5580192],[38.5468291,40.5561736],[38.5431569,40.555358],[38.5417196,40.5527416],[38.537451,40.5505504],[38.5377334,40.5479319],[38.528699,40.5445679],[38.5191961,40.5520698],[38.5140786,40.5516242],[38.502567,40.5437262],[38.4988585,40.5391066],[38.5081716,40.5236436],[38.4976385,40.5057075],[38.4912178,40.499689],[38.5062745,40.5007841],[38.5170567,40.4990829]]]}}]}