{"type":"FeatureCollection","features":[{"type":"Feature","properties":{"code":"70-01","provinceCode":"70","name":"Ayrancı"},"geometry":{"type":"Polygon","coordinates":[[[34.2575456,37.1786063],[34.2591903,37.2467141],[34.2122139,37.2923025],[34.1724195,37.3335982],[34.1239222,37.3523256],[34.0636469,37.3490211],[34.0296987,37.353427],[33.9992146,37.3870139],[34.0176357,37.4226186],[34.0176815,37.4275077],[34.0089916,37.4218678],[33.9999824,37.4189508],[33.9906698,37.4189866],[33.9663282,37.4270858],[33.9490525,37.4295614],[33.9503482,37.4217797],[33.9495548,37.4183936],[33.946761,37.4166426],[33.9469467,37.402981],[33.9422291,37.3995513],[33.9342788,37.4005016],[33.9341182,37.4116532],[33.9244262,37.4171732],[33.9045759,37.436866],[33.9055449,37.4474268],[33.8882804,37.4538161],[33.8859333,37.4561948],[33.8862592,37.4577072],[33.8972254,37.4578686],[33.911712,37.4607604],[33.9104739,37.4649457],[33.9078011,37.4636964],[33.9045552,37.4667846],[33.9039725,37.4656639],[33.8960407,37.4649205],[33.8900889,37.4661164],[33.8854995,37.4651685],[33.8831249,37.468146],[33.8796247,37.4663088],[33.8421411,37.4731013],[33.8258004,37.4738017],[33.8229702,37.4762303],[33.8206145,37.4738236],[33.8141479,37.4732158],[33.8014264,37.4752958],[33.8022805,37.4738277],[33.7913517,37.4770829],[33.7842087,37.4817935],[33.7705029,37.4858438],[33.7583162,37.4877322],[33.7521854,37.4873161],[33.7495743,37.4903378],[33.7527862,37.5436367],[33.7586193,37.5617333],[33.6992901,37.545111],[33.6695818,37.5430644],[33.6260414,37.5291151],[33.5751501,37.5153067],[33.5349497,37.5006687],[33.5260797,37.4697729],[33.5251855,37.4364103],[33.532786,37.3973501],[33.5350214,37.3699958],[33.5314447,37.3383661],[33.5363627,37.3177463],[33.5551404,37.2974765],[33.5846481,37.2739994],[33.6137088,37.2583439],[33.6619943,37.2380582],[33.69642,37.218835],[33.7049147,37.206729],[33.7071501,37.1914157],[33.7008909,37.1739619],[33.6847958,37.1486645],[33.6798778,37.1269234],[33.7089385,37.0716515],[33.7280426,37.0283283],[33.7413785,37.0247114],[33.7522126,37.0244373],[33.7599946,37.0269314],[33.7722165,37.0363843],[33.7974925,37.0472103],[33.8147125,37.0511014],[33.8408275,37.0513844],[33.8541565,37.0527723],[33.8666535,37.0561063],[33.8922196,37.0669323],[33.9041595,37.0758283],[33.9224925,37.0938793],[33.9477766,37.1099934],[33.9822156,37.1230543],[34.0027696,37.1288753],[34.0355526,37.1327664],[34.0630415,37.1316523],[34.1325381,37.1074786],[34.1719185,37.1210758],[34.2135481,37.149051],[34.2575456,37.1786063]]]}},{"type":"Feature","properties":{"code":"70-02","provinceCode":"70","name":"Başyayla"},"geometry":{"type":"Polygon","coordinates":[[[32.7528815,36.8161752],[32.7402304,36.8275284],[32.6936866,36.8466082],[32.6747663,36.8463054],[32.6475212,36.8423686],[32.6292851,36.8474488],[32.6197917,36.8573707],[32.6042922,36.859696],[32.5971237,36.8569056],[32.5853054,36.8465185],[32.5998124,36.8260016],[32.6208892,36.8003858],[32.6297302,36.7716468],[32.6307808,36.7552093],[32.6359731,36.7489556],[32.6363059,36.742448],[32.6276521,36.7366867],[32.6265204,36.7282574],[32.6288503,36.7266034],[32.6361728,36.7255363],[32.6385026,36.723082],[32.6385692,36.7198805],[32.6337098,36.7147579],[32.6336432,36.7099551],[32.6291831,36.7054723],[32.6269198,36.6980003],[32.626121,36.6921823],[32.6283177,36.6801179],[32.6434219,36.6768143],[32.6600802,36.6776289],[32.688038,36.6690938],[32.6955375,36.6829318],[32.6997466,36.6851288],[32.7578154,36.6923731],[32.7762366,36.6992362],[32.7870289,36.711618],[32.7860985,36.7189268],[32.7663747,36.7292176],[32.7537218,36.7377176],[32.752893,36.746611],[32.7423713,36.7584419],[32.7423713,36.7667897],[32.751861,36.7931686],[32.7507446,36.8111964],[32.7528815,36.8161752]]]}},{"type":"Feature","properties":{"code":"70-03","provinceCode":"70","name":"Ermenek"},"geometry":{"type":"Polygon","coordinates":[[[33.2202018,36.528258],[33.2114146,36.5373823],[33.1939357,36.560532],[33.1810234,36.5700176],[33.1700007,36.575329],[33.1643147,36.5875688],[33.1457354,36.5961334],[33.1353818,36.6087567],[33.1281934,36.6119712],[33.1037654,36.6151791],[33.0771223,36.6142115],[33.0628326,36.6289024],[33.0416566,36.6710963],[33.0372086,36.6766583],[33.0399522,36.6916922],[33.0379861,36.7012878],[33.0140993,36.7033115],[33.0043846,36.7097339],[32.9972034,36.7307901],[32.9973226,36.7459733],[33.0123479,36.7646694],[33.005269,36.7800532],[33.0069055,36.7865052],[32.9842503,36.8060787],[32.9521822,36.8122626],[32.9118421,36.8148811],[32.8711386,36.815754],[32.817945,36.8139943],[32.7725431,36.8145902],[32.7528815,36.8161752],[32.7507446,36.8111964],[32.751861,36.7931686],[32.7423713,36.7667897],[32.7423713,36.7584419],[32.752893,36.746611],[32.7537218,36.7377176],[32.7663747,36.7292176],[32.7860985,36.7189268],[32.7870289,36.711618],[32.7762366,36.6992362],[32.7578154,36.6923731],[32.6997466,36.6851288],[32.6955375,36.6829318],[32.688038,36.6690938],[32.6869215,36.6583471],[32.7038542,36.6346096],[32.7057149,36.6268448],[32.7040403,36.5729175],[32.7018074,36.5685838],[32.6910151,36.5626058],[32.6854329,36.5570758],[32.6832001,36.5510969],[32.6837583,36.5446691],[32.688224,36.5394368],[32.6884101,36.5352507],[32.6777926,36.5180774],[32.6902697,36.5173159],[32.7095164,36.5120624],[32.7276736,36.5062247],[32.7520043,36.4945481],[32.7796368,36.4870623],[32.8606225,36.4897734],[32.8833258,36.4814847],[32.9401188,36.4519209],[32.9974976,36.4560544],[33.0124966,36.4610974],[33.0153487,36.4662631],[33.0142759,36.4782335],[33.0159624,36.4796622],[33.0171827,36.4919748],[33.024582,36.4963634],[33.0271702,36.5007018],[33.0348735,36.5028331],[33.0427128,36.5079195],[33.0539515,36.5193201],[33.0560735,36.5292776],[33.0646242,36.5388721],[33.071361,36.5558434],[33.0724998,36.5726063],[33.0823958,36.5742298],[33.0951812,36.5714511],[33.1101612,36.5768594],[33.1152695,36.5817616],[33.1257454,36.5827231],[33.1356602,36.5723862],[33.1410216,36.5629424],[33.1458366,36.5627564],[33.1527384,36.5533131],[33.1609612,36.5502888],[33.1671036,36.5419318],[33.1862946,36.5303774],[33.1941728,36.5284095],[33.1997215,36.5293161],[33.2025913,36.5263682],[33.206804,36.5254881],[33.2136406,36.5257441],[33.2202018,36.528258]]]}},{"type":"Feature","properties":{"code":"70-04","provinceCode":"70","name":"Güneysınır"},"geometry":{"type":"Polygon","coordinates":[[[32.7502615,37.0507556],[32.761877,37.0514169],[32.7759181,37.045642],[32.7784727,37.0586164],[32.8004678,37.074497],[32.7971167,37.1057072],[32.8067843,37.1357824],[32.779714,37.1590133],[32.7742184,37.1809091],[32.779256,37.2017041],[32.7955319,37.2272068],[32.8132504,37.2549599],[32.8095834,37.3121548],[32.8265346,37.328043],[32.8132684,37.337231],[32.8028782,37.3379431],[32.7985789,37.3415038],[32.7969666,37.3526119],[32.7876513,37.3608707],[32.7772612,37.3577382],[32.760422,37.3668507],[32.7489571,37.3706947],[32.7242357,37.361725],[32.7127708,37.3547479],[32.6794507,37.3436401],[32.6611784,37.3564566],[32.6561625,37.357311],[32.6520423,37.3546055],[32.65043,37.3460611],[32.6559833,37.3370885],[32.6558042,37.3302515],[32.6498926,37.3123015],[32.6352031,37.2870786],[32.6257087,37.2776714],[32.6099443,37.2711141],[32.6008082,37.2614196],[32.6002461,37.2487528],[32.6113333,37.207976],[32.6113333,37.1970423],[32.6065816,37.189472],[32.5865191,37.1671771],[32.5817674,37.1566584],[32.5822954,37.1448756],[32.5928546,37.127619],[32.5954944,37.1175158],[32.6021171,37.1130758],[32.6223613,37.1024355],[32.6446772,37.0932487],[32.6705925,37.0748719],[32.6667532,37.0643415],[32.6681929,37.0486389],[32.6740864,37.0378147],[32.6924007,37.0287312],[32.7015435,37.0285533],[32.7053708,37.0299794],[32.712073,37.0361254],[32.7306481,37.0383418],[32.7366904,37.043054],[32.746242,37.044814],[32.7502615,37.0507556]]]}},{"type":"Feature","properties":{"code":"70-05","provinceCode":"70","name":"Karaman merkez"},"geometry":{"type":"Polygon","coordinates":[[[32.9842503,36.8060787],[32.9956109,36.822136],[32.9766371,36.8286053],[32.9538686,36.8281959],[32.9477991,36.8305085],[32.9504324,36.8364139],[32.9579759,36.8455277],[32.9619784,36.8551017],[32.9745422,36.855447],[32.9903109,36.8626641],[33.0185708,36.8641985],[33.0331909,36.8622282],[33.0635397,36.8794142],[33.0962667,36.8812224],[33.0989236,36.8771609],[33.0988572,36.8732017],[33.1024173,36.8724712],[33.1039394,36.8687639],[33.1031754,36.8649903],[33.1100846,36.8646449],[33.1110797,36.8634213],[33.1091877,36.8586651],[33.1114133,36.8575489],[33.1107157,36.8560073],[33.1146686,36.8542531],[33.1147682,36.8498409],[33.123006,36.8477144],[33.1227403,36.8405242],[33.1278965,36.8421656],[33.1528338,36.8664649],[33.1512669,36.8838648],[33.1483599,36.8930897],[33.1722615,36.9183787],[33.1850249,36.9171594],[33.2003859,36.9216294],[33.2170653,36.9226582],[33.2886741,36.9102321],[33.3007312,36.9119012],[33.3137052,36.9159178],[33.3242254,36.9266417],[33.3398321,36.9273331],[33.3635699,36.9183507],[33.3710018,36.9258301],[33.3818415,36.9334053],[33.3986148,36.9326323],[33.4156055,36.9361618],[33.4423662,36.9304725],[33.4526274,36.9354601],[33.4666857,36.9353459],[33.4980954,36.9464645],[33.5144202,36.9399881],[33.527368,36.9518514],[33.5380292,36.952773],[33.5719375,37.0138784],[33.6333236,37.0416563],[33.6499935,37.0460964],[33.6655424,37.0463863],[33.7113876,37.0347134],[33.7280426,37.0283283],[33.7089385,37.0716515],[33.6798778,37.1269234],[33.6847958,37.1486645],[33.7008909,37.1739619],[33.7071501,37.1914157],[33.7049147,37.206729],[33.69642,37.218835],[33.6619943,37.2380582],[33.6137088,37.2583439],[33.5846481,37.2739994],[33.5551404,37.2974765],[33.5363627,37.3177463],[33.5314447,37.3383661],[33.5350214,37.3699958],[33.532786,37.3973501],[33.5251855,37.4364103],[33.5260797,37.4697729],[33.5349497,37.5006687],[33.4333156,37.4768947],[33.3323674,37.46191],[33.3126303,37.4728398],[33.286996,37.4953803],[33.2581976,37.5038494],[33.2108326,37.536518],[33.1843386,37.538354],[33.1643738,37.5352094],[33.1229647,37.5021559],[33.0146374,37.4640863],[32.9993334,37.4505836],[32.969902,37.4143414],[32.9231576,37.3927733],[32.9952871,37.3613844],[33.0214491,37.3463989],[33.0414553,37.3277392],[33.0668478,37.3194786],[33.075312,37.309381],[33.075312,37.299282],[33.0560752,37.2842841],[33.0510737,37.2714264],[33.0614615,37.2548918],[33.0397363,37.2300074],[33.004136,37.2248752],[32.9587372,37.1948468],[32.9260348,37.2064919],[32.893717,37.2120073],[32.8779429,37.2239562],[32.8279273,37.2227307],[32.7955319,37.2272068],[32.779256,37.2017041],[32.7742184,37.1809091],[32.779714,37.1590133],[32.8067843,37.1357824],[32.7971167,37.1057072],[32.8004678,37.074497],[32.7784727,37.0586164],[32.7759181,37.045642],[32.761877,37.0514169],[32.7502615,37.0507556],[32.764648,37.0398348],[32.7949786,37.005707],[32.8057631,36.9838383],[32.8113267,36.9783119],[32.8045022,36.9534014],[32.8006776,36.9142278],[32.804093,36.8917652],[32.791315,36.8750676],[32.7837469,36.8590226],[32.7829901,36.8344946],[32.7528815,36.8161752],[32.7725431,36.8145902],[32.817945,36.8139943],[32.8711386,36.815754],[32.9118421,36.8148811],[32.9521822,36.8122626],[32.9842503,36.8060787]]]}},{"type":"Feature","properties":{"code":"70-06","provinceCode":"70","name":"Kazımkarabekir"},"geometry":{"type":"Polygon","coordinates":[[[32.9231576,37.3927733],[32.8265346,37.328043],[32.8095834,37.3121548],[32.8132504,37.2549599],[32.7955319,37.2272068],[32.8279273,37.2227307],[32.8779429,37.2239562],[32.893717,37.2120073],[32.9260348,37.2064919],[32.9587372,37.1948468],[33.004136,37.2248752],[33.0397363,37.2300074],[33.0614615,37.2548918],[33.0510737,37.2714264],[33.0560752,37.2842841],[33.075312,37.299282],[33.075312,37.309381],[33.0668478,37.3194786],[33.0414553,37.3277392],[33.0214491,37.3463989],[32.9952871,37.3613844],[32.9231576,37.3927733]]]}},{"type":"Feature","properties":{"code":"70-07","provinceCode":"70","name":"Sarıveliler"},"geometry":{"type":"Polygon","coordinates":[[[32.688038,36.6690938],[32.6600802,36.6776289],[32.6434219,36.6768143],[32.6283177,36.6801179],[32.626121,36.6921823],[32.6269198,36.6980003],[32.6291831,36.7054723],[32.6336432,36.7099551],[32.6337098,36.7147579],[32.6385692,36.7198805],[32.6385026,36.723082],[32.6361728,36.7255363],[32.6288503,36.7266034],[32.6265204,36.7282574],[32.6276521,36.7366867],[32.6363059,36.742448],[32.6359731,36.7489556],[32.6307808,36.7552093],[32.6297302,36.7716468],[32.6208892,36.8003858],[32.5998124,36.8260016],[32.5853054,36.8465185],[32.5717433,36.8469837],[32.5283448,36.874576],[32.5126516,36.8677563],[32.5143953,36.8457433],[32.5109079,36.8308577],[32.5165265,36.8195365],[32.5444255,36.8044906],[32.5533377,36.797975],[32.5521753,36.7892866],[32.5341571,36.7709758],[32.5083893,36.7514187],[32.48669,36.7562308],[32.4697526,36.7531936],[32.4750503,36.7225657],[32.4991,36.6596],[32.4876,36.657],[32.4843,36.6524],[32.5188,36.6271],[32.5137,36.618],[32.5106,36.6004],[32.5037,36.5982],[32.4982,36.5915],[32.5013,36.5822],[32.5112914,36.5747326],[32.5135,36.5601],[32.5087,36.5473],[32.5103,36.5381],[32.5144,36.5347],[32.5161,36.5299],[32.5188,36.5284],[32.5388,36.5287],[32.5508,36.5227],[32.5585,36.5167],[32.5888215,36.5235495],[32.6264724,36.5201876],[32.6777926,36.5180774],[32.6884101,36.5352507],[32.688224,36.5394368],[32.6837583,36.5446691],[32.6832001,36.5510969],[32.6854329,36.5570758],[32.6910151,36.5626058],[32.7018074,36.5685838],[32.7040403,36.5729175],[32.7057149,36.6268448],[32.7038542,36.6346096],[32.6869215,36.6583471],[32.688038,36.6690938]]]}}]}