{"type":"FeatureCollection","features":[{"type":"Feature","properties":{"code":"15-01","provinceCode":"15","name":"Ağlasun"},"geometry":{"type":"Polygon","coordinates":[[[30.4847192,37.7012556],[30.4698815,37.6735445],[30.4675786,37.6630282],[30.4668701,37.6449367],[30.4691042,37.6321453],[30.4737542,37.6212723],[30.4885217,37.6008829],[30.5130018,37.5820311],[30.535627,37.5679029],[30.5552273,37.5568051],[30.5710549,37.551754],[30.5778638,37.5469188],[30.6750475,37.5455362],[30.7365557,37.5481889],[30.7799597,37.5524086],[30.773914,37.5608562],[30.7645651,37.58353],[30.7639371,37.6024416],[30.7537974,37.6380354],[30.7407277,37.6679647],[30.7346051,37.6737178],[30.723124,37.6755963],[30.7022114,37.671646],[30.6911746,37.671051],[30.6709353,37.6725688],[30.6492943,37.6715856],[30.6174638,37.6809629],[30.6004709,37.690926],[30.5895224,37.691642],[30.5840812,37.6958492],[30.5841646,37.7048403],[30.5719818,37.7068501],[30.5530403,37.7068501],[30.5381528,37.6945768],[30.5100205,37.6907069],[30.4978659,37.6938737],[30.4847192,37.7012556]]]}},{"type":"Feature","properties":{"code":"15-02","provinceCode":"15","name":"Bucak"},"geometry":{"type":"Polygon","coordinates":[[[30.7517889,37.23749],[30.7717091,37.2309026],[30.7979906,37.2322513],[30.8171607,37.2394922],[30.8242159,37.2403189],[30.8459484,37.2386949],[30.8513258,37.2545701],[30.8645309,37.2628334],[30.8790319,37.2777497],[30.8939269,37.2985957],[30.9031459,37.321742],[30.9137764,37.372441],[30.9131055,37.3898903],[30.9089329,37.3997623],[30.9042468,37.4030967],[30.8942572,37.4044526],[30.8743689,37.4142085],[30.8627776,37.4333263],[30.8391036,37.4318003],[30.8347205,37.4591604],[30.8208274,37.4752653],[30.8194425,37.4785993],[30.822324,37.4863588],[30.8126427,37.500884],[30.8062324,37.5160337],[30.8004645,37.5230294],[30.7881711,37.5387771],[30.7799597,37.5524086],[30.7365557,37.5481889],[30.6750475,37.5455362],[30.5778638,37.5469188],[30.5764916,37.5288619],[30.5623159,37.5173981],[30.5526848,37.5178764],[30.5384538,37.5129729],[30.5249712,37.5118445],[30.5168176,37.5057726],[30.505156,37.4933199],[30.4858183,37.4818504],[30.4499361,37.4785468],[30.4293901,37.481296],[30.3976014,37.4687473],[30.3677766,37.4780023],[30.3565523,37.4681217],[30.3312001,37.4700521],[30.3237551,37.4670659],[30.3226249,37.4567489],[30.3270653,37.4469409],[30.3179808,37.4399739],[30.3171359,37.4336039],[30.3124077,37.4314955],[30.3050525,37.4133821],[30.2941832,37.4053225],[30.2875605,37.3895145],[30.2756803,37.3808894],[30.2711478,37.3719654],[30.257399,37.3727902],[30.2413656,37.375768],[30.2217518,37.357319],[30.2088457,37.3297868],[30.2002671,37.3184064],[30.2129622,37.3101428],[30.2481092,37.3095182],[30.2685332,37.3061246],[30.2830505,37.2999873],[30.2885067,37.3022389],[30.2981325,37.3011001],[30.3119043,37.306535],[30.3235535,37.3091087],[30.3345822,37.3094423],[30.3425448,37.3067585],[30.3548079,37.3058706],[30.3631329,37.3018877],[30.3710365,37.2912188],[30.4144282,37.2822844],[30.4229273,37.2560269],[30.4160271,37.2402232],[30.4269549,37.235923],[30.4409359,37.2354457],[30.4606199,37.2452523],[30.4785343,37.2456746],[30.5035999,37.2405603],[30.514419,37.2360109],[30.5359892,37.2340736],[30.5435271,37.2366277],[30.5637025,37.2367042],[30.5763748,37.243326],[30.5996621,37.2423692],[30.6072324,37.2459261],[30.6739527,37.2510908],[30.7150207,37.2457478],[30.7297369,37.242139],[30.7420508,37.2443768],[30.7517889,37.23749]]]}},{"type":"Feature","properties":{"code":"15-03","provinceCode":"15","name":"Burdur (merkez)"},"geometry":{"type":"Polygon","coordinates":[[[29.9753549,37.4560215],[30.0590537,37.4688518],[30.1073243,37.4800984],[30.1223813,37.4792198],[30.1372167,37.4734209],[30.1540451,37.457955],[30.1655869,37.4381346],[30.177696,37.4018642],[30.2088457,37.3297868],[30.2217518,37.357319],[30.2413656,37.375768],[30.257399,37.3727902],[30.2711478,37.3719654],[30.2756803,37.3808894],[30.2875605,37.3895145],[30.2941832,37.4053225],[30.3050525,37.4133821],[30.3124077,37.4314955],[30.3171359,37.4336039],[30.3179808,37.4399739],[30.3270653,37.4469409],[30.3226249,37.4567489],[30.3237551,37.4670659],[30.3312001,37.4700521],[30.3565523,37.4681217],[30.3677766,37.4780023],[30.3637113,37.4926687],[30.3663069,37.5019445],[30.3485019,37.52281],[30.3497858,37.5324547],[30.3555058,37.5424665],[30.3628945,37.5509031],[30.3748515,37.5602066],[30.3936726,37.5700354],[30.3986477,37.5846973],[30.411239,37.5871895],[30.4310404,37.58319],[30.4602331,37.5857729],[30.4648944,37.589949],[30.4885217,37.6008829],[30.4737542,37.6212723],[30.4691042,37.6321453],[30.4668701,37.6449367],[30.4675786,37.6630282],[30.4698815,37.6735445],[30.4847192,37.7012556],[30.4412756,37.7326678],[30.4397725,37.7551784],[30.4469892,37.7724229],[30.4407744,37.7944041],[30.433758,37.8070744],[30.4228961,37.8200609],[30.4037177,37.8317053],[30.3865032,37.8392616],[30.3808122,37.8453698],[30.3731979,37.8461631],[30.3386979,37.8366214],[30.3266356,37.8363241],[30.3197421,37.828735],[30.3176468,37.819514],[30.3240614,37.8102183],[30.3002844,37.7996667],[30.2579471,37.7888009],[30.2192405,37.7875486],[30.1927169,37.7841595],[30.152799,37.7957238],[30.0925532,37.7992402],[30.0478943,37.790497],[30.0370711,37.8010456],[30.0256915,37.8074119],[29.9939163,37.8069305],[29.9744246,37.7970431],[29.9751037,37.7627966],[29.9798864,37.7158688],[29.9720923,37.6896603],[29.9710294,37.6778845],[29.9733322,37.6484368],[29.9729005,37.5915771],[29.9642844,37.5676421],[29.9711478,37.5435047],[29.9695979,37.5275265],[29.9808185,37.5017686],[29.9742478,37.4806255],[29.9753549,37.4560215]]]}},{"type":"Feature","properties":{"code":"15-04","provinceCode":"15","name":"Çavdır"},"geometry":{"type":"Polygon","coordinates":[[[29.7308239,36.9588651],[29.7465255,36.9635086],[29.7585433,36.9633571],[29.7735565,36.9703611],[29.7795791,36.976023],[29.7943803,36.981717],[29.8006158,36.9855894],[29.834292,37.0122776],[29.8426371,37.0170044],[29.8656272,37.0245529],[29.8730429,37.0309236],[29.876077,37.0368421],[29.8809946,37.0389524],[29.8813598,37.0438724],[29.8780564,37.0500917],[29.8716089,37.0549117],[29.8427164,37.0676138],[29.8285526,37.0776181],[29.8161606,37.0898131],[29.8123012,37.0990004],[29.8118135,37.1069409],[29.8286477,37.1230736],[29.8180162,37.1354175],[29.8038388,37.1474724],[29.7771382,37.1640447],[29.7676866,37.1676223],[29.7492561,37.1701831],[29.7227917,37.1686768],[29.7103156,37.1712375],[29.6914125,37.1790696],[29.6709971,37.1948821],[29.6602223,37.2058736],[29.6492585,37.2234868],[29.6473682,37.2313135],[29.6348921,37.247416],[29.6152329,37.2609575],[29.5938723,37.2704351],[29.5896511,37.2542244],[29.591924,37.2268086],[29.5991577,37.1918578],[29.6118552,37.1503627],[29.6332765,37.1293092],[29.646056,37.1137361],[29.6567859,37.0946979],[29.6435242,37.0672861],[29.6394251,37.0540094],[29.6347232,37.0221552],[29.5985609,37.0051048],[29.6027335,36.9689164],[29.6490829,36.980469],[29.6748193,36.9780087],[29.7308239,36.9588651]]]}},{"type":"Feature","properties":{"code":"15-05","provinceCode":"15","name":"Çeltikçi"},"geometry":{"type":"Polygon","coordinates":[[[30.3677766,37.4780023],[30.3976014,37.4687473],[30.4293901,37.481296],[30.4499361,37.4785468],[30.4858183,37.4818504],[30.505156,37.4933199],[30.5168176,37.5057726],[30.5249712,37.5118445],[30.5384538,37.5129729],[30.5526848,37.5178764],[30.5623159,37.5173981],[30.5764916,37.5288619],[30.5778638,37.5469188],[30.5710549,37.551754],[30.5552273,37.5568051],[30.535627,37.5679029],[30.5130018,37.5820311],[30.4885217,37.6008829],[30.4648944,37.589949],[30.4602331,37.5857729],[30.4310404,37.58319],[30.411239,37.5871895],[30.3986477,37.5846973],[30.3936726,37.5700354],[30.3748515,37.5602066],[30.3628945,37.5509031],[30.3555058,37.5424665],[30.3497858,37.5324547],[30.3485019,37.52281],[30.3663069,37.5019445],[30.3637113,37.4926687],[30.3677766,37.4780023]]]}},{"type":"Feature","properties":{"code":"15-06","provinceCode":"15","name":"Gölhisar"},"geometry":{"type":"Polygon","coordinates":[[[29.3653322,36.846254],[29.3789676,36.8567015],[29.4057078,36.8890412],[29.4370801,36.9447613],[29.4478183,36.9711762],[29.4593987,36.9831188],[29.514353,37.0270043],[29.5324606,37.0458286],[29.5493048,37.0670004],[29.5575163,37.0723764],[29.572584,37.0712005],[29.5811377,37.0675254],[29.5906784,37.0601748],[29.5978793,37.0471133],[29.5912964,37.0303926],[29.5985609,37.0051048],[29.6347232,37.0221552],[29.6394251,37.0540094],[29.6435242,37.0672861],[29.6567859,37.0946979],[29.646056,37.1137361],[29.6332765,37.1293092],[29.6118552,37.1503627],[29.5991577,37.1918578],[29.591924,37.2268086],[29.5896511,37.2542244],[29.5938723,37.2704351],[29.5713776,37.2750982],[29.5560867,37.2876043],[29.5410564,37.2884664],[29.5241745,37.2931317],[29.5112177,37.2760049],[29.5022215,37.2557433],[29.4970001,37.2541382],[29.4820365,37.2408886],[29.4746711,37.2296499],[29.4699616,37.217828],[29.4617386,37.2060042],[29.4525336,37.2042021],[29.4460415,37.1997929],[29.438476,37.1878923],[29.442241,37.1829193],[29.4441264,37.1767524],[29.4461111,37.1761989],[29.4466073,37.1687663],[29.4514697,37.1672638],[29.4513704,37.1629145],[29.4458134,37.1561133],[29.4461111,37.1439328],[29.4434318,37.1334117],[29.4475004,37.1239969],[29.4380733,37.1218606],[29.4400579,37.1084084],[29.431127,37.0992279],[29.4319208,37.0918669],[29.4412487,37.0907587],[29.4415464,37.0831593],[29.4398594,37.0706504],[29.4318216,37.0615445],[29.432417,37.0562388],[29.4295393,37.0397651],[29.425173,37.0384185],[29.4206083,37.0400819],[29.4133643,37.0463392],[29.4046319,37.0499032],[29.3992733,37.0573475],[29.4013572,37.0653454],[29.3952978,37.0639201],[29.3826999,37.0665492],[29.3813432,37.0619095],[29.3712649,37.0510825],[29.370102,37.0455137],[29.3735907,37.040254],[29.3681639,37.0332919],[29.3658381,37.0240082],[29.3662258,37.0127116],[29.3788236,36.9990914],[29.3790175,36.9944476],[29.3726216,36.9887199],[29.3803742,36.9862429],[29.3859947,36.9863977],[29.3914215,36.9817531],[29.3788236,36.9662692],[29.358622,36.9566562],[29.3500357,36.9456037],[29.3506416,36.937246],[29.3451584,36.9261416],[29.3398222,36.9046065],[29.3284376,36.889854],[29.3256968,36.8836149],[29.3269618,36.8728217],[29.3359219,36.8620271],[29.3451983,36.8555326],[29.3653322,36.846254]]]}},{"type":"Feature","properties":{"code":"15-07","provinceCode":"15","name":"Karamanlı"},"geometry":{"type":"Polygon","coordinates":[[[29.6229416,37.4255471],[29.6231387,37.4116898],[29.62033,37.4042531],[29.624309,37.3996048],[29.6254793,37.3903073],[29.6232323,37.3834636],[29.6236068,37.3684351],[29.6204237,37.3635241],[29.6206109,37.3538501],[29.6182018,37.3449679],[29.7668048,37.3684298],[29.7726892,37.3594862],[29.790749,37.3407982],[29.8054681,37.3305379],[29.8169611,37.3238038],[29.8647479,37.3013526],[29.9044693,37.2777716],[29.9107199,37.2753649],[29.9298948,37.2735806],[29.9615366,37.2779261],[29.9705312,37.2808656],[29.9824169,37.2965833],[29.9946239,37.3241773],[29.9971637,37.3395189],[29.9959089,37.3532853],[30.002545,37.388388],[29.9932618,37.4197725],[29.979562,37.4414311],[29.9753549,37.4560215],[29.9434697,37.4551427],[29.9270842,37.4528576],[29.9140201,37.4500451],[29.9005132,37.4451229],[29.8796034,37.4407714],[29.7904878,37.4289329],[29.7478614,37.4324308],[29.7272597,37.4311393],[29.7164167,37.4283409],[29.6744002,37.423605],[29.6502746,37.4231744],[29.6229416,37.4255471]]]}},{"type":"Feature","properties":{"code":"15-08","provinceCode":"15","name":"Kemer"},"geometry":{"type":"Polygon","coordinates":[[[30.0187747,37.235714],[30.048404,37.2405566],[30.0673355,37.2453316],[30.0772772,37.2565546],[30.0933748,37.2636466],[30.1048847,37.2893133],[30.1149064,37.2999162],[30.1454095,37.3171015],[30.1722487,37.3195097],[30.2002671,37.3184064],[30.2088457,37.3297868],[30.177696,37.4018642],[30.1655869,37.4381346],[30.1540451,37.457955],[30.1372167,37.4734209],[30.1223813,37.4792198],[30.1073243,37.4800984],[30.0590537,37.4688518],[29.9753549,37.4560215],[29.979562,37.4414311],[29.9932618,37.4197725],[30.002545,37.388388],[29.9959089,37.3532853],[29.9971637,37.3395189],[29.9946239,37.3241773],[29.9824169,37.2965833],[29.9705312,37.2808656],[29.9806781,37.2690628],[30.0083847,37.246691],[30.0187747,37.235714]]]}},{"type":"Feature","properties":{"code":"15-09","provinceCode":"15","name":"Tefenni"},"geometry":{"type":"Polygon","coordinates":[[[29.5560867,37.2876043],[29.5713776,37.2750982],[29.5938723,37.2704351],[29.6152329,37.2609575],[29.6348921,37.247416],[29.6473682,37.2313135],[29.6492585,37.2234868],[29.6602223,37.2058736],[29.6709971,37.1948821],[29.6914125,37.1790696],[29.7103156,37.1712375],[29.7227917,37.1686768],[29.7492561,37.1701831],[29.7676866,37.1676223],[29.7771382,37.1640447],[29.8038388,37.1474724],[29.8180162,37.1354175],[29.8286477,37.1230736],[29.8338178,37.1328513],[29.8400745,37.1691329],[29.8488722,37.185956],[29.8866146,37.2083506],[29.9173526,37.2194935],[29.955766,37.2158085],[29.9714414,37.2226855],[30.0187747,37.235714],[30.0083847,37.246691],[29.9806781,37.2690628],[29.9705312,37.2808656],[29.9615366,37.2779261],[29.9298948,37.2735806],[29.9107199,37.2753649],[29.9044693,37.2777716],[29.8647479,37.3013526],[29.8169611,37.3238038],[29.8054681,37.3305379],[29.790749,37.3407982],[29.7726892,37.3594862],[29.7668048,37.3684298],[29.6182018,37.3449679],[29.6157426,37.341793],[29.6009503,37.3315206],[29.593086,37.3301806],[29.5899233,37.3169906],[29.5889078,37.3006169],[29.5808548,37.2957361],[29.5806715,37.2921099],[29.5681638,37.287593],[29.5560867,37.2876043]]]}},{"type":"Feature","properties":{"code":"15-10","provinceCode":"15","name":"Yeşilova"},"geometry":{"type":"Polygon","coordinates":[[[29.5431398,37.6085873],[29.5364266,37.5999773],[29.5283656,37.5965552],[29.5208758,37.5953683],[29.5138354,37.5888401],[29.5064954,37.5858726],[29.5117383,37.582074],[29.5334586,37.572814],[29.5559279,37.5662839],[29.5655149,37.5698458],[29.5716565,37.5681836],[29.5703083,37.5614156],[29.586636,37.5407514],[29.5847408,37.5280371],[29.5785495,37.5256631],[29.563078,37.5240834],[29.5399748,37.5164304],[29.5413491,37.5117854],[29.500837,37.5052904],[29.5086505,37.4931282],[29.5157609,37.4867857],[29.5222676,37.484004],[29.5306737,37.4827364],[29.5369316,37.4782329],[29.5452925,37.4576809],[29.5528093,37.4474846],[29.5623226,37.4404107],[29.5697091,37.444362],[29.5795956,37.4453134],[29.585887,37.4490001],[29.5935266,37.4490001],[29.6016156,37.446027],[29.6082066,37.4480487],[29.619591,37.4418645],[29.6230363,37.4380585],[29.6229416,37.4255471],[29.6502746,37.4231744],[29.6744002,37.423605],[29.7164167,37.4283409],[29.7272597,37.4311393],[29.7478614,37.4324308],[29.7904878,37.4289329],[29.8796034,37.4407714],[29.9005132,37.4451229],[29.9140201,37.4500451],[29.9270842,37.4528576],[29.9434697,37.4551427],[29.9753549,37.4560215],[29.9742478,37.4806255],[29.9808185,37.5017686],[29.9695979,37.5275265],[29.9711478,37.5435047],[29.9642844,37.5676421],[29.9729005,37.5915771],[29.9733322,37.6484368],[29.9710294,37.6778845],[29.9720923,37.6896603],[29.9798864,37.7158688],[29.9751037,37.7627966],[29.9744246,37.7970431],[29.9528198,37.7937085],[29.9350846,37.7890306],[29.9206932,37.7877545],[29.8970523,37.7774879],[29.8965927,37.7727195],[29.8881766,37.7646411],[29.8737492,37.7567995],[29.8719457,37.7513336],[29.8662348,37.7491947],[29.8632291,37.7411138],[29.8566165,37.7384991],[29.8454953,37.7297038],[29.8373799,37.7061653],[29.8313684,37.6949879],[29.8202472,37.6854738],[29.8043169,37.685236],[29.7865831,37.6942744],[29.7733579,37.6959392],[29.7643407,37.6940365],[29.7601327,37.7071165],[29.7475087,37.7144879],[29.7426995,37.7109212],[29.7306766,37.7094945],[29.7081336,37.7152012],[29.6946079,37.7171034],[29.7021222,37.7078299],[29.6864924,37.6861874],[29.6864924,37.6776238],[29.6795792,37.6671558],[29.6831861,37.6552586],[29.6937062,37.6469294],[29.7003187,37.6457395],[29.7249657,37.6297921],[29.7306766,37.6233646],[29.7267691,37.6188413],[29.7102376,37.6074125],[29.6940067,37.6102699],[29.684689,37.6102699],[29.6777758,37.61527],[29.6672558,37.6176508],[29.6519221,37.6280274],[29.6230659,37.6340914],[29.6144474,37.6210085],[29.6015089,37.6181591],[29.5835293,37.617585],[29.5729968,37.6096126],[29.5509956,37.6059042],[29.5431398,37.6085873]]]}}]}