{"type":"FeatureCollection","features":[{"type":"Feature","properties":{"code":"71-01","provinceCode":"71","name":"Balışeyh"},"geometry":{"type":"Polygon","coordinates":[[[33.8938127,40.0729053],[33.8590667,40.0859452],[33.810606,40.0928474],[33.7851579,40.100184],[33.7391046,40.0835891],[33.7240874,40.0810306],[33.7101254,40.0675611],[33.6522499,40.0500661],[33.6394006,40.0522554],[33.6281073,40.0572617],[33.6211821,40.0583658],[33.5996034,40.0197259],[33.5917408,39.9823353],[33.5936238,39.9764938],[33.6239338,39.9681134],[33.63481,39.9586925],[33.6398198,39.9401035],[33.6369324,39.9299595],[33.6265514,39.9139941],[33.628943,39.9013276],[33.6359935,39.8920827],[33.6494277,39.8795722],[33.6569575,39.8650338],[33.6873136,39.8307516],[33.6863343,39.8226297],[33.6760665,39.8154945],[33.673294,39.7970161],[33.6819392,39.7998865],[33.7094524,39.7979567],[33.7330352,39.7996018],[33.7546842,39.7933437],[33.7740978,39.7906787],[33.7821461,39.7869625],[33.7914964,39.786358],[33.799593,39.7875174],[33.8101485,39.7993154],[33.8273959,39.8002559],[33.835745,39.8030372],[33.8435995,39.8139717],[33.8527738,39.8187079],[33.8508216,39.8327421],[33.8431591,39.8456533],[33.8326664,39.8582501],[33.8459422,39.8799151],[33.8750897,39.902215],[33.8816875,39.9118298],[33.8910832,39.9316008],[33.8956082,39.9506994],[33.8985153,39.9763249],[33.901149,39.9829107],[33.902804,40.0030641],[33.8976492,40.0071451],[33.8836895,40.0105846],[33.879336,40.0181948],[33.8924747,40.0440477],[33.8942321,40.0524375],[33.8938127,40.0729053]]]}},{"type":"Feature","properties":{"code":"71-02","provinceCode":"71","name":"Çelebi"},"geometry":{"type":"Polygon","coordinates":[[[33.3937047,39.4564111],[33.3874511,39.4374526],[33.3883094,39.4340055],[33.39509,39.429829],[33.396635,39.4257848],[33.3953475,39.4231327],[33.3917426,39.4214089],[33.3890819,39.423199],[33.3872794,39.4221382],[33.3831596,39.4180936],[33.3827304,39.4131204],[33.3846187,39.4102026],[33.3984374,39.4019128],[33.4010982,39.3974027],[33.405733,39.3952139],[33.4094237,39.3955456],[33.4176635,39.3999231],[33.4215259,39.3999894],[33.4217834,39.3965405],[33.4477671,39.4307633],[33.4659701,39.4301457],[33.4867373,39.4264621],[33.5065754,39.4174912],[33.5155279,39.4180923],[33.5368959,39.4254627],[33.5591813,39.4361677],[33.5738753,39.4458736],[33.586475,39.4621792],[33.6054697,39.4732317],[33.5970826,39.4736654],[33.5423056,39.5153988],[33.530151,39.530232],[33.5223503,39.5338698],[33.508563,39.5449221],[33.4898775,39.5527556],[33.4369402,39.5539964],[33.4301548,39.5567442],[33.4235701,39.5633554],[33.418255,39.5615398],[33.413622,39.5621556],[33.4080652,39.5718002],[33.3982876,39.5727018],[33.3928181,39.5679691],[33.3933613,39.5637859],[33.3970521,39.5602789],[33.4113615,39.5565836],[33.4205697,39.5509481],[33.422406,39.5465723],[33.4204387,39.5411729],[33.4179929,39.5395461],[33.4162422,39.5394664],[33.4125853,39.5443464],[33.4090245,39.5456602],[33.402429,39.5443483],[33.3977976,39.536756],[33.3988591,39.5299398],[33.3953696,39.5243642],[33.3973096,39.5222861],[33.4104416,39.5177838],[33.4113759,39.5119638],[33.408793,39.5077067],[33.4047196,39.5087865],[33.3961073,39.5053633],[33.3910252,39.4995413],[33.3907209,39.4945511],[33.3938234,39.4911168],[33.3982537,39.4894392],[33.4070918,39.489673],[33.4120893,39.4879556],[33.4128785,39.4825466],[33.4161361,39.4800756],[33.4188531,39.4741363],[33.4177791,39.4717456],[33.4151623,39.4711548],[33.4091774,39.4731247],[33.3974941,39.4737748],[33.3901856,39.4775941],[33.389499,39.4700947],[33.3929322,39.4655228],[33.3937047,39.4564111]]]}},{"type":"Feature","properties":{"code":"71-03","provinceCode":"71","name":"Delice"},"geometry":{"type":"Polygon","coordinates":[[[33.8938127,40.0729053],[33.8942321,40.0524375],[33.8924747,40.0440477],[33.879336,40.0181948],[33.8836895,40.0105846],[33.8976492,40.0071451],[33.902804,40.0030641],[33.901149,39.9829107],[33.8985153,39.9763249],[33.8956082,39.9506994],[33.8910832,39.9316008],[33.8816875,39.9118298],[33.8750897,39.902215],[33.8459422,39.8799151],[33.8326664,39.8582501],[33.8431591,39.8456533],[33.8508216,39.8327421],[33.8527738,39.8187079],[33.8793513,39.7927],[33.8902398,39.7865717],[33.925019,39.7818912],[33.9538505,39.7709995],[33.9566435,39.7488701],[33.9671403,39.7393577],[33.9731386,39.7270185],[33.9769425,39.7238174],[33.9892541,39.7296175],[33.9984544,39.7421792],[34.0211734,39.7564708],[34.0264307,39.7618113],[34.0401372,39.7671514],[34.044145,39.7712774],[34.0553768,39.7735175],[34.0627407,39.7881246],[34.0950084,39.7898058],[34.1033638,39.7923468],[34.114437,39.7923777],[34.1108486,39.7975548],[34.1046584,39.7965321],[34.1033006,39.8030254],[34.0974892,39.8038157],[34.0972818,39.8069499],[34.0908275,39.8127744],[34.0606553,39.8351561],[34.0642019,39.8455367],[34.0707698,39.8458485],[34.0692619,39.8564844],[34.0641555,39.8585964],[34.0858546,39.8675334],[34.0945653,39.8763984],[34.0947723,39.8859776],[34.1004675,39.9016841],[34.0951588,39.908757],[34.1186787,39.9204013],[34.1668467,39.9378722],[34.184726,39.9512394],[34.1899889,39.9656668],[34.1970905,39.973033],[34.208147,39.9775884],[34.1976382,39.9856321],[34.1887869,39.9981585],[34.1761748,40.004257],[34.1645187,40.0130534],[34.1608109,40.0229615],[34.1429546,40.0427169],[34.1228101,40.051971],[34.1110449,40.0614286],[34.1042199,40.0629332],[34.1029365,40.0671496],[34.0901756,40.0706918],[34.088876,40.0736443],[34.0898741,40.0806169],[34.0800458,40.0890706],[34.0831484,40.098177],[34.0757464,40.115882],[34.0766878,40.1294484],[34.0810713,40.1456131],[34.071403,40.1617205],[34.0734626,40.1774383],[34.0683699,40.188696],[34.061618,40.1970729],[34.0517252,40.1983267],[34.0346846,40.1966621],[34.0085729,40.1909151],[33.9947305,40.1901148],[33.9648893,40.1765742],[33.9523596,40.1677168],[33.9280136,40.1465996],[33.9083886,40.1134761],[33.8938127,40.0729053]]]}},{"type":"Feature","properties":{"code":"71-04","provinceCode":"71","name":"Karakeçeli"},"geometry":{"type":"Polygon","coordinates":[[[33.4235701,39.5633554],[33.4302738,39.5742215],[33.4283133,39.5768552],[33.4313368,39.5843655],[33.4286446,39.5880883],[33.4293623,39.5895913],[33.4352315,39.5916025],[33.436848,39.5941953],[33.4327788,39.6096942],[33.4495506,39.6269473],[33.4283138,39.633054],[33.4163707,39.6267603],[33.4076175,39.6279398],[33.399267,39.6260667],[33.3804172,39.6303888],[33.3698735,39.6292609],[33.3417569,39.6222678],[33.3279646,39.6270211],[33.326683,39.6160696],[33.3234214,39.6135571],[33.3206748,39.606085],[33.3168124,39.6016543],[33.3180999,39.5940487],[33.3149242,39.5883605],[33.3206748,39.5812826],[33.3285712,39.5769165],[33.3278846,39.574204],[33.3192157,39.5767842],[33.3175849,39.5721531],[33.3193015,39.5710284],[33.3191299,39.5648089],[33.31501,39.5648089],[33.3131217,39.5625592],[33.3162974,39.561699],[33.3220481,39.5565375],[33.3199023,39.550383],[33.3244514,39.5469415],[33.3218764,39.5481328],[33.3145808,39.5465444],[33.3054828,39.5478019],[33.3014487,39.5500521],[33.2941531,39.5510448],[33.2902049,39.5538243],[33.28866,39.5530302],[33.2894324,39.55078],[33.2959556,39.5428379],[33.3053969,39.5423084],[33.3096885,39.5384032],[33.31501,39.5389989],[33.3171558,39.5333062],[33.3228206,39.5323132],[33.3150958,39.5225814],[33.3221339,39.5133117],[33.3283996,39.514636],[33.3365535,39.5113914],[33.3411025,39.5112589],[33.3450507,39.5080804],[33.3440208,39.5055639],[33.3416175,39.5047692],[33.3508872,39.4949673],[33.3541488,39.4872175],[33.3475398,39.481653],[33.3489131,39.4786056],[33.3453082,39.4668122],[33.3482265,39.4650232],[33.3477973,39.4633666],[33.3519172,39.4621738],[33.3515739,39.4656858],[33.3539771,39.4668785],[33.3667659,39.4646256],[33.3661651,39.4558784],[33.3937047,39.4564111],[33.3929322,39.4655228],[33.389499,39.4700947],[33.3901856,39.4775941],[33.3974941,39.4737748],[33.4091774,39.4731247],[33.4151623,39.4711548],[33.4177791,39.4717456],[33.4188531,39.4741363],[33.4161361,39.4800756],[33.4128785,39.4825466],[33.4120893,39.4879556],[33.4070918,39.489673],[33.3982537,39.4894392],[33.3938234,39.4911168],[33.3907209,39.4945511],[33.3910252,39.4995413],[33.3961073,39.5053633],[33.4047196,39.5087865],[33.408793,39.5077067],[33.4113759,39.5119638],[33.4104416,39.5177838],[33.3973096,39.5222861],[33.3953696,39.5243642],[33.3988591,39.5299398],[33.3977976,39.536756],[33.402429,39.5443483],[33.4090245,39.5456602],[33.4125853,39.5443464],[33.4162422,39.5394664],[33.4179929,39.5395461],[33.4204387,39.5411729],[33.422406,39.5465723],[33.4205697,39.5509481],[33.4113615,39.5565836],[33.3970521,39.5602789],[33.3933613,39.5637859],[33.3928181,39.5679691],[33.3982876,39.5727018],[33.4080652,39.5718002],[33.413622,39.5621556],[33.418255,39.5615398],[33.4235701,39.5633554]]]}},{"type":"Feature","properties":{"code":"71-05","provinceCode":"71","name":"Keskin"},"geometry":{"type":"Polygon","coordinates":[[[33.6054697,39.4732317],[33.6217577,39.4798842],[33.6465014,39.4849184],[33.6608453,39.4913576],[33.6661102,39.4946334],[33.6714607,39.5036317],[33.6796923,39.510512],[33.6875123,39.5114646],[33.7030151,39.4888103],[33.7242936,39.4687799],[33.7311421,39.4658653],[33.7452927,39.47128],[33.7563441,39.4781902],[33.7596992,39.4859126],[33.7747286,39.5067605],[33.7563539,39.5114274],[33.7349941,39.5121056],[33.7298956,39.513854],[33.7320751,39.5281782],[33.7361674,39.5274489],[33.7381497,39.5291371],[33.7431284,39.5276595],[33.7439597,39.5306584],[33.7455073,39.5293071],[33.7536645,39.5357189],[33.7596657,39.5347112],[33.7720669,39.5363682],[33.773046,39.5393293],[33.7816772,39.543342],[33.786825,39.5424527],[33.7889043,39.5465584],[33.7908452,39.5465584],[33.7944794,39.5505071],[33.8011559,39.5492803],[33.80691,39.55436],[33.8143693,39.5568115],[33.8140957,39.560314],[33.8265263,39.5621925],[33.8282195,39.565599],[33.8328035,39.5687825],[33.8458535,39.5716794],[33.8551363,39.5782139],[33.8430609,39.5892254],[33.841287,39.5958047],[33.8629991,39.6052898],[33.8820323,39.6307801],[33.9067131,39.6579464],[33.9124921,39.6606332],[33.920744,39.6619041],[33.9386962,39.6627474],[33.9538838,39.6714203],[33.9543916,39.673605],[33.9602992,39.6761937],[33.962493,39.681905],[33.9578617,39.7053661],[33.9623686,39.7122928],[33.9758784,39.7175482],[33.9769425,39.7238174],[33.9731386,39.7270185],[33.9671403,39.7393577],[33.9566435,39.7488701],[33.9538505,39.7709995],[33.925019,39.7818912],[33.8902398,39.7865717],[33.8793513,39.7927],[33.8527738,39.8187079],[33.8435995,39.8139717],[33.835745,39.8030372],[33.8273959,39.8002559],[33.8101485,39.7993154],[33.799593,39.7875174],[33.7914964,39.786358],[33.7821461,39.7869625],[33.7740978,39.7906787],[33.7546842,39.7933437],[33.7330352,39.7996018],[33.7094524,39.7979567],[33.6819392,39.7998865],[33.673294,39.7970161],[33.6607428,39.7899316],[33.6486266,39.7799704],[33.6358516,39.7806521],[33.6216299,39.7846581],[33.6177549,39.7827679],[33.6036138,39.7844962],[33.5977251,39.7832482],[33.59238,39.7793371],[33.5837861,39.7663481],[33.5715182,39.7575245],[33.5472287,39.748372],[33.5277274,39.7381697],[33.4955467,39.7279753],[33.4853084,39.7206921],[33.4809891,39.7079031],[33.4725734,39.7055328],[33.4678022,39.6923432],[33.4624652,39.6875935],[33.4501005,39.6820505],[33.4483743,39.669642],[33.4511229,39.6647603],[33.458862,39.6605521],[33.4703478,39.6595591],[33.4834306,39.6553978],[33.4896956,39.6476894],[33.4853347,39.6418721],[33.4801753,39.6399801],[33.4724508,39.6410279],[33.4622865,39.6339986],[33.456168,39.6341102],[33.4495506,39.6269473],[33.4327788,39.6096942],[33.436848,39.5941953],[33.4352315,39.5916025],[33.4293623,39.5895913],[33.4286446,39.5880883],[33.4313368,39.5843655],[33.4283133,39.5768552],[33.4302738,39.5742215],[33.4235701,39.5633554],[33.4301548,39.5567442],[33.4369402,39.5539964],[33.4898775,39.5527556],[33.508563,39.5449221],[33.5223503,39.5338698],[33.530151,39.530232],[33.5423056,39.5153988],[33.5970826,39.4736654],[33.6054697,39.4732317]]]}},{"type":"Feature","properties":{"code":"71-06","provinceCode":"71","name":"Sulakyurt"},"geometry":{"type":"Polygon","coordinates":[[[33.9947305,40.1901148],[33.9785261,40.2137558],[33.9726929,40.2395426],[33.9613163,40.2547991],[33.9481624,40.2684837],[33.9310777,40.2656042],[33.9159639,40.2715145],[33.8953831,40.2707531],[33.854258,40.2769542],[33.8288371,40.2761189],[33.8103923,40.2807443],[33.801358,40.3164353],[33.8018075,40.3349144],[33.794124,40.3332391],[33.7927701,40.3250683],[33.7878991,40.321195],[33.7834737,40.320797],[33.7808054,40.3229933],[33.7743622,40.3210373],[33.7609797,40.3208201],[33.7581476,40.3192397],[33.7447804,40.3256408],[33.7377125,40.32645],[33.7338972,40.3255117],[33.7318615,40.3224617],[33.7294244,40.3225009],[33.7302774,40.3259762],[33.7288067,40.3277613],[33.7261699,40.3275263],[33.7234634,40.3240042],[33.7125703,40.3250344],[33.7000735,40.3300189],[33.6969865,40.3336547],[33.6933866,40.3327638],[33.6905542,40.3277333],[33.6863735,40.3292623],[33.6836087,40.328738],[33.6817807,40.3312841],[33.6790648,40.3314241],[33.6736558,40.3285169],[33.6706612,40.3234194],[33.664199,40.3233062],[33.661709,40.3246946],[33.6589824,40.323184],[33.6468415,40.2955756],[33.6479472,40.2924896],[33.6444282,40.2876448],[33.6461448,40.2833235],[33.6440848,40.2795257],[33.6388492,40.2770374],[33.6290645,40.283389],[33.6265754,40.2794603],[33.6262321,40.2736323],[33.6209106,40.269572],[33.6183356,40.2643981],[33.618679,40.2619093],[33.6212539,40.2615163],[33.6169623,40.2588963],[33.61104,40.2579793],[33.6100959,40.2484155],[33.611555,40.2467122],[33.6132716,40.2477604],[33.6183356,40.2463191],[33.6183356,40.2419952],[33.6056327,40.2317738],[33.6046027,40.2284319],[33.6076926,40.2083113],[33.5952472,40.1958558],[33.5932731,40.1873979],[33.5931014,40.1780864],[33.6341285,40.1658878],[33.6367892,40.1605092],[33.6309527,40.1553926],[33.6321544,40.1357752],[33.61104,40.1312474],[33.6162757,40.1207468],[33.6179065,40.1204843],[33.6178207,40.1083409],[33.6143874,40.1051242],[33.6028861,40.1049929],[33.5961913,40.1009882],[33.5873508,40.1004629],[33.5922431,40.0945539],[33.5955905,40.0930437],[33.5959338,40.089695],[33.594818,40.0877907],[33.594303,40.089104],[33.5887241,40.087528],[33.5837679,40.0842829],[33.5886628,40.0825824],[33.5939624,40.0750907],[33.6211821,40.0583658],[33.6281073,40.0572617],[33.6394006,40.0522554],[33.6522499,40.0500661],[33.7101254,40.0675611],[33.7240874,40.0810306],[33.7391046,40.0835891],[33.7851579,40.100184],[33.810606,40.0928474],[33.8590667,40.0859452],[33.8938127,40.0729053],[33.9083886,40.1134761],[33.9280136,40.1465996],[33.9523596,40.1677168],[33.9648893,40.1765742],[33.9947305,40.1901148]]]}}]}