{"type":"FeatureCollection","features":[{"type":"Feature","properties":{"code":"25-01","provinceCode":"25","name":"Aşkale"},"geometry":{"type":"Polygon","coordinates":[[[40.3010958,40.0322798],[40.29955,40.0224459],[40.2976408,40.010299],[40.290805,40.0024449],[40.2753277,39.991388],[40.2586041,39.984378],[40.2460417,39.9603341],[40.2631245,39.9405289],[40.278858,39.9323052],[40.2911827,39.9254539],[40.2919821,39.9279195],[40.296528,39.9281295],[40.3043336,39.9315981],[40.3061092,39.9339198],[40.3258492,39.9307292],[40.3297273,39.9320881],[40.3411261,39.9315835],[40.3426105,39.9333836],[40.3566839,39.9296569],[40.3644374,39.9350292],[40.3677286,39.9329596],[40.3697059,39.9333037],[40.3794377,39.9227976],[40.3926394,39.9162125],[40.4057372,39.9153518],[40.4771944,39.9025883],[40.4962942,39.8901634],[40.5204944,39.8843508],[40.5196622,39.8824251],[40.5278084,39.8758871],[40.5341093,39.8520594],[40.5437067,39.848718],[40.5443985,39.8437254],[40.5697455,39.8496832],[40.568015,39.8382515],[40.5650923,39.8326593],[40.5591106,39.8300462],[40.5529764,39.8233597],[40.5579855,39.8220376],[40.5539159,39.8150198],[40.5550877,39.810605],[40.5521849,39.8089208],[40.5319869,39.807776],[40.5351116,39.8031894],[40.5360891,39.7977659],[40.5260653,39.7940227],[40.5292313,39.7905257],[40.5288356,39.7850518],[40.5405102,39.7759278],[40.5393682,39.7652222],[40.5531743,39.7435276],[40.5666018,39.7308753],[40.6195936,39.7029233],[40.6580481,39.679456],[40.6710818,39.6610731],[40.673787,39.6679561],[40.6769308,39.6693706],[40.6814088,39.667797],[40.6832952,39.671555],[40.6868603,39.6717684],[40.6936101,39.6759698],[40.6941259,39.6790237],[40.7010731,39.6829321],[40.7027459,39.6867732],[40.6965234,39.6896118],[40.6994182,39.7005355],[40.7057064,39.7088976],[40.7392988,39.7024391],[40.7263047,39.7110039],[40.7237552,39.7180597],[40.7341421,39.7207561],[40.7336092,39.7269716],[40.7547993,39.7314987],[40.7740621,39.7221686],[40.7733956,39.7066543],[40.7950103,39.7052587],[40.7976779,39.7073159],[40.7968781,39.7136742],[40.8247281,39.7067583],[40.8467767,39.7091822],[40.8574119,39.7078723],[40.8586376,39.7133018],[40.8535594,39.7192761],[40.856978,39.7258955],[40.861751,39.7265629],[40.8665678,39.7301952],[40.8656561,39.7344604],[40.8706648,39.7352928],[40.8743535,39.7391833],[40.8897045,39.7413306],[40.8867173,39.7450056],[40.8879121,39.7489102],[40.8845572,39.7542382],[40.8960293,39.7573692],[40.9004517,39.7562615],[40.9095769,39.762232],[40.9223623,39.7647943],[40.9285422,39.7699309],[40.9361738,39.7695047],[40.9381912,39.7773247],[40.9313387,39.7766781],[40.926306,39.7744551],[40.9155465,39.7745885],[40.9151416,39.7863692],[40.92405,39.7909475],[40.9060597,39.8122795],[40.8916961,39.8059755],[40.8826155,39.8055355],[40.8813066,39.8026446],[40.8728804,39.8054727],[40.8707534,39.8036501],[40.8673175,39.8041529],[40.8657631,39.8063525],[40.8624908,39.8069182],[40.8611819,39.8050956],[40.8578278,39.8062269],[40.8595457,39.8099975],[40.8543101,39.8284706],[40.856437,39.8314862],[40.8559462,39.8339362],[40.8601184,39.8352555],[40.859873,39.8394014],[40.8631453,39.8417883],[40.873453,39.8438611],[40.8840062,39.8397155],[40.9105937,39.8532822],[40.9107573,39.8588086],[40.9260553,39.8756363],[40.9402898,39.8810354],[40.9395536,39.8831698],[40.9271188,39.8917695],[40.9141932,39.8940918],[40.9049489,39.8980459],[40.8987316,39.9062044],[40.8941605,39.9091153],[40.8826181,39.9176195],[40.8835977,39.9189527],[40.8794344,39.9230847],[40.8816385,39.9253385],[40.8870263,39.9228969],[40.885312,39.9279677],[40.8931487,39.9292823],[40.897067,39.9328503],[40.8946181,39.9386714],[40.9022099,39.9396103],[40.9068629,39.9367937],[40.9105364,39.9379204],[40.9124955,39.9426145],[40.916169,39.9431778],[40.916169,39.9394225],[40.920822,39.9382959],[40.9100466,39.9595108],[40.9056384,39.9587599],[40.9118585,39.9851028],[40.8805116,39.976283],[40.8778178,39.9727172],[40.8667974,39.9710281],[40.8663076,39.9742186],[40.8614097,39.9732802],[40.8589607,39.976846],[40.8489199,39.976283],[40.8491648,39.9815375],[40.8447567,39.9856657],[40.856022,39.9911071],[40.8447567,39.9991745],[40.8476955,40.0023637],[40.8432873,40.0076162],[40.8386343,40.0068659],[40.8376547,40.0091168],[40.8403485,40.0117429],[40.8403485,40.0147439],[40.82492,40.0209331],[40.8214915,40.0259967],[40.8217364,40.0297472],[40.8295731,40.0295596],[40.8374098,40.0329349],[40.8476955,40.03406],[40.8457363,40.038935],[40.8469608,40.0462469],[40.8508791,40.0505587],[40.8518587,40.0546828],[40.8577362,40.0593689],[40.8570015,40.0644296],[40.8643645,40.0717695],[40.8646094,40.0813264],[40.860936,40.0830128],[40.8633849,40.0858234],[40.8692625,40.0884464],[40.8687727,40.0923809],[40.8734257,40.0994997],[40.8895889,40.1090528],[40.8827318,40.123099],[40.872691,40.1253461],[40.8665686,40.1227244],[40.8675482,40.1159826],[40.870487,40.1118622],[40.8658339,40.1075543],[40.856038,40.1058686],[40.8472217,40.1094274],[40.841834,40.1084909],[40.8290994,40.1032462],[40.8254259,40.0985631],[40.8141607,40.0955657],[40.8095076,40.0920062],[40.7997117,40.0906947],[40.7859975,40.0927556],[40.7806098,40.0959404],[40.7713037,40.094067],[40.7607731,40.0966897],[40.7495079,40.0901326],[40.7384875,40.0925682],[40.7343243,40.0950037],[40.7240386,40.0901326],[40.7193855,40.0779535],[40.7086101,40.0725191],[40.692202,40.0734561],[40.6836306,40.069708],[40.6770184,40.0601494],[40.665998,40.0552759],[40.6625695,40.0605243],[40.6581613,40.0627735],[40.6544879,40.0702702],[40.6434675,40.0668968],[40.6388145,40.0691458],[40.6299982,40.0687709],[40.62559,40.0738309],[40.6236308,40.0822633],[40.6253451,40.0884464],[40.623141,40.0936923],[40.6248553,40.0981884],[40.6302431,40.100811],[40.621998,40.1062284],[40.5933226,40.1049953],[40.5777666,40.0997084],[40.5702666,40.1008034],[40.5421284,40.095304],[40.519282,40.084935],[40.5074882,40.0755625],[40.5073735,40.0503945],[40.5029957,40.0486349],[40.4894172,40.0342305],[40.4766177,40.0290474],[40.45255,40.0250692],[40.4283978,40.0257747],[40.3971212,40.0322066],[40.3713008,40.044738],[40.3506979,40.0475902],[40.3007935,40.0387448],[40.3010958,40.0322798]]]}},{"type":"Feature","properties":{"code":"25-02","provinceCode":"25","name":"Aziziye"},"geometry":{"type":"Polygon","coordinates":[[[40.6936584,40.2268925],[40.6935024,40.2162946],[40.6966861,40.2134895],[40.689584,40.2080658],[40.6935024,40.2022677],[40.6893391,40.1981526],[40.6827269,40.1974043],[40.6773392,40.190857],[40.6717066,40.1916053],[40.6675433,40.1878637],[40.6748902,40.1781346],[40.6827269,40.1762634],[40.7042779,40.163164],[40.711135,40.1526826],[40.6942893,40.1472848],[40.6891625,40.1480643],[40.6693258,40.1409505],[40.6639381,40.1366445],[40.6636932,40.1293423],[40.657081,40.128406],[40.6493791,40.1235867],[40.6491342,40.11132],[40.6446036,40.1109454],[40.6392158,40.114223],[40.6360322,40.1137548],[40.6338281,40.1096343],[40.6301546,40.1084168],[40.6274608,40.1093533],[40.621998,40.1062284],[40.6302431,40.100811],[40.6248553,40.0981884],[40.623141,40.0936923],[40.6253451,40.0884464],[40.6236308,40.0822633],[40.62559,40.0738309],[40.6299982,40.0687709],[40.6388145,40.0691458],[40.6434675,40.0668968],[40.6544879,40.0702702],[40.6581613,40.0627735],[40.6625695,40.0605243],[40.665998,40.0552759],[40.6770184,40.0601494],[40.6836306,40.069708],[40.692202,40.0734561],[40.7086101,40.0725191],[40.7193855,40.0779535],[40.7240386,40.0901326],[40.7343243,40.0950037],[40.7384875,40.0925682],[40.7495079,40.0901326],[40.7607731,40.0966897],[40.7713037,40.094067],[40.7806098,40.0959404],[40.7859975,40.0927556],[40.7997117,40.0906947],[40.8095076,40.0920062],[40.8141607,40.0955657],[40.8254259,40.0985631],[40.8290994,40.1032462],[40.841834,40.1084909],[40.8472217,40.1094274],[40.856038,40.1058686],[40.8658339,40.1075543],[40.870487,40.1118622],[40.8675482,40.1159826],[40.8665686,40.1227244],[40.872691,40.1253461],[40.8827318,40.123099],[40.8895889,40.1090528],[40.8734257,40.0994997],[40.8687727,40.0923809],[40.8692625,40.0884464],[40.8633849,40.0858234],[40.860936,40.0830128],[40.8646094,40.0813264],[40.8643645,40.0717695],[40.8570015,40.0644296],[40.8577362,40.0593689],[40.8518587,40.0546828],[40.8508791,40.0505587],[40.8469608,40.0462469],[40.8457363,40.038935],[40.8476955,40.03406],[40.8374098,40.0329349],[40.8295731,40.0295596],[40.8217364,40.0297472],[40.8214915,40.0259967],[40.82492,40.0209331],[40.8403485,40.0147439],[40.8403485,40.0117429],[40.8376547,40.0091168],[40.8386343,40.0068659],[40.8432873,40.0076162],[40.8476955,40.0023637],[40.8447567,39.9991745],[40.856022,39.9911071],[40.8447567,39.9856657],[40.8491648,39.9815375],[40.8489199,39.976283],[40.8589607,39.976846],[40.8614097,39.9732802],[40.8663076,39.9742186],[40.8667974,39.9710281],[40.8778178,39.9727172],[40.8805116,39.976283],[40.9118585,39.9851028],[40.9056384,39.9587599],[40.9100466,39.9595108],[40.920822,39.9382959],[40.916169,39.9394225],[40.916169,39.9431778],[40.9124955,39.9426145],[40.9105364,39.9379204],[40.9068629,39.9367937],[40.9022099,39.9396103],[40.8946181,39.9386714],[40.897067,39.9328503],[40.8931487,39.9292823],[40.885312,39.9279677],[40.8870263,39.9228969],[40.8816385,39.9253385],[40.8794344,39.9230847],[40.8835977,39.9189527],[40.8826181,39.9176195],[40.8941605,39.9091153],[40.918618,39.9117966],[40.9330669,39.908791],[40.9575566,39.9119844],[40.9578015,39.9080396],[40.9666178,39.9050338],[40.9781279,39.9072882],[40.9859646,39.9055974],[40.9847401,39.890379],[40.994536,39.878916],[40.9960054,39.8710223],[40.994835,39.8653244],[40.9870325,39.8518548],[40.9862144,39.8461394],[40.9920228,39.8473956],[40.9974467,39.8559102],[41.0047936,39.8542182],[41.0334465,39.8530902],[41.0354057,39.8423731],[41.0295282,39.837484],[41.0385893,39.830902],[41.0336914,39.8145383],[41.0493648,39.8171718],[41.0520587,39.8267644],[41.0620995,39.8230028],[41.0723851,39.8239432],[41.0782626,39.8262002],[41.0841402,39.8327826],[41.0976376,39.8368243],[41.1063812,39.8380973],[41.1129474,39.835285],[41.1135965,39.8363174],[41.1292848,39.8350677],[41.1524115,39.8378218],[41.1517197,39.8483845],[41.1650313,39.8605137],[41.1869928,39.8742416],[41.212082,39.8850578],[41.2016916,39.8958762],[41.2037086,39.8969956],[41.2013604,39.9038764],[41.2038159,39.9029382],[41.2024401,39.9226419],[41.2051301,39.923304],[41.1925935,39.9331373],[41.178872,39.939186],[41.1750841,39.9362305],[41.1763447,39.9345547],[41.1612439,39.9364608],[41.1575103,39.9403271],[41.1528539,39.9369544],[41.1465883,39.9386984],[41.1419964,39.9527801],[41.1421037,39.9589317],[41.1474794,39.9582679],[41.1442709,39.9666287],[41.1479187,39.968487],[41.1572957,39.9676154],[41.1585617,39.9696546],[41.162703,39.9701808],[41.1702132,39.9681087],[41.1690545,39.969375],[41.1716079,39.9716608],[41.1746549,39.9700164],[41.1738395,39.9714635],[41.1749339,39.9711017],[41.1758402,39.9739484],[41.1722302,39.9797345],[41.1704492,39.9888101],[41.1679387,39.990487],[41.16678,39.9956982],[41.1601281,40.0067605],[41.1610932,40.0165158],[41.149418,40.0101258],[41.1501503,40.00893],[41.1465454,40.0059716],[41.1452318,40.0064161],[41.1411166,40.0161283],[41.1407089,40.0268258],[41.132319,40.0343015],[41.1245084,40.03371],[41.1238386,40.0268578],[41.1204101,40.0259731],[41.1234784,40.0219127],[41.1215472,40.0207953],[41.1251517,40.0167806],[41.1241436,40.0150437],[41.1294045,40.0117685],[41.1274542,40.0080907],[41.1255566,40.0090807],[41.1229635,40.0072264],[41.1188006,40.0130058],[41.1165476,40.0109515],[41.114552,40.011461],[41.1191753,40.0152859],[41.1183071,40.0171472],[41.1159038,40.0156846],[41.1148669,40.0171586],[41.1171698,40.0210746],[41.1083722,40.0294054],[41.1047404,40.0310073],[41.1063399,40.0378444],[41.1025438,40.04759],[41.1038875,40.0498911],[41.1080503,40.051665],[41.1060936,40.0553298],[41.1100459,40.0569701],[41.104896,40.0661176],[41.1068487,40.0664132],[41.1058616,40.0737696],[41.1080513,40.0794183],[41.1239922,40.0950697],[41.1196374,40.1009881],[41.1229744,40.1107502],[41.1069838,40.128228],[41.1069334,40.1319847],[41.1096596,40.1343972],[41.1064305,40.136102],[41.1034353,40.1435382],[41.1038017,40.1446168],[41.114552,40.1462242],[41.1167591,40.1484322],[41.1436702,40.1586694],[41.1457729,40.1619522],[41.1509738,40.1645403],[41.1560941,40.1742827],[41.1559417,40.1791639],[41.1764144,40.1813325],[41.1780023,40.1825456],[41.175363,40.1825948],[41.1733378,40.1861688],[41.1762428,40.190037],[41.1704921,40.190119],[41.1808776,40.2006088],[41.1912213,40.1958772],[41.197542,40.1986143],[41.2015266,40.2023632],[41.2077856,40.2041488],[41.2157678,40.2035588],[41.2471882,40.1909396],[41.2437134,40.213318],[41.2383094,40.23018],[41.2414931,40.241958],[41.2472162,40.2479724],[41.2440325,40.2558226],[41.2369305,40.2629243],[41.2166041,40.2655406],[41.2077878,40.2743229],[41.2041143,40.2733886],[41.1984817,40.2743229],[41.1945633,40.2767519],[41.1948082,40.2834778],[41.1928491,40.2877745],[41.1879511,40.2888953],[41.1872164,40.2944993],[41.1840328,40.2999159],[41.171543,40.3034646],[41.1837879,40.305519],[41.184677,40.3092213],[41.1819831,40.3112755],[41.1839423,40.3144501],[41.1829465,40.3211626],[41.1787654,40.324704],[41.16629,40.3293906],[41.157821,40.3389906],[41.1232729,40.3280197],[41.1063308,40.3240808],[41.0865896,40.3219684],[41.0768445,40.3190945],[41.0707836,40.3140771],[41.0564106,40.3099837],[41.0631642,40.2975698],[41.0571033,40.2933433],[41.0441157,40.2877955],[41.0294516,40.2863784],[41.0267577,40.2826421],[41.0127986,40.283613],[41.0074109,40.279316],[40.9941864,40.278195],[40.9895334,40.2819193],[40.976309,40.284348],[40.9613702,40.2815457],[40.9616151,40.277809],[40.951466,40.2694713],[40.9353028,40.272847],[40.9296701,40.2717259],[40.9235477,40.2726601],[40.91816,40.2709784],[40.9169355,40.2683624],[40.8983233,40.2608875],[40.8953846,40.2556546],[40.8765771,40.2582006],[40.8595692,40.2512437],[40.8573815,40.2475242],[40.8425963,40.2456063],[40.8294078,40.24602],[40.8117513,40.2345113],[40.8045579,40.2345474],[40.7978036,40.2300192],[40.7858542,40.229851],[40.7795,40.2281869],[40.7719816,40.2314277],[40.7653286,40.2298559],[40.7553173,40.2315548],[40.7497336,40.2360367],[40.733861,40.2406306],[40.7083917,40.2335266],[40.6973714,40.2325918],[40.6936584,40.2268925]]]}},{"type":"Feature","properties":{"code":"25-03","provinceCode":"25","name":"Çat"},"geometry":{"type":"Polygon","coordinates":[[[41.2159042,39.7856471],[41.1964897,39.7684295],[41.1827486,39.7665926],[41.1782678,39.7709551],[41.16841,39.7718735],[41.1645267,39.7654446],[41.1549676,39.7594743],[41.1507856,39.7518958],[41.128979,39.7571779],[41.1104584,39.7553407],[41.0922365,39.7489102],[41.0318951,39.7530441],[41.020245,39.7498288],[41.0118809,39.74179],[41.012777,39.7358176],[41.0097553,39.7324249],[41.0009289,39.7323209],[40.9768678,39.7189396],[40.9629315,39.7204173],[40.9578126,39.7231821],[40.9557215,39.7286961],[40.9596645,39.7393236],[40.9656389,39.7446066],[40.9587683,39.7455253],[40.952794,39.7505782],[40.945326,39.7473628],[40.9330406,39.7460283],[40.9342354,39.7517701],[40.9439675,39.7551183],[40.9451624,39.7601704],[40.9431802,39.7631508],[40.9372198,39.7649269],[40.9361738,39.7695047],[40.9285422,39.7699309],[40.9223623,39.7647943],[40.9095769,39.762232],[40.9004517,39.7562615],[40.8960293,39.7573692],[40.8845572,39.7542382],[40.8879121,39.7489102],[40.8867173,39.7450056],[40.8897045,39.7413306],[40.8743535,39.7391833],[40.8706648,39.7352928],[40.8656561,39.7344604],[40.8665678,39.7301952],[40.861751,39.7265629],[40.856978,39.7258955],[40.8535594,39.7192761],[40.8586376,39.7133018],[40.8574119,39.7078723],[40.8467767,39.7091822],[40.8247281,39.7067583],[40.7968781,39.7136742],[40.7976779,39.7073159],[40.7950103,39.7052587],[40.7733956,39.7066543],[40.7740621,39.7221686],[40.7547993,39.7314987],[40.7336092,39.7269716],[40.7341421,39.7207561],[40.7237552,39.7180597],[40.7263047,39.7110039],[40.7392988,39.7024391],[40.7057064,39.7088976],[40.6994182,39.7005355],[40.6965234,39.6896118],[40.7027459,39.6867732],[40.7010731,39.6829321],[40.6941259,39.6790237],[40.6936101,39.6759698],[40.6868603,39.6717684],[40.6832952,39.671555],[40.6814088,39.667797],[40.6769308,39.6693706],[40.673787,39.6679561],[40.6710818,39.6610731],[40.6724528,39.6594787],[40.6799486,39.6607528],[40.680046,39.65783],[40.6769308,39.6568557],[40.6757513,39.6477411],[40.6799037,39.6469797],[40.6765764,39.642968],[40.6797698,39.6303063],[40.6637356,39.6162008],[40.6531302,39.5964472],[40.6632748,39.586571],[40.6749249,39.5840387],[40.6832891,39.5769015],[40.6847827,39.5713754],[40.701511,39.5577885],[40.7074854,39.559631],[40.743033,39.5591704],[40.7519946,39.5520306],[40.7534882,39.5467329],[40.7490074,39.5428169],[40.7475138,39.5391311],[40.7531895,39.5389007],[40.7531895,39.5324501],[40.755878,39.5269204],[40.7454228,39.5259988],[40.7415394,39.5299157],[40.6965953,39.5260358],[40.6653675,39.5303051],[40.6340048,39.527561],[40.6246162,39.5211832],[40.6195468,39.5092877],[40.6079293,39.5022798],[40.6096191,39.4983682],[40.6058171,39.4965752],[40.6028599,39.4995091],[40.595467,39.4999981],[40.5897638,39.4965752],[40.5876516,39.4843495],[40.5912424,39.4706541],[40.59082,39.4642946],[40.5832158,39.4611961],[40.5739218,39.4525524],[40.5918761,39.4442339],[40.6199693,39.4445601],[40.6322204,39.4421133],[40.6472175,39.4217199],[40.6624258,39.4222094],[40.6791917,39.4136246],[40.6995019,39.4111626],[40.7131497,39.4076649],[40.7211591,39.4186627],[40.7316972,39.4220017],[40.7500164,39.4224885],[40.759952,39.420713],[40.7735777,39.4258142],[40.8019654,39.4255744],[40.8235405,39.4364501],[40.8442456,39.4398991],[40.8658214,39.4470825],[40.8837787,39.4422656],[40.9000027,39.4532119],[40.909129,39.4565825],[40.9279208,39.453973],[40.9505098,39.4546023],[40.9619454,39.4574452],[40.9716619,39.4574452],[40.9759042,39.4555392],[40.9818008,39.4563036],[40.9837018,39.4615223],[40.9828569,39.4703279],[40.9887713,39.473426],[41.002501,39.4740782],[41.0174981,39.4633161],[41.0299605,39.463153],[41.0373534,39.4567929],[41.0504495,39.4527155],[41.0502383,39.4455388],[41.0534067,39.4422764],[41.0538291,39.4297148],[41.061222,39.4261254],[41.0654466,39.4264517],[41.0738957,39.4303674],[41.0859356,39.4191091],[41.0939622,39.4192723],[41.093751,39.4266149],[41.0992429,39.4300411],[41.0988204,39.4341198],[41.1085368,39.4344461],[41.1155073,39.4262885],[41.1224778,39.4272675],[41.1248013,39.43102],[41.1289233,39.4324112],[41.1475113,39.4134836],[41.1665886,39.412896],[41.1707998,39.4180817],[41.1687087,39.4256967],[41.1627344,39.4363102],[41.1480971,39.4533807],[41.1382393,39.4589161],[41.1379406,39.4732141],[41.1427201,39.4736753],[41.1466035,39.4785174],[41.1451099,39.482437],[41.1316675,39.4840509],[41.1253944,39.5057195],[41.1149392,39.5041061],[41.1095622,39.5110203],[41.102393,39.5119421],[41.1068737,39.5234642],[41.1050814,39.5271508],[41.1062763,39.5310677],[41.0976134,39.5349843],[41.0934314,39.5340628],[41.0856646,39.5382096],[41.0862621,39.5432776],[41.0940288,39.5481149],[41.0886518,39.5564067],[41.0832749,39.5612431],[41.0806887,39.5878923],[41.0862621,39.5999221],[41.0979122,39.6075172],[41.1203161,39.6210943],[41.1331611,39.6238554],[41.1549676,39.6346687],[41.1705011,39.6401897],[41.1764755,39.6484704],[41.1917102,39.6556003],[41.1991782,39.6611196],[41.2027628,39.6705475],[41.2069449,39.6737665],[41.2123218,39.6854916],[41.2117244,39.6921578],[41.2174001,39.695146],[41.2203873,39.7011218],[41.2144129,39.7089357],[41.2233745,39.7091655],[41.2272578,39.7169784],[41.2359207,39.7105443],[41.2421938,39.7098549],[41.2523503,39.7114635],[41.2589221,39.7181272],[41.262208,39.7316826],[41.2723645,39.7367365],[41.2720658,39.7470728],[41.2678837,39.7516662],[41.2514541,39.7564889],[41.2365161,39.7587849],[41.2173982,39.7792192],[41.2159042,39.7856471]]]}},{"type":"Feature","properties":{"code":"25-04","provinceCode":"25","name":"Hınıs"},"geometry":{"type":"Polygon","coordinates":[[[41.7922315,39.1680127],[41.8012056,39.1731037],[41.8005295,39.1820027],[41.8149004,39.1991434],[41.8186218,39.2089206],[41.8297785,39.2088138],[41.8573258,39.2023033],[41.8829514,39.2091241],[41.8779018,39.2177645],[41.8814941,39.2235026],[41.8835353,39.2396784],[41.9037006,39.2762339],[41.8926204,39.2890058],[41.9064377,39.3103907],[41.9064377,39.3225382],[41.9036115,39.3269109],[41.8998431,39.3288541],[41.9020413,39.3490127],[41.8941906,39.3657665],[41.8952897,39.3815455],[41.899215,39.3849435],[41.9080079,39.3880988],[41.9113052,39.3921032],[41.9111482,39.3982915],[41.9164867,39.4008395],[41.9230813,39.4013248],[41.9295189,39.4103025],[41.9489888,39.4143057],[41.9544843,39.4194004],[41.9596658,39.4212198],[41.9673595,39.4214624],[41.9695577,39.4299524],[41.9796067,39.4401391],[41.9798087,39.4477438],[41.9742573,39.4546023],[41.9703355,39.455792],[41.9590584,39.4539273],[41.9458104,39.4621167],[41.9400308,39.4685597],[41.9323948,39.4712904],[41.9242421,39.4721061],[41.9207122,39.4744083],[41.9190334,39.479472],[41.9020656,39.4811751],[41.9000939,39.4846753],[41.8969524,39.4856441],[41.8876353,39.4838313],[41.8812087,39.4845446],[41.8762133,39.4874111],[41.8664641,39.4865165],[41.8570136,39.4705456],[41.8519598,39.4673434],[41.8360429,39.4650765],[41.840507,39.4562756],[41.8418393,39.4454734],[41.8211884,39.4519891],[41.8080873,39.4540467],[41.8121589,39.4640316],[41.8261482,39.4751736],[41.8221513,39.4777446],[41.8121589,39.4755164],[41.8130471,39.4782588],[41.8090502,39.4796299],[41.7835141,39.4803155],[41.7855126,39.4825435],[41.7855126,39.4863139],[41.7883993,39.4892272],[41.7877331,39.4995085],[41.7992799,39.5063619],[41.8012783,39.5101309],[41.7951667,39.5348395],[41.7892875,39.5402761],[41.7832921,39.5411323],[41.7666381,39.5366799],[41.7593104,39.5394198],[41.7568678,39.5377074],[41.7637515,39.5344536],[41.7646397,39.5310284],[41.7681925,39.530172],[41.7715233,39.5253764],[41.7717453,39.5193814],[41.7697469,39.5157841],[41.7635294,39.5149276],[41.7595325,39.5181823],[41.7553135,39.5159554],[41.7462093,39.5156128],[41.7435447,39.5133859],[41.7333302,39.5132146],[41.7297774,39.5147563],[41.7248264,39.5143015],[41.7177866,39.5195527],[41.6995794,39.5233576],[41.6914146,39.5228731],[41.6998934,39.5381321],[41.696125,39.5507243],[41.685448,39.568398],[41.6807376,39.5618617],[41.6665725,39.5602748],[41.6566513,39.5532844],[41.653417,39.5463658],[41.6468224,39.5420069],[41.6471364,39.5349837],[41.6151053,39.5260221],[41.6069406,39.5265065],[41.6063125,39.5204507],[41.6019161,39.5131831],[41.5937513,39.5088221],[41.5793059,39.4971916],[41.5711412,39.4954953],[41.5663717,39.4875967],[41.5553807,39.4812951],[41.5415633,39.4766898],[41.5359108,39.4701448],[41.5217795,39.4669933],[41.4932028,39.464569],[41.485352,39.4699024],[41.4674523,39.4715993],[41.4561472,39.4655387],[41.4439001,39.4660236],[41.4366774,39.4638417],[41.3949114,39.4648114],[41.3944741,39.4562252],[41.400725,39.440193],[41.4045201,39.4393309],[41.4101013,39.4270887],[41.409878,39.4205356],[41.4078688,39.4150167],[41.4027342,39.4098424],[41.3784005,39.3946621],[41.3826422,39.3889686],[41.3756837,39.3660213],[41.3773756,39.3622559],[41.3823556,39.3603535],[41.3919795,39.3531638],[41.4150111,39.3534035],[41.4194423,39.3481972],[41.4326513,39.3419065],[41.4598398,39.3207405],[41.4741647,39.3130498],[41.4954713,39.3103475],[41.5004618,39.3035932],[41.5106365,39.3003542],[41.5308685,39.2837893],[41.5393461,39.2792727],[41.5566189,39.2735798],[41.5609235,39.2696871],[41.5820554,39.265557],[41.596008,39.2595438],[41.6104137,39.2577755],[41.6166982,39.2532621],[41.6183597,39.2445462],[41.6108179,39.2390181],[41.6128381,39.2321335],[41.6102792,39.2242049],[41.6187637,39.2140842],[41.612434,39.1948821],[41.6059696,39.1894545],[41.6040842,39.1834001],[41.6087978,39.1816255],[41.6113566,39.1771364],[41.618225,39.1740044],[41.6187637,39.1708722],[41.6151275,39.1671134],[41.618225,39.1565667],[41.6280563,39.156149],[41.6355981,39.1585509],[41.6465068,39.1571933],[41.6649572,39.1579243],[41.688256,39.1603261],[41.701481,39.1677706],[41.7086977,39.1676845],[41.7114734,39.1663072],[41.7217988,39.1670819],[41.7227981,39.1645856],[41.7189121,39.1606257],[41.7204665,39.158043],[41.7231311,39.1587317],[41.7294596,39.156149],[41.7324574,39.1521025],[41.7488095,39.1613197],[41.7601029,39.1623474],[41.7623234,39.1640691],[41.7702063,39.1651021],[41.7737591,39.1627778],[41.7922315,39.1680127]]]}},{"type":"Feature","properties":{"code":"25-05","provinceCode":"25","name":"Horasan"},"geometry":{"type":"Polygon","coordinates":[[[42.3012568,39.8677458],[42.3055493,39.8754044],[42.3118623,39.8785637],[42.3176962,39.8769399],[42.3186824,39.872227],[42.3271646,39.8709482],[42.3396231,39.8741353],[42.3440507,39.8690741],[42.3566441,39.8641066],[42.3584667,39.8739327],[42.3864912,39.8819036],[42.395506,39.8912268],[42.4068445,39.892284],[42.4265954,39.9030436],[42.4315001,39.8982677],[42.4405064,39.911664],[42.4347099,39.915876],[42.4372523,39.9200097],[42.4357269,39.9242992],[42.4433538,39.9239872],[42.4498622,39.9200097],[42.4514893,39.916734],[42.4578516,39.9136185],[42.487387,39.9095579],[42.4947089,39.9040193],[42.5003818,39.9120382],[42.5219626,39.9092459],[42.529571,39.9138338],[42.52481,39.9223495],[42.5277219,39.9239193],[42.5364031,39.9220375],[42.5533858,39.925547],[42.5519621,39.9310838],[42.5566822,39.9346359],[42.5497248,39.9377897],[42.5425468,39.9474281],[42.543531,39.9617629],[42.5466805,39.9632717],[42.5487422,39.9690694],[42.5505191,39.9642524],[42.5555014,39.9647018],[42.5550413,39.9730671],[42.5587814,39.9752545],[42.5613404,39.9838522],[42.5554653,39.9914462],[42.5462816,39.9956159],[42.5490375,39.9993858],[42.5456911,40.0046634],[42.5364393,40.0062466],[42.5350133,40.0159632],[42.5011619,40.0266362],[42.4935268,40.039184],[42.4882043,40.0398356],[42.4775822,40.0522189],[42.4646887,40.0494313],[42.4531732,40.0501847],[42.4538093,40.0611329],[42.4437246,40.0569651],[42.4465337,40.0693583],[42.430738,40.0824337],[42.4273916,40.0947827],[42.4299307,40.0969166],[42.4285726,40.0996765],[42.4141499,40.1197128],[42.4031794,40.1234629],[42.3918608,40.1161622],[42.3907781,40.1349014],[42.3809358,40.1493474],[42.3730619,40.1511529],[42.3663497,40.1628928],[42.363318,40.1752973],[42.3498298,40.1707435],[42.3412712,40.1620603],[42.3389091,40.1666484],[42.3343816,40.1689048],[42.3338895,40.1741692],[42.3207992,40.1810876],[42.316931,40.1791414],[42.3129008,40.1823271],[42.2987524,40.1763501],[42.2956028,40.1814636],[42.2971776,40.1911632],[42.2941265,40.1929676],[42.2968823,40.1972529],[42.2949139,40.1999593],[42.2874429,40.2007146],[42.2780835,40.2147672],[42.2733592,40.213715],[42.270308,40.2145417],[42.2622373,40.2092804],[42.2579643,40.2110968],[42.2460959,40.2116104],[42.2397968,40.2074012],[42.2314309,40.2086039],[42.2291671,40.2039434],[42.2253286,40.202891],[42.2218485,40.2068275],[42.2164839,40.2060057],[42.202458,40.2191989],[42.1928671,40.2382108],[42.1893039,40.2421156],[42.1766195,40.2384288],[42.1696549,40.2414193],[42.1582376,40.2388045],[42.1550728,40.2487288],[42.1457141,40.2375981],[42.1361377,40.2329459],[42.1315672,40.2420838],[42.1104557,40.2557053],[42.1126266,40.2608605],[42.1006618,40.260522],[42.1204674,40.2674973],[42.1154616,40.2734756],[42.1152439,40.2842683],[42.1080617,40.2879208],[42.1086615,40.2951089],[42.1031859,40.301929],[42.1007918,40.313215],[42.0820744,40.3082361],[42.070104,40.2941272],[42.0541895,40.2875633],[42.0409116,40.2668253],[42.0256549,40.2553687],[42.024391,40.2372005],[42.0153923,40.2300846],[41.983947,40.2211184],[41.9816268,40.2119987],[41.9420285,40.2024583],[41.9224385,40.1747805],[41.9162059,40.1732795],[41.899294,40.161512],[41.9016792,40.1587872],[41.9004124,40.1557859],[41.9023126,40.1506544],[41.902946,40.1364196],[41.9001591,40.135548],[41.8995257,40.130996],[41.9031993,40.1288652],[41.9018059,40.1225693],[41.9054795,40.1163696],[41.9024393,40.1085224],[41.9066196,40.1037748],[41.9094065,40.1029997],[41.9081397,40.096023],[41.9100398,40.0894333],[41.9085197,40.087592],[41.9118133,40.0858475],[41.9130801,40.0797414],[41.9077597,40.0773182],[41.9050995,40.0730532],[41.898639,40.0710175],[41.893952,40.0647162],[41.8911651,40.0639406],[41.8909117,40.0616138],[41.8862247,40.0616138],[41.8836912,40.0647162],[41.8790042,40.0637467],[41.876724,40.0673337],[41.8744438,40.0637467],[41.858736,40.0675276],[41.8601294,40.0636498],[41.8586093,40.0613229],[41.854429,40.0634559],[41.8549357,40.0557964],[41.8506287,40.0498816],[41.8525289,40.0455179],[41.8507554,40.0398931],[41.8534156,40.0372745],[41.8532889,40.0345588],[41.8625363,40.0334919],[41.8762173,40.0260231],[41.8793842,40.0259261],[41.8792575,40.0294182],[41.8840712,40.0376625],[41.9172604,40.0484271],[41.921314,40.0440632],[41.925621,40.0462937],[41.930688,40.0467785],[41.930688,40.0519179],[41.9391753,40.0549238],[41.9413288,40.0542451],[41.9406955,40.0467785],[41.9452558,40.0492998],[41.947536,40.048718],[41.9467759,40.045227],[41.9541231,40.0441602],[41.9586835,40.0400871],[41.9650173,40.0298061],[41.9694509,40.0263142],[41.9683109,40.0241801],[41.9637505,40.022822],[41.9617237,40.0205908],[41.9503228,40.0169043],[41.9536164,40.0118593],[41.95691,40.0116653],[41.9624838,40.0061347],[41.9821186,40.0122474],[41.9895924,40.0005067],[41.9898458,39.9960428],[41.9922526,39.9955575],[41.9938994,39.9927432],[41.997573,39.9927432],[41.9999799,39.994393],[42.0026401,39.9937137],[42.0027668,39.9897345],[42.0066937,39.9897345],[42.0096073,39.9865317],[42.0092272,39.9835228],[42.0118874,39.9804167],[42.0145476,39.9710976],[42.0046669,39.9718743],[42.0045402,39.9697385],[42.0087205,39.9687676],[42.0103673,39.9666318],[42.0082138,39.9640104],[42.0079605,39.9495423],[42.0051736,39.9454635],[42.005427,39.9343913],[42.0026401,39.9263288],[42.0092272,39.9208885],[42.0170812,39.9214714],[42.0201214,39.9165165],[42.0293688,39.9157393],[42.0307622,39.9084519],[42.0357026,39.9020385],[42.0398829,39.9003864],[42.0415297,39.8968878],[42.0459633,39.8947497],[42.0491302,39.8909592],[42.0549573,39.88989],[42.0524238,39.8832804],[42.0545773,39.8744342],[42.0588843,39.8719065],[42.0616712,39.8648089],[42.0592643,39.859461],[42.0662315,39.8543071],[42.0598977,39.8524594],[42.0578709,39.8485694],[42.0509037,39.8471105],[42.0460465,39.8425455],[42.0402194,39.8435182],[42.0354057,39.8418648],[42.0317321,39.8359314],[42.026665,39.8363204],[42.0291986,39.8324295],[42.0359124,39.837585],[42.0428796,39.8388495],[42.0473132,39.8377795],[42.053267,39.831554],[42.0637811,39.8335968],[42.0726485,39.8306784],[42.0722334,39.8263122],[42.0996229,39.8371476],[42.1084793,39.8365867],[42.1126792,39.8402323],[42.1271051,39.8399519],[42.139715,39.8447973],[42.1637052,39.8445169],[42.1715697,39.848294],[42.1790565,39.8480136],[42.1938476,39.8532707],[42.199691,39.8503268],[42.2053889,39.8514437],[42.2130868,39.8591869],[42.2291819,39.8578967],[42.2450541,39.8604873],[42.2725339,39.8583163],[42.2936098,39.8673783],[42.3012568,39.8677458]]]}},{"type":"Feature","properties":{"code":"25-06","provinceCode":"25","name":"İspir"},"geometry":{"type":"Polygon","coordinates":[[[40.8730047,40.7338708],[40.8694742,40.7231682],[40.8762175,40.7178952],[40.8845663,40.7174896],[40.8858507,40.7135954],[40.8883126,40.7125407],[40.8769667,40.6995583],[40.865942,40.6963123],[40.8572958,40.6966783],[40.8599317,40.6889725],[40.8645505,40.6857616],[40.8620576,40.6812849],[40.8566338,40.6811239],[40.8534188,40.6761835],[40.844744,40.6725193],[40.841411,40.6679155],[40.8342904,40.666829],[40.832602,40.6624378],[40.8268725,40.6594964],[40.8333979,40.6578533],[40.8353345,40.654454],[40.8411345,40.6532586],[40.8393809,40.6431389],[40.8415435,40.6391276],[40.8533975,40.6373428],[40.861469,40.6283588],[40.8652357,40.6211435],[40.868905,40.61106],[40.8620151,40.5920688],[40.8353739,40.5752695],[40.8273932,40.5730387],[40.8178563,40.5776579],[40.8040716,40.5816498],[40.7989538,40.5819805],[40.794438,40.5804498],[40.7927245,40.5758965],[40.7812206,40.5673772],[40.7798235,40.5567977],[40.7762699,40.5528244],[40.7836238,40.535726],[40.7920541,40.5346355],[40.7976144,40.5203202],[40.7981296,40.5076811],[40.8086468,40.4968551],[40.8183266,40.4780145],[40.8239183,40.4463383],[40.829852,40.4460094],[40.8380587,40.4536253],[40.8466657,40.4417441],[40.8464655,40.4364121],[40.8422621,40.4300131],[40.8565818,40.4178702],[40.8590758,40.4082215],[40.8558732,40.4051732],[40.8628789,40.3990761],[40.8690839,40.3980091],[40.8694484,40.3875481],[40.8815426,40.3758284],[40.8724681,40.3720712],[40.8695535,40.3681172],[40.8571796,40.3671113],[40.8435936,40.3600578],[40.8447373,40.3550703],[40.8394719,40.3531015],[40.8337514,40.3535189],[40.8330609,40.3520532],[40.829362,40.3522411],[40.8177489,40.3606612],[40.8100664,40.3614197],[40.8038648,40.3590436],[40.7906476,40.358555],[40.7866528,40.3550224],[40.7919299,40.3529177],[40.7891187,40.3500613],[40.791338,40.3473927],[40.7833207,40.3424696],[40.7847303,40.3357009],[40.7930466,40.3322626],[40.7900865,40.3292539],[40.7772597,40.3262451],[40.774319,40.3329511],[40.7638691,40.331403],[40.7566704,40.3396652],[40.7466727,40.3434365],[40.7448402,40.338387],[40.7483641,40.3322626],[40.7530156,40.3298987],[40.7531565,40.3233437],[40.7442764,40.3207645],[40.7448402,40.3184001],[40.7421621,40.3166806],[40.7373697,40.3034599],[40.7298991,40.3229138],[40.7314921,40.3257353],[40.7221164,40.3199785],[40.7054472,40.3148047],[40.6549235,40.2785035],[40.6363821,40.2718029],[40.6079919,40.2553184],[40.5911514,40.2504968],[40.5974617,40.2362974],[40.6209742,40.2198773],[40.6397596,40.2124805],[40.6781261,40.2275447],[40.6936584,40.2268925],[40.6973714,40.2325918],[40.7083917,40.2335266],[40.733861,40.2406306],[40.7497336,40.2360367],[40.7553173,40.2315548],[40.7653286,40.2298559],[40.7719816,40.2314277],[40.7795,40.2281869],[40.7858542,40.229851],[40.7978036,40.2300192],[40.8045579,40.2345474],[40.8117513,40.2345113],[40.8294078,40.24602],[40.8425963,40.2456063],[40.8573815,40.2475242],[40.8595692,40.2512437],[40.8765771,40.2582006],[40.8953846,40.2556546],[40.8983233,40.2608875],[40.9169355,40.2683624],[40.91816,40.2709784],[40.9235477,40.2726601],[40.9296701,40.2717259],[40.9353028,40.272847],[40.951466,40.2694713],[40.9616151,40.277809],[40.9613702,40.2815457],[40.976309,40.284348],[40.9895334,40.2819193],[40.9941864,40.278195],[41.0074109,40.279316],[41.0127986,40.283613],[41.0267577,40.2826421],[41.0294516,40.2863784],[41.0441157,40.2877955],[41.0571033,40.2933433],[41.0631642,40.2975698],[41.0564106,40.3099837],[41.0707836,40.3140771],[41.0768445,40.3190945],[41.0865896,40.3219684],[41.1063308,40.3240808],[41.1232729,40.3280197],[41.157821,40.3389906],[41.1657205,40.3480044],[41.1656516,40.36374],[41.156598,40.3680737],[41.1453997,40.3851168],[41.1522317,40.3949665],[41.1540336,40.4105828],[41.1349078,40.4168906],[41.1363718,40.4258069],[41.1478802,40.4364678],[41.1532077,40.4525486],[41.1652782,40.4690932],[41.1693116,40.4792797],[41.1751676,40.4835483],[41.1829756,40.4930124],[41.1917595,40.49728],[41.1944376,40.5007871],[41.2076194,40.5041449],[41.1939555,40.5072988],[41.1944435,40.5137916],[41.1885875,40.5232514],[41.2012755,40.5278881],[41.2318113,40.5184525],[41.2412082,40.5207157],[41.249585,40.5246264],[41.2670174,40.5263218],[41.3059175,40.5384793],[41.3147271,40.5477286],[41.3171577,40.5572232],[41.3221581,40.5726782],[41.317594,40.5968698],[41.3122088,40.6094202],[41.3171955,40.6168087],[41.3153957,40.6359497],[41.3116321,40.6395279],[41.3018941,40.641939],[41.3044645,40.6530636],[41.2969016,40.6593624],[41.2933434,40.6738807],[41.2908895,40.6749973],[41.2910122,40.681883],[41.2972697,40.6842091],[41.3046314,40.6820691],[41.3135792,40.6844971],[41.3156739,40.6873724],[41.3149378,40.6901634],[41.320459,40.6897913],[41.3231583,40.6922101],[41.3296627,40.6930017],[41.3408264,40.6899774],[41.3443845,40.694908],[41.3486789,40.6962103],[41.3636477,40.7067213],[41.3735859,40.7091395],[41.3782151,40.7138595],[41.356782,40.7353014],[41.3478476,40.7412884],[41.3400902,40.7419627],[41.3302693,40.7510062],[41.3191705,40.7554206],[41.3118456,40.7565364],[41.3069743,40.7602412],[41.2991101,40.760831],[41.2918711,40.7642695],[41.2831598,40.7628755],[41.2736808,40.7639652],[41.2575165,40.7591582],[41.2404619,40.7625038],[41.2384988,40.76873],[41.2316072,40.7694119],[41.2283151,40.7833173],[41.2248797,40.7872191],[41.225125,40.790842],[41.2169216,40.7984082],[41.2177633,40.8042171],[41.2041442,40.8072819],[41.2018585,40.8092854],[41.2171929,40.8183395],[41.2148381,40.8222276],[41.2319639,40.8272493],[41.2268262,40.8335664],[41.2180492,40.8384253],[41.2150522,40.8345382],[41.2032782,40.8283832],[41.1902198,40.8261154],[41.1825132,40.8191496],[41.1778037,40.8191496],[41.1710996,40.8119191],[41.1627163,40.8093387],[41.1501584,40.8104394],[41.1421832,40.8130395],[41.1413465,40.8246918],[41.1293315,40.8256779],[41.1224066,40.8271003],[41.1141067,40.8210058],[41.1150677,40.8120181],[41.1180123,40.8075605],[41.1175326,40.7999721],[41.1210797,40.7967868],[41.118135,40.790006],[41.1100372,40.7906562],[41.1014485,40.7887054],[41.1003559,40.7837062],[41.0942095,40.783596],[41.087584,40.7791365],[41.0707473,40.7795112],[41.0591188,40.773376],[41.058304,40.7691489],[41.0414507,40.7729114],[41.0372791,40.7701238],[41.0335982,40.772168],[41.0272181,40.7682653],[41.0287818,40.7661071],[41.0153167,40.7634331],[41.0113305,40.7642841],[41.007955,40.7599946],[40.9986639,40.7640697],[40.9800847,40.7616826],[40.9758142,40.7626229],[40.9618217,40.7540465],[40.961699,40.7499568],[40.9583862,40.7470753],[40.9537238,40.7474471],[40.9384518,40.7371343],[40.9336018,40.7379652],[40.9241543,40.7338746],[40.8983204,40.7368187],[40.8868676,40.7359265],[40.8811411,40.7338583],[40.874719,40.735521],[40.8730047,40.7338708]]]}},{"type":"Feature","properties":{"code":"25-07","provinceCode":"25","name":"Karaçoban"},"geometry":{"type":"Polygon","coordinates":[[[41.9796067,39.4401391],[41.9695577,39.4299524],[41.9673595,39.4214624],[41.9596658,39.4212198],[41.9544843,39.4194004],[41.9489888,39.4143057],[41.9295189,39.4103025],[41.9230813,39.4013248],[41.9164867,39.4008395],[41.9111482,39.3982915],[41.9113052,39.3921032],[41.9080079,39.3880988],[41.899215,39.3849435],[41.8952897,39.3815455],[41.8941906,39.3657665],[41.9020413,39.3490127],[41.8998431,39.3288541],[41.9036115,39.3269109],[41.9064377,39.3225382],[41.9064377,39.3103907],[41.8926204,39.2890058],[41.9037006,39.2762339],[41.8835353,39.2396784],[41.8814941,39.2235026],[41.8779018,39.2177645],[41.8829514,39.2091241],[41.9158638,39.2172446],[41.9240842,39.2174589],[41.960045,39.2111532],[41.9729581,39.2201527],[41.9894008,39.2376117],[41.9997055,39.2378585],[42.0213776,39.2476725],[42.0254509,39.2526023],[42.0327538,39.2502414],[42.0504123,39.2485734],[42.0522344,39.2535806],[42.0574051,39.2573388],[42.0587537,39.2633926],[42.0647445,39.2728175],[42.1010806,39.2802398],[42.1144679,39.2797704],[42.1228483,39.2847563],[42.1386522,39.2820022],[42.1457388,39.283508],[42.154354,39.2898533],[42.1557275,39.2991293],[42.1607459,39.3011445],[42.1596515,39.3057665],[42.1713063,39.3058755],[42.175336,39.3079183],[42.1736686,39.3114663],[42.1751971,39.3153365],[42.1713063,39.320819],[42.1751971,39.3249038],[42.1901981,39.3125342],[42.1984488,39.3092323],[42.2106825,39.3164963],[42.2131008,39.3256303],[42.2203557,39.3403741],[42.2325219,39.3454444],[42.2329288,39.3487937],[42.2297329,39.3550257],[42.2229241,39.3544884],[42.2162544,39.3515874],[42.2090057,39.3598965],[42.1988715,39.35807],[42.1889036,39.382549],[42.181678,39.3883485],[42.1793158,39.3943622],[42.1889036,39.3995163],[42.1923774,39.3997312],[42.2039733,39.4069428],[42.2055549,39.4199987],[42.2124686,39.4276919],[42.2242012,39.4292478],[42.2288427,39.4330342],[42.2394944,39.4344087],[42.2253908,39.4491396],[42.2213459,39.4492569],[42.2181876,39.4462317],[42.2134673,39.4457037],[42.2054368,39.4569778],[42.1961554,39.4572379],[42.1798965,39.4619029],[42.1748341,39.4607476],[42.170139,39.4516732],[42.1648593,39.44822],[42.1524954,39.449543],[42.1522622,39.4446784],[42.1314271,39.4301617],[42.1261555,39.4298428],[42.121089,39.4359889],[42.1169424,39.4321289],[42.1134268,39.4364037],[42.1038323,39.4372477],[42.1001663,39.4489888],[42.1007855,39.4592081],[42.1093366,39.4782513],[42.0893811,39.4833787],[42.0716893,39.4792778],[42.0578156,39.4842053],[42.0454663,39.472904],[42.0375978,39.4615657],[42.0343497,39.4520798],[42.0197656,39.441631],[42.0098996,39.4469055],[41.9946146,39.4460471],[41.9796067,39.4401391]]]}},{"type":"Feature","properties":{"code":"25-08","provinceCode":"25","name":"Karayazı"},"geometry":{"type":"Polygon","coordinates":[[[41.8360429,39.4650765],[41.8519598,39.4673434],[41.8570136,39.4705456],[41.8664641,39.4865165],[41.8762133,39.4874111],[41.8812087,39.4845446],[41.8876353,39.4838313],[41.8969524,39.4856441],[41.9000939,39.4846753],[41.9020656,39.4811751],[41.9190334,39.479472],[41.9207122,39.4744083],[41.9242421,39.4721061],[41.9323948,39.4712904],[41.9400308,39.4685597],[41.9458104,39.4621167],[41.9590584,39.4539273],[41.9703355,39.455792],[41.9742573,39.4546023],[41.9798087,39.4477438],[41.9796067,39.4401391],[41.9946146,39.4460471],[42.0098996,39.4469055],[42.0197656,39.441631],[42.0343497,39.4520798],[42.0375978,39.4615657],[42.0454663,39.472904],[42.0578156,39.4842053],[42.0716893,39.4792778],[42.0893811,39.4833787],[42.1093366,39.4782513],[42.1007855,39.4592081],[42.1001663,39.4489888],[42.1038323,39.4372477],[42.1134268,39.4364037],[42.1169424,39.4321289],[42.121089,39.4359889],[42.1261555,39.4298428],[42.1314271,39.4301617],[42.1522622,39.4446784],[42.1524954,39.449543],[42.1648593,39.44822],[42.170139,39.4516732],[42.1748341,39.4607476],[42.1798965,39.4619029],[42.1961554,39.4572379],[42.2054368,39.4569778],[42.2134673,39.4457037],[42.2181876,39.4462317],[42.2213459,39.4492569],[42.2253908,39.4491396],[42.2394944,39.4344087],[42.2416627,39.440356],[42.24546,39.4442711],[42.2436751,39.4494294],[42.248036,39.4514397],[42.2536367,39.450151],[42.2541842,39.4543083],[42.2665609,39.4535462],[42.2740427,39.4566588],[42.2784004,39.4555967],[42.2837116,39.4616623],[42.2948873,39.462004],[42.30728,39.470717],[42.3258692,39.4751585],[42.3292994,39.4784894],[42.3347212,39.4904453],[42.3406963,39.4969348],[42.3488844,39.4936901],[42.3545276,39.4988132],[42.3633796,39.4997524],[42.3730061,39.5060703],[42.3798664,39.5181921],[42.3839604,39.537907],[42.3905994,39.5382483],[42.4059798,39.5344082],[42.4195897,39.5346642],[42.447274,39.5415456],[42.4603327,39.5504429],[42.4692273,39.5512917],[42.4763305,39.54896],[42.4834407,39.548771],[42.4773112,39.5546315],[42.4821554,39.5607438],[42.4724132,39.563871],[42.4774659,39.5686513],[42.4763476,39.5747839],[42.4861172,39.5883911],[42.5049816,39.5880843],[42.5119798,39.6000536],[42.5114952,39.6081952],[42.5004598,39.624329],[42.5078356,39.6330635],[42.5202956,39.6359314],[42.4979542,39.6610733],[42.4855403,39.6806254],[42.4807184,39.690254],[42.4691979,39.6965345],[42.4572739,39.7079482],[42.4587749,39.718586],[42.4351374,39.7249504],[42.4235275,39.7349421],[42.3815064,39.7439555],[42.3710065,39.7525835],[42.3574803,39.7594713],[42.3303543,39.7527548],[42.3021524,39.7712666],[42.2789918,39.8171262],[42.2801546,39.8310321],[42.2871314,39.8430221],[42.3163673,39.8573054],[42.3012568,39.8677458],[42.2936098,39.8673783],[42.2725339,39.8583163],[42.2450541,39.8604873],[42.2291819,39.8578967],[42.2130868,39.8591869],[42.2053889,39.8514437],[42.199691,39.8503268],[42.1938476,39.8532707],[42.1790565,39.8480136],[42.1715697,39.848294],[42.1637052,39.8445169],[42.139715,39.8447973],[42.1271051,39.8399519],[42.1126792,39.8402323],[42.1084793,39.8365867],[42.0996229,39.8371476],[42.0722334,39.8263122],[42.063343,39.8189346],[42.0608289,39.8142425],[42.072607,39.8126693],[42.0750282,39.8059746],[42.0755675,39.7965572],[42.0665705,39.7916766],[42.06054,39.7940336],[42.0534164,39.8010705],[42.0421212,39.802525],[42.035746,39.8011416],[42.0293362,39.8040324],[42.0239965,39.8091017],[42.0192782,39.8079646],[42.0161327,39.8050507],[42.0046608,39.8090307],[41.9918012,39.8066854],[41.9771838,39.8066854],[41.966082,39.8094571],[41.9525748,39.8076093],[41.9377723,39.8098835],[41.9373098,39.7939625],[41.9396226,39.7926119],[41.9422131,39.7852897],[41.9352744,39.7835123],[41.9313888,39.7791754],[41.9131633,39.7873513],[41.908445,39.7849342],[41.9016914,39.7794598],[41.9001186,39.7762602],[41.8951228,39.7735583],[41.8943827,39.7604737],[41.8897569,39.7547128],[41.8844836,39.7540016],[41.8822632,39.7475289],[41.8849461,39.743901],[41.8835584,39.7376408],[41.8894794,39.7320915],[41.8953078,39.7298147],[41.9007662,39.7251897],[41.905392,39.7182162],[41.9039118,39.7175046],[41.8969731,39.72213],[41.890312,39.7283917],[41.8768048,39.7236955],[41.8644078,39.7231262],[41.8340628,39.728107],[41.8255514,39.7278224],[41.8237011,39.7154408],[41.8307322,39.7083239],[41.8351729,39.7006368],[41.823516,39.7047652],[41.8188903,39.7043381],[41.8114599,39.7001402],[41.8000501,39.70228],[41.7986969,39.7065472],[41.7919788,39.7134611],[41.7820989,39.7187283],[41.779898,39.7166967],[41.7803717,39.7046674],[41.7766366,39.7024855],[41.7729015,39.6947687],[41.7660537,39.6907768],[41.7629834,39.6834692],[41.7626448,39.6748394],[41.757667,39.6721575],[41.7565056,39.6683259],[41.757833,39.664111],[41.7503663,39.6615564],[41.7468819,39.6538919],[41.7409788,39.6501887],[41.7411373,39.6463645],[41.7442271,39.6423936],[41.7467159,39.6337047],[41.7572298,39.6407569],[41.7627982,39.638713],[41.7706217,39.6149909],[41.7674569,39.5959085],[41.7730981,39.5805254],[41.7769144,39.5801418],[41.7782418,39.5841061],[41.7899029,39.5766243],[41.8042866,39.5827115],[41.8088498,39.5601827],[41.8131114,39.5572015],[41.8017298,39.5482747],[41.8109292,39.5398464],[41.8210506,39.5426615],[41.8290151,39.5362635],[41.8341587,39.5422776],[41.8351543,39.5338321],[41.8305084,39.5124579],[41.8364817,39.5125859],[41.8404639,39.5086175],[41.8421232,39.4953025],[41.8354862,39.4719951],[41.8360429,39.4650765]]]}},{"type":"Feature","properties":{"code":"25-09","provinceCode":"25","name":"Köprüköy"},"geometry":{"type":"Polygon","coordinates":[[[41.7629834,39.6834692],[41.7660537,39.6907768],[41.7729015,39.6947687],[41.7766366,39.7024855],[41.7803717,39.7046674],[41.779898,39.7166967],[41.7820989,39.7187283],[41.7919788,39.7134611],[41.7986969,39.7065472],[41.8000501,39.70228],[41.8114599,39.7001402],[41.8188903,39.7043381],[41.823516,39.7047652],[41.8351729,39.7006368],[41.8307322,39.7083239],[41.8237011,39.7154408],[41.8255514,39.7278224],[41.8340628,39.728107],[41.8644078,39.7231262],[41.8768048,39.7236955],[41.890312,39.7283917],[41.8969731,39.72213],[41.9039118,39.7175046],[41.905392,39.7182162],[41.9007662,39.7251897],[41.8953078,39.7298147],[41.8894794,39.7320915],[41.8835584,39.7376408],[41.8849461,39.743901],[41.8822632,39.7475289],[41.8844836,39.7540016],[41.8897569,39.7547128],[41.8943827,39.7604737],[41.8951228,39.7735583],[41.9001186,39.7762602],[41.9016914,39.7794598],[41.908445,39.7849342],[41.9131633,39.7873513],[41.9313888,39.7791754],[41.9352744,39.7835123],[41.9422131,39.7852897],[41.9396226,39.7926119],[41.9373098,39.7939625],[41.9377723,39.8098835],[41.9525748,39.8076093],[41.966082,39.8094571],[41.9771838,39.8066854],[41.9918012,39.8066854],[42.0046608,39.8090307],[42.0161327,39.8050507],[42.0192782,39.8079646],[42.0239965,39.8091017],[42.0293362,39.8040324],[42.035746,39.8011416],[42.0421212,39.802525],[42.0534164,39.8010705],[42.06054,39.7940336],[42.0665705,39.7916766],[42.0755675,39.7965572],[42.0750282,39.8059746],[42.072607,39.8126693],[42.0608289,39.8142425],[42.063343,39.8189346],[42.0722334,39.8263122],[42.0726485,39.8306784],[42.0637811,39.8335968],[42.053267,39.831554],[42.0473132,39.8377795],[42.0428796,39.8388495],[42.0359124,39.837585],[42.0291986,39.8324295],[42.026665,39.8363204],[42.0317321,39.8359314],[42.0354057,39.8418648],[42.0402194,39.8435182],[42.0460465,39.8425455],[42.0509037,39.8471105],[42.0578709,39.8485694],[42.0598977,39.8524594],[42.0662315,39.8543071],[42.0592643,39.859461],[42.0616712,39.8648089],[42.0588843,39.8719065],[42.0545773,39.8744342],[42.0524238,39.8832804],[42.0549573,39.88989],[42.0491302,39.8909592],[42.0459633,39.8947497],[42.0415297,39.8968878],[42.0398829,39.9003864],[42.0357026,39.9020385],[42.0307622,39.9084519],[42.0293688,39.9157393],[42.0201214,39.9165165],[42.0170812,39.9214714],[42.0092272,39.9208885],[42.0026401,39.9263288],[42.005427,39.9343913],[42.0051736,39.9454635],[42.0079605,39.9495423],[42.0082138,39.9640104],[42.0103673,39.9666318],[42.0087205,39.9687676],[42.0045402,39.9697385],[42.0046669,39.9718743],[42.0145476,39.9710976],[42.0118874,39.9804167],[42.0092272,39.9835228],[42.0096073,39.9865317],[42.0066937,39.9897345],[42.0027668,39.9897345],[42.0026401,39.9937137],[41.9999799,39.994393],[41.997573,39.9927432],[41.9938994,39.9927432],[41.9922526,39.9955575],[41.9898458,39.9960428],[41.9895924,40.0005067],[41.9821186,40.0122474],[41.9624838,40.0061347],[41.95691,40.0116653],[41.9536164,40.0118593],[41.9503228,40.0169043],[41.9617237,40.0205908],[41.9637505,40.022822],[41.9683109,40.0241801],[41.9694509,40.0263142],[41.9650173,40.0298061],[41.9586835,40.0400871],[41.9541231,40.0441602],[41.9467759,40.045227],[41.947536,40.048718],[41.9452558,40.0492998],[41.9406955,40.0467785],[41.9413288,40.0542451],[41.9391753,40.0549238],[41.930688,40.0519179],[41.930688,40.0467785],[41.925621,40.0462937],[41.921314,40.0440632],[41.9172604,40.0484271],[41.8840712,40.0376625],[41.8792575,40.0294182],[41.8793842,40.0259261],[41.8762173,40.0260231],[41.8625363,40.0334919],[41.8532889,40.0345588],[41.8534156,40.0372745],[41.8507554,40.0398931],[41.8525289,40.0455179],[41.8506287,40.0498816],[41.8549357,40.0557964],[41.854429,40.0634559],[41.8586093,40.0613229],[41.8601294,40.0636498],[41.858736,40.0675276],[41.8744438,40.0637467],[41.876724,40.0673337],[41.8790042,40.0637467],[41.8836912,40.0647162],[41.8862247,40.0616138],[41.8909117,40.0616138],[41.8911651,40.0639406],[41.893952,40.0647162],[41.898639,40.0710175],[41.9050995,40.0730532],[41.9077597,40.0773182],[41.9130801,40.0797414],[41.9118133,40.0858475],[41.9085197,40.087592],[41.9100398,40.0894333],[41.9081397,40.096023],[41.9094065,40.1029997],[41.9066196,40.1037748],[41.9024393,40.1085224],[41.9054795,40.1163696],[41.9018059,40.1225693],[41.9031993,40.1288652],[41.8995257,40.130996],[41.9001591,40.135548],[41.902946,40.1364196],[41.9023126,40.1506544],[41.9004124,40.1557859],[41.9016792,40.1587872],[41.899294,40.161512],[41.8928119,40.1596585],[41.8845779,40.1605298],[41.8796376,40.1572381],[41.863423,40.153559],[41.8600028,40.1564636],[41.8524022,40.1547209],[41.8388478,40.1594649],[41.8298538,40.1559795],[41.8259269,40.1569477],[41.8245334,40.1497829],[41.8189597,40.1423269],[41.8164262,40.1349669],[41.8183263,40.1302212],[41.8237734,40.1247971],[41.8308673,40.1222787],[41.8356809,40.1154977],[41.8349209,40.1132696],[41.8250402,40.1117195],[41.8239001,40.11046],[41.8271936,40.1049375],[41.82238,40.1020308],[41.8284604,40.0942788],[41.8282071,40.090887],[41.8309939,40.0887549],[41.8283337,40.0866228],[41.8290938,40.0838122],[41.8264336,40.0788691],[41.8290938,40.0742164],[41.8157928,40.0663643],[41.8147794,40.0637467],[41.805532,40.059093],[41.8054053,40.0553116],[41.8084456,40.0525967],[41.8079389,40.0467785],[41.8095857,40.0447421],[41.8138927,40.0443542],[41.8161728,40.0396991],[41.8302339,40.0434814],[41.8372011,40.0143818],[41.8334008,40.0127325],[41.8408747,40.0007008],[41.836441,39.9994393],[41.8370744,39.9977896],[41.8350476,39.9958487],[41.8372011,39.9874052],[41.831374,39.9873082],[41.8296005,39.985464],[41.8331474,39.9842022],[41.8375811,39.9723596],[41.8412547,39.9699326],[41.8361876,39.9649813],[41.8218732,39.9668259],[41.8185797,39.9623598],[41.8159195,39.9617772],[41.8112325,39.9637191],[41.8052787,39.9609034],[41.8036338,39.9634541],[41.8015431,39.9631643],[41.7979909,39.9577188],[41.7915977,39.9568253],[41.7888108,39.9544948],[41.7912176,39.9460462],[41.8061756,39.9351859],[41.8099478,39.9260122],[41.8054212,39.9241112],[41.8119956,39.9190691],[41.8136122,39.9132826],[41.81857,39.9079918],[41.8163067,39.9040233],[41.8097322,39.8994759],[41.8089778,39.8938531],[41.8004634,39.8878165],[41.8038045,39.8796289],[41.8052056,39.8772304],[41.8086545,39.8787191],[41.8179888,39.8774799],[41.8254677,39.8782229],[41.8250366,39.8733429],[41.8290244,39.8685452],[41.8292399,39.8654845],[41.8318266,39.8615136],[41.8371077,39.8606863],[41.8382932,39.8547294],[41.8311799,39.8510061],[41.8282523,39.847559],[41.8199242,39.8457903],[41.8115593,39.8461374],[41.8093846,39.8428459],[41.79616,39.8422984],[41.7908983,39.8401237],[41.785605,39.8403692],[41.7819836,39.8435321],[41.7737393,39.8423508],[41.7705173,39.8399981],[41.7630708,39.8419957],[41.750947,39.840887],[41.7491976,39.8339152],[41.7447036,39.8384966],[41.7402582,39.8401257],[41.7331859,39.8402033],[41.7301489,39.8365619],[41.7229816,39.8356261],[41.7166166,39.8372553],[41.7201527,39.8415996],[41.7155052,39.8390396],[41.7059071,39.838419],[41.7017648,39.8398154],[41.6978246,39.8387293],[41.6722634,39.8395827],[41.6622612,39.8385742],[41.6621601,39.8426081],[41.6654942,39.8467969],[41.6599005,39.8450075],[41.6552899,39.8343848],[41.658725,39.8308159],[41.6593312,39.8229792],[41.664787,39.8203409],[41.6700917,39.8130311],[41.6733136,39.8099732],[41.689454,39.8089964],[41.6835847,39.7893059],[41.6876517,39.7807602],[41.6922907,39.7789323],[41.7075507,39.7619403],[41.7075051,39.7590488],[41.7188,39.7590076],[41.7294624,39.7534427],[41.7302449,39.745621],[41.7243757,39.7421611],[41.723608,39.7377739],[41.7260847,39.7283754],[41.7227128,39.7246334],[41.7289733,39.7180123],[41.7340101,39.7076465],[41.7376891,39.707287],[41.742946,39.7003157],[41.73928,39.6982401],[41.7463531,39.6894245],[41.7629834,39.6834692]]]}},{"type":"Feature","properties":{"code":"25-10","provinceCode":"25","name":"Narman"},"geometry":{"type":"Polygon","coordinates":[[[42.1086615,40.2951089],[42.1178437,40.293408],[42.1160269,40.3006011],[42.1222444,40.3020892],[42.1307344,40.3153597],[42.1355586,40.3289018],[42.1298231,40.3355446],[42.1203487,40.3368577],[42.1339574,40.3523501],[42.1434527,40.3512272],[42.1493021,40.3458136],[42.1561615,40.348273],[42.1621259,40.3486284],[42.1667807,40.353231],[42.1661716,40.3596637],[42.1618651,40.3599262],[42.1553676,40.3657956],[42.1470991,40.3617267],[42.1481327,40.3707829],[42.1516046,40.3752085],[42.1584936,40.3792005],[42.1564826,40.3899689],[42.1467047,40.3910655],[42.1358522,40.3902782],[42.1278992,40.3943288],[42.1032949,40.3875229],[42.0957154,40.3906719],[42.09497,40.3959358],[42.0839829,40.4088391],[42.0825027,40.4059339],[42.0398865,40.4041368],[42.012112,40.4076752],[42.009068,40.3988059],[42.0095848,40.3946078],[42.0054506,40.3919839],[42.0045892,40.3971004],[41.9980353,40.3963529],[41.9977354,40.4034353],[41.9791758,40.4155742],[41.9680032,40.4128592],[41.9728932,40.4079882],[41.9687589,40.4027413],[41.965844,40.4030593],[41.9574164,40.4171379],[41.9385053,40.4377492],[41.9405341,40.446324],[41.9174754,40.446101],[41.9096985,40.4548922],[41.9136354,40.4631873],[41.9076062,40.4689537],[41.8776035,40.4565091],[41.8723324,40.4578013],[41.85043,40.4571953],[41.8416691,40.4441648],[41.8249437,40.4314349],[41.8217579,40.4241596],[41.7839266,40.3980833],[41.753308,40.3954837],[41.7418216,40.3855686],[41.7416788,40.380156],[41.7386193,40.3763415],[41.7257624,40.377279],[41.7197537,40.3765536],[41.715368,40.3797886],[41.712653,40.3747505],[41.7093115,40.3763415],[41.7020716,40.3725761],[41.6998439,40.36828],[41.6931773,40.3646696],[41.6788593,40.3501544],[41.6626774,40.3397528],[41.6568482,40.3242225],[41.6436455,40.3042211],[41.6385215,40.2997551],[41.6429135,40.2973359],[41.6402295,40.2924972],[41.633614,40.2912398],[41.6576993,40.2673749],[41.6997184,40.2732513],[41.7057145,40.2693226],[41.7243848,40.2714727],[41.7497666,40.2691793],[41.7484307,40.2602598],[41.7444231,40.2515941],[41.7344039,40.2459862],[41.7330681,40.2322195],[41.722715,40.2286499],[41.7157016,40.2210002],[41.6936595,40.2210002],[41.6909877,40.2225302],[41.6823044,40.21794],[41.676293,40.2166649],[41.6692796,40.2210002],[41.6632681,40.2199801],[41.6552528,40.2128395],[41.6385542,40.2125844],[41.629537,40.2151348],[41.6227499,40.2100777],[41.6233119,40.2042177],[41.6274527,40.2026364],[41.6269351,40.1989466],[41.6488469,40.1944659],[41.6505722,40.18379],[41.6578186,40.1798355],[41.6628221,40.1795719],[41.6724839,40.1754853],[41.6740367,40.1739034],[41.6733466,40.1715304],[41.6866317,40.1700802],[41.6890471,40.1724532],[41.6943957,40.174167],[41.7237263,40.175749],[41.7354586,40.1713985],[41.7506415,40.1696846],[41.7680674,40.1700802],[41.7880939,40.1557324],[41.8098204,40.1479277],[41.8164262,40.1349669],[41.8189597,40.1423269],[41.8245334,40.1497829],[41.8259269,40.1569477],[41.8298538,40.1559795],[41.8388478,40.1594649],[41.8524022,40.1547209],[41.8600028,40.1564636],[41.863423,40.153559],[41.8796376,40.1572381],[41.8845779,40.1605298],[41.8928119,40.1596585],[41.899294,40.161512],[41.9162059,40.1732795],[41.9224385,40.1747805],[41.9420285,40.2024583],[41.9816268,40.2119987],[41.983947,40.2211184],[42.0153923,40.2300846],[42.024391,40.2372005],[42.0256549,40.2553687],[42.0409116,40.2668253],[42.0541895,40.2875633],[42.070104,40.2941272],[42.0820744,40.3082361],[42.1007918,40.313215],[42.1031859,40.301929],[42.1086615,40.2951089]]]}},{"type":"Feature","properties":{"code":"25-11","provinceCode":"25","name":"Oltu"},"geometry":{"type":"Polygon","coordinates":[[[41.8680926,40.7877686],[41.8552263,40.7864117],[41.8525792,40.7818544],[41.8531812,40.7790229],[41.8516163,40.7791489],[41.8488229,40.7748782],[41.8508206,40.7731233],[41.8452752,40.76053],[41.8373162,40.7567947],[41.8303756,40.7480953],[41.8233877,40.7584009],[41.8212129,40.7586134],[41.8195844,40.7563474],[41.8192032,40.7507884],[41.8132496,40.7422893],[41.8111934,40.7296276],[41.8151837,40.7152298],[41.8058201,40.711744],[41.804955,40.7044333],[41.807505,40.6984875],[41.8068035,40.6842902],[41.7976364,40.6765117],[41.7975837,40.6666642],[41.7912772,40.6719982],[41.7829406,40.6684313],[41.77665,40.6622904],[41.7648596,40.662469],[41.7358693,40.6726776],[41.7235704,40.6855512],[41.7196081,40.6840358],[41.7138959,40.6729592],[41.7081969,40.6690812],[41.7062008,40.6659992],[41.7205227,40.6514049],[41.7352721,40.6278851],[41.7333483,40.6215577],[41.7588251,40.5923934],[41.7564343,40.5869896],[41.7569114,40.5767205],[41.7459955,40.5625344],[41.7429675,40.5501298],[41.7372964,40.5459485],[41.7267217,40.5506171],[41.7178905,40.5500951],[41.6990188,40.5593789],[41.7049182,40.5483431],[41.6920888,40.535058],[41.700012,40.5295967],[41.6965816,40.5272243],[41.689955,40.5155248],[41.6901688,40.5109745],[41.6687953,40.5019607],[41.6555397,40.4994347],[41.6506232,40.495696],[41.6425388,40.4931124],[41.6455975,40.4803933],[41.6543814,40.4748252],[41.6609694,40.4622027],[41.6575534,40.4510632],[41.6595054,40.4456785],[41.6565774,40.438622],[41.6924639,40.4281986],[41.6961052,40.415776],[41.7128625,40.4051594],[41.7182222,40.3949535],[41.7253472,40.3863894],[41.7257624,40.377279],[41.7386193,40.3763415],[41.7416788,40.380156],[41.7418216,40.3855686],[41.753308,40.3954837],[41.7839266,40.3980833],[41.8217579,40.4241596],[41.8249437,40.4314349],[41.8416691,40.4441648],[41.85043,40.4571953],[41.8723324,40.4578013],[41.8776035,40.4565091],[41.9076062,40.4689537],[41.9136354,40.4631873],[41.9096985,40.4548922],[41.9174754,40.446101],[41.9405341,40.446324],[41.9385053,40.4377492],[41.9574164,40.4171379],[41.965844,40.4030593],[41.9687589,40.4027413],[41.9728932,40.4079882],[41.9680032,40.4128592],[41.9791758,40.4155742],[41.9977354,40.4034353],[41.9980353,40.3963529],[42.0045892,40.3971004],[42.0054506,40.3919839],[42.0095848,40.3946078],[42.009068,40.3988059],[42.012112,40.4076752],[42.0398865,40.4041368],[42.0825027,40.4059339],[42.0839829,40.4088391],[42.09497,40.3959358],[42.0957154,40.3906719],[42.1032949,40.3875229],[42.1278992,40.3943288],[42.1358522,40.3902782],[42.1467047,40.3910655],[42.1564826,40.3899689],[42.1584936,40.3792005],[42.1516046,40.3752085],[42.1481327,40.3707829],[42.1470991,40.3617267],[42.1553676,40.3657956],[42.1618651,40.3599262],[42.1661716,40.3596637],[42.1667807,40.353231],[42.1621259,40.3486284],[42.1695591,40.3439281],[42.1742588,40.3470977],[42.1826063,40.3461071],[42.1857656,40.3483765],[42.1953169,40.3485831],[42.199385,40.3464903],[42.2109271,40.3487236],[42.2146947,40.3507339],[42.2138343,40.3734483],[42.2083263,40.3825899],[42.2090634,40.3929365],[42.2031631,40.4066486],[42.1995146,40.4117449],[42.1939709,40.4096107],[42.1869239,40.4137711],[42.1857222,40.4199156],[42.174194,40.415576],[42.1690783,40.4174451],[42.1583303,40.43449],[42.1607527,40.4440497],[42.1537837,40.4504138],[42.1569261,40.4613738],[42.1768877,40.4862159],[42.1834514,40.4878283],[42.189063,40.5003667],[42.1840013,40.5095111],[42.1868364,40.5197731],[42.1842479,40.5324863],[42.1743664,40.5405808],[42.1619711,40.5452094],[42.1607764,40.5479424],[42.1721113,40.5558288],[42.1734171,40.5727207],[42.1768807,40.5878512],[42.1723012,40.5910264],[42.1695136,40.589212],[42.1653322,40.5920848],[42.1723208,40.6026809],[42.1661287,40.6106796],[42.1760843,40.6209574],[42.1785645,40.6278444],[42.1760843,40.6389398],[42.1721021,40.6424148],[42.173695,40.6499686],[42.1713293,40.6563234],[42.1643367,40.6637143],[42.1624301,40.6726162],[42.177279,40.6806282],[42.1810482,40.6883932],[42.1876328,40.6916501],[42.188031,40.6952733],[42.2034414,40.7024633],[42.2069027,40.7130847],[42.2000815,40.7192602],[42.2043689,40.7283323],[42.1916305,40.7135671],[42.170606,40.7162716],[42.1686891,40.7218998],[42.1359208,40.7247238],[42.1167699,40.7204998],[42.0869707,40.7171958],[42.0818538,40.7137769],[42.0833112,40.7104055],[42.0754888,40.7082696],[42.0672043,40.7100061],[42.048093,40.7061275],[42.0466614,40.7132357],[42.0359548,40.7258821],[42.0249039,40.7345534],[42.0130714,40.7377714],[42.0053058,40.7370825],[42.0012248,40.7350209],[41.9867143,40.732043],[41.9800435,40.7341626],[41.9696342,40.7343131],[41.9652508,40.737978],[41.9558794,40.7384361],[41.9495311,40.7313351],[41.9436362,40.7288152],[41.9339625,40.7308769],[41.9360786,40.7367182],[41.9315441,40.7384361],[41.9301837,40.742788],[41.9306372,40.7554984],[41.919452,40.7592767],[41.9047185,40.7757972],[41.9029047,40.7826647],[41.8976144,40.7835803],[41.8961029,40.7856403],[41.8846154,40.7842669],[41.8776624,40.7868992],[41.8680926,40.7877686]]]}},{"type":"Feature","properties":{"code":"25-12","provinceCode":"25","name":"Olur"},"geometry":{"type":"Polygon","coordinates":[[[41.9146135,40.9360831],[41.8986159,40.9381203],[41.88928,40.9163427],[41.8805912,40.9184042],[41.8701564,40.9034859],[41.8495999,40.8946649],[41.8485436,40.8729514],[41.8363237,40.8595008],[41.8471276,40.8510235],[41.8559319,40.8465699],[41.8691949,40.8341997],[41.8735126,40.8059189],[41.8699606,40.8004623],[41.8680926,40.7877686],[41.8776624,40.7868992],[41.8846154,40.7842669],[41.8961029,40.7856403],[41.8976144,40.7835803],[41.9029047,40.7826647],[41.9047185,40.7757972],[41.919452,40.7592767],[41.9306372,40.7554984],[41.9301837,40.742788],[41.9315441,40.7384361],[41.9360786,40.7367182],[41.9339625,40.7308769],[41.9436362,40.7288152],[41.9495311,40.7313351],[41.9558794,40.7384361],[41.9652508,40.737978],[41.9696342,40.7343131],[41.9800435,40.7341626],[41.9867143,40.732043],[42.0012248,40.7350209],[42.0053058,40.7370825],[42.0130714,40.7377714],[42.0249039,40.7345534],[42.0359548,40.7258821],[42.0466614,40.7132357],[42.048093,40.7061275],[42.0672043,40.7100061],[42.0754888,40.7082696],[42.0833112,40.7104055],[42.0818538,40.7137769],[42.0869707,40.7171958],[42.1167699,40.7204998],[42.1359208,40.7247238],[42.1686891,40.7218998],[42.170606,40.7162716],[42.1916305,40.7135671],[42.2043689,40.7283323],[42.2007083,40.732267],[42.2097449,40.7364909],[42.2202457,40.7557738],[42.2258102,40.7624259],[42.2228189,40.7693606],[42.2249032,40.7736654],[42.2286927,40.7736654],[42.2352004,40.7796263],[42.2485879,40.7821309],[42.252241,40.7848342],[42.2524576,40.7884956],[42.2544673,40.7882927],[42.2541993,40.8025943],[42.2574149,40.8059411],[42.2583587,40.8138986],[42.2726887,40.8123298],[42.2769761,40.8159803],[42.291982,40.819225],[42.2973413,40.8167915],[42.3024142,40.8189817],[42.3047102,40.8248014],[42.3098015,40.828147],[42.3146414,40.829083],[42.3164991,40.8348066],[42.3202735,40.837407],[42.320097,40.8295001],[42.3293815,40.826141],[42.3324131,40.8292952],[42.3408664,40.8536961],[42.3501969,40.8535488],[42.3571383,40.8566668],[42.3641438,40.8954006],[42.359526,40.8937155],[42.3340257,40.8988657],[42.3284606,40.8969669],[42.3159224,40.8826081],[42.3181256,40.8906477],[42.3313159,40.9123355],[42.3499953,40.9211229],[42.3472291,40.9229361],[42.3499458,40.9253686],[42.3479293,40.9281801],[42.3388563,40.9320536],[42.3345204,40.9327722],[42.3315777,40.9385226],[42.3177564,40.9378744],[42.3178727,40.9328652],[42.3150169,40.9294963],[42.2896611,40.9242113],[42.2815401,40.9249193],[42.2771729,40.9228176],[42.2710502,40.9322656],[42.2653544,40.9371021],[42.2564734,40.9349309],[42.2400335,40.9386924],[42.2303155,40.9449955],[42.2271706,40.9540546],[42.227852,40.9654673],[42.2184816,40.9730141],[42.2078619,40.9712454],[42.1750563,40.9708258],[42.1724106,40.9784379],[42.168194,40.979617],[42.1509465,40.9794697],[42.1498533,40.9754609],[42.1434502,40.9721595],[42.1251779,40.9687398],[42.1211174,40.9642587],[42.1187749,40.9703907],[42.1119032,40.9743998],[42.0896693,40.9764593],[42.077389,40.9755789],[42.0744218,40.9812383],[42.075515,40.9874866],[42.0689557,40.9830067],[42.039142,40.9792943],[42.0320989,40.9756968],[42.0214117,40.9747069],[42.0085028,40.9777525],[42.0051142,40.9818943],[42.0055983,40.9907862],[41.9944864,40.9869662],[41.9896235,40.9828689],[41.9651282,40.9804049],[41.9595008,40.9694725],[41.9517554,40.9638677],[41.9473987,40.9625275],[41.9382011,40.9507069],[41.9375556,40.9458318],[41.9307785,40.9338864],[41.9186764,40.9290102],[41.9146135,40.9360831]]]}},{"type":"Feature","properties":{"code":"25-13","provinceCode":"25","name":"Palandöken"},"geometry":{"type":"Polygon","coordinates":[[[41.4458215,39.8566938],[41.4482782,39.8571376],[41.4504459,39.8548079],[41.4543477,39.8553626],[41.4621512,39.8515907],[41.4696658,39.8505922],[41.4747237,39.84682],[41.4835388,39.8483733],[41.4911979,39.8442681],[41.498568,39.8464872],[41.4910534,39.852811],[41.479348,39.858136],[41.4617177,39.8712246],[41.458394,39.87555],[41.4667756,39.8774353],[41.4745792,39.8762154],[41.481173,39.8822588],[41.4762961,39.8886386],[41.4819492,39.8928487],[41.4764578,39.8966183],[41.4737121,39.910919],[41.4778865,39.9128801],[41.4764578,39.9203402],[41.4718335,39.9232218],[41.4738246,39.9281795],[41.4713999,39.9318657],[41.4653277,39.931399],[41.4686398,39.9397755],[41.4783337,39.9443629],[41.4648969,39.9463805],[41.4526799,39.9450429],[41.4359967,39.9578863],[41.4315463,39.9688886],[41.4154119,39.9651955],[41.3949824,39.9492404],[41.3814912,39.9482061],[41.3762631,39.946144],[41.3638069,39.9387942],[41.3502567,39.9221175],[41.3411616,39.9143062],[41.3235305,39.9065835],[41.2956682,39.9056868],[41.280458,39.8971697],[41.2734926,39.8972728],[41.266129,39.9004361],[41.2509799,39.8936372],[41.2431693,39.8924354],[41.2392211,39.886887],[41.2227201,39.8754266],[41.2160468,39.8687405],[41.2108969,39.8740927],[41.2155318,39.8768428],[41.212082,39.8850578],[41.1869928,39.8742416],[41.1650313,39.8605137],[41.1517197,39.8483845],[41.1524115,39.8378218],[41.1292848,39.8350677],[41.1135965,39.8363174],[41.1129474,39.835285],[41.1063812,39.8380973],[41.0976376,39.8368243],[41.0841402,39.8327826],[41.0782626,39.8262002],[41.0723851,39.8239432],[41.0620995,39.8230028],[41.0520587,39.8267644],[41.0493648,39.8171718],[41.0336914,39.8145383],[41.0385893,39.830902],[41.0295282,39.837484],[41.0354057,39.8423731],[41.0334465,39.8530902],[41.0047936,39.8542182],[40.9974467,39.8559102],[40.9920228,39.8473956],[40.9862144,39.8461394],[40.9870325,39.8518548],[40.994835,39.8653244],[40.9960054,39.8710223],[40.994536,39.878916],[40.9847401,39.890379],[40.9859646,39.9055974],[40.9781279,39.9072882],[40.9666178,39.9050338],[40.9578015,39.9080396],[40.9575566,39.9119844],[40.9330669,39.908791],[40.918618,39.9117966],[40.8941605,39.9091153],[40.8987316,39.9062044],[40.9049489,39.8980459],[40.9141932,39.8940918],[40.9271188,39.8917695],[40.9395536,39.8831698],[40.9402898,39.8810354],[40.9260553,39.8756363],[40.9107573,39.8588086],[40.9105937,39.8532822],[40.8840062,39.8397155],[40.873453,39.8438611],[40.8631453,39.8417883],[40.859873,39.8394014],[40.8601184,39.8352555],[40.8559462,39.8339362],[40.856437,39.8314862],[40.8543101,39.8284706],[40.8595457,39.8099975],[40.8578278,39.8062269],[40.8611819,39.8050956],[40.8624908,39.8069182],[40.8657631,39.8063525],[40.8673175,39.8041529],[40.8707534,39.8036501],[40.8728804,39.8054727],[40.8813066,39.8026446],[40.8826155,39.8055355],[40.8916961,39.8059755],[40.9060597,39.8122795],[40.92405,39.7909475],[40.9151416,39.7863692],[40.9155465,39.7745885],[40.926306,39.7744551],[40.9313387,39.7766781],[40.9381912,39.7773247],[40.9361738,39.7695047],[40.9372198,39.7649269],[40.9431802,39.7631508],[40.9451624,39.7601704],[40.9439675,39.7551183],[40.9342354,39.7517701],[40.9330406,39.7460283],[40.945326,39.7473628],[40.952794,39.7505782],[40.9587683,39.7455253],[40.9656389,39.7446066],[40.9596645,39.7393236],[40.9557215,39.7286961],[40.9578126,39.7231821],[40.9629315,39.7204173],[40.9768678,39.7189396],[41.0009289,39.7323209],[41.0097553,39.7324249],[41.012777,39.7358176],[41.0118809,39.74179],[41.020245,39.7498288],[41.0318951,39.7530441],[41.0922365,39.7489102],[41.1104584,39.7553407],[41.128979,39.7571779],[41.1507856,39.7518958],[41.1549676,39.7594743],[41.1645267,39.7654446],[41.16841,39.7718735],[41.1782678,39.7709551],[41.1827486,39.7665926],[41.1964897,39.7684295],[41.2159042,39.7856471],[41.2212027,39.7942746],[41.2260593,39.796546],[41.2315495,39.7963837],[41.2380954,39.8018996],[41.2570997,39.805144],[41.2693469,39.8091994],[41.2839168,39.8160118],[41.2890168,39.8217951],[41.29051,39.81824],[41.2947653,39.8150288],[41.3020816,39.8153728],[41.313504,39.8098676],[41.3241163,39.7914031],[41.3411145,39.7871844],[41.3467102,39.7899428],[41.3548821,39.7861076],[41.3633444,39.7858812],[41.3703941,39.7889775],[41.376393,39.7848352],[41.3838561,39.7865667],[41.3895755,39.7894561],[41.3964381,39.7987851],[41.4003446,39.8199532],[41.3955935,39.8311429],[41.3972827,39.841439],[41.4130141,39.8517336],[41.4326518,39.8581366],[41.4458215,39.8566938]]]}},{"type":"Feature","properties":{"code":"25-14","provinceCode":"25","name":"Pasinler"},"geometry":{"type":"Polygon","coordinates":[[[41.6700917,39.8130311],[41.664787,39.8203409],[41.6593312,39.8229792],[41.658725,39.8308159],[41.6552899,39.8343848],[41.6599005,39.8450075],[41.6654942,39.8467969],[41.6621601,39.8426081],[41.6622612,39.8385742],[41.6722634,39.8395827],[41.6978246,39.8387293],[41.7017648,39.8398154],[41.7059071,39.838419],[41.7155052,39.8390396],[41.7201527,39.8415996],[41.7166166,39.8372553],[41.7229816,39.8356261],[41.7301489,39.8365619],[41.7331859,39.8402033],[41.7402582,39.8401257],[41.7447036,39.8384966],[41.7491976,39.8339152],[41.750947,39.840887],[41.7630708,39.8419957],[41.7705173,39.8399981],[41.7737393,39.8423508],[41.7819836,39.8435321],[41.785605,39.8403692],[41.7908983,39.8401237],[41.79616,39.8422984],[41.8093846,39.8428459],[41.8115593,39.8461374],[41.8199242,39.8457903],[41.8282523,39.847559],[41.8311799,39.8510061],[41.8382932,39.8547294],[41.8371077,39.8606863],[41.8318266,39.8615136],[41.8292399,39.8654845],[41.8290244,39.8685452],[41.8250366,39.8733429],[41.8254677,39.8782229],[41.8179888,39.8774799],[41.8086545,39.8787191],[41.8052056,39.8772304],[41.8038045,39.8796289],[41.8004634,39.8878165],[41.8089778,39.8938531],[41.8097322,39.8994759],[41.8163067,39.9040233],[41.81857,39.9079918],[41.8136122,39.9132826],[41.8119956,39.9190691],[41.8054212,39.9241112],[41.8099478,39.9260122],[41.8061756,39.9351859],[41.7912176,39.9460462],[41.7888108,39.9544948],[41.7915977,39.9568253],[41.7979909,39.9577188],[41.8015431,39.9631643],[41.8036338,39.9634541],[41.8052787,39.9609034],[41.8112325,39.9637191],[41.8159195,39.9617772],[41.8185797,39.9623598],[41.8218732,39.9668259],[41.8361876,39.9649813],[41.8412547,39.9699326],[41.8375811,39.9723596],[41.8331474,39.9842022],[41.8296005,39.985464],[41.831374,39.9873082],[41.8372011,39.9874052],[41.8350476,39.9958487],[41.8370744,39.9977896],[41.836441,39.9994393],[41.8408747,40.0007008],[41.8334008,40.0127325],[41.8372011,40.0143818],[41.8302339,40.0434814],[41.8161728,40.0396991],[41.8138927,40.0443542],[41.8095857,40.0447421],[41.8079389,40.0467785],[41.8084456,40.0525967],[41.8054053,40.0553116],[41.805532,40.059093],[41.8147794,40.0637467],[41.8157928,40.0663643],[41.8290938,40.0742164],[41.8264336,40.0788691],[41.8290938,40.0838122],[41.8283337,40.0866228],[41.8309939,40.0887549],[41.8282071,40.090887],[41.8284604,40.0942788],[41.82238,40.1020308],[41.8271936,40.1049375],[41.8239001,40.11046],[41.8250402,40.1117195],[41.8349209,40.1132696],[41.8356809,40.1154977],[41.8308673,40.1222787],[41.8237734,40.1247971],[41.8183263,40.1302212],[41.8164262,40.1349669],[41.8098204,40.1479277],[41.7880939,40.1557324],[41.7680674,40.1700802],[41.7506415,40.1696846],[41.7354586,40.1713985],[41.7237263,40.175749],[41.6943957,40.174167],[41.6890471,40.1724532],[41.6866317,40.1700802],[41.6733466,40.1715304],[41.6740367,40.1739034],[41.6724839,40.1754853],[41.6628221,40.1795719],[41.6578186,40.1798355],[41.6505722,40.18379],[41.6488469,40.1944659],[41.6269351,40.1989466],[41.6274527,40.2026364],[41.6233119,40.2042177],[41.6227499,40.2100777],[41.6182102,40.2041082],[41.6024027,40.2004162],[41.5920755,40.2032982],[41.5851245,40.1973823],[41.5791664,40.1976857],[41.5552552,40.1905737],[41.553257,40.1861131],[41.54853,40.1850974],[41.5395199,40.1701474],[41.5378575,40.1574745],[41.5329108,40.1417056],[41.5278141,40.1380473],[41.5271331,40.1312105],[41.5189789,40.1310728],[41.5022067,40.1180431],[41.4866186,40.0982523],[41.4637795,40.0918715],[41.4371833,40.0868683],[41.4424418,40.0565262],[41.4121816,40.0324291],[41.4161409,40.0119555],[41.4273067,40.005042],[41.4235858,39.990751],[41.4315463,39.9688886],[41.4359967,39.9578863],[41.4526799,39.9450429],[41.4648969,39.9463805],[41.4783337,39.9443629],[41.4686398,39.9397755],[41.4653277,39.931399],[41.4713999,39.9318657],[41.4738246,39.9281795],[41.4718335,39.9232218],[41.4764578,39.9203402],[41.4778865,39.9128801],[41.4737121,39.910919],[41.4764578,39.8966183],[41.4819492,39.8928487],[41.4762961,39.8886386],[41.481173,39.8822588],[41.4745792,39.8762154],[41.4667756,39.8774353],[41.458394,39.87555],[41.4617177,39.8712246],[41.479348,39.858136],[41.4910534,39.852811],[41.498568,39.8464872],[41.4911979,39.8442681],[41.4835388,39.8483733],[41.4747237,39.84682],[41.4696658,39.8505922],[41.4621512,39.8515907],[41.4543477,39.8553626],[41.4504459,39.8548079],[41.4482782,39.8571376],[41.4458215,39.8566938],[41.4495788,39.8521454],[41.4599836,39.8474857],[41.4638854,39.842049],[41.4664866,39.8312853],[41.4777584,39.8379435],[41.4825273,39.8376106],[41.4865736,39.8366119],[41.4948633,39.8290983],[41.5176398,39.8195858],[41.5329764,39.8245288],[41.5382839,39.8316391],[41.551156,39.8334298],[41.5717088,39.8312467],[41.5790478,39.8321961],[41.5904454,39.8367285],[41.6115107,39.8364941],[41.6270982,39.8382331],[41.6309478,39.8262566],[41.6289125,39.8228959],[41.6299301,39.8159395],[41.6280386,39.8117336],[41.6410784,39.8011672],[41.6497633,39.8019913],[41.6523396,39.8063358],[41.6700917,39.8130311]]]}},{"type":"Feature","properties":{"code":"25-15","provinceCode":"25","name":"Pazaryolu"},"geometry":{"type":"Polygon","coordinates":[[[40.7762699,40.5528244],[40.7651864,40.5665174],[40.7678769,40.5722399],[40.7789976,40.5789155],[40.7768452,40.5823212],[40.7854369,40.5830357],[40.7856342,40.5850456],[40.777742,40.5868165],[40.7770652,40.5917798],[40.7715302,40.5912195],[40.7615947,40.594843],[40.760597,40.5986881],[40.757904,40.6002114],[40.747937,40.5970996],[40.7425403,40.599853],[40.7313609,40.5985822],[40.7235517,40.5959456],[40.7256961,40.6006921],[40.7249902,40.6031569],[40.7162547,40.605498],[40.7104206,40.6039452],[40.7018995,40.5983623],[40.67607,40.5935436],[40.6713673,40.5891134],[40.6620017,40.585352],[40.6590075,40.5818009],[40.6569363,40.570617],[40.646553,40.5638796],[40.641781,40.5664887],[40.6238919,40.562867],[40.6222513,40.5595173],[40.6192019,40.5582782],[40.6142595,40.5595558],[40.59853,40.5546322],[40.5870867,40.5527001],[40.5776326,40.5556606],[40.5738865,40.5554551],[40.5768153,40.5365486],[40.5858315,40.5267966],[40.5865251,40.5203384],[40.5948477,40.5137478],[40.5840976,40.5061019],[40.5775089,40.496741],[40.5703999,40.4970047],[40.5690128,40.4927853],[40.5649741,40.4889888],[40.5545822,40.4534693],[40.5467656,40.4375733],[40.5551021,40.4271361],[40.5549977,40.4194717],[40.5397185,40.4072193],[40.5400448,40.4017026],[40.5755501,40.4047185],[40.5832343,40.396833],[40.5787015,40.3915428],[40.5915483,40.3831877],[40.5994698,40.3820813],[40.6053006,40.3759432],[40.600319,40.3690345],[40.5989036,40.3629955],[40.5775688,40.3547191],[40.5621042,40.3539359],[40.5447869,40.3649185],[40.5352122,40.3666621],[40.5231816,40.3649366],[40.5127238,40.3667753],[40.5038317,40.3740576],[40.4839222,40.3621155],[40.4906282,40.3560931],[40.4883929,40.3508486],[40.5015245,40.3464346],[40.4946354,40.3391217],[40.5090817,40.3338772],[40.5108832,40.3262477],[40.5263637,40.3151898],[40.5375753,40.2995063],[40.5181709,40.2801606],[40.4997393,40.2719616],[40.5260651,40.2663458],[40.5306223,40.2598656],[40.5433325,40.2525205],[40.5587107,40.2587217],[40.5835289,40.2590015],[40.5911514,40.2504968],[40.6079919,40.2553184],[40.6363821,40.2718029],[40.6549235,40.2785035],[40.7054472,40.3148047],[40.7221164,40.3199785],[40.7314921,40.3257353],[40.7298991,40.3229138],[40.7373697,40.3034599],[40.7421621,40.3166806],[40.7448402,40.3184001],[40.7442764,40.3207645],[40.7531565,40.3233437],[40.7530156,40.3298987],[40.7483641,40.3322626],[40.7448402,40.338387],[40.7466727,40.3434365],[40.7566704,40.3396652],[40.7638691,40.331403],[40.774319,40.3329511],[40.7772597,40.3262451],[40.7900865,40.3292539],[40.7930466,40.3322626],[40.7847303,40.3357009],[40.7833207,40.3424696],[40.791338,40.3473927],[40.7891187,40.3500613],[40.7919299,40.3529177],[40.7866528,40.3550224],[40.7906476,40.358555],[40.8038648,40.3590436],[40.8100664,40.3614197],[40.8177489,40.3606612],[40.829362,40.3522411],[40.8330609,40.3520532],[40.8337514,40.3535189],[40.8394719,40.3531015],[40.8447373,40.3550703],[40.8435936,40.3600578],[40.8571796,40.3671113],[40.8695535,40.3681172],[40.8724681,40.3720712],[40.8815426,40.3758284],[40.8694484,40.3875481],[40.8690839,40.3980091],[40.8628789,40.3990761],[40.8558732,40.4051732],[40.8590758,40.4082215],[40.8565818,40.4178702],[40.8422621,40.4300131],[40.8464655,40.4364121],[40.8466657,40.4417441],[40.8380587,40.4536253],[40.829852,40.4460094],[40.8239183,40.4463383],[40.8183266,40.4780145],[40.8086468,40.4968551],[40.7981296,40.5076811],[40.7976144,40.5203202],[40.7920541,40.5346355],[40.7836238,40.535726],[40.7762699,40.5528244]]]}},{"type":"Feature","properties":{"code":"25-16","provinceCode":"25","name":"Şenkaya"},"geometry":{"type":"Polygon","coordinates":[[[42.2043689,40.7283323],[42.2000815,40.7192602],[42.2069027,40.7130847],[42.2034414,40.7024633],[42.188031,40.6952733],[42.1876328,40.6916501],[42.1810482,40.6883932],[42.177279,40.6806282],[42.1624301,40.6726162],[42.1643367,40.6637143],[42.1713293,40.6563234],[42.173695,40.6499686],[42.1721021,40.6424148],[42.1760843,40.6389398],[42.1785645,40.6278444],[42.1760843,40.6209574],[42.1661287,40.6106796],[42.1723208,40.6026809],[42.1653322,40.5920848],[42.1695136,40.589212],[42.1723012,40.5910264],[42.1768807,40.5878512],[42.1734171,40.5727207],[42.1721113,40.5558288],[42.1607764,40.5479424],[42.1619711,40.5452094],[42.1743664,40.5405808],[42.1842479,40.5324863],[42.1868364,40.5197731],[42.1840013,40.5095111],[42.189063,40.5003667],[42.1834514,40.4878283],[42.1768877,40.4862159],[42.1569261,40.4613738],[42.1537837,40.4504138],[42.1607527,40.4440497],[42.1583303,40.43449],[42.1690783,40.4174451],[42.174194,40.415576],[42.1857222,40.4199156],[42.1869239,40.4137711],[42.1939709,40.4096107],[42.1995146,40.4117449],[42.2031631,40.4066486],[42.2090634,40.3929365],[42.2083263,40.3825899],[42.2138343,40.3734483],[42.2146947,40.3507339],[42.2109271,40.3487236],[42.2154706,40.3470856],[42.2262314,40.3504173],[42.2447032,40.3474002],[42.2433814,40.3519549],[42.2563729,40.3588062],[42.2742317,40.3640796],[42.2790954,40.3726183],[42.2981941,40.3745028],[42.3257686,40.3873107],[42.337378,40.3768439],[42.3518174,40.3759645],[42.365992,40.3797372],[42.3753092,40.3799481],[42.3820671,40.3759535],[42.3885722,40.3743963],[42.3871442,40.3673062],[42.3917369,40.363959],[42.3958936,40.363123],[42.4015748,40.3671197],[42.4051048,40.3656136],[42.4042497,40.3755941],[42.4147062,40.385621],[42.43165,40.3868041],[42.4413927,40.3914285],[42.4464143,40.3969106],[42.4662259,40.3826708],[42.4881863,40.3917752],[42.4865979,40.4029438],[42.4773377,40.4075805],[42.481983,40.4300184],[42.4770978,40.4331611],[42.4810995,40.445597],[42.4758691,40.4686422],[42.4792115,40.4914653],[42.4695395,40.4970013],[42.46221,40.5131612],[42.4858123,40.522276],[42.5095721,40.5430536],[42.5197789,40.5590431],[42.5169571,40.5726666],[42.529051,40.5840614],[42.5412762,40.5884948],[42.544812,40.6042297],[42.5539888,40.6106969],[42.5688948,40.6143734],[42.5766291,40.6128418],[42.577638,40.6225415],[42.6023765,40.6291667],[42.5922246,40.6310563],[42.6112329,40.6529988],[42.6201865,40.6801472],[42.5991595,40.6934598],[42.5980134,40.7120855],[42.5807873,40.7316712],[42.593681,40.7463631],[42.5736394,40.752967],[42.5637741,40.7770556],[42.5510799,40.7799754],[42.5448155,40.7785496],[42.5371049,40.7817099],[42.5274338,40.7823278],[42.5255985,40.7872967],[42.5106135,40.7925667],[42.5052716,40.7874271],[42.4940747,40.7884705],[42.4881018,40.7859996],[42.4921798,40.7916006],[42.4982089,40.7918615],[42.5001038,40.8037283],[42.4922273,40.8059011],[42.4871842,40.8178093],[42.4775376,40.8217202],[42.4687523,40.8196344],[42.4641012,40.820938],[42.4403292,40.8196344],[42.4343,40.8158538],[42.4247428,40.816575],[42.420845,40.8114125],[42.4213322,40.8075403],[42.4162163,40.8066184],[42.4137802,40.8032991],[42.3984325,40.7946315],[42.3935602,40.7881762],[42.3720681,40.7917421],[42.367304,40.7938323],[42.3603205,40.7923978],[42.3590482,40.807151],[42.3414321,40.8065167],[42.33872,40.8103882],[42.340696,40.8169642],[42.3353635,40.8214913],[42.3566663,40.8260181],[42.3418058,40.8280458],[42.3293815,40.826141],[42.320097,40.8295001],[42.3202735,40.837407],[42.3164991,40.8348066],[42.3146414,40.829083],[42.3098015,40.828147],[42.3047102,40.8248014],[42.3024142,40.8189817],[42.2973413,40.8167915],[42.291982,40.819225],[42.2769761,40.8159803],[42.2726887,40.8123298],[42.2583587,40.8138986],[42.2574149,40.8059411],[42.2541993,40.8025943],[42.2544673,40.7882927],[42.2524576,40.7884956],[42.252241,40.7848342],[42.2485879,40.7821309],[42.2352004,40.7796263],[42.2286927,40.7736654],[42.2249032,40.7736654],[42.2228189,40.7693606],[42.2258102,40.7624259],[42.2202457,40.7557738],[42.2097449,40.7364909],[42.2007083,40.732267],[42.2043689,40.7283323]]]}},{"type":"Feature","properties":{"code":"25-17","provinceCode":"25","name":"Tekman"},"geometry":{"type":"Polygon","coordinates":[[[41.3823556,39.3603535],[41.3773756,39.3622559],[41.3756837,39.3660213],[41.3826422,39.3889686],[41.3784005,39.3946621],[41.4027342,39.4098424],[41.4078688,39.4150167],[41.409878,39.4205356],[41.4101013,39.4270887],[41.4045201,39.4393309],[41.400725,39.440193],[41.3944741,39.4562252],[41.3949114,39.4648114],[41.4366774,39.4638417],[41.4439001,39.4660236],[41.4561472,39.4655387],[41.4674523,39.4715993],[41.485352,39.4699024],[41.4932028,39.464569],[41.5217795,39.4669933],[41.5359108,39.4701448],[41.5415633,39.4766898],[41.5553807,39.4812951],[41.5663717,39.4875967],[41.5711412,39.4954953],[41.5793059,39.4971916],[41.5937513,39.5088221],[41.6019161,39.5131831],[41.6063125,39.5204507],[41.6069406,39.5265065],[41.6151053,39.5260221],[41.6471364,39.5349837],[41.6468224,39.5420069],[41.653417,39.5463658],[41.6566513,39.5532844],[41.6665725,39.5602748],[41.6807376,39.5618617],[41.685448,39.568398],[41.696125,39.5507243],[41.6998934,39.5381321],[41.6914146,39.5228731],[41.6995794,39.5233576],[41.7177866,39.5195527],[41.7248264,39.5143015],[41.7297774,39.5147563],[41.7333302,39.5132146],[41.7435447,39.5133859],[41.7462093,39.5156128],[41.7553135,39.5159554],[41.7595325,39.5181823],[41.7635294,39.5149276],[41.7697469,39.5157841],[41.7717453,39.5193814],[41.7715233,39.5253764],[41.7681925,39.530172],[41.7646397,39.5310284],[41.7637515,39.5344536],[41.7568678,39.5377074],[41.7593104,39.5394198],[41.7666381,39.5366799],[41.7832921,39.5411323],[41.7892875,39.5402761],[41.7951667,39.5348395],[41.8012783,39.5101309],[41.7992799,39.5063619],[41.7877331,39.4995085],[41.7883993,39.4892272],[41.7855126,39.4863139],[41.7855126,39.4825435],[41.7835141,39.4803155],[41.8090502,39.4796299],[41.8130471,39.4782588],[41.8121589,39.4755164],[41.8221513,39.4777446],[41.8261482,39.4751736],[41.8121589,39.4640316],[41.8080873,39.4540467],[41.8211884,39.4519891],[41.8418393,39.4454734],[41.840507,39.4562756],[41.8360429,39.4650765],[41.8354862,39.4719951],[41.8421232,39.4953025],[41.8404639,39.5086175],[41.8364817,39.5125859],[41.8305084,39.5124579],[41.8351543,39.5338321],[41.8341587,39.5422776],[41.8290151,39.5362635],[41.8210506,39.5426615],[41.8109292,39.5398464],[41.8017298,39.5482747],[41.8131114,39.5572015],[41.8088498,39.5601827],[41.8042866,39.5827115],[41.7899029,39.5766243],[41.7782418,39.5841061],[41.7769144,39.5801418],[41.7730981,39.5805254],[41.7674569,39.5959085],[41.7706217,39.6149909],[41.7627982,39.638713],[41.7572298,39.6407569],[41.7467159,39.6337047],[41.7442271,39.6423936],[41.7411373,39.6463645],[41.7409788,39.6501887],[41.7468819,39.6538919],[41.7503663,39.6615564],[41.757833,39.664111],[41.7565056,39.6683259],[41.757667,39.6721575],[41.7626448,39.6748394],[41.7629834,39.6834692],[41.7463531,39.6894245],[41.73928,39.6982401],[41.742946,39.7003157],[41.7376891,39.707287],[41.7340101,39.7076465],[41.7289733,39.7180123],[41.7227128,39.7246334],[41.7260847,39.7283754],[41.723608,39.7377739],[41.7243757,39.7421611],[41.7302449,39.745621],[41.7294624,39.7534427],[41.7188,39.7590076],[41.7075051,39.7590488],[41.7075507,39.7619403],[41.6922907,39.7789323],[41.6876517,39.7807602],[41.6835847,39.7893059],[41.689454,39.8089964],[41.6733136,39.8099732],[41.6700917,39.8130311],[41.6523396,39.8063358],[41.6497633,39.8019913],[41.6410784,39.8011672],[41.6280386,39.8117336],[41.6299301,39.8159395],[41.6289125,39.8228959],[41.6309478,39.8262566],[41.6270982,39.8382331],[41.6115107,39.8364941],[41.5904454,39.8367285],[41.5790478,39.8321961],[41.5717088,39.8312467],[41.551156,39.8334298],[41.5382839,39.8316391],[41.5329764,39.8245288],[41.5176398,39.8195858],[41.4948633,39.8290983],[41.4865736,39.8366119],[41.4825273,39.8376106],[41.4777584,39.8379435],[41.4664866,39.8312853],[41.4638854,39.842049],[41.4599836,39.8474857],[41.4495788,39.8521454],[41.4458215,39.8566938],[41.4326518,39.8581366],[41.4130141,39.8517336],[41.3972827,39.841439],[41.3955935,39.8311429],[41.4003446,39.8199532],[41.3964381,39.7987851],[41.3895755,39.7894561],[41.3838561,39.7865667],[41.376393,39.7848352],[41.3703941,39.7889775],[41.3633444,39.7858812],[41.3548821,39.7861076],[41.3467102,39.7899428],[41.3411145,39.7871844],[41.3241163,39.7914031],[41.313504,39.8098676],[41.3020816,39.8153728],[41.2947653,39.8150288],[41.29051,39.81824],[41.2890168,39.8217951],[41.2839168,39.8160118],[41.2693469,39.8091994],[41.2570997,39.805144],[41.2380954,39.8018996],[41.2315495,39.7963837],[41.2260593,39.796546],[41.2212027,39.7942746],[41.2159042,39.7856471],[41.2173982,39.7792192],[41.2365161,39.7587849],[41.2514541,39.7564889],[41.2678837,39.7516662],[41.2720658,39.7470728],[41.2723645,39.7367365],[41.262208,39.7316826],[41.2589221,39.7181272],[41.2523503,39.7114635],[41.2421938,39.7098549],[41.2359207,39.7105443],[41.2272578,39.7169784],[41.2233745,39.7091655],[41.2144129,39.7089357],[41.2203873,39.7011218],[41.2174001,39.695146],[41.2117244,39.6921578],[41.2123218,39.6854916],[41.2069449,39.6737665],[41.2027628,39.6705475],[41.1991782,39.6611196],[41.1917102,39.6556003],[41.1764755,39.6484704],[41.1705011,39.6401897],[41.1549676,39.6346687],[41.1331611,39.6238554],[41.1203161,39.6210943],[41.0979122,39.6075172],[41.0862621,39.5999221],[41.0806887,39.5878923],[41.0832749,39.5612431],[41.0886518,39.5564067],[41.0940288,39.5481149],[41.0862621,39.5432776],[41.0856646,39.5382096],[41.0934314,39.5340628],[41.0976134,39.5349843],[41.1062763,39.5310677],[41.1050814,39.5271508],[41.1068737,39.5234642],[41.102393,39.5119421],[41.1095622,39.5110203],[41.1149392,39.5041061],[41.1253944,39.5057195],[41.1316675,39.4840509],[41.1451099,39.482437],[41.1466035,39.4785174],[41.1427201,39.4736753],[41.1379406,39.4732141],[41.1382393,39.4589161],[41.1480971,39.4533807],[41.1627344,39.4363102],[41.1687087,39.4256967],[41.1707998,39.4180817],[41.1665886,39.412896],[41.1792795,39.4047393],[41.1829113,39.3871803],[41.17825,39.3789296],[41.1675568,39.3724904],[41.2001023,39.3615909],[41.2323713,39.3600854],[41.2554603,39.3646019],[41.2909075,39.3647952],[41.3323171,39.3593992],[41.3693164,39.352659],[41.3823556,39.3603535]]]}},{"type":"Feature","properties":{"code":"25-18","provinceCode":"25","name":"Tortum"},"geometry":{"type":"Polygon","coordinates":[[[41.157821,40.3389906],[41.16629,40.3293906],[41.1787654,40.324704],[41.1829465,40.3211626],[41.1839423,40.3144501],[41.1819831,40.3112755],[41.184677,40.3092213],[41.1837879,40.305519],[41.171543,40.3034646],[41.1840328,40.2999159],[41.1872164,40.2944993],[41.1879511,40.2888953],[41.1928491,40.2877745],[41.1948082,40.2834778],[41.1945633,40.2767519],[41.1984817,40.2743229],[41.2041143,40.2733886],[41.2077878,40.2743229],[41.2166041,40.2655406],[41.2369305,40.2629243],[41.2440325,40.2558226],[41.2472162,40.2479724],[41.2414931,40.241958],[41.2383094,40.23018],[41.2437134,40.213318],[41.2471882,40.1909396],[41.2564057,40.1866344],[41.2678378,40.1868991],[41.2745932,40.1826645],[41.2735539,40.1692974],[41.2806557,40.1571192],[41.2894896,40.1618849],[41.287411,40.1670473],[41.2901824,40.1703563],[41.3010949,40.1710181],[41.3036932,40.1737975],[41.3017878,40.1786944],[41.3040396,40.1846495],[41.3163378,40.1895455],[41.321361,40.1886193],[41.3386824,40.1985428],[41.3367771,40.2030409],[41.3792145,40.2223531],[41.398961,40.2338585],[41.4064092,40.231346],[41.4116056,40.2392799],[41.4426109,40.2396766],[41.4803716,40.227511],[41.4886859,40.2001304],[41.5004645,40.2076711],[41.5056609,40.2072742],[41.5124163,40.1994689],[41.5129359,40.1928535],[41.5215966,40.1906041],[41.5278323,40.1907364],[41.530777,40.1947059],[41.5430752,40.1953674],[41.5468019,40.1974521],[41.5523988,40.1944569],[41.5552552,40.1905737],[41.5791664,40.1976857],[41.5851245,40.1973823],[41.5920755,40.2032982],[41.6024027,40.2004162],[41.6182102,40.2041082],[41.6227499,40.2100777],[41.629537,40.2151348],[41.6385542,40.2125844],[41.6552528,40.2128395],[41.6632681,40.2199801],[41.6692796,40.2210002],[41.676293,40.2166649],[41.6823044,40.21794],[41.6909877,40.2225302],[41.6936595,40.2210002],[41.7157016,40.2210002],[41.722715,40.2286499],[41.7330681,40.2322195],[41.7344039,40.2459862],[41.7444231,40.2515941],[41.7484307,40.2602598],[41.7497666,40.2691793],[41.7243848,40.2714727],[41.7057145,40.2693226],[41.6997184,40.2732513],[41.6576993,40.2673749],[41.633614,40.2912398],[41.6402295,40.2924972],[41.6429135,40.2973359],[41.6385215,40.2997551],[41.6436455,40.3042211],[41.6568482,40.3242225],[41.6626774,40.3397528],[41.6788593,40.3501544],[41.6931773,40.3646696],[41.6998439,40.36828],[41.7020716,40.3725761],[41.7093115,40.3763415],[41.712653,40.3747505],[41.715368,40.3797886],[41.7197537,40.3765536],[41.7257624,40.377279],[41.7253472,40.3863894],[41.7182222,40.3949535],[41.7128625,40.4051594],[41.6961052,40.415776],[41.6924639,40.4281986],[41.6565774,40.438622],[41.6595054,40.4456785],[41.6575534,40.4510632],[41.6609694,40.4622027],[41.6543814,40.4748252],[41.6455975,40.4803933],[41.6425388,40.4931124],[41.629802,40.4753663],[41.6309313,40.4701607],[41.6076391,40.4808443],[41.5951801,40.4919716],[41.5694698,40.5022896],[41.5494619,40.5074843],[41.5021348,40.5109529],[41.4950166,40.5143605],[41.4771707,40.5401959],[41.4712532,40.5444354],[41.4291023,40.5490228],[41.4225718,40.552999],[41.419586,40.5581033],[41.4118444,40.5596972],[41.4098103,40.5635233],[41.4114171,40.5694158],[41.3939027,40.571653],[41.3850978,40.5679587],[41.3580557,40.5620731],[41.3508823,40.564588],[41.3344322,40.5658258],[41.3287916,40.5589669],[41.3171577,40.5572232],[41.3147271,40.5477286],[41.3059175,40.5384793],[41.2670174,40.5263218],[41.249585,40.5246264],[41.2412082,40.5207157],[41.2318113,40.5184525],[41.2012755,40.5278881],[41.1885875,40.5232514],[41.1944435,40.5137916],[41.1939555,40.5072988],[41.2076194,40.5041449],[41.1944376,40.5007871],[41.1917595,40.49728],[41.1829756,40.4930124],[41.1751676,40.4835483],[41.1693116,40.4792797],[41.1652782,40.4690932],[41.1532077,40.4525486],[41.1478802,40.4364678],[41.1363718,40.4258069],[41.1349078,40.4168906],[41.1540336,40.4105828],[41.1522317,40.3949665],[41.1453997,40.3851168],[41.156598,40.3680737],[41.1656516,40.36374],[41.1657205,40.3480044],[41.157821,40.3389906]]]}},{"type":"Feature","properties":{"code":"25-19","provinceCode":"25","name":"Uzundere"},"geometry":{"type":"Polygon","coordinates":[[[41.6425388,40.4931124],[41.6506232,40.495696],[41.6555397,40.4994347],[41.6687953,40.5019607],[41.6901688,40.5109745],[41.689955,40.5155248],[41.6965816,40.5272243],[41.700012,40.5295967],[41.6920888,40.535058],[41.7049182,40.5483431],[41.6990188,40.5593789],[41.7178905,40.5500951],[41.7267217,40.5506171],[41.7372964,40.5459485],[41.7429675,40.5501298],[41.7459955,40.5625344],[41.7569114,40.5767205],[41.7564343,40.5869896],[41.7588251,40.5923934],[41.7333483,40.6215577],[41.7352721,40.6278851],[41.7205227,40.6514049],[41.7062008,40.6659992],[41.7081969,40.6690812],[41.6999122,40.6734336],[41.6600919,40.6828443],[41.6516638,40.6886448],[41.6094549,40.6921847],[41.5766776,40.6904299],[41.5447306,40.6627907],[41.5330983,40.6603904],[41.5198423,40.6447628],[41.5063671,40.6427336],[41.49148,40.6333129],[41.4752421,40.6317962],[41.4732323,40.6223446],[41.4533637,40.609912],[41.4420772,40.6063923],[41.4418945,40.5983486],[41.4328443,40.5877873],[41.4114171,40.5694158],[41.4098103,40.5635233],[41.4118444,40.5596972],[41.419586,40.5581033],[41.4225718,40.552999],[41.4291023,40.5490228],[41.4712532,40.5444354],[41.4771707,40.5401959],[41.4950166,40.5143605],[41.5021348,40.5109529],[41.5494619,40.5074843],[41.5694698,40.5022896],[41.5951801,40.4919716],[41.6076391,40.4808443],[41.6309313,40.4701607],[41.629802,40.4753663],[41.6425388,40.4931124]]]}},{"type":"Feature","properties":{"code":"25-20","provinceCode":"25","name":"Yakutiye"},"geometry":{"type":"Polygon","coordinates":[[[41.2471882,40.1909396],[41.2157678,40.2035588],[41.2077856,40.2041488],[41.2015266,40.2023632],[41.197542,40.1986143],[41.1912213,40.1958772],[41.1808776,40.2006088],[41.1704921,40.190119],[41.1762428,40.190037],[41.1733378,40.1861688],[41.175363,40.1825948],[41.1780023,40.1825456],[41.1764144,40.1813325],[41.1559417,40.1791639],[41.1560941,40.1742827],[41.1509738,40.1645403],[41.1457729,40.1619522],[41.1436702,40.1586694],[41.1167591,40.1484322],[41.114552,40.1462242],[41.1038017,40.1446168],[41.1034353,40.1435382],[41.1064305,40.136102],[41.1096596,40.1343972],[41.1069334,40.1319847],[41.1069838,40.128228],[41.1229744,40.1107502],[41.1196374,40.1009881],[41.1239922,40.0950697],[41.1080513,40.0794183],[41.1058616,40.0737696],[41.1068487,40.0664132],[41.104896,40.0661176],[41.1100459,40.0569701],[41.1060936,40.0553298],[41.1080503,40.051665],[41.1038875,40.0498911],[41.1025438,40.04759],[41.1063399,40.0378444],[41.1047404,40.0310073],[41.1083722,40.0294054],[41.1171698,40.0210746],[41.1148669,40.0171586],[41.1159038,40.0156846],[41.1183071,40.0171472],[41.1191753,40.0152859],[41.114552,40.011461],[41.1165476,40.0109515],[41.1188006,40.0130058],[41.1229635,40.0072264],[41.1255566,40.0090807],[41.1274542,40.0080907],[41.1294045,40.0117685],[41.1241436,40.0150437],[41.1251517,40.0167806],[41.1215472,40.0207953],[41.1234784,40.0219127],[41.1204101,40.0259731],[41.1238386,40.0268578],[41.1245084,40.03371],[41.132319,40.0343015],[41.1407089,40.0268258],[41.1411166,40.0161283],[41.1452318,40.0064161],[41.1465454,40.0059716],[41.1501503,40.00893],[41.149418,40.0101258],[41.1610932,40.0165158],[41.1601281,40.0067605],[41.16678,39.9956982],[41.1679387,39.990487],[41.1704492,39.9888101],[41.1722302,39.9797345],[41.1758402,39.9739484],[41.1749339,39.9711017],[41.1738395,39.9714635],[41.1746549,39.9700164],[41.1716079,39.9716608],[41.1690545,39.969375],[41.1702132,39.9681087],[41.162703,39.9701808],[41.1585617,39.9696546],[41.1572957,39.9676154],[41.1479187,39.968487],[41.1442709,39.9666287],[41.1474794,39.9582679],[41.1421037,39.9589317],[41.1419964,39.9527801],[41.1465883,39.9386984],[41.1528539,39.9369544],[41.1575103,39.9403271],[41.1612439,39.9364608],[41.1763447,39.9345547],[41.1750841,39.9362305],[41.178872,39.939186],[41.1925935,39.9331373],[41.2051301,39.923304],[41.2024401,39.9226419],[41.2038159,39.9029382],[41.2013604,39.9038764],[41.2037086,39.8969956],[41.2016916,39.8958762],[41.212082,39.8850578],[41.2155318,39.8768428],[41.2108969,39.8740927],[41.2160468,39.8687405],[41.2227201,39.8754266],[41.2392211,39.886887],[41.2431693,39.8924354],[41.2509799,39.8936372],[41.266129,39.9004361],[41.2734926,39.8972728],[41.280458,39.8971697],[41.2956682,39.9056868],[41.3235305,39.9065835],[41.3411616,39.9143062],[41.3502567,39.9221175],[41.3638069,39.9387942],[41.3762631,39.946144],[41.3814912,39.9482061],[41.3949824,39.9492404],[41.4154119,39.9651955],[41.4315463,39.9688886],[41.4235858,39.990751],[41.4273067,40.005042],[41.4161409,40.0119555],[41.4121816,40.0324291],[41.4424418,40.0565262],[41.4371833,40.0868683],[41.4637795,40.0918715],[41.4866186,40.0982523],[41.5022067,40.1180431],[41.5189789,40.1310728],[41.5271331,40.1312105],[41.5278141,40.1380473],[41.5329108,40.1417056],[41.5378575,40.1574745],[41.5395199,40.1701474],[41.54853,40.1850974],[41.553257,40.1861131],[41.5552552,40.1905737],[41.5523988,40.1944569],[41.5468019,40.1974521],[41.5430752,40.1953674],[41.530777,40.1947059],[41.5278323,40.1907364],[41.5215966,40.1906041],[41.5129359,40.1928535],[41.5124163,40.1994689],[41.5056609,40.2072742],[41.5004645,40.2076711],[41.4886859,40.2001304],[41.4803716,40.227511],[41.4426109,40.2396766],[41.4116056,40.2392799],[41.4064092,40.231346],[41.398961,40.2338585],[41.3792145,40.2223531],[41.3367771,40.2030409],[41.3386824,40.1985428],[41.321361,40.1886193],[41.3163378,40.1895455],[41.3040396,40.1846495],[41.3017878,40.1786944],[41.3036932,40.1737975],[41.3010949,40.1710181],[41.2901824,40.1703563],[41.287411,40.1670473],[41.2894896,40.1618849],[41.2806557,40.1571192],[41.2735539,40.1692974],[41.2745932,40.1826645],[41.2678378,40.1868991],[41.2564057,40.1866344],[41.2471882,40.1909396]]]}}]}