{"type":"FeatureCollection","features":[{"type":"Feature","properties":{"code":"62-01","provinceCode":"62","name":"Çemişgezek"},"geometry":{"type":"Polygon","coordinates":[[[38.936893,39.1998379],[38.9029363,39.2148706],[38.8847459,39.2259285],[38.8622642,39.2216718],[38.7670812,39.2134147],[38.7575693,39.2111498],[38.7487053,39.204053],[38.7467335,39.1963532],[38.751811,39.183942],[38.7649212,39.1860428],[38.7697017,39.1855034],[38.7730759,39.1805176],[38.7734802,39.175205],[38.768184,39.1688513],[38.7628227,39.1502778],[38.7599705,39.1489869],[38.7590229,39.1459705],[38.7522335,39.14431],[38.7476697,39.1407267],[38.7339867,39.1382435],[38.7319234,39.1286405],[38.7346745,39.1231716],[38.7335568,39.116168],[38.7448193,39.1086968],[38.745765,39.1026926],[38.741443,39.0933757],[38.7430656,39.0762342],[38.7477127,39.0686693],[38.7499996,39.0449904],[38.7656,39.0124],[38.7668,39.0042],[38.7704,38.9997],[38.7756,38.9998],[38.7786,39.002],[38.7853,39.0008],[38.7889,38.9969],[38.7917,38.9773],[38.7895,38.973],[38.7811,38.9717],[38.7797,38.969],[38.7821,38.9657],[38.7919,38.9618],[38.7924,38.9577],[38.7862,38.9523],[38.7757,38.9475],[38.7665,38.9356],[38.7644,38.9366],[38.7568,38.934],[38.7514,38.9288],[38.7527,38.9251],[38.7502,38.9171],[38.7534,38.9096],[38.7483,38.9036],[38.7484,38.9004],[38.7414,38.8864],[38.8127745,38.8748238],[38.8360975,38.8756708],[38.8566666,38.8787147],[38.9156614,38.8938643],[38.9419325,38.8951028],[39.0041655,38.8904953],[39.0089061,38.9080609],[39.0110116,38.9334515],[39.0158821,38.9437336],[39.0276552,38.9457118],[39.0334256,38.9493794],[39.0327604,38.9506359],[39.035445,38.9519267],[39.0365871,38.9548436],[39.0394511,38.95518],[39.0405203,38.9585183],[39.0431294,38.9587771],[39.0454951,38.9625348],[39.0502903,38.965195],[39.0499412,38.9691455],[39.0541188,38.9781953],[39.0633624,38.9872997],[39.0667756,38.9877365],[39.0667398,38.9893562],[39.0723752,38.9919196],[39.0708214,38.9941854],[39.082446,39.0098363],[39.1055921,39.0282198],[39.1128953,39.0357425],[39.1045463,39.0609114],[39.1046466,39.0667636],[39.1089661,39.0741846],[39.1095637,39.0823028],[39.1053806,39.0908839],[39.0802818,39.104797],[39.0701228,39.1187074],[39.0396458,39.1256616],[38.9799161,39.1588455],[38.9582961,39.1865169],[38.936893,39.1998379]]]}},{"type":"Feature","properties":{"code":"62-02","provinceCode":"62","name":"Hozat"},"geometry":{"type":"Polygon","coordinates":[[[38.936893,39.1998379],[38.9582961,39.1865169],[38.9799161,39.1588455],[39.0396458,39.1256616],[39.0701228,39.1187074],[39.0802818,39.104797],[39.1053806,39.0908839],[39.1095637,39.0823028],[39.1089661,39.0741846],[39.1046466,39.0667636],[39.1045463,39.0609114],[39.1128953,39.0357425],[39.1055921,39.0282198],[39.1373238,39.001934],[39.1347814,38.9942773],[39.1478115,38.9957593],[39.1729183,38.9903252],[39.1856306,38.9863728],[39.1907155,38.9806909],[39.2242106,38.9801502],[39.2384157,38.9876937],[39.2487945,38.9955896],[39.256658,38.9973638],[39.2680682,39.0023628],[39.2804142,39.0023283],[39.2910333,39.0056241],[39.3052159,39.0175811],[39.2973326,39.0356238],[39.3006004,39.0508831],[39.3143427,39.0675992],[39.3381821,39.0799959],[39.3483481,39.0930579],[39.3580871,39.1196768],[39.3547687,39.123838],[39.3262479,39.1348986],[39.3192522,39.1450381],[39.3207345,39.1744809],[39.3241198,39.1846564],[39.3220657,39.1955083],[39.3096478,39.2188545],[39.2730277,39.2078584],[39.251099,39.2053958],[39.2340016,39.2122],[39.2262275,39.2080264],[39.2211159,39.2004805],[39.2113141,39.2023468],[39.1661982,39.2053907],[39.1188068,39.2339652],[39.0670802,39.2388336],[39.0184314,39.230123],[38.9478859,39.2065135],[38.936893,39.1998379]]]}},{"type":"Feature","properties":{"code":"62-03","provinceCode":"62","name":"Mazgirt"},"geometry":{"type":"Polygon","coordinates":[[[39.6075931,38.9064812],[39.6072931,38.887457],[39.5996048,38.8768273],[39.5996048,38.8681189],[39.5983086,38.8650133],[39.5845335,38.8507349],[39.5840466,38.8450159],[39.5869446,38.8378189],[39.5833767,38.8251436],[39.5968486,38.8115281],[39.6119745,38.8174212],[39.6360662,38.815707],[39.6457158,38.8176149],[39.6531602,38.8140289],[39.6584704,38.8080244],[39.6653572,38.8036825],[39.6802677,38.8018399],[39.6849483,38.7993203],[39.698398,38.801408],[39.7036561,38.8003177],[39.7018713,38.8037387],[39.6944907,38.8067837],[39.6915502,38.8096137],[39.6939103,38.8200204],[39.7181147,38.8339561],[39.7381309,38.8331321],[39.7524302,38.8270477],[39.7758285,38.8274129],[39.7983838,38.8210601],[39.7996714,38.8355601],[39.7979031,38.8482293],[39.8120398,38.8576475],[39.8180994,38.8588799],[39.8190694,38.8695159],[39.8234865,38.8717448],[39.8280204,38.8792598],[39.8416823,38.8780861],[39.8486956,38.8820353],[39.8508905,38.8909271],[39.8420553,38.8968203],[39.8445477,38.8978237],[39.8490087,38.8970611],[39.8531217,38.900242],[39.8595322,38.9018201],[39.8609009,38.904522],[39.8691652,38.908598],[39.8739855,38.9155685],[39.8734787,38.9258454],[39.8702269,38.9315377],[39.8675146,38.9319685],[39.8677662,38.9394116],[39.8767651,38.9451037],[39.8721629,38.9507757],[39.8769742,38.9555112],[39.8758909,38.9600416],[39.8803392,38.9640386],[39.8829805,38.9701501],[39.8875106,38.97348],[39.8874032,38.9757104],[39.8827047,38.9808288],[39.8844911,38.9842413],[39.8907599,38.9882319],[39.8882356,38.9966788],[39.8909214,38.998792],[39.8970183,38.9989441],[39.9015582,39.003111],[39.901985,39.0086075],[39.8976032,39.0184491],[39.8943846,39.021343],[39.8902977,39.0209871],[39.8785004,39.030868],[39.8790527,39.037357],[39.874207,39.0426761],[39.8652206,39.0441793],[39.8627713,39.0499044],[39.8631273,39.0536877],[39.8275971,39.0666389],[39.7671834,39.0787269],[39.7485448,39.0742806],[39.7320222,39.0670971],[39.7232101,39.0607682],[39.7044845,39.0556363],[39.6639491,39.0503328],[39.6576841,39.0429398],[39.6458583,39.0391814],[39.6330174,39.0379555],[39.6258236,39.0344631],[39.6183513,39.033695],[39.6137186,39.0370421],[39.5958738,39.0427346],[39.587226,39.0409105],[39.5786709,39.0416032],[39.5745676,39.0438653],[39.5725584,39.048139],[39.5595036,39.0510136],[39.543147,39.0482312],[39.5130009,39.0370624],[39.5103935,39.0154225],[39.5121655,38.9934516],[39.5169752,38.9847238],[39.5268669,38.9857406],[39.531849,38.9838833],[39.5328435,38.9808762],[39.5356632,38.9798661],[39.5534355,38.9627471],[39.5572961,38.9611136],[39.5617241,38.9558034],[39.5693244,38.9558552],[39.5749839,38.9542531],[39.5940068,38.9454178],[39.6085419,38.9277954],[39.6095262,38.9207549],[39.6075931,38.9064812]]]}},{"type":"Feature","properties":{"code":"62-04","provinceCode":"62","name":"Nazımiye"},"geometry":{"type":"Polygon","coordinates":[[[39.7870561,39.3371219],[39.7862155,39.3324041],[39.7828439,39.3294733],[39.7844717,39.3262126],[39.7822135,39.3144081],[39.7836647,39.3092456],[39.7823014,39.304719],[39.7767492,39.2983644],[39.7792188,39.2902149],[39.7788913,39.2833819],[39.7745084,39.2770063],[39.7756041,39.2730406],[39.7708718,39.2670862],[39.7711607,39.2629604],[39.7654821,39.2564594],[39.7666602,39.2502837],[39.7602249,39.2461989],[39.7576836,39.2403962],[39.7507608,39.2394056],[39.7496735,39.2379252],[39.7528904,39.2289646],[39.7510178,39.2215321],[39.7552616,39.2183346],[39.7544598,39.213911],[39.7506211,39.211012],[39.7515686,39.2096378],[39.7481481,39.2079413],[39.748483,39.2049124],[39.7364078,39.2021448],[39.7315,39.1977202],[39.7273097,39.1971279],[39.7294969,39.1934485],[39.7260588,39.1851829],[39.7308188,39.1721803],[39.7361152,39.1631223],[39.7428136,39.1584116],[39.7451532,39.1523962],[39.7497796,39.1484668],[39.7726909,39.1443664],[39.7781985,39.1383862],[39.781503,39.1308674],[39.7797406,39.1230061],[39.7726909,39.1153148],[39.7622909,39.1119686],[39.7517623,39.1115543],[39.7447126,39.1086483],[39.7409675,39.1024941],[39.7427299,39.0977071],[39.7499999,39.0944586],[39.7522029,39.091381],[39.7519826,39.0877902],[39.7574901,39.0818051],[39.7671834,39.0787269],[39.8275971,39.0666389],[39.8631273,39.0536877],[39.8676805,39.0563068],[39.8686736,39.0590276],[39.8779919,39.0607292],[39.8801923,39.0657567],[39.8898785,39.070913],[39.8930611,39.0755711],[39.8946151,39.0856418],[39.8974043,39.0865308],[39.90509,39.0851997],[39.9071246,39.087943],[39.9062857,39.0921248],[39.9092977,39.0971918],[39.9264325,39.0994643],[39.9316356,39.1035427],[39.9345527,39.1009972],[39.9522873,39.1216853],[39.9520677,39.1407665],[39.9470162,39.1525192],[39.9454788,39.1656323],[39.9467966,39.1768702],[39.9440852,39.1897676],[39.9535904,39.1886062],[39.9819373,39.2080202],[39.9924795,39.2388163],[40.0008254,39.2466408],[40.0177686,39.2558294],[40.0302655,39.2699964],[40.0335995,39.2774883],[40.0215408,39.3100962],[40.0421818,39.32242],[40.0256257,39.3342451],[39.9858461,39.338215],[39.9383671,39.3347413],[39.7870561,39.3371219]]]}},{"type":"Feature","properties":{"code":"62-05","provinceCode":"62","name":"Ovacık"},"geometry":{"type":"Polygon","coordinates":[[[39.3096478,39.2188545],[39.3594804,39.2352378],[39.3956099,39.2393329],[39.4365859,39.2393329],[39.4643439,39.2468401],[39.4960673,39.2669689],[39.6228852,39.3227741],[39.6260969,39.3262046],[39.6511322,39.3397828],[39.680738,39.351687],[39.694191,39.3625832],[39.6660085,39.3838824],[39.636726,39.4159588],[39.6140975,39.4467844],[39.601168,39.4475624],[39.5820256,39.4412085],[39.5714469,39.4447097],[39.5551591,39.4589721],[39.5501216,39.4667503],[39.5423975,39.4734907],[39.5363525,39.4902093],[39.5390392,39.4992798],[39.5450841,39.5058875],[39.5549912,39.5114582],[39.5600286,39.5189715],[39.5568382,39.5232459],[39.5477708,39.5179352],[39.5370242,39.5165103],[39.5264455,39.5100332],[39.4933597,39.5000187],[39.4690119,39.4976864],[39.4497016,39.5066263],[39.440802,39.5049421],[39.4285442,39.5015735],[39.4023493,39.4864127],[39.3932691,39.4779538],[39.3809247,39.4791832],[39.3683812,39.474419],[39.3564964,39.4666896],[39.3470772,39.4635062],[39.3393121,39.4636599],[39.3299273,39.4583446],[39.3091561,39.4567295],[39.298496,39.4544365],[39.2880561,39.4605299],[39.2822726,39.4739113],[39.2844725,39.4868015],[39.2759088,39.4892637],[39.2646585,39.4884862],[39.2443407,39.4799328],[39.2208325,39.4722856],[39.1969884,39.4676192],[39.1785177,39.4680081],[39.1692823,39.4703413],[39.1581999,39.4689154],[39.1227697,39.4682673],[39.1014444,39.4612671],[39.0948957,39.455433],[39.0750096,39.4529127],[39.0630196,39.427828],[39.0543633,39.4204553],[39.055653,39.409596],[39.0435602,39.384147],[39.0041221,39.3503529],[38.9802501,39.3382211],[38.9553549,39.3524626],[38.933529,39.3242405],[38.9062466,39.3250319],[38.8671468,39.3479183],[38.8316387,39.3531382],[38.8134865,39.3479795],[38.7977991,39.3363748],[38.7892734,39.3216023],[38.785901,39.3012196],[38.7947093,39.2856564],[38.8038687,39.2811381],[38.8599162,39.2848618],[38.8888541,39.2698743],[38.9394141,39.2671388],[38.9425356,39.2579082],[38.9389621,39.2488062],[38.9259593,39.2393598],[38.8847459,39.2259285],[38.9029363,39.2148706],[38.936893,39.1998379],[38.9478859,39.2065135],[39.0184314,39.230123],[39.0670802,39.2388336],[39.1188068,39.2339652],[39.1661982,39.2053907],[39.2113141,39.2023468],[39.2211159,39.2004805],[39.2262275,39.2080264],[39.2340016,39.2122],[39.251099,39.2053958],[39.2730277,39.2078584],[39.3096478,39.2188545]]]}},{"type":"Feature","properties":{"code":"62-06","provinceCode":"62","name":"Pertek"},"geometry":{"type":"Polygon","coordinates":[[[39.1055921,39.0282198],[39.082446,39.0098363],[39.0708214,38.9941854],[39.0723752,38.9919196],[39.0667398,38.9893562],[39.0667756,38.9877365],[39.0633624,38.9872997],[39.0541188,38.9781953],[39.0499412,38.9691455],[39.0502903,38.965195],[39.0454951,38.9625348],[39.0431294,38.9587771],[39.0405203,38.9585183],[39.0394511,38.95518],[39.0365871,38.9548436],[39.035445,38.9519267],[39.0327604,38.9506359],[39.0334256,38.9493794],[39.0276552,38.9457118],[39.0158821,38.9437336],[39.0110116,38.9334515],[39.0089061,38.9080609],[39.0041655,38.8904953],[39.0297085,38.8834458],[39.0413816,38.8828808],[39.0702665,38.8895488],[39.0808256,38.8870539],[39.1080476,38.8726038],[39.1252823,38.8762928],[39.1416625,38.8709408],[39.2052685,38.8567727],[39.2363815,38.8584358],[39.2486036,38.8603898],[39.2608185,38.8584358],[39.2645532,38.8438334],[39.3108215,38.8181687],[39.3469315,38.8120567],[39.3708266,38.8045496],[39.3852766,38.7901145],[39.3936006,38.7731696],[39.4036026,38.7720555],[39.4287111,38.7869357],[39.4367549,38.7861188],[39.4481694,38.7709183],[39.4753512,38.7649524],[39.4837427,38.7631676],[39.4949875,38.7673255],[39.5086205,38.7686337],[39.5119457,38.7738538],[39.5066731,38.7876103],[39.5096435,38.7912127],[39.518886,38.7943707],[39.5233152,38.7990723],[39.519899,38.8061392],[39.5311776,38.8175198],[39.5361271,38.8165083],[39.5435109,38.8095536],[39.5476143,38.808626],[39.5733962,38.8193677],[39.5779978,38.8233652],[39.5833767,38.8251436],[39.5869446,38.8378189],[39.5840466,38.8450159],[39.5845335,38.8507349],[39.5983086,38.8650133],[39.5996048,38.8681189],[39.5996048,38.8768273],[39.6072931,38.887457],[39.6075931,38.9064812],[39.5739044,38.9003022],[39.5550266,38.9210363],[39.5410562,38.9418504],[39.5261779,38.9587361],[39.518476,38.9587361],[39.5050813,38.9618608],[39.4434659,38.9816469],[39.3734127,39.0158057],[39.3525602,39.0331859],[39.3320423,39.0417793],[39.3125244,39.0302706],[39.3052159,39.0175811],[39.2910333,39.0056241],[39.2804142,39.0023283],[39.2680682,39.0023628],[39.256658,38.9973638],[39.2487945,38.9955896],[39.2384157,38.9876937],[39.2242106,38.9801502],[39.1907155,38.9806909],[39.1856306,38.9863728],[39.1729183,38.9903252],[39.1478115,38.9957593],[39.1347814,38.9942773],[39.1373238,39.001934],[39.1055921,39.0282198]]]}},{"type":"Feature","properties":{"code":"62-07","provinceCode":"62","name":"Pülümür"},"geometry":{"type":"Polygon","coordinates":[[[40.1718408,39.5802209],[40.170532,39.5784468],[40.1658361,39.57748],[40.1545388,39.5775289],[40.1369325,39.5647123],[40.1235321,39.5640216],[40.1197647,39.5607075],[40.1152648,39.5616241],[40.1086163,39.5606525],[40.1023599,39.5563623],[40.0850588,39.5561254],[40.0750393,39.5525278],[40.0633063,39.5505634],[40.0564059,39.5530129],[40.0552103,39.5548303],[40.0490272,39.5521569],[40.0449621,39.5559628],[40.0401113,39.5566608],[40.0130745,39.5680582],[39.9884995,39.5648575],[39.978916,39.5671509],[39.9671022,39.5726621],[39.9495995,39.5743142],[39.9463896,39.5763554],[39.9242709,39.5807111],[39.9208861,39.5831426],[39.9141984,39.5828138],[39.9045778,39.5855891],[39.8992008,39.5851937],[39.8908679,39.5886613],[39.873122,39.5891241],[39.8719071,39.5936796],[39.8611835,39.595245],[39.8579816,39.5993141],[39.8485928,39.6014349],[39.8488796,39.6055927],[39.8471987,39.6069092],[39.8367978,39.6086436],[39.8283355,39.6042305],[39.8255174,39.6045205],[39.8214497,39.6070246],[39.8173696,39.6069518],[39.805322,39.6147054],[39.8019051,39.6149985],[39.7940274,39.6027075],[39.7959208,39.5893515],[39.7887914,39.5791542],[39.7972031,39.5549742],[39.8080337,39.5311242],[39.8053785,39.5271417],[39.7820067,39.5171195],[39.7403637,39.5022213],[39.7208854,39.4925033],[39.6867985,39.4842096],[39.6577491,39.4695636],[39.6431405,39.458026],[39.625012,39.4492481],[39.6140975,39.4467844],[39.636726,39.4159588],[39.6660085,39.3838824],[39.694191,39.3625832],[39.7078405,39.3702019],[39.7178158,39.3716945],[39.7300436,39.3664704],[39.7374447,39.3567676],[39.7593261,39.3418375],[39.7870561,39.3371219],[39.9383671,39.3347413],[39.9858461,39.338215],[40.0256257,39.3342451],[40.0421818,39.32242],[40.0550281,39.3170961],[40.0730166,39.3143808],[40.0757936,39.3166702],[40.0799825,39.3155385],[40.0791182,39.3117317],[40.0815118,39.31096],[40.0823097,39.312812],[40.0886929,39.3109086],[40.0868311,39.309108],[40.0884697,39.3047583],[40.095342,39.3057124],[40.0991992,39.3034346],[40.0988673,39.3020007],[40.1055606,39.3039055],[40.1067775,39.3022147],[40.1152437,39.3016668],[40.1169077,39.3047175],[40.1394195,39.3299039],[40.1476049,39.3322781],[40.1473126,39.3398527],[40.1558362,39.3467985],[40.1692378,39.3488958],[40.1828315,39.3564685],[40.1917477,39.3509303],[40.2003173,39.35247],[40.2019795,39.3569206],[40.2151001,39.3620192],[40.2371868,39.3677787],[40.277129,39.4228373],[40.2902988,39.4451324],[40.2921397,39.4729568],[40.281857,39.4834645],[40.2820723,39.494102],[40.3026648,39.5102232],[40.325291,39.5217572],[40.3965631,39.5529655],[40.4038294,39.5650207],[40.4001383,39.5722157],[40.3854213,39.5852197],[40.3626124,39.5901138],[40.3502781,39.5869435],[40.32889,39.584501],[40.3113648,39.579362],[40.2896187,39.5754405],[40.2410942,39.5698239],[40.2209905,39.5690016],[40.1882408,39.5753448],[40.1718408,39.5802209]]]}},{"type":"Feature","properties":{"code":"62-08","provinceCode":"62","name":"Tunceli merkez"},"geometry":{"type":"Polygon","coordinates":[[[39.3052159,39.0175811],[39.3125244,39.0302706],[39.3320423,39.0417793],[39.3525602,39.0331859],[39.3734127,39.0158057],[39.4434659,38.9816469],[39.5050813,38.9618608],[39.518476,38.9587361],[39.5261779,38.9587361],[39.5410562,38.9418504],[39.5550266,38.9210363],[39.5739044,38.9003022],[39.6075931,38.9064812],[39.6095262,38.9207549],[39.6085419,38.9277954],[39.5940068,38.9454178],[39.5749839,38.9542531],[39.5693244,38.9558552],[39.5617241,38.9558034],[39.5572961,38.9611136],[39.5534355,38.9627471],[39.5356632,38.9798661],[39.5328435,38.9808762],[39.531849,38.9838833],[39.5268669,38.9857406],[39.5169752,38.9847238],[39.5121655,38.9934516],[39.5103935,39.0154225],[39.5130009,39.0370624],[39.543147,39.0482312],[39.5595036,39.0510136],[39.5725584,39.048139],[39.5745676,39.0438653],[39.5786709,39.0416032],[39.587226,39.0409105],[39.5958738,39.0427346],[39.6137186,39.0370421],[39.6183513,39.033695],[39.6258236,39.0344631],[39.6330174,39.0379555],[39.6458583,39.0391814],[39.6576841,39.0429398],[39.6639491,39.0503328],[39.7044845,39.0556363],[39.7232101,39.0607682],[39.7320222,39.0670971],[39.7485448,39.0742806],[39.7671834,39.0787269],[39.7574901,39.0818051],[39.7519826,39.0877902],[39.7522029,39.091381],[39.7499999,39.0944586],[39.7427299,39.0977071],[39.7409675,39.1024941],[39.7447126,39.1086483],[39.7517623,39.1115543],[39.7622909,39.1119686],[39.7726909,39.1153148],[39.7797406,39.1230061],[39.781503,39.1308674],[39.7781985,39.1383862],[39.7726909,39.1443664],[39.7497796,39.1484668],[39.7451532,39.1523962],[39.7428136,39.1584116],[39.7361152,39.1631223],[39.7308188,39.1721803],[39.7260588,39.1851829],[39.7294969,39.1934485],[39.7273097,39.1971279],[39.7315,39.1977202],[39.7364078,39.2021448],[39.748483,39.2049124],[39.7481481,39.2079413],[39.7515686,39.2096378],[39.7506211,39.211012],[39.7544598,39.213911],[39.7552616,39.2183346],[39.7510178,39.2215321],[39.7528904,39.2289646],[39.7496735,39.2379252],[39.7507608,39.2394056],[39.7576836,39.2403962],[39.7602249,39.2461989],[39.7666602,39.2502837],[39.7654821,39.2564594],[39.7711607,39.2629604],[39.7708718,39.2670862],[39.7756041,39.2730406],[39.7745084,39.2770063],[39.7788913,39.2833819],[39.7792188,39.2902149],[39.7767492,39.2983644],[39.7823014,39.304719],[39.7836647,39.3092456],[39.7822135,39.3144081],[39.7844717,39.3262126],[39.7828439,39.3294733],[39.7862155,39.3324041],[39.7870561,39.3371219],[39.7593261,39.3418375],[39.7374447,39.3567676],[39.7300436,39.3664704],[39.7178158,39.3716945],[39.7078405,39.3702019],[39.694191,39.3625832],[39.680738,39.351687],[39.6511322,39.3397828],[39.6260969,39.3262046],[39.6228852,39.3227741],[39.4960673,39.2669689],[39.4643439,39.2468401],[39.4365859,39.2393329],[39.3956099,39.2393329],[39.3594804,39.2352378],[39.3096478,39.2188545],[39.3220657,39.1955083],[39.3241198,39.1846564],[39.3207345,39.1744809],[39.3192522,39.1450381],[39.3262479,39.1348986],[39.3547687,39.123838],[39.3580871,39.1196768],[39.3483481,39.0930579],[39.3381821,39.0799959],[39.3143427,39.0675992],[39.3006004,39.0508831],[39.2973326,39.0356238],[39.3052159,39.0175811]]]}}]}