{"type":"FeatureCollection","features":[{"type":"Feature","properties":{"code":"50-01","provinceCode":"50","name":"Acıgöl"},"geometry":{"type":"Polygon","coordinates":[[[34.4223637,38.5286388],[34.4196239,38.5227195],[34.4222589,38.520639],[34.4167423,38.5172144],[34.4237082,38.5083118],[34.4263194,38.4923318],[34.4381866,38.4891181],[34.4402938,38.4811773],[34.4344375,38.4786238],[34.4355068,38.4763732],[34.4325871,38.4760334],[34.433155,38.4727308],[34.4299912,38.4705079],[34.4349397,38.4677132],[34.4314514,38.4677132],[34.4317072,38.4651198],[34.435832,38.4633306],[34.4415928,38.4550281],[34.4390207,38.4538424],[34.443126,38.4514945],[34.4425445,38.4494128],[34.439077,38.4507526],[34.4389725,38.4487622],[34.4352642,38.4492278],[34.4391528,38.4457307],[34.4410141,38.4468184],[34.4411474,38.4457732],[34.4487405,38.445265],[34.4465988,38.4437909],[34.4469882,38.4407919],[34.456188,38.4403244],[34.4603826,38.438544],[34.4618103,38.435799],[34.459474,38.4338672],[34.4621997,38.4284275],[34.4575919,38.4271564],[34.4576568,38.4251228],[34.4605773,38.4247669],[34.4653172,38.4203076],[34.4644538,38.4164564],[34.4717414,38.413002],[34.4715255,38.4083765],[34.4742521,38.4077624],[34.472387,38.4051044],[34.474169,38.4038893],[34.4782394,38.4046704],[34.4787794,38.4032383],[34.4815207,38.40441],[34.4843986,38.3962334],[34.4891336,38.3969496],[34.5006132,38.3865979],[34.5029958,38.3886501],[34.5054214,38.3882854],[34.5101571,38.3799665],[34.5113197,38.3826878],[34.5210095,38.3854904],[34.5211428,38.3871096],[34.5184774,38.3886765],[34.51991,38.3894598],[34.5253824,38.3891751],[34.5487099,38.3929892],[34.5483286,38.3971728],[34.5443887,38.4018542],[34.5473119,38.402639],[34.5452296,38.4046279],[34.5491339,38.4052908],[34.5491339,38.4065146],[34.5459454,38.4065146],[34.54562,38.4093702],[34.5410649,38.4060556],[34.53664,38.4065146],[34.5397634,38.4086563],[34.5378113,38.4106448],[34.5412601,38.4100839],[34.5424965,38.4112057],[34.5410594,38.4126109],[34.5443494,38.4144709],[34.5409761,38.4193981],[34.5467233,38.419137],[34.5437664,38.4268372],[34.5400599,38.4291536],[34.5409344,38.4303607],[34.5495553,38.4288274],[34.5500967,38.4304259],[34.5464734,38.4337209],[34.5580928,38.4322856],[34.5610081,38.4371789],[34.5544696,38.4391688],[34.559134,38.4445183],[34.5643323,38.4475243],[34.579513,38.453412],[34.5889919,38.4523486],[34.5788965,38.4858214],[34.5794644,38.4892503],[34.5743536,38.4936949],[34.5800322,38.4971235],[34.5803567,38.4990282],[34.5754893,38.4975044],[34.5731368,38.4987742],[34.5782075,38.5013635],[34.5756198,38.513629],[34.5775174,38.5154063],[34.5823848,38.5159141],[34.5830377,38.5192238],[34.5874144,38.5176913],[34.5898481,38.5187703],[34.5889557,38.5219438],[34.5946343,38.5216899],[34.5977981,38.5193415],[34.605667,38.5202936],[34.610291,38.5190877],[34.6106967,38.5241017],[34.6184845,38.5265133],[34.6197013,38.529623],[34.6171865,38.5310826],[34.6205937,38.5316537],[34.6221492,38.5370642],[34.61094,38.5489761],[34.6117513,38.552973],[34.6098043,38.5559546],[34.6113456,38.5610929],[34.6144283,38.5633131],[34.6169431,38.5626153],[34.6165375,38.5671189],[34.6196202,38.56788],[34.6159696,38.5721295],[34.6178355,38.573398],[34.615564,38.5757446],[34.6124002,38.575808],[34.6098854,38.5809449],[34.6098854,38.5855741],[34.6057482,38.5920418],[34.5995828,38.5924223],[34.5965813,38.5940708],[34.5959323,38.5976848],[34.5918762,38.5980652],[34.5842148,38.6029087],[34.577076,38.6024649],[34.5741555,38.5998656],[34.5712351,38.6032258],[34.5686392,38.6039865],[34.5659621,38.6024015],[34.5648264,38.6030356],[34.5661244,38.6049374],[34.5596345,38.6117838],[34.55136,38.6129881],[34.5471416,38.6085508],[34.5426799,38.6096918],[34.5438967,38.6136854],[34.5411385,38.6154602],[34.5370183,38.6135389],[34.5355039,38.6159239],[34.5354233,38.6188872],[34.5375831,38.6204968],[34.5367037,38.6309825],[34.5391374,38.6332797],[34.5277802,38.634864],[34.5253465,38.6383491],[34.5180455,38.6386659],[34.5163216,38.6428638],[34.5052686,38.646111],[34.5004012,38.6564059],[34.5006458,38.6590938],[34.4958094,38.6616423],[34.4836086,38.6605275],[34.4844522,38.6637706],[34.4786114,38.6663044],[34.473744,38.6663044],[34.4721216,38.6687872],[34.467384,38.6645307],[34.4641391,38.6659497],[34.4535607,38.6606288],[34.4463569,38.6616423],[34.4456431,38.6680779],[34.4423332,38.6692433],[34.4372063,38.6665071],[34.4284039,38.6670706],[34.4188092,38.6628715],[34.4100145,38.6621587],[34.4102731,38.6610169],[34.4044457,38.6626761],[34.4081641,38.679348],[34.3989713,38.6836087],[34.3935289,38.6892937],[34.3828207,38.6892937],[34.3769798,38.6845445],[34.3742216,38.6872674],[34.3708573,38.6851909],[34.3716465,38.6817866],[34.3694036,38.6795493],[34.3698189,38.6776038],[34.3622745,38.6727419],[34.3633291,38.6684984],[34.3537314,38.6638795],[34.3515101,38.6608025],[34.353396,38.6578566],[34.3506663,38.6457913],[34.3564025,38.6441656],[34.3427037,38.631918],[34.3439206,38.6298268],[34.3416491,38.6284325],[34.3437049,38.6260211],[34.3422447,38.6129596],[34.3569034,38.5936058],[34.3899911,38.5724016],[34.4182145,38.5497756],[34.4249203,38.5418033],[34.4284576,38.5422173],[34.4285844,38.5374044],[34.4248967,38.5385657],[34.4247782,38.535265],[34.4204313,38.5313195],[34.4223637,38.5286388]],[[34.3723436,38.6318168],[34.3725235,38.6423366],[34.3771184,38.6453066],[34.3775937,38.6477816],[34.390586,38.6522362],[34.3985082,38.6514938],[34.3996173,38.648524],[34.404529,38.6496377],[34.4021524,38.6526074],[34.4098432,38.6590815],[34.4120539,38.6555259],[34.4149659,38.6563954],[34.4141095,38.6534525],[34.4161681,38.6506209],[34.4124822,38.6430178],[34.4123697,38.6366069],[34.4089707,38.6353914],[34.4005959,38.628107],[34.3872587,38.6283511],[34.3723436,38.6318168]]]}},{"type":"Feature","properties":{"code":"50-02","provinceCode":"50","name":"Avanos"},"geometry":{"type":"Polygon","coordinates":[[[34.8280547,39.0523615],[34.8277718,39.0437979],[34.8237603,39.0412135],[34.8232476,39.0368399],[34.8152775,39.035893],[34.8153612,39.0342647],[34.8105704,39.0311103],[34.8112369,39.029437],[34.807366,39.0281516],[34.8076046,39.0237023],[34.8056883,39.0236314],[34.8051864,39.0221071],[34.801816,39.0242022],[34.797156,39.0116138],[34.7986258,39.0113324],[34.7989354,39.0072175],[34.795945,38.9996577],[34.7978335,38.9973094],[34.7970781,38.9955691],[34.7997759,38.9943111],[34.797213,38.9910086],[34.8013272,38.9910086],[34.8013272,38.9894883],[34.7927015,38.986888],[34.7929172,38.9817285],[34.7891079,38.9786317],[34.7873457,38.9739423],[34.7818287,38.9769271],[34.7771448,38.9769762],[34.7769385,38.9732506],[34.772983,38.9697973],[34.7731783,38.9669721],[34.7708671,38.9668507],[34.7746149,38.964908],[34.7737404,38.9622367],[34.7757028,38.961025],[34.7739903,38.958351],[34.7636524,38.9538335],[34.7616702,38.9481917],[34.7516547,38.9442088],[34.7470129,38.948008],[34.7435567,38.9411214],[34.7303837,38.9266733],[34.7210309,38.9060719],[34.7157155,38.9003257],[34.7116635,38.891884],[34.7129304,38.8908809],[34.7102009,38.8785717],[34.7054718,38.878909],[34.7041615,38.8749216],[34.7001227,38.8728676],[34.6954917,38.8734204],[34.6817918,38.8655436],[34.6826349,38.857666],[34.6895902,38.8562709],[34.6908548,38.8521676],[34.6978102,38.8496234],[34.7004448,38.8512648],[34.7114085,38.8497117],[34.7110885,38.8398561],[34.7131962,38.8376398],[34.7110885,38.8357517],[34.7048709,38.8349309],[34.7048709,38.8299232],[34.6931733,38.8174436],[34.6962294,38.8120242],[34.705714,38.8101355],[34.7140393,38.8047155],[34.7140393,38.796749],[34.7185708,38.7952706],[34.7198354,38.7896852],[34.72247,38.7883709],[34.7229969,38.7854137],[34.7260452,38.7826686],[34.729006,38.784003],[34.729496,38.7826094],[34.7261473,38.7813042],[34.727439,38.777202],[34.7336088,38.7746044],[34.7387525,38.7658444],[34.7352377,38.7605227],[34.7382623,38.7516723],[34.7469415,38.7516666],[34.7492543,38.7477163],[34.75489,38.7459336],[34.7581825,38.7467113],[34.7606019,38.7497004],[34.7652418,38.7492679],[34.7670008,38.7469992],[34.7666938,38.739274],[34.7685575,38.7345825],[34.7759314,38.7307251],[34.7799075,38.7328078],[34.7800609,38.7173426],[34.7835517,38.7189001],[34.7877144,38.7153887],[34.7868637,38.7119934],[34.792974,38.7099502],[34.7951541,38.7105333],[34.8120404,38.7052878],[34.8144687,38.705942],[34.8149198,38.6977865],[34.8220798,38.6964369],[34.8175073,38.6932168],[34.8181744,38.6904639],[34.822824,38.6861389],[34.8271389,38.6765329],[34.8376352,38.6670694],[34.852242,38.6450539],[34.8579452,38.6497637],[34.8559529,38.6508127],[34.8580123,38.6527357],[34.8519236,38.651914],[34.8504462,38.6550257],[34.8529085,38.6541167],[34.8517893,38.6557075],[34.8548092,38.6547469],[34.8583481,38.6557075],[34.8612918,38.6570645],[34.8613631,38.660006],[34.8703242,38.6605391],[34.8741709,38.6633854],[34.8784045,38.6615022],[34.8822013,38.6622992],[34.8821326,38.6682342],[34.8845611,38.6728367],[34.883509,38.6756853],[34.8887348,38.6761543],[34.8906722,38.6816968],[34.8930335,38.6816338],[34.8936775,38.6881809],[34.8898941,38.6937835],[34.8915676,38.6996059],[34.8895978,38.6990993],[34.8895754,38.7006716],[34.8913886,38.7013703],[34.8934099,38.7070316],[34.8915962,38.7193464],[34.8951723,38.721257],[34.897055,38.7259847],[34.8945729,38.7316172],[34.9010992,38.7321023],[34.902685,38.7342624],[34.9006487,38.738254],[34.9009836,38.7591881],[34.9080752,38.7609425],[34.9197998,38.7709274],[34.926328,38.7714892],[34.936256,38.7670299],[34.9385671,38.7644047],[34.9486786,38.7675335],[34.9549174,38.7635893],[34.9615373,38.7641963],[34.9638592,38.7617665],[34.9707322,38.7643022],[34.9725509,38.7637255],[34.9720524,38.7572261],[34.973739,38.7553133],[34.9809096,38.7526793],[34.9876624,38.7547165],[34.9895026,38.7538063],[34.9886376,38.7503095],[34.9837943,38.7478656],[34.987558,38.7454766],[34.9903758,38.7392279],[34.9948512,38.7392925],[35.0050175,38.7431495],[35.0151056,38.7434266],[35.0340971,38.7413355],[35.039016,38.7400927],[35.046788,38.7341258],[35.0472142,38.7301236],[35.0534463,38.7305855],[35.0601874,38.725204],[35.0674041,38.7239937],[35.0752953,38.7267299],[35.0774161,38.7258897],[35.0713508,38.7400767],[35.0678817,38.7423161],[35.0789494,38.7470103],[35.0661314,38.7546333],[35.0647728,38.7614667],[35.0614514,38.76298],[35.0627708,38.7634083],[35.0617678,38.7646342],[35.0450017,38.7745444],[35.0331028,38.7776728],[35.0273478,38.772825],[35.0227811,38.7743622],[35.0161006,38.7730181],[35.0070933,38.7848928],[34.9961042,38.7924753],[34.9936708,38.7916075],[34.9885053,38.7929331],[34.9840536,38.7901339],[34.9769783,38.7883686],[34.9703464,38.7996169],[34.9656472,38.8043619],[34.9644422,38.8142989],[34.9659775,38.8184369],[34.9639303,38.8211997],[34.9649089,38.8243458],[34.9625139,38.8341694],[34.9596656,38.8394339],[34.9606631,38.8443289],[34.9785181,38.8507172],[34.9827697,38.8577847],[34.9880017,38.8593514],[35.0014822,38.8597825],[35.0019706,38.8614144],[35.0116342,38.8624328],[35.0110689,38.8646878],[35.0193256,38.8648789],[35.0157275,38.8722736],[35.0153039,38.8789844],[35.0086408,38.8896847],[35.0100869,38.8969908],[35.0067344,38.9015053],[35.0082081,38.9037983],[35.0060525,38.9054414],[35.0074486,38.9058275],[35.0041117,38.9066128],[35.0048222,38.9083],[35.0016214,38.9102281],[35.0067761,38.9110036],[35.0134281,38.9166011],[35.0176869,38.9174161],[35.0270103,38.9244056],[35.0252875,38.9264008],[35.0277358,38.9333639],[35.0345622,38.9395106],[35.0349244,38.9502825],[35.0324856,38.9499858],[35.0327194,38.9547408],[35.0381261,38.9552786],[35.0447992,38.9533367],[35.0496983,38.9541836],[35.0469964,38.9641811],[35.0438222,38.9638344],[35.0448142,38.9661744],[35.0422644,38.9719306],[35.0452881,38.971125],[35.0454847,38.9785436],[35.0495067,38.9784961],[35.0477181,38.9845811],[35.0464611,38.9839625],[35.0445708,38.9866061],[35.0480081,38.9869217],[35.0471942,38.9897342],[35.0447386,38.9892636],[35.0472711,38.9915919],[35.0458414,38.9947131],[35.0494814,38.9940281],[35.0469311,39.0007969],[35.0483714,39.0016064],[35.0431303,39.0276986],[35.0440617,39.03369],[35.0446646,39.0468344],[35.0400235,39.0576584],[35.0349209,39.064471],[35.0373335,39.059521],[35.0334807,39.0584225],[35.0276494,39.0513911],[35.0237751,39.0535366],[35.0235846,39.0607168],[35.0208282,39.0607831],[35.0185409,39.0628903],[35.0189771,39.0647201],[35.0162597,39.0655759],[35.0160801,39.0755348],[35.0099824,39.0745649],[35.0089582,39.0760017],[35.0084828,39.0737527],[35.0071902,39.0763197],[35.00184,39.0764272],[35.0008816,39.0750947],[35.0025194,39.0729405],[35.0001131,39.0723448],[34.9995551,39.0735902],[34.9922462,39.0707539],[34.9931034,39.0631931],[34.9894068,39.0646553],[34.984385,39.0622183],[34.9770614,39.064195],[34.976055,39.0668365],[34.9702227,39.067935],[34.9682035,39.0700976],[34.9648374,39.0693618],[34.9601127,39.0713972],[34.9556279,39.0707276],[34.9584388,39.0736985],[34.9563857,39.0750227],[34.9384731,39.0686808],[34.9390802,39.0661765],[34.944587,39.0658688],[34.9422562,39.0635385],[34.9205713,39.0539084],[34.9178474,39.0645442],[34.9150263,39.0645702],[34.8962652,39.0756962],[34.8865547,39.0630978],[34.8781843,39.0671487],[34.8889077,39.0800286],[34.8779907,39.086506],[34.8647574,39.0699791],[34.8603995,39.0723326],[34.8594878,39.0696033],[34.8451401,39.058747],[34.8280547,39.0523615]]]}},{"type":"Feature","properties":{"code":"50-03","provinceCode":"50","name":"Gülşehir"},"geometry":{"type":"MultiPolygon","coordinates":[[[[34.3569034,38.5936058],[34.3422447,38.6129596],[34.3437049,38.6260211],[34.3416491,38.6284325],[34.3439206,38.6298268],[34.3427037,38.631918],[34.3564025,38.6441656],[34.3506663,38.6457913],[34.353396,38.6578566],[34.3515101,38.6608025],[34.3537314,38.6638795],[34.3633291,38.6684984],[34.3622745,38.6727419],[34.3698189,38.6776038],[34.3694036,38.6795493],[34.3716465,38.6817866],[34.3708573,38.6851909],[34.3742216,38.6872674],[34.3769798,38.6845445],[34.3828207,38.6892937],[34.3935289,38.6892937],[34.3989713,38.6836087],[34.4081641,38.679348],[34.4044457,38.6626761],[34.4102731,38.6610169],[34.4100145,38.6621587],[34.4188092,38.6628715],[34.4284039,38.6670706],[34.4267721,38.668581],[34.4380612,38.6730653],[34.4344962,38.6780131],[34.4362787,38.6824968],[34.4438047,38.6846613],[34.4471717,38.6916179],[34.4455872,38.694555],[34.4489541,38.6999651],[34.4453892,38.7013561],[34.4461814,38.7049111],[34.4609209,38.7046504],[34.4642878,38.7014046],[34.4634956,38.694758],[34.4662683,38.6939852],[34.4708236,38.6981587],[34.4735963,38.696613],[34.4757749,38.6995499],[34.4823107,38.6942942],[34.4846873,38.6975404],[34.4890445,38.6972313],[34.4969774,38.7007621],[34.5027414,38.6999439],[34.5064558,38.7038452],[34.511526,38.6995916],[34.5248352,38.7003829],[34.5359896,38.6959313],[34.540933,38.6960303],[34.540426,38.6927655],[34.5446089,38.6921719],[34.548665,38.6873239],[34.5408063,38.6808926],[34.5442286,38.6790125],[34.5427076,38.6775282],[34.5482848,38.6723824],[34.5484115,38.6678301],[34.5561436,38.6650589],[34.5528479,38.6636732],[34.5546225,38.6593183],[34.553862,38.6542702],[34.5558901,38.6524884],[34.5594392,38.6513996],[34.5646361,38.6532803],[34.5659037,38.6509046],[34.5727484,38.6514986],[34.5752835,38.6538742],[34.5774383,38.6514986],[34.5803537,38.6522905],[34.5803537,38.6563488],[34.5920256,38.6588575],[34.5962085,38.6629156],[34.5963352,38.6680621],[34.5987436,38.668359],[34.5991238,38.6763748],[34.605208,38.6761769],[34.6048278,38.6798382],[34.6138146,38.6761351],[34.6150949,38.6837961],[34.6177567,38.684093],[34.6175032,38.6889411],[34.6200383,38.6905241],[34.6167427,38.695075],[34.6183905,38.6989332],[34.6144447,38.7029445],[34.6281512,38.7029445],[34.6372889,38.7084952],[34.641027,38.7140049],[34.6507358,38.7226332],[34.657018,38.7241724],[34.6638193,38.7206078],[34.6635597,38.7273317],[34.6688554,38.7288303],[34.6670383,38.7319085],[34.6721263,38.7371329],[34.6757087,38.7359989],[34.6841455,38.7420102],[34.6810628,38.7455534],[34.6855245,38.748274],[34.6901485,38.747578],[34.6882588,38.7564164],[34.6912204,38.7545994],[34.7029378,38.75576],[34.7281902,38.7506582],[34.7382623,38.7516723],[34.7352377,38.7605227],[34.7387525,38.7658444],[34.7336088,38.7746044],[34.727439,38.777202],[34.7261473,38.7813042],[34.729496,38.7826094],[34.729006,38.784003],[34.7260452,38.7826686],[34.7229969,38.7854137],[34.72247,38.7883709],[34.7198354,38.7896852],[34.7185708,38.7952706],[34.7140393,38.796749],[34.7140393,38.8047155],[34.705714,38.8101355],[34.6962294,38.8120242],[34.6931733,38.8174436],[34.7048709,38.8299232],[34.7048709,38.8349309],[34.7110885,38.8357517],[34.7131962,38.8376398],[34.7110885,38.8398561],[34.7114085,38.8497117],[34.7004448,38.8512648],[34.6978102,38.8496234],[34.6908548,38.8521676],[34.6895902,38.8562709],[34.6826349,38.857666],[34.6817918,38.8655436],[34.6744668,38.8699848],[34.6647073,38.872628],[34.663646,38.87475],[34.6673535,38.882475],[34.6721735,38.881406],[34.6735022,38.8823877],[34.6598848,38.8858963],[34.6501663,38.8924327],[34.6472999,38.8901871],[34.6422181,38.8894694],[34.639812,38.8844499],[34.6437678,38.8846394],[34.6412869,38.8813276],[34.6433229,38.8767642],[34.633238,38.8688655],[34.6259035,38.8660102],[34.6187358,38.8554964],[34.6124479,38.8545713],[34.6098304,38.8486108],[34.6092949,38.838868],[34.5935338,38.845351],[34.5924287,38.8481756],[34.587602,38.8490057],[34.5853973,38.8547176],[34.5700616,38.8580926],[34.5650608,38.8631547],[34.5642273,38.8662697],[34.557393,38.8683463],[34.549225,38.8753544],[34.5435575,38.8713313],[34.5358896,38.8756139],[34.5281665,38.8722848],[34.5200539,38.8748353],[34.512386,38.8739269],[34.5072185,38.8762628],[34.5040514,38.8740566],[34.499384,38.8739269],[34.4948833,38.8697739],[34.4838816,38.8670485],[34.4805477,38.8615972],[34.482048,38.8586118],[34.4750469,38.8595204],[34.4703795,38.8540685],[34.4640452,38.8532897],[34.4617115,38.8478373],[34.4579563,38.8472391],[34.4498021,38.8533286],[34.4487857,38.8587493],[34.4313035,38.8715608],[34.4255471,38.8724325],[34.416329,38.8714873],[34.4135295,38.8886493],[34.4089558,38.8848382],[34.4069451,38.8857537],[34.4136124,38.8941018],[34.4140969,38.900898],[34.4379377,38.9310802],[34.4337285,38.934562],[34.4219302,38.9336918],[34.4151172,38.9303639],[34.4122652,38.9233381],[34.4122652,38.9172978],[34.4022833,38.9064486],[34.3906018,38.8822554],[34.3836347,38.8732174],[34.3706361,38.8595741],[34.3637436,38.8580815],[34.3546355,38.8492218],[34.3501895,38.8480446],[34.3478652,38.8543019],[34.3498531,38.8594422],[34.3487548,38.8608303],[34.3377709,38.8625541],[34.3241937,38.8723221],[34.3214593,38.8762429],[34.308045,38.8830919],[34.3048644,38.8926881],[34.280948,38.9005191],[34.2735874,38.8985747],[34.2700992,38.8992618],[34.2656859,38.8929729],[34.2576583,38.8909366],[34.2527909,38.8872112],[34.25417,38.8831698],[34.249796,38.8834564],[34.2472542,38.880226],[34.2539887,38.8786486],[34.2514488,38.8757957],[34.2583085,38.8735436],[34.2537151,38.8690325],[34.2548828,38.8617205],[34.2506074,38.8592134],[34.251678,38.8536008],[34.249392,38.8534352],[34.2470596,38.8582116],[34.2388048,38.8492535],[34.2442526,38.8391873],[34.2439281,38.8331843],[34.2412149,38.8324939],[34.2474801,38.8208335],[34.2537404,38.8246628],[34.2577154,38.8184058],[34.2631506,38.8165095],[34.2658835,38.819219],[34.2827483,38.8127036],[34.2932472,38.8142972],[34.2946263,38.8120216],[34.2920304,38.8099356],[34.292436,38.8069645],[34.2895308,38.801848],[34.292855,38.7989604],[34.2889445,38.7946212],[34.2921011,38.790704],[34.2903268,38.7862899],[34.2795018,38.7809585],[34.2772222,38.7737737],[34.2709814,38.7694234],[34.2645675,38.7520095],[34.2665167,38.7489113],[34.2807786,38.7469871],[34.277509,38.7426201],[34.2868323,38.7159033],[34.2896179,38.7125362],[34.2885914,38.6993792],[34.2819701,38.6764518],[34.2666504,38.6653818],[34.2611999,38.6671633],[34.2510596,38.6570678],[34.2527603,38.6544953],[34.2468935,38.6509678],[34.2449725,38.6523058],[34.2440774,38.6513374],[34.2440639,38.6459075],[34.247106,38.6466995],[34.2476131,38.6447196],[34.2398182,38.6393478],[34.2414145,38.6366476],[34.2444412,38.6366249],[34.2407176,38.6325218],[34.240312,38.6262637],[34.2501482,38.6219857],[34.2508158,38.6267861],[34.2552125,38.6233767],[34.2742698,38.6210064],[34.2790567,38.6157825],[34.2860165,38.6164917],[34.2950064,38.6119264],[34.2977529,38.599227],[34.3119122,38.5979921],[34.3205568,38.593905],[34.3436043,38.5936684],[34.3453725,38.5914722],[34.3505644,38.5947185],[34.3569034,38.5936058]]],[[[34.3723436,38.6318168],[34.3872587,38.6283511],[34.4005959,38.628107],[34.4089707,38.6353914],[34.4123697,38.6366069],[34.4124822,38.6430178],[34.4161681,38.6506209],[34.4141095,38.6534525],[34.4149659,38.6563954],[34.4120539,38.6555259],[34.4098432,38.6590815],[34.4021524,38.6526074],[34.404529,38.6496377],[34.3996173,38.648524],[34.3985082,38.6514938],[34.390586,38.6522362],[34.3775937,38.6477816],[34.3771184,38.6453066],[34.3725235,38.6423366],[34.3723436,38.6318168]]]]}},{"type":"Feature","properties":{"code":"50-04","provinceCode":"50","name":"Hacıbektaş"},"geometry":{"type":"Polygon","coordinates":[[[34.6308926,39.1667387],[34.6235968,39.1556449],[34.61078,39.1506055],[34.61078,39.1480856],[34.5929086,39.1381452],[34.5895961,39.1329606],[34.5767009,39.1352088],[34.5727031,39.1369472],[34.5751866,39.1403298],[34.5605037,39.1450308],[34.5594686,39.1442279],[34.5610953,39.1426222],[34.5593207,39.1410165],[34.5650881,39.139124],[34.565162,39.1340197],[34.5772143,39.1275958],[34.5654578,39.1270796],[34.5677499,39.1149184],[34.5556551,39.1074947],[34.5504687,39.106731],[34.5535351,39.1030882],[34.5596583,39.1028192],[34.5601204,39.0987846],[34.5500567,39.0876127],[34.5478458,39.0891172],[34.5474521,39.0938419],[34.5521251,39.0958619],[34.5465056,39.097285],[34.5444353,39.0960914],[34.5402946,39.1001771],[34.5369821,39.0959537],[34.529588,39.0955405],[34.5342611,39.0996262],[34.528405,39.1023346],[34.5209518,39.0949896],[34.5227855,39.0926024],[34.5230963,39.0867108],[34.5175331,39.0839898],[34.5155119,39.0802615],[34.521153,39.0764405],[34.5488853,39.0720829],[34.5733608,39.0654644],[34.5740115,39.0723899],[34.5834759,39.0776801],[34.5913503,39.0767984],[34.5955525,39.0738301],[34.5971046,39.0772686],[34.6009283,39.0750057],[34.5987325,39.0730071],[34.6009283,39.0720373],[34.6034617,39.0749763],[34.6094694,39.0727519],[34.6054027,39.0645715],[34.625459,39.0609587],[34.6250252,39.0546274],[34.6304766,39.0498596],[34.6295567,39.0467976],[34.62666,39.0469616],[34.627734,39.0403794],[34.629704,39.040475],[34.6279545,39.0362195],[34.611133,39.0288246],[34.6007814,39.0176949],[34.6004117,39.0144996],[34.5678593,39.0238129],[34.5681993,39.0318662],[34.5712498,39.0309171],[34.5700545,39.0329191],[34.5722253,39.0346581],[34.5726738,39.0392519],[34.5674161,39.0394025],[34.5713412,39.0429215],[34.5696451,39.0468167],[34.565386,39.0484643],[34.5624284,39.060594],[34.5422796,39.0625316],[34.5396916,39.055929],[34.5451448,39.055929],[34.5435735,39.0509048],[34.5400613,39.0500435],[34.5333143,39.0391325],[34.5192656,39.0320968],[34.5189883,39.0295839],[34.522408,39.0253477],[34.5141821,39.0169463],[34.5117791,39.0163],[34.5062335,39.0092621],[34.5005956,39.0081848],[34.5014274,39.006533],[34.4844211,38.9994223],[34.4736073,38.9995659],[34.4737921,38.9977702],[34.482665,38.99267],[34.4902439,38.9833308],[34.487009,38.9786607],[34.47638,38.9810317],[34.473772,38.9775128],[34.4686968,38.9790278],[34.4677002,38.9778104],[34.4612946,38.9778721],[34.4467688,38.9850296],[34.4379235,38.9865986],[34.443946,38.9829461],[34.4405488,38.9788178],[34.4434765,38.9763244],[34.4435689,38.9740639],[34.4392972,38.9739144],[34.4400801,38.9716121],[34.4370903,38.9687342],[34.4376598,38.9648598],[34.4340563,38.9543462],[34.4375861,38.9465726],[34.4342429,38.9414986],[34.4337285,38.934562],[34.4379377,38.9310802],[34.4140969,38.900898],[34.4136124,38.8941018],[34.4069451,38.8857537],[34.4089558,38.8848382],[34.4135295,38.8886493],[34.416329,38.8714873],[34.4255471,38.8724325],[34.4313035,38.8715608],[34.4487857,38.8587493],[34.4498021,38.8533286],[34.4579563,38.8472391],[34.4617115,38.8478373],[34.4640452,38.8532897],[34.4703795,38.8540685],[34.4750469,38.8595204],[34.482048,38.8586118],[34.4805477,38.8615972],[34.4838816,38.8670485],[34.4948833,38.8697739],[34.499384,38.8739269],[34.5040514,38.8740566],[34.5072185,38.8762628],[34.512386,38.8739269],[34.5200539,38.8748353],[34.5281665,38.8722848],[34.5358896,38.8756139],[34.5435575,38.8713313],[34.549225,38.8753544],[34.557393,38.8683463],[34.5642273,38.8662697],[34.5650608,38.8631547],[34.5700616,38.8580926],[34.5853973,38.8547176],[34.587602,38.8490057],[34.5924287,38.8481756],[34.5935338,38.845351],[34.6092949,38.838868],[34.6098304,38.8486108],[34.6124479,38.8545713],[34.6187358,38.8554964],[34.6259035,38.8660102],[34.633238,38.8688655],[34.6433229,38.8767642],[34.6412869,38.8813276],[34.6437678,38.8846394],[34.639812,38.8844499],[34.6422181,38.8894694],[34.6472999,38.8901871],[34.6501663,38.8924327],[34.6598848,38.8858963],[34.6735022,38.8823877],[34.6721735,38.881406],[34.6673535,38.882475],[34.663646,38.87475],[34.6647073,38.872628],[34.6744668,38.8699848],[34.6817918,38.8655436],[34.6954917,38.8734204],[34.7001227,38.8728676],[34.7041615,38.8749216],[34.7054718,38.878909],[34.7102009,38.8785717],[34.7129304,38.8908809],[34.7116635,38.891884],[34.7157155,38.9003257],[34.7210309,38.9060719],[34.7303837,38.9266733],[34.7435567,38.9411214],[34.7470129,38.948008],[34.7516547,38.9442088],[34.7616702,38.9481917],[34.7636524,38.9538335],[34.7739903,38.958351],[34.7757028,38.961025],[34.7737404,38.9622367],[34.7746149,38.964908],[34.7708671,38.9668507],[34.7731783,38.9669721],[34.772983,38.9697973],[34.7769385,38.9732506],[34.7771448,38.9769762],[34.7818287,38.9769271],[34.7873457,38.9739423],[34.7891079,38.9786317],[34.7929172,38.9817285],[34.7927015,38.986888],[34.8013272,38.9894883],[34.8013272,38.9910086],[34.797213,38.9910086],[34.7997759,38.9943111],[34.7970781,38.9955691],[34.7978335,38.9973094],[34.795945,38.9996577],[34.7989354,39.0072175],[34.7986258,39.0113324],[34.797156,39.0116138],[34.801816,39.0242022],[34.8051864,39.0221071],[34.8056883,39.0236314],[34.8076046,39.0237023],[34.807366,39.0281516],[34.8112369,39.029437],[34.8105704,39.0311103],[34.8153612,39.0342647],[34.8152775,39.035893],[34.8232476,39.0368399],[34.8237603,39.0412135],[34.8277718,39.0437979],[34.8280547,39.0523615],[34.8244042,39.0591399],[34.8056985,39.0636404],[34.8076745,39.0691634],[34.7966091,39.0707997],[34.7966091,39.0748905],[34.7901544,39.075095],[34.789364,39.0782651],[34.7869929,39.0784696],[34.7848852,39.0732542],[34.7751371,39.0721292],[34.7740833,39.0687543],[34.7688141,39.0682429],[34.7717122,39.0645609],[34.7697362,39.0623107],[34.7508988,39.0599582],[34.7422046,39.0554574],[34.7368037,39.0489104],[34.7336422,39.0488081],[34.7336422,39.0460458],[34.7254749,39.0463527],[34.7262653,39.0358144],[34.7190202,39.0355074],[34.7163856,39.0372469],[34.7123019,39.0370423],[34.7105894,39.0407257],[34.7038712,39.0407257],[34.7028174,39.0450227],[34.7091404,39.0542299],[34.7088769,39.0647655],[34.7208644,39.0713111],[34.6954919,39.0877641],[34.7036407,39.1063611],[34.7114259,39.1138596],[34.715063,39.1208397],[34.6910959,39.1402642],[34.6826976,39.1384007],[34.6859618,39.1445215],[34.680034,39.1449046],[34.6856325,39.1512895],[34.6772347,39.155631],[34.6770701,39.1617596],[34.6685806,39.1575948],[34.6581339,39.1570354],[34.647493,39.1600168],[34.6463048,39.1620437],[34.6558106,39.1631493],[34.6560483,39.1641627],[34.6402448,39.1631493],[34.6402605,39.1611067],[34.6340982,39.1568999],[34.6308926,39.1667387]]]}},{"type":"Feature","properties":{"code":"50-05","provinceCode":"50","name":"Kozaklı"},"geometry":{"type":"Polygon","coordinates":[[[34.6714979,39.3836464],[34.6596195,39.3765196],[34.6591149,39.3725218],[34.6548262,39.3729118],[34.6536274,39.3690858],[34.6365901,39.3637233],[34.6281104,39.3595155],[34.6272016,39.3557479],[34.621005,39.3543398],[34.5965,39.3404],[34.5951,39.3384],[34.5941,39.3392],[34.5903,39.3372],[34.5884,39.3342],[34.591,39.3326],[34.5894,39.3312],[34.5867,39.332],[34.5808,39.3294],[34.5897389,39.3180984],[34.5944511,39.3223513],[34.6021629,39.3176932],[34.6075869,39.3176932],[34.6060386,39.312661],[34.610513,39.3102895],[34.6176781,39.3116425],[34.622093,39.3085194],[34.6234117,39.3099637],[34.6375743,39.3036529],[34.6500496,39.3132356],[34.6553137,39.3134619],[34.6596826,39.3171076],[34.666297,39.3146165],[34.6649786,39.3097297],[34.6741886,39.3114473],[34.6729272,39.3062745],[34.6752217,39.305507],[34.675976,39.2859055],[34.6800193,39.2800495],[34.6895625,39.2750884],[34.6967284,39.273749],[34.7048405,39.2662458],[34.7019639,39.2617948],[34.7032326,39.2586218],[34.6915141,39.2539964],[34.6891865,39.2468716],[34.6916997,39.2417625],[34.6946841,39.2399377],[34.694527,39.2367747],[34.6904431,39.2366531],[34.6863593,39.2441954],[34.681757,39.2447576],[34.6693953,39.2382121],[34.6536279,39.2366489],[34.6516096,39.2386029],[34.6481001,39.236242],[34.6422753,39.2365512],[34.6377217,39.2322362],[34.6289829,39.2287287],[34.6280405,39.2217931],[34.5940612,39.2069239],[34.5942183,39.1998643],[34.5912339,39.1987689],[34.5909198,39.1857432],[34.5868359,39.1798991],[34.6080816,39.1788033],[34.615482,39.1761841],[34.6224624,39.1701164],[34.6305308,39.1690951],[34.6308926,39.1667387],[34.6340982,39.1568999],[34.6402605,39.1611067],[34.6402448,39.1631493],[34.6560483,39.1641627],[34.6558106,39.1631493],[34.6463048,39.1620437],[34.647493,39.1600168],[34.6581339,39.1570354],[34.6685806,39.1575948],[34.6770701,39.1617596],[34.6772347,39.155631],[34.6856325,39.1512895],[34.680034,39.1449046],[34.6859618,39.1445215],[34.6826976,39.1384007],[34.6910959,39.1402642],[34.715063,39.1208397],[34.7114259,39.1138596],[34.7036407,39.1063611],[34.6954919,39.0877641],[34.7208644,39.0713111],[34.7088769,39.0647655],[34.7091404,39.0542299],[34.7028174,39.0450227],[34.7038712,39.0407257],[34.7105894,39.0407257],[34.7123019,39.0370423],[34.7163856,39.0372469],[34.7190202,39.0355074],[34.7262653,39.0358144],[34.7254749,39.0463527],[34.7336422,39.0460458],[34.7336422,39.0488081],[34.7368037,39.0489104],[34.7422046,39.0554574],[34.7508988,39.0599582],[34.7697362,39.0623107],[34.7717122,39.0645609],[34.7688141,39.0682429],[34.7740833,39.0687543],[34.7751371,39.0721292],[34.7848852,39.0732542],[34.7869929,39.0784696],[34.789364,39.0782651],[34.7901544,39.075095],[34.7966091,39.0748905],[34.7966091,39.0707997],[34.8076745,39.0691634],[34.8056985,39.0636404],[34.8244042,39.0591399],[34.8280547,39.0523615],[34.8451401,39.058747],[34.8594878,39.0696033],[34.8603995,39.0723326],[34.8647574,39.0699791],[34.8779907,39.086506],[34.8889077,39.0800286],[34.8781843,39.0671487],[34.8865547,39.0630978],[34.8962652,39.0756962],[34.9150263,39.0645702],[34.9178474,39.0645442],[34.9205713,39.0539084],[34.9422562,39.0635385],[34.944587,39.0658688],[34.9390802,39.0661765],[34.9384731,39.0686808],[34.9563857,39.0750227],[34.9584388,39.0736985],[34.9556279,39.0707276],[34.9601127,39.0713972],[34.9648374,39.0693618],[34.9682035,39.0700976],[34.9702227,39.067935],[34.976055,39.0668365],[34.9770614,39.064195],[34.984385,39.0622183],[34.9894068,39.0646553],[34.9931034,39.0631931],[34.9922462,39.0707539],[34.9995551,39.0735902],[35.0001131,39.0723448],[35.0025194,39.0729405],[35.0008816,39.0750947],[35.00184,39.0764272],[35.0071902,39.0763197],[35.0084828,39.0737527],[35.0089582,39.0760017],[35.0099824,39.0745649],[35.0160801,39.0755348],[35.0040078,39.0852245],[35.0084739,39.1006326],[35.006103,39.1152737],[35.0099694,39.1169704],[35.0143462,39.1233847],[35.0064775,39.130752],[35.0114879,39.1306206],[35.0085296,39.140487],[35.003172,39.1379975],[34.9907465,39.1411751],[34.9813092,39.1389682],[34.9708558,39.1443416],[34.9654694,39.1435525],[34.9607014,39.1461801],[34.9508794,39.1396761],[34.9532877,39.147252],[34.9442403,39.146375],[34.9496436,39.1531962],[34.9460564,39.1587196],[34.9466847,39.1639808],[34.9365919,39.1711187],[34.9294395,39.172422],[34.932988,39.1775219],[34.9390196,39.1775219],[34.9438092,39.1820733],[34.9506119,39.1840099],[34.953426,39.1950922],[34.9562295,39.1981142],[34.9539676,39.2076567],[34.9681216,39.2146364],[34.9636488,39.2251918],[34.9657204,39.2341375],[34.9653247,39.2455941],[34.9604745,39.2490554],[34.9393025,39.2472119],[34.9230672,39.2481755],[34.9183205,39.258709],[34.9228082,39.2709997],[34.9344098,39.2853232],[34.9415288,39.2981814],[34.9416424,39.3026273],[34.9519913,39.3084322],[34.9518282,39.3132981],[34.9467234,39.3140577],[34.9404405,39.3098042],[34.9351394,39.3087408],[34.9202868,39.3232944],[34.9117596,39.3385856],[34.9130438,39.3488246],[34.9210441,39.3533031],[34.9239823,39.3601452],[34.9225098,39.3724783],[34.9106979,39.373996],[34.9039329,39.372581],[34.9019337,39.3677436],[34.8967619,39.3633552],[34.8970142,39.3556504],[34.8928573,39.3545859],[34.8915555,39.3513472],[34.8772103,39.3570159],[34.8743091,39.3547726],[34.8692635,39.3560405],[34.8684003,39.3516746],[34.8630613,39.3491394],[34.8594967,39.3426127],[34.8628304,39.3388725],[34.8581058,39.3355935],[34.8517301,39.3344823],[34.8507842,39.3299591],[34.8529283,39.3240771],[34.8567757,39.322676],[34.8563644,39.3202851],[34.7977541,39.3149906],[34.7899217,39.3073543],[34.7746338,39.3044946],[34.7699916,39.3067687],[34.7704962,39.311551],[34.7653245,39.3133077],[34.7625494,39.3186751],[34.7557929,39.3215144],[34.7509441,39.3300369],[34.7424932,39.3378969],[34.7350035,39.3387828],[34.7091749,39.3586222],[34.7059019,39.3651489],[34.6929203,39.3667684],[34.681979,39.3719609],[34.6818094,39.3756977],[34.6714979,39.3836464]]]}},{"type":"Feature","properties":{"code":"50-06","provinceCode":"50","name":"Nevşehir merkez"},"geometry":{"type":"Polygon","coordinates":[[[34.852242,38.6450539],[34.8376352,38.6670694],[34.8271389,38.6765329],[34.822824,38.6861389],[34.8181744,38.6904639],[34.8175073,38.6932168],[34.8220798,38.6964369],[34.8149198,38.6977865],[34.8144687,38.705942],[34.8120404,38.7052878],[34.7951541,38.7105333],[34.792974,38.7099502],[34.7868637,38.7119934],[34.7877144,38.7153887],[34.7835517,38.7189001],[34.7800609,38.7173426],[34.7799075,38.7328078],[34.7759314,38.7307251],[34.7685575,38.7345825],[34.7666938,38.739274],[34.7670008,38.7469992],[34.7652418,38.7492679],[34.7606019,38.7497004],[34.7581825,38.7467113],[34.75489,38.7459336],[34.7492543,38.7477163],[34.7469415,38.7516666],[34.7382623,38.7516723],[34.7281902,38.7506582],[34.7029378,38.75576],[34.6912204,38.7545994],[34.6882588,38.7564164],[34.6901485,38.747578],[34.6855245,38.748274],[34.6810628,38.7455534],[34.6841455,38.7420102],[34.6757087,38.7359989],[34.6721263,38.7371329],[34.6670383,38.7319085],[34.6688554,38.7288303],[34.6635597,38.7273317],[34.6638193,38.7206078],[34.657018,38.7241724],[34.6507358,38.7226332],[34.641027,38.7140049],[34.6372889,38.7084952],[34.6281512,38.7029445],[34.6144447,38.7029445],[34.6183905,38.6989332],[34.6167427,38.695075],[34.6200383,38.6905241],[34.6175032,38.6889411],[34.6177567,38.684093],[34.6150949,38.6837961],[34.6138146,38.6761351],[34.6048278,38.6798382],[34.605208,38.6761769],[34.5991238,38.6763748],[34.5987436,38.668359],[34.5963352,38.6680621],[34.5962085,38.6629156],[34.5920256,38.6588575],[34.5803537,38.6563488],[34.5803537,38.6522905],[34.5774383,38.6514986],[34.5752835,38.6538742],[34.5727484,38.6514986],[34.5659037,38.6509046],[34.5646361,38.6532803],[34.5594392,38.6513996],[34.5558901,38.6524884],[34.553862,38.6542702],[34.5546225,38.6593183],[34.5528479,38.6636732],[34.5561436,38.6650589],[34.5484115,38.6678301],[34.5482848,38.6723824],[34.5427076,38.6775282],[34.5442286,38.6790125],[34.5408063,38.6808926],[34.548665,38.6873239],[34.5446089,38.6921719],[34.540426,38.6927655],[34.540933,38.6960303],[34.5359896,38.6959313],[34.5248352,38.7003829],[34.511526,38.6995916],[34.5064558,38.7038452],[34.5027414,38.6999439],[34.4969774,38.7007621],[34.4890445,38.6972313],[34.4846873,38.6975404],[34.4823107,38.6942942],[34.4757749,38.6995499],[34.4735963,38.696613],[34.4708236,38.6981587],[34.4662683,38.6939852],[34.4634956,38.694758],[34.4642878,38.7014046],[34.4609209,38.7046504],[34.4461814,38.7049111],[34.4453892,38.7013561],[34.4489541,38.6999651],[34.4455872,38.694555],[34.4471717,38.6916179],[34.4438047,38.6846613],[34.4362787,38.6824968],[34.4344962,38.6780131],[34.4380612,38.6730653],[34.4267721,38.668581],[34.4284039,38.6670706],[34.4372063,38.6665071],[34.4423332,38.6692433],[34.4456431,38.6680779],[34.4463569,38.6616423],[34.4535607,38.6606288],[34.4641391,38.6659497],[34.467384,38.6645307],[34.4721216,38.6687872],[34.473744,38.6663044],[34.4786114,38.6663044],[34.4844522,38.6637706],[34.4836086,38.6605275],[34.4958094,38.6616423],[34.5006458,38.6590938],[34.5004012,38.6564059],[34.5052686,38.646111],[34.5163216,38.6428638],[34.5180455,38.6386659],[34.5253465,38.6383491],[34.5277802,38.634864],[34.5391374,38.6332797],[34.5367037,38.6309825],[34.5375831,38.6204968],[34.5354233,38.6188872],[34.5355039,38.6159239],[34.5370183,38.6135389],[34.5411385,38.6154602],[34.5438967,38.6136854],[34.5426799,38.6096918],[34.5471416,38.6085508],[34.55136,38.6129881],[34.5596345,38.6117838],[34.5661244,38.6049374],[34.5648264,38.6030356],[34.5659621,38.6024015],[34.5686392,38.6039865],[34.5712351,38.6032258],[34.5741555,38.5998656],[34.577076,38.6024649],[34.5842148,38.6029087],[34.5918762,38.5980652],[34.5959323,38.5976848],[34.5965813,38.5940708],[34.5995828,38.5924223],[34.6057482,38.5920418],[34.6098854,38.5855741],[34.6098854,38.5809449],[34.6124002,38.575808],[34.615564,38.5757446],[34.6178355,38.573398],[34.6159696,38.5721295],[34.6196202,38.56788],[34.6165375,38.5671189],[34.6169431,38.5626153],[34.6144283,38.5633131],[34.6113456,38.5610929],[34.6098043,38.5559546],[34.6117513,38.552973],[34.61094,38.5489761],[34.6221492,38.5370642],[34.6205937,38.5316537],[34.6171865,38.5310826],[34.6197013,38.529623],[34.6184845,38.5265133],[34.6106967,38.5241017],[34.610291,38.5190877],[34.605667,38.5202936],[34.5977981,38.5193415],[34.5946343,38.5216899],[34.5889557,38.5219438],[34.5898481,38.5187703],[34.5874144,38.5176913],[34.5830377,38.5192238],[34.5823848,38.5159141],[34.5775174,38.5154063],[34.5756198,38.513629],[34.5782075,38.5013635],[34.5731368,38.4987742],[34.5754893,38.4975044],[34.5803567,38.4990282],[34.5800322,38.4971235],[34.5743536,38.4936949],[34.5794644,38.4892503],[34.5788965,38.4858214],[34.5889919,38.4523486],[34.590198,38.4488248],[34.6011535,38.4472061],[34.6332188,38.4484986],[34.6354261,38.4544998],[34.6382581,38.4567827],[34.6389661,38.4546955],[34.641798,38.4550868],[34.6409235,38.457174],[34.6433806,38.4591307],[34.6421728,38.4609244],[34.6442552,38.4623266],[34.6458794,38.47012],[34.6490862,38.4755976],[34.6506687,38.4739348],[34.6518348,38.475402],[34.653584,38.474163],[34.6550416,38.477293],[34.659123,38.4775212],[34.6615801,38.4848566],[34.6650784,38.4859975],[34.6637458,38.4877905],[34.6689516,38.4885728],[34.6711172,38.4931364],[34.6742407,38.4944077],[34.6759482,38.4972434],[34.6753235,38.4996553],[34.6795298,38.5022953],[34.6790717,38.5044138],[34.6811124,38.506858],[34.6898581,38.5077705],[34.696355,38.5105406],[34.6998533,38.5102473],[34.6923153,38.5030775],[34.6944809,38.5020998],[34.696938,38.497439],[34.6965216,38.4952551],[34.69294,38.4929734],[34.6932315,38.4913436],[34.6972712,38.4920607],[34.6979376,38.4899745],[34.6951889,38.4893226],[34.69977,38.4832265],[34.6989371,38.4769996],[34.7007695,38.4759237],[34.6986039,38.473837],[34.7003114,38.4720437],[34.6989371,38.4682614],[34.7016441,38.4662723],[34.6993535,38.462457],[34.704601,38.4596199],[34.7079327,38.4607939],[34.710723,38.4560652],[34.7058088,38.4532278],[34.7082659,38.4497054],[34.7066833,38.4392677],[34.7112752,38.4356507],[34.7089326,38.4334487],[34.7064859,38.4343866],[34.7065379,38.4325108],[34.7099217,38.4309612],[34.7101299,38.4286367],[34.7144508,38.4299009],[34.7197086,38.4261082],[34.7288369,38.4255337],[34.739751,38.4228047],[34.7407401,38.4242729],[34.7516203,38.4223968],[34.7519327,38.4203168],[34.7616578,38.4228149],[34.7687344,38.4186725],[34.7715,38.4217952],[34.7736962,38.42256],[34.774835,38.4207119],[34.7761364,38.4222413],[34.7800408,38.4186088],[34.7840265,38.4238982],[34.7897204,38.4267658],[34.7937874,38.4326918],[34.8052565,38.441102],[34.80921,38.439547],[34.8090667,38.4472941],[34.815469,38.4588705],[34.8156945,38.4661973],[34.8065628,38.4713757],[34.8067507,38.4767596],[34.8013393,38.4817607],[34.8037443,38.4828785],[34.8039698,38.4862614],[34.8015414,38.4862943],[34.7986973,38.4901721],[34.7971376,38.4985017],[34.8039268,38.5015892],[34.8026423,38.5071893],[34.8136519,38.5127173],[34.8142941,38.5191062],[34.8180557,38.5242025],[34.8148446,38.5287243],[34.8163125,38.5305904],[34.8127049,38.5333831],[34.8158615,38.5347647],[34.8065645,38.540279],[34.8158058,38.5449268],[34.8200163,38.5498699],[34.832297,38.5565454],[34.8372964,38.5612048],[34.8393662,38.5640976],[34.8371643,38.5643845],[34.8373111,38.5665079],[34.8411277,38.5696068],[34.8413479,38.5749434],[34.8378983,38.5764353],[34.840614,38.5802223],[34.8361368,38.5818862],[34.8271089,38.5907789],[34.8202097,38.5937046],[34.8183013,38.5964008],[34.807145,38.5938193],[34.8074386,38.6003014],[34.8137053,38.6065128],[34.8067046,38.6126329],[34.8096405,38.6160166],[34.8131636,38.6257651],[34.8359938,38.6255263],[34.8381957,38.6300418],[34.8441592,38.6356319],[34.849664,38.6376385],[34.8490063,38.6414177],[34.852242,38.6450539]]]}},{"type":"Feature","properties":{"code":"50-07","provinceCode":"50","name":"Ürgüp"},"geometry":{"type":"Polygon","coordinates":[[[34.852242,38.6450539],[34.8490063,38.6414177],[34.849664,38.6376385],[34.8441592,38.6356319],[34.8381957,38.6300418],[34.8359938,38.6255263],[34.8131636,38.6257651],[34.8096405,38.6160166],[34.8067046,38.6126329],[34.8137053,38.6065128],[34.8074386,38.6003014],[34.807145,38.5938193],[34.8183013,38.5964008],[34.8202097,38.5937046],[34.8271089,38.5907789],[34.8361368,38.5818862],[34.840614,38.5802223],[34.8378983,38.5764353],[34.8413479,38.5749434],[34.8411277,38.5696068],[34.8373111,38.5665079],[34.8371643,38.5643845],[34.8393662,38.5640976],[34.8372964,38.5612048],[34.832297,38.5565454],[34.8200163,38.5498699],[34.8158058,38.5449268],[34.8065645,38.540279],[34.8158615,38.5347647],[34.8127049,38.5333831],[34.8163125,38.5305904],[34.8148446,38.5287243],[34.8180557,38.5242025],[34.8142941,38.5191062],[34.8136519,38.5127173],[34.8026423,38.5071893],[34.8039268,38.5015892],[34.7971376,38.4985017],[34.7986973,38.4901721],[34.8015414,38.4862943],[34.8039698,38.4862614],[34.8037443,38.4828785],[34.8013393,38.4817607],[34.8067507,38.4767596],[34.8065628,38.4713757],[34.8156945,38.4661973],[34.815469,38.4588705],[34.8090667,38.4472941],[34.80921,38.439547],[34.813654,38.4422417],[34.8166644,38.4417926],[34.816091,38.4341572],[34.8196748,38.4341572],[34.8198182,38.4389856],[34.8226852,38.440333],[34.8368772,38.4291039],[34.8433281,38.4302269],[34.8426113,38.4271948],[34.8479154,38.4269702],[34.8469256,38.4244058],[34.8551975,38.4294636],[34.8575853,38.4289031],[34.8631158,38.4375994],[34.8688397,38.4429747],[34.8801703,38.4461536],[34.8839658,38.4450272],[34.8874106,38.4413139],[34.8985778,38.4414436],[34.9061472,38.4361775],[34.9129386,38.4369114],[34.9164661,38.4340114],[34.9234425,38.4347517],[34.9287881,38.4323614],[34.9306747,38.4331642],[34.9286789,38.4281669],[34.9317719,38.4272492],[34.9307547,38.4259489],[34.9333214,38.4234728],[34.9459011,38.4260156],[34.9479064,38.4234956],[34.9496778,38.4249281],[34.9499442,38.4224514],[34.957065,38.4201169],[34.9550153,38.4189583],[34.9590322,38.4170503],[34.9568197,38.4152667],[34.9584078,38.4142564],[34.9602917,38.4157783],[34.9616444,38.4143692],[34.9653333,38.4168767],[34.96788,38.4160436],[34.9726572,38.4179456],[34.9739706,38.4168906],[34.9745175,38.4187369],[34.9751497,38.4172283],[34.9782822,38.4169472],[34.9800364,38.4187983],[34.9845067,38.4195],[34.9905406,38.4162736],[34.9913133,38.4174811],[34.9976922,38.4154008],[35.0004789,38.416925],[35.0026417,38.4157061],[34.9992592,38.4231069],[35.0026711,38.4242308],[35.0035719,38.426345],[34.9998906,38.4285022],[34.9992903,38.4321525],[35.0012858,38.4332931],[34.9983725,38.4343425],[34.9995058,38.4364561],[34.9961128,38.4421797],[34.9978725,38.4436767],[34.9965317,38.4465653],[34.9987692,38.4466742],[34.9907431,38.4546981],[34.99235,38.45672],[34.99601,38.4545461],[34.9947908,38.4586139],[34.997965,38.4607078],[35.000005,38.4602717],[35.0046717,38.4638533],[35.0041261,38.4667747],[35.0067369,38.4691925],[35.0057414,38.4723994],[35.0103689,38.4734942],[35.0125228,38.4724456],[35.0141058,38.4757906],[35.0163281,38.4752872],[35.0165925,38.4770258],[35.0182753,38.4764106],[35.0207539,38.4789258],[35.0219264,38.4774436],[35.0248861,38.4798914],[35.0261647,38.4785844],[35.0270228,38.4801236],[35.0296603,38.4798892],[35.0320547,38.4837381],[35.0405017,38.4833792],[35.0409614,38.4862947],[35.0493525,38.4857194],[35.0536842,38.4833764],[35.0512767,38.4831897],[35.0537544,38.4819158],[35.0625028,38.4837667],[35.0887417,38.4779417],[35.0962664,38.4796622],[35.1040492,38.4771742],[35.1140583,38.4766128],[35.1182203,38.4756447],[35.1250717,38.4708822],[35.1318381,38.4705183],[35.1361722,38.4685328],[35.1388203,38.4698881],[35.1465364,38.4804456],[35.1664006,38.5026111],[35.1556467,38.5031033],[35.1422175,38.5104608],[35.1363078,38.5198989],[35.1367467,38.5270286],[35.1423142,38.5325597],[35.1362525,38.5446944],[35.1336636,38.5453897],[35.1292683,38.5502536],[35.1300781,38.5519183],[35.1221147,38.5576011],[35.1186914,38.5576719],[35.1045667,38.5725992],[35.0923097,38.5773033],[35.0982608,38.6118222],[35.0961347,38.6173806],[35.089845,38.6218742],[35.0765086,38.6378194],[35.0719158,38.6393772],[35.0737922,38.6469678],[35.0893225,38.6446119],[35.0819886,38.6499989],[35.0854233,38.6519192],[35.0846425,38.656005],[35.0891325,38.6572047],[35.0898325,38.6593992],[35.0867981,38.6647858],[35.0891411,38.6657392],[35.0875944,38.6671014],[35.0910933,38.6699986],[35.0904561,38.6724003],[35.0921903,38.6732728],[35.0858,38.6824972],[35.0826364,38.6838597],[35.0866136,38.6963572],[35.0893744,38.6995897],[35.0949125,38.6994864],[35.0993933,38.7025181],[35.0956867,38.7082758],[35.094975,38.7128828],[35.0842817,38.7228625],[35.0774161,38.7258897],[35.0752953,38.7267299],[35.0674041,38.7239937],[35.0601874,38.725204],[35.0534463,38.7305855],[35.0472142,38.7301236],[35.046788,38.7341258],[35.039016,38.7400927],[35.0340971,38.7413355],[35.0151056,38.7434266],[35.0050175,38.7431495],[34.9948512,38.7392925],[34.9903758,38.7392279],[34.987558,38.7454766],[34.9837943,38.7478656],[34.9886376,38.7503095],[34.9895026,38.7538063],[34.9876624,38.7547165],[34.9809096,38.7526793],[34.973739,38.7553133],[34.9720524,38.7572261],[34.9725509,38.7637255],[34.9707322,38.7643022],[34.9638592,38.7617665],[34.9615373,38.7641963],[34.9549174,38.7635893],[34.9486786,38.7675335],[34.9385671,38.7644047],[34.936256,38.7670299],[34.926328,38.7714892],[34.9197998,38.7709274],[34.9080752,38.7609425],[34.9009836,38.7591881],[34.9006487,38.738254],[34.902685,38.7342624],[34.9010992,38.7321023],[34.8945729,38.7316172],[34.897055,38.7259847],[34.8951723,38.721257],[34.8915962,38.7193464],[34.8934099,38.7070316],[34.8913886,38.7013703],[34.8895754,38.7006716],[34.8895978,38.6990993],[34.8915676,38.6996059],[34.8898941,38.6937835],[34.8936775,38.6881809],[34.8930335,38.6816338],[34.8906722,38.6816968],[34.8887348,38.6761543],[34.883509,38.6756853],[34.8845611,38.6728367],[34.8821326,38.6682342],[34.8822013,38.6622992],[34.8784045,38.6615022],[34.8741709,38.6633854],[34.8703242,38.6605391],[34.8613631,38.660006],[34.8612918,38.6570645],[34.8583481,38.6557075],[34.8548092,38.6547469],[34.8517893,38.6557075],[34.8529085,38.6541167],[34.8504462,38.6550257],[34.8519236,38.651914],[34.8580123,38.6527357],[34.8559529,38.6508127],[34.8579452,38.6497637],[34.852242,38.6450539]]]}}]}