{"type":"FeatureCollection","features":[{"type":"Feature","properties":{"code":"39-01","provinceCode":"39","name":"Babaeski"},"geometry":{"type":"Polygon","coordinates":[[[27.194193,41.345005],[27.1957548,41.3477053],[27.1946015,41.359504],[27.1969186,41.3704599],[27.1969186,41.4024476],[27.2136019,41.4295554],[27.2173093,41.4726264],[27.2298218,41.496928],[27.2422765,41.5339978],[27.2499645,41.5765707],[27.2575813,41.5913554],[27.242789,41.590372],[27.2120369,41.592672],[27.1792346,41.6091525],[27.1505326,41.6187323],[27.1228556,41.6187323],[27.0808585,41.6279777],[27.0245291,41.6309245],[27.0006402,41.6259403],[26.9989418,41.6182715],[27.006664,41.5967261],[26.9967582,41.5766035],[26.9762853,41.545636],[26.9711302,41.534719],[26.9796516,41.5204071],[26.9437817,41.4892933],[26.9351172,41.4904055],[26.9241887,41.4815043],[26.9191166,41.4709],[26.9170338,41.4600433],[26.9293889,41.4456681],[26.9334386,41.4314815],[26.9618077,41.4102938],[26.9867175,41.4055273],[27.008292,41.4039703],[27.0167356,41.3935589],[27.0204826,41.3760399],[27.0038623,41.3581477],[27.0087498,41.3472448],[27.0145369,41.3476628],[27.0159285,41.3460772],[27.0214154,41.3460102],[27.0411874,41.3411011],[27.0630908,41.3418808],[27.0669032,41.3435729],[27.0758023,41.3426874],[27.0824944,41.3393112],[27.0840409,41.3338645],[27.0812384,41.3274152],[27.0833874,41.3249664],[27.0904766,41.3282026],[27.0948615,41.3237902],[27.0966719,41.3265873],[27.1001241,41.3267409],[27.1017057,41.3238538],[27.0983624,41.3186558],[27.1081636,41.3113597],[27.1086398,41.3061325],[27.1118557,41.3025321],[27.1065446,41.2980728],[27.1057754,41.2868752],[27.0978391,41.2871365],[27.0893907,41.2907123],[27.0848912,41.2886627],[27.0756369,41.2876575],[27.0596724,41.2903795],[27.0568797,41.2874545],[27.0588261,41.2858647],[27.0568836,41.2838575],[27.062719,41.275435],[27.0624842,41.2692588],[27.0711817,41.2693926],[27.0743418,41.2725148],[27.084722,41.2741629],[27.0886148,41.2735269],[27.0918306,41.2759438],[27.0964094,41.2743079],[27.0962273,41.2694625],[27.1108717,41.2695198],[27.1111648,41.2602725],[27.1190588,41.2637641],[27.1222117,41.2676116],[27.1218806,41.2718755],[27.1244263,41.2761837],[27.1296779,41.2761639],[27.1319277,41.2790502],[27.1239201,41.2799764],[27.1227072,41.2863184],[27.1195561,41.291107],[27.1209603,41.2952146],[27.1185294,41.300896],[27.1226721,41.3075439],[27.1213264,41.3118271],[27.1188768,41.3134158],[27.1129059,41.3138958],[27.1120662,41.31658],[27.1155033,41.3207021],[27.1191703,41.3307552],[27.1268977,41.3333825],[27.1277453,41.323453],[27.1298965,41.3213322],[27.128042,41.3185832],[27.1327462,41.3156229],[27.1338944,41.3128642],[27.1470244,41.3005741],[27.1523685,41.3032393],[27.1638254,41.3057607],[27.1642453,41.3080906],[27.1667626,41.3091937],[27.1662831,41.311062],[27.1712123,41.3127045],[27.1740247,41.3102018],[27.175484,41.3113323],[27.1666019,41.3174803],[27.1688239,41.3272958],[27.1746039,41.3255354],[27.1768815,41.3296311],[27.1866771,41.3330039],[27.1855267,41.3351753],[27.1806112,41.3354524],[27.1768336,41.3410727],[27.1779305,41.3431748],[27.176359,41.345015],[27.1695738,41.3454634],[27.1657534,41.3473937],[27.1664572,41.3484072],[27.1717077,41.3467655],[27.1774405,41.3508158],[27.16991,41.3513],[27.1677049,41.3494313],[27.1650516,41.349777],[27.1607709,41.3516916],[27.1614366,41.3560109],[27.1745585,41.3553898],[27.1806517,41.3524039],[27.1840606,41.3529943],[27.1887267,41.3484032],[27.1905247,41.3426438],[27.194193,41.345005]]]}},{"type":"Feature","properties":{"code":"39-02","provinceCode":"39","name":"Demirköy"},"geometry":{"type":"Polygon","coordinates":[[[27.6900353,41.7497623],[27.7047037,41.7394772],[27.7096049,41.7444508],[27.7148981,41.754543],[27.722544,41.7573217],[27.7272491,41.763025],[27.7311701,41.7647798],[27.7337187,41.7697514],[27.7397961,41.7691665],[27.7472459,41.7770618],[27.7760649,41.7753074],[27.7792016,41.7726757],[27.7784212,41.7668232],[27.7817366,41.7634774],[27.7948854,41.7592229],[27.8040996,41.7624401],[27.8133138,41.7625863],[27.8191953,41.760539],[27.8231716,41.7640447],[27.8291937,41.76361],[27.833186,41.7613528],[27.8368596,41.7557687],[27.8347802,41.7470814],[27.8407367,41.7477913],[27.8544929,41.7535464],[27.8641967,41.7676096],[27.8693259,41.7708148],[27.8773662,41.7742265],[27.8823568,41.7707114],[27.8863769,41.7753638],[27.891922,41.7719521],[27.8995464,41.7770179],[27.9099434,41.7739164],[27.9095275,41.7693673],[27.9118842,41.7670926],[27.9082799,41.7598545],[27.918261,41.7425832],[27.9324009,41.7622329],[27.9354506,41.7733995],[27.9525017,41.772469],[27.9671961,41.7672994],[27.9778703,41.7690571],[27.9829995,41.7745367],[27.9922874,41.776501],[27.9974166,41.7749502],[28.007702,41.784438],[27.993939,41.80381],[27.9813825,41.8304059],[27.9782828,41.8525869],[27.9807857,41.8683721],[27.986072,41.872415],[27.995721,41.885551],[28.0097843,41.894],[28.0148861,41.8948339],[28.0198179,41.8935554],[28.02413,41.8901696],[28.0223361,41.8879277],[28.0265759,41.8897325],[28.0290796,41.8873262],[28.0260847,41.8852408],[28.0203993,41.886544],[28.0261746,41.8850318],[28.0315038,41.8869318],[28.043393,41.880893],[28.0547886,41.882341],[28.057202,41.88513],[28.053463,41.897999],[28.0462138,41.9074372],[28.0439259,41.9140477],[28.046701,41.925783],[28.0421116,41.9340649],[28.044338,41.938896],[28.047976,41.94066],[28.049423,41.94501],[28.045308,41.9537066],[28.0429137,41.9540348],[28.039735,41.9588271],[28.0436641,41.9613354],[28.0389405,41.9655654],[28.0343488,41.967072],[28.0284834,41.9739083],[28.0265692,41.9797797],[28.0291247,41.983062],[28.0243008,41.98027],[28.0160637,41.980782],[28.0098276,41.9787799],[28.0015622,41.9809613],[27.9930408,41.980487],[27.9760647,41.9899752],[27.9760137,41.9840781],[27.9660884,41.9793505],[27.9618161,41.9798481],[27.9612915,41.977768],[27.9572162,41.9762019],[27.9550897,41.9775144],[27.956632,41.9813796],[27.9485544,41.9803667],[27.94378,41.9772299],[27.9395682,41.9781422],[27.9335752,41.9848802],[27.931148,41.9785043],[27.9250741,41.9763186],[27.9246937,41.9805011],[27.9216534,41.9827238],[27.9166034,41.9730005],[27.9118216,41.9727468],[27.90004,41.981769],[27.8998969,41.9918689],[27.8848464,41.9960789],[27.8790201,41.9946146],[27.8764565,41.9971103],[27.8771696,41.9998969],[27.8725429,41.9988975],[27.8682718,41.9997142],[27.8647688,42.0058462],[27.8619015,42.0065211],[27.8596988,42.0057508],[27.8580909,42.0009439],[27.8613197,41.9945849],[27.8565468,41.9929622],[27.8552094,41.9909214],[27.8531457,41.991296],[27.8511272,41.9948238],[27.8529202,41.9969765],[27.8571814,41.9975461],[27.8568959,41.9997356],[27.8530499,42.0016998],[27.8502123,42.0006714],[27.8497077,41.9942738],[27.8452282,41.9906313],[27.842326,41.9906477],[27.8424494,41.9917704],[27.8347074,41.9943468],[27.8311171,41.9987805],[27.8274205,41.9974752],[27.8275593,41.9935868],[27.8211141,41.9913145],[27.8185016,41.9861293],[27.8185596,41.9764409],[27.8197098,41.9749323],[27.8260779,41.9742506],[27.8202963,41.9658691],[27.8202856,41.9626103],[27.8260627,41.9591678],[27.829944,41.9618153],[27.8332435,41.9619185],[27.8373862,41.952949],[27.8360475,41.9480284],[27.828645,41.947521],[27.8250799,41.9485219],[27.8191518,41.9537758],[27.8137058,41.953999],[27.8135924,41.9499562],[27.8176084,41.9451484],[27.8152673,41.9424546],[27.8081798,41.9461704],[27.807063,41.9500205],[27.8019846,41.9531378],[27.8001344,41.950559],[27.7938041,41.9480145],[27.7918705,41.9485606],[27.7925528,41.952646],[27.790537,41.9540817],[27.7786986,41.9535635],[27.7785984,41.9558681],[27.7861328,41.9606353],[27.7846046,41.9636137],[27.778816,41.9659381],[27.7750434,41.9655524],[27.7733001,41.9602216],[27.7705859,41.9596915],[27.7664136,41.9676751],[27.7504253,41.9700712],[27.7433351,41.96783],[27.7432153,41.9691041],[27.7486105,41.9709822],[27.7485414,41.9724945],[27.742305,41.9753626],[27.7375304,41.9798394],[27.7338086,41.9779741],[27.7345823,41.9742229],[27.7327071,41.9736548],[27.7143297,41.9768716],[27.7078394,41.9749279],[27.7057519,41.9777324],[27.6964779,41.9780777],[27.6946962,41.9771093],[27.6956501,41.9756436],[27.7025219,41.9759835],[27.7033614,41.9700625],[27.697732,41.9738854],[27.6894082,41.9713603],[27.6841538,41.9715765],[27.6812385,41.968942],[27.6814326,41.963987],[27.6733697,41.9628435],[27.6721426,41.9563956],[27.6697305,41.9571661],[27.6709571,41.9607123],[27.6673292,41.9621844],[27.6625807,41.9577218],[27.6586687,41.9566815],[27.6555802,41.9581881],[27.658693,41.9608085],[27.6518752,41.9622391],[27.6473897,41.9597946],[27.6425788,41.9541336],[27.6391643,41.9547028],[27.6384804,41.9594264],[27.6334148,41.954607],[27.6220261,41.9588561],[27.6198274,41.9555051],[27.6281614,41.9522506],[27.6296323,41.9498498],[27.6280019,41.9487183],[27.6262227,41.950637],[27.623345,41.9506641],[27.6252179,41.9486007],[27.6126099,41.9385165],[27.6078954,41.9393068],[27.6094763,41.9448477],[27.6041967,41.9474373],[27.6013282,41.9465287],[27.5967029,41.937865],[27.5887617,41.9313915],[27.5856261,41.9309331],[27.5847911,41.9321403],[27.5876365,41.9365513],[27.5822476,41.9351838],[27.5743385,41.9374709],[27.5744101,41.9325816],[27.5708221,41.9313859],[27.5698465,41.9265315],[27.566526,41.9238054],[27.5747839,41.9233147],[27.5765893,41.9196741],[27.5657935,41.9192365],[27.5612528,41.9152127],[27.5622038,41.9123998],[27.5716432,41.9126179],[27.5716298,41.904405],[27.560005,41.9051269],[27.5544526,41.9081507],[27.5536068,41.9110215],[27.5502811,41.9109744],[27.5480654,41.914584],[27.5408767,41.9159385],[27.5364488,41.9238291],[27.5312764,41.9280258],[27.5152453,41.9207217],[27.5080026,41.9079213],[27.5102659,41.889727],[27.5557865,41.8813607],[27.5496303,41.8691022],[27.5562959,41.8650143],[27.5511987,41.8607802],[27.548258,41.8489523],[27.5505632,41.8457431],[27.5382548,41.8376457],[27.5304917,41.8256639],[27.5210191,41.8166771],[27.5345347,41.8125788],[27.5370833,41.8074644],[27.5437489,41.800742],[27.5511987,41.8054185],[27.560609,41.8029342],[27.5686469,41.7984036],[27.5788414,41.7986959],[27.5890358,41.7925573],[27.5894279,41.7833482],[27.5947212,41.780863],[27.6076603,41.7769156],[27.6155022,41.7795472],[27.6196233,41.7833907],[27.6337074,41.7748439],[27.6393949,41.7754093],[27.6479414,41.7700588],[27.6531371,41.7619616],[27.6622939,41.7627242],[27.6766315,41.7601153],[27.6900353,41.7497623]]]}},{"type":"Feature","properties":{"code":"39-03","provinceCode":"39","name":"Kırklareli merkez"},"geometry":{"type":"Polygon","coordinates":[[[27.5210191,41.8166771],[27.5304917,41.8256639],[27.5382548,41.8376457],[27.5505632,41.8457431],[27.548258,41.8489523],[27.5511987,41.8607802],[27.5562959,41.8650143],[27.5496303,41.8691022],[27.5557865,41.8813607],[27.5102659,41.889727],[27.5080026,41.9079213],[27.5152453,41.9207217],[27.5312764,41.9280258],[27.5295839,41.9373469],[27.5242197,41.9416031],[27.5191212,41.9500974],[27.5150019,41.9515777],[27.5103409,41.9584029],[27.5063553,41.9589633],[27.5044481,41.9578437],[27.5030901,41.9518825],[27.5016883,41.9537548],[27.4963964,41.9544272],[27.4953625,41.952606],[27.4898604,41.951474],[27.4892984,41.9541343],[27.4817012,41.9551869],[27.4750252,41.958051],[27.4677216,41.9584506],[27.4678974,41.965325],[27.4635107,41.9687886],[27.4556083,41.9671667],[27.450934,41.9679034],[27.4493279,41.9663052],[27.4470587,41.9670657],[27.4461478,41.9738262],[27.4403628,41.97445],[27.4389006,41.9761192],[27.4379018,41.9811681],[27.434418,41.9832529],[27.4351371,41.986971],[27.4326681,41.9913064],[27.424518,41.9905403],[27.4240626,41.9883488],[27.420379,41.9884736],[27.4145221,41.9908076],[27.4132037,41.999822],[27.4026485,42.0060744],[27.398134,42.0050354],[27.3936994,42.0058785],[27.3929563,42.0132048],[27.3907909,42.0156685],[27.3916766,42.0185463],[27.3838873,42.0215038],[27.3805873,42.0351313],[27.3755614,42.0380926],[27.3769265,42.0412575],[27.3742972,42.0416668],[27.3763121,42.0460686],[27.3723365,42.0468671],[27.3725172,42.0491014],[27.3657044,42.057045],[27.3535336,42.0606005],[27.3408761,42.0606193],[27.3466788,42.0542559],[27.3468288,42.0520442],[27.3439359,42.0502858],[27.3386194,42.0507974],[27.3371931,42.0457586],[27.3301516,42.0458976],[27.3287181,42.0441614],[27.3297477,42.0422597],[27.3250432,42.0391099],[27.3275522,42.0381749],[27.3300156,42.02936],[27.327828,42.0285817],[27.326658,42.0252086],[27.3317223,42.0251477],[27.3327542,42.0240514],[27.3302769,42.021761],[27.3347039,42.0206375],[27.3289081,42.0183722],[27.3297301,42.0167548],[27.3281558,42.0156776],[27.3321838,42.0147132],[27.333624,42.0097582],[27.3313992,42.0046197],[27.3342349,42.0013493],[27.3315186,41.9985705],[27.3323993,41.9955732],[27.3308329,41.9954362],[27.332611,41.9913941],[27.3233,41.9901],[27.313,41.9793],[27.3091,41.9804],[27.3021,41.9795],[27.3002,41.9811],[27.2931,41.9785],[27.289,41.9749],[27.2919,41.9725],[27.2916,41.9696],[27.2839,41.9683],[27.2816,41.9657],[27.2772,41.9657],[27.2753,41.9628],[27.2663,41.9581],[27.2615,41.9479],[27.2629,41.9439],[27.2586,41.9453],[27.2578,41.9438],[27.2641,41.9423],[27.2634,41.9397],[27.2597,41.9377],[27.2622,41.9283],[27.2533,41.9295],[27.2518,41.9281],[27.2432,41.9272],[27.2384,41.923],[27.2248,41.9171],[27.2248,41.9124],[27.2217,41.9108],[27.2286,41.8913],[27.2274,41.8891],[27.2205,41.8878],[27.2205,41.8826],[27.2107,41.8749],[27.1987,41.8749],[27.1961,41.8726],[27.1857,41.8705],[27.1709,41.863],[27.1654,41.8583],[27.1582,41.8614],[27.1568,41.8648],[27.1529,41.8657],[27.1546,41.8707],[27.1532,41.8705],[27.1515,41.8742],[27.1529,41.8745],[27.1536,41.8794],[27.1482,41.8871],[27.1474,41.8973],[27.1455,41.901],[27.1381,41.9023],[27.1357,41.9111],[27.1237,41.9147],[27.1201,41.9179],[27.1125,41.9158],[27.093,41.9225],[27.0925,41.9197],[27.0939,41.9191],[27.0892,41.9158],[27.0905,41.9137],[27.089,41.9149],[27.0881,41.9124],[27.0825,41.9098],[27.0796,41.9147],[27.0634,41.9227],[27.0569,41.9216],[27.0525,41.9236],[27.036,41.9204],[27.0355,41.9234],[27.0325,41.9258],[27.0313,41.9357],[27.0281,41.9387],[27.031,41.9421],[27.0296,41.9486],[27.0214,41.955],[27.0104,41.9581],[27.0008,41.9586],[26.9887339,41.9534338],[26.9871,41.9486],[26.9889,41.9454],[26.9911,41.945],[26.9701525,41.9317868],[26.9650132,41.902894],[26.9651101,41.8789586],[26.9668098,41.8719673],[26.9820192,41.8516783],[26.996117,41.8422813],[27.0206594,41.8161676],[27.0263148,41.7910021],[27.0125538,41.7664876],[27.0102603,41.7496641],[26.9975987,41.7197089],[26.9850318,41.7037333],[26.9678305,41.6960274],[26.9601855,41.6794709],[26.9414679,41.6694954],[26.9299877,41.6611967],[26.9072819,41.6573088],[26.9076745,41.6366009],[26.9041978,41.6175172],[26.9208137,41.6083437],[26.9258415,41.6084365],[26.9353392,41.6043422],[26.9437487,41.6086295],[26.9561058,41.6346722],[26.9759576,41.6360407],[26.9999168,41.6313367],[27.0006402,41.6259403],[27.0245291,41.6309245],[27.0808585,41.6279777],[27.1228556,41.6187323],[27.1505326,41.6187323],[27.1792346,41.6091525],[27.2120369,41.592672],[27.242789,41.590372],[27.2575813,41.5913554],[27.2658532,41.5919053],[27.3112622,41.5778612],[27.3721711,41.6361669],[27.3809581,41.6559624],[27.3902956,41.6845325],[27.4081784,41.6781134],[27.4283986,41.6671282],[27.4354509,41.6677071],[27.4347947,41.694988],[27.4428748,41.7057115],[27.4397852,41.7122722],[27.4453024,41.723107],[27.4108123,41.733276],[27.4510853,41.736259],[27.4640202,41.7472742],[27.4770757,41.7384483],[27.4802144,41.7506686],[27.4996718,41.7396896],[27.5025829,41.7507567],[27.5082666,41.7563412],[27.5111542,41.772063],[27.5175086,41.7764012],[27.52193,41.8026547],[27.5210191,41.8166771]]]}},{"type":"Feature","properties":{"code":"39-04","provinceCode":"39","name":"Kofçaz"},"geometry":{"type":"Polygon","coordinates":[[[26.9887339,41.9534338],[27.0008,41.9586],[27.0104,41.9581],[27.0214,41.955],[27.0296,41.9486],[27.031,41.9421],[27.0281,41.9387],[27.0313,41.9357],[27.0325,41.9258],[27.0355,41.9234],[27.036,41.9204],[27.0525,41.9236],[27.0569,41.9216],[27.0634,41.9227],[27.0796,41.9147],[27.0825,41.9098],[27.0881,41.9124],[27.089,41.9149],[27.0905,41.9137],[27.0892,41.9158],[27.0939,41.9191],[27.0925,41.9197],[27.093,41.9225],[27.1125,41.9158],[27.1201,41.9179],[27.1237,41.9147],[27.1357,41.9111],[27.1381,41.9023],[27.1455,41.901],[27.1474,41.8973],[27.1482,41.8871],[27.1536,41.8794],[27.1529,41.8745],[27.1515,41.8742],[27.1532,41.8705],[27.1546,41.8707],[27.1529,41.8657],[27.1568,41.8648],[27.1582,41.8614],[27.1654,41.8583],[27.1709,41.863],[27.1857,41.8705],[27.1961,41.8726],[27.1987,41.8749],[27.2107,41.8749],[27.2205,41.8826],[27.2205,41.8878],[27.2274,41.8891],[27.2286,41.8913],[27.2217,41.9108],[27.2248,41.9124],[27.2248,41.9171],[27.2384,41.923],[27.2432,41.9272],[27.2518,41.9281],[27.2533,41.9295],[27.2622,41.9283],[27.2597,41.9377],[27.2634,41.9397],[27.2641,41.9423],[27.2578,41.9438],[27.2586,41.9453],[27.2629,41.9439],[27.2615,41.9479],[27.2663,41.9581],[27.2753,41.9628],[27.2772,41.9657],[27.2816,41.9657],[27.2839,41.9683],[27.2916,41.9696],[27.2919,41.9725],[27.289,41.9749],[27.2931,41.9785],[27.3002,41.9811],[27.3021,41.9795],[27.3091,41.9804],[27.313,41.9793],[27.3233,41.9901],[27.332611,41.9913941],[27.3308329,41.9954362],[27.3323993,41.9955732],[27.3315186,41.9985705],[27.3342349,42.0013493],[27.3313992,42.0046197],[27.333624,42.0097582],[27.3321838,42.0147132],[27.3281558,42.0156776],[27.3297301,42.0167548],[27.3289081,42.0183722],[27.3347039,42.0206375],[27.3302769,42.021761],[27.3327542,42.0240514],[27.3317223,42.0251477],[27.326658,42.0252086],[27.327828,42.0285817],[27.3300156,42.02936],[27.3275522,42.0381749],[27.3250432,42.0391099],[27.3297477,42.0422597],[27.3287181,42.0441614],[27.3301516,42.0458976],[27.3371931,42.0457586],[27.3386194,42.0507974],[27.3439359,42.0502858],[27.3468288,42.0520442],[27.3466788,42.0542559],[27.3408761,42.0606193],[27.3360775,42.0598428],[27.3346547,42.062233],[27.3357281,42.0670331],[27.3263852,42.072312],[27.3263303,42.0800491],[27.3225116,42.0804674],[27.3167018,42.0786737],[27.3118537,42.086862],[27.3055421,42.0857013],[27.3014145,42.0872826],[27.2999687,42.0865527],[27.293666,42.0971656],[27.2913819,42.096223],[27.2900205,42.0974539],[27.2829439,42.0950268],[27.2720924,42.0978394],[27.2730072,42.1018119],[27.2707057,42.1043242],[27.2620886,42.0996507],[27.2524254,42.0987548],[27.2469465,42.0999683],[27.2440626,42.1031723],[27.2392148,42.1048008],[27.2306457,42.0991556],[27.2213113,42.098155],[27.2160837,42.0888247],[27.2164015,42.0851323],[27.2033592,42.0832776],[27.1983659,42.0787054],[27.1982209,42.0735484],[27.2031601,42.0706303],[27.20699,42.0609387],[27.200863,42.0593794],[27.1990986,42.0610119],[27.1918977,42.0602889],[27.1848758,42.0638865],[27.1858176,42.0657667],[27.1836495,42.0700294],[27.1766051,42.0698304],[27.1737436,42.0661612],[27.1635644,42.0646118],[27.1590906,42.0654227],[27.1538576,42.0720581],[27.150278,42.068611],[27.135,42.068333],[27.128889,42.069444],[27.115278,42.082222],[27.107222,42.086111],[27.092222,42.085556],[27.075833,42.089444],[27.0605503,42.0897989],[27.0488506,42.0838118],[27.0399791,42.084436],[27.0322289,42.0793551],[27.0242978,42.0816641],[27.0218471,42.0789927],[27.0212593,42.0746699],[27.0233392,42.0725419],[27.0224982,42.0671513],[27.0282914,42.0632855],[27.025852,42.0557761],[27.0221718,42.0553951],[27.0075071,42.03844],[27.0034639,42.0393567],[26.9973569,42.0361811],[26.9944151,42.0386936],[26.9823069,42.0377597],[26.9808857,42.0355411],[26.9835744,42.0331791],[26.9808524,42.0272021],[26.9851445,42.019874],[26.9719725,42.0089214],[26.9655468,42.0007029],[26.9655868,41.9964779],[26.9677,41.9959],[26.9676,41.991],[26.9712,41.9895],[26.9747,41.9839],[26.9742,41.9807],[26.9795,41.9792],[26.9813,41.9755],[26.9865,41.9728],[26.9869,41.9655],[26.9895,41.963],[26.9887339,41.9534338]]]}},{"type":"Feature","properties":{"code":"39-05","provinceCode":"39","name":"Lüleburgaz"},"geometry":{"type":"Polygon","coordinates":[[[27.3112622,41.5778612],[27.2658532,41.5919053],[27.2575813,41.5913554],[27.2499645,41.5765707],[27.2422765,41.5339978],[27.2298218,41.496928],[27.2173093,41.4726264],[27.2136019,41.4295554],[27.1969186,41.4024476],[27.1969186,41.3704599],[27.1946015,41.359504],[27.1957548,41.3477053],[27.194193,41.345005],[27.1998017,41.340043],[27.2037627,41.3401243],[27.2094726,41.3374511],[27.2141012,41.3319061],[27.220098,41.3309622],[27.2230948,41.3271816],[27.2282304,41.3248887],[27.2328043,41.3257413],[27.2347413,41.32114],[27.2332864,41.3203753],[27.2430245,41.3209992],[27.2506362,41.3125645],[27.2575944,41.3118312],[27.266951,41.293647],[27.2715384,41.2903744],[27.274005,41.2861187],[27.2885108,41.2774271],[27.2915547,41.273437],[27.2959436,41.2721601],[27.2986604,41.2685952],[27.3007573,41.269021],[27.3065942,41.2631655],[27.3105262,41.2634873],[27.3192332,41.2588578],[27.3349538,41.2550182],[27.3433999,41.2488814],[27.3392562,41.2386271],[27.3448015,41.2364001],[27.3561847,41.2279337],[27.3583007,41.2288587],[27.3660079,41.2252169],[27.369843,41.2224878],[27.3820791,41.2238978],[27.3885966,41.2213987],[27.3923027,41.2271659],[27.4101941,41.227262],[27.4155615,41.2285691],[27.4270119,41.2244938],[27.4396893,41.2171114],[27.4439832,41.22434],[27.4615679,41.2356427],[27.4762555,41.2404553],[27.4945763,41.2361255],[27.5205731,41.2543654],[27.5285603,41.2500118],[27.5379453,41.2548157],[27.5443351,41.2518133],[27.5523223,41.2566171],[27.5615076,41.2545155],[27.5637041,41.2498617],[27.5692951,41.2489609],[27.576499,41.2577912],[27.5828934,41.2619851],[27.5870132,41.2674529],[27.5866484,41.2695011],[27.5911331,41.2718719],[27.5871961,41.2732111],[27.5881076,41.2770244],[27.5964761,41.2809348],[27.590849,41.285886],[27.5915837,41.2896579],[27.5881934,41.2929308],[27.5823247,41.3054323],[27.5840413,41.3083014],[27.5804171,41.3129687],[27.5826788,41.3171981],[27.5705552,41.3207678],[27.5841808,41.3312902],[27.5883865,41.3366393],[27.5778618,41.3413353],[27.5875054,41.3498506],[27.5887298,41.35415],[27.5931716,41.3584343],[27.5964331,41.3593201],[27.6062178,41.3691761],[27.5911669,41.3870231],[27.5900173,41.3863721],[27.5857472,41.3896562],[27.5872493,41.3925699],[27.5822067,41.3953064],[27.5885831,41.3942691],[27.5924635,41.3965942],[27.5942445,41.39991],[27.5917983,41.400763],[27.5997161,41.4059456],[27.6044369,41.4126404],[27.606883,41.4116587],[27.6092648,41.414314],[27.6090288,41.418353],[27.6115393,41.4185139],[27.6153452,41.425077],[27.6020677,41.4723071],[27.5966015,41.4746422],[27.5884799,41.4750327],[27.5711278,41.4507605],[27.5626442,41.4481785],[27.5459525,41.4500656],[27.552839,41.453012],[27.559688,41.4596786],[27.560105,41.4735958],[27.5543666,41.4817012],[27.549267,41.4832656],[27.545558,41.4871327],[27.5481781,41.4897016],[27.5459599,41.4895937],[27.5470353,41.493356],[27.5429042,41.5258853],[27.503513,41.5480861],[27.4808052,41.5567562],[27.4381701,41.5619577],[27.407584,41.5602239],[27.3677294,41.555369],[27.3250649,41.5719283],[27.3151801,41.5741561],[27.3112622,41.5778612]]]}},{"type":"Feature","properties":{"code":"39-06","provinceCode":"39","name":"Pehlivanköy"},"geometry":{"type":"Polygon","coordinates":[[[26.9337032,41.3093915],[26.9428804,41.3229942],[26.9680328,41.319617],[26.9695916,41.3375553],[26.9730195,41.3443924],[26.9704158,41.3455941],[26.9695778,41.3488279],[26.9739641,41.3528552],[26.9700736,41.3573864],[26.9731187,41.3568548],[26.9726845,41.3608473],[26.9802855,41.3629166],[26.9838306,41.3603087],[26.9874233,41.3601205],[26.9917607,41.3634812],[26.994077,41.3633656],[27.0028615,41.361426],[27.0038623,41.3581477],[27.0204826,41.3760399],[27.0167356,41.3935589],[27.008292,41.4039703],[26.9867175,41.4055273],[26.9618077,41.4102938],[26.9334386,41.4314815],[26.9293889,41.4456681],[26.9170338,41.4600433],[26.9191166,41.4709],[26.9241887,41.4815043],[26.9155433,41.4724186],[26.894272,41.4372469],[26.9034807,41.4044911],[26.9036986,41.3960364],[26.9080754,41.3826239],[26.8970996,41.3628157],[26.898088,41.3557945],[26.8922043,41.3523422],[26.8843623,41.3526133],[26.8840527,41.3500185],[26.886426,41.3471136],[26.8842075,41.345332],[26.8845687,41.3433953],[26.8901428,41.3447952],[26.9008848,41.3398369],[26.903324,41.3404448],[26.9064995,41.3379602],[26.9173911,41.3358489],[26.9174509,41.3175185],[26.9193962,41.3148684],[26.9337032,41.3093915]]]}},{"type":"Feature","properties":{"code":"39-07","provinceCode":"39","name":"Pınarhisar"},"geometry":{"type":"Polygon","coordinates":[[[27.3112622,41.5778612],[27.3151801,41.5741561],[27.3250649,41.5719283],[27.3677294,41.555369],[27.407584,41.5602239],[27.4381701,41.5619577],[27.4808052,41.5567562],[27.503513,41.5480861],[27.5429042,41.5258853],[27.5470353,41.493356],[27.5459599,41.4895937],[27.5481781,41.4897016],[27.545558,41.4871327],[27.549267,41.4832656],[27.5543666,41.4817012],[27.560105,41.4735958],[27.559688,41.4596786],[27.552839,41.453012],[27.5459525,41.4500656],[27.5626442,41.4481785],[27.5711278,41.4507605],[27.5884799,41.4750327],[27.5966015,41.4746422],[27.6020677,41.4723071],[27.6004993,41.5178281],[27.6086528,41.5499092],[27.6194656,41.5634984],[27.6211291,41.5690992],[27.611148,41.5674397],[27.6025532,41.5677509],[27.5992262,41.5633946],[27.594097,41.5644319],[27.5903541,41.567336],[27.6065734,41.5946078],[27.6178021,41.6037304],[27.6178021,41.609535],[27.6258424,41.6039377],[27.630833,41.611608],[27.6356373,41.6137149],[27.64243,41.6223166],[27.6273197,41.6276015],[27.6300566,41.6326357],[27.6271159,41.6418665],[27.6371143,41.6573945],[27.6384866,41.6673539],[27.6410352,41.6698435],[27.6463285,41.6701364],[27.6463285,41.6664752],[27.6504455,41.6663287],[27.6637767,41.6817045],[27.6655411,41.6885857],[27.6616202,41.7032243],[27.6641688,41.7093715],[27.6616202,41.7168352],[27.6696581,41.7288338],[27.6751475,41.7304432],[27.6786763,41.7264928],[27.6824012,41.7300043],[27.6727949,41.7420004],[27.6727949,41.7453648],[27.6829893,41.7396599],[27.6843617,41.7425855],[27.6798526,41.7469737],[27.6867142,41.7474126],[27.6900353,41.7497623],[27.6766315,41.7601153],[27.6622939,41.7627242],[27.6531371,41.7619616],[27.6479414,41.7700588],[27.6393949,41.7754093],[27.6337074,41.7748439],[27.6196233,41.7833907],[27.6155022,41.7795472],[27.6076603,41.7769156],[27.5947212,41.780863],[27.5894279,41.7833482],[27.5890358,41.7925573],[27.5788414,41.7986959],[27.5686469,41.7984036],[27.560609,41.8029342],[27.5511987,41.8054185],[27.5437489,41.800742],[27.5370833,41.8074644],[27.5345347,41.8125788],[27.5210191,41.8166771],[27.52193,41.8026547],[27.5175086,41.7764012],[27.5111542,41.772063],[27.5082666,41.7563412],[27.5025829,41.7507567],[27.4996718,41.7396896],[27.4802144,41.7506686],[27.4770757,41.7384483],[27.4640202,41.7472742],[27.4510853,41.736259],[27.4108123,41.733276],[27.4453024,41.723107],[27.4397852,41.7122722],[27.4428748,41.7057115],[27.4347947,41.694988],[27.4354509,41.6677071],[27.4283986,41.6671282],[27.4081784,41.6781134],[27.3902956,41.6845325],[27.3809581,41.6559624],[27.3721711,41.6361669],[27.3112622,41.5778612]]]}},{"type":"Feature","properties":{"code":"39-08","provinceCode":"39","name":"Vize"},"geometry":{"type":"Polygon","coordinates":[[[27.6020677,41.4723071],[27.6153452,41.425077],[27.6186162,41.4287189],[27.6237799,41.426414],[27.6325938,41.4267725],[27.6423782,41.4228797],[27.6489676,41.4240775],[27.6565555,41.4393479],[27.6707328,41.4526691],[27.6773223,41.4487778],[27.6920986,41.4499751],[27.702482,41.4577574],[27.7110683,41.460451],[27.7172584,41.4583559],[27.7300379,41.4592538],[27.7364277,41.4562608],[27.7436162,41.4561112],[27.7498063,41.4598524],[27.7621865,41.4603013],[27.7751657,41.4770592],[27.7755651,41.4836415],[27.7961322,41.4867828],[27.8182967,41.5032348],[27.8278814,41.5068238],[27.8378654,41.4968041],[27.8422583,41.5006925],[27.851843,41.4985988],[27.8516433,41.4866332],[27.8548382,41.4813976],[27.8688158,41.4797521],[27.8766034,41.4813976],[27.8833925,41.4807993],[27.8959724,41.4887274],[27.8969708,41.4921676],[27.9061561,41.4941119],[27.9111481,41.5084686],[27.9201337,41.5148982],[27.9311162,41.5283534],[27.9305171,41.534482],[27.9432967,41.5437486],[27.9432967,41.5510713],[27.9520826,41.5643696],[27.9482887,41.5712417],[27.9504852,41.5755738],[27.9588717,41.5824448],[27.9590714,41.5882696],[27.9648622,41.5855813],[27.9732487,41.588867],[27.9832328,41.5849839],[27.9822344,41.5715405],[27.9906209,41.566013],[27.9920187,41.5615308],[28.0026018,41.5557036],[28.0092232,41.5590073],[28.0096322,41.5614008],[28.0124037,41.5614008],[28.0119847,41.571423],[28.0145976,41.5722238],[28.0133916,41.5741786],[28.0157031,41.5788022],[28.0128891,41.5781632],[28.0138941,41.5839893],[28.0105664,41.584702],[28.0148991,41.5885747],[28.0189043,41.5887424],[28.0195221,41.591694],[28.0270596,41.5933851],[28.0276932,41.5959019],[28.0295578,41.5947737],[28.0357404,41.5952254],[28.036149,41.5936974],[28.0382631,41.5956373],[28.0379789,41.5978029],[28.035451,41.5990744],[28.0396057,41.602793],[28.043301,41.602979],[28.0416551,41.6097413],[28.0460761,41.6093358],[28.0523222,41.6029041],[28.0533206,41.5952886],[28.0617072,41.5908085],[28.0637831,41.582163],[28.0863952,41.5783807],[28.0999416,41.5910939],[28.1338461,41.5948986],[28.1443132,41.5905908],[28.1467995,41.5916776],[28.142916,41.595783],[28.143631,41.597573],[28.138706,41.599419],[28.133998,41.603957],[28.129545,41.603616],[28.12658,41.610063],[28.1210732,41.6106135],[28.1183674,41.616303],[28.114019,41.6162725],[28.109871,41.623061],[28.1008707,41.628819],[28.101184,41.6317656],[28.0970161,41.6311426],[28.098238,41.633055],[28.1028298,41.6312567],[28.0991606,41.6333014],[28.0986167,41.637273],[28.0944936,41.6380532],[28.0888331,41.6505611],[28.088567,41.658175],[28.090878,41.663288],[28.097732,41.663736],[28.098447,41.665526],[28.105161,41.667772],[28.105192,41.669568],[28.101453,41.671144],[28.099381,41.680149],[28.093253,41.682261],[28.092959,41.685087],[28.088243,41.689753],[28.0784744,41.6921544],[28.064661,41.703065],[28.061247,41.714135],[28.048355,41.721954],[28.045171,41.726347],[28.045572,41.729937],[28.042328,41.730608],[28.040821,41.732804],[28.040411,41.739225],[28.044368,41.740216],[28.043084,41.745618],[28.039879,41.748727],[28.041596,41.748969],[28.041671,41.753589],[28.037909,41.754136],[28.03611,41.759543],[28.033581,41.762133],[28.03032,41.761905],[28.028472,41.764232],[28.029517,41.765249],[28.024052,41.766582],[28.017301,41.773316],[28.017688,41.776136],[28.014949,41.776417],[28.007702,41.784438],[27.9974166,41.7749502],[27.9922874,41.776501],[27.9829995,41.7745367],[27.9778703,41.7690571],[27.9671961,41.7672994],[27.9525017,41.772469],[27.9354506,41.7733995],[27.9324009,41.7622329],[27.918261,41.7425832],[27.9082799,41.7598545],[27.9118842,41.7670926],[27.9095275,41.7693673],[27.9099434,41.7739164],[27.8995464,41.7770179],[27.891922,41.7719521],[27.8863769,41.7753638],[27.8823568,41.7707114],[27.8773662,41.7742265],[27.8693259,41.7708148],[27.8641967,41.7676096],[27.8544929,41.7535464],[27.8407367,41.7477913],[27.8347802,41.7470814],[27.8368596,41.7557687],[27.833186,41.7613528],[27.8291937,41.76361],[27.8231716,41.7640447],[27.8191953,41.760539],[27.8133138,41.7625863],[27.8040996,41.7624401],[27.7948854,41.7592229],[27.7817366,41.7634774],[27.7784212,41.7668232],[27.7792016,41.7726757],[27.7760649,41.7753074],[27.7472459,41.7770618],[27.7397961,41.7691665],[27.7337187,41.7697514],[27.7311701,41.7647798],[27.7272491,41.763025],[27.722544,41.7573217],[27.7148981,41.754543],[27.7096049,41.7444508],[27.7047037,41.7394772],[27.6900353,41.7497623],[27.6867142,41.7474126],[27.6798526,41.7469737],[27.6843617,41.7425855],[27.6829893,41.7396599],[27.6727949,41.7453648],[27.6727949,41.7420004],[27.6824012,41.7300043],[27.6786763,41.7264928],[27.6751475,41.7304432],[27.6696581,41.7288338],[27.6616202,41.7168352],[27.6641688,41.7093715],[27.6616202,41.7032243],[27.6655411,41.6885857],[27.6637767,41.6817045],[27.6504455,41.6663287],[27.6463285,41.6664752],[27.6463285,41.6701364],[27.6410352,41.6698435],[27.6384866,41.6673539],[27.6371143,41.6573945],[27.6271159,41.6418665],[27.6300566,41.6326357],[27.6273197,41.6276015],[27.64243,41.6223166],[27.6356373,41.6137149],[27.630833,41.611608],[27.6258424,41.6039377],[27.6178021,41.609535],[27.6178021,41.6037304],[27.6065734,41.5946078],[27.5903541,41.567336],[27.594097,41.5644319],[27.5992262,41.5633946],[27.6025532,41.5677509],[27.611148,41.5674397],[27.6211291,41.5690992],[27.6194656,41.5634984],[27.6086528,41.5499092],[27.6004993,41.5178281],[27.6020677,41.4723071]]]}}]}