{"type":"FeatureCollection","features":[{"type":"Feature","properties":{"code":"09-01","provinceCode":"09","name":"Bozdoğan"},"geometry":{"type":"Polygon","coordinates":[[[28.1678652,37.6964635],[28.223995,37.6858101],[28.2389369,37.6716448],[28.2442679,37.6515497],[28.2478252,37.6472636],[28.2515554,37.6487544],[28.263183,37.6436958],[28.249561,37.6084382],[28.2614745,37.605605],[28.2635957,37.6003228],[28.2694504,37.5926004],[28.2749354,37.5910148],[28.2882903,37.5749985],[28.2891183,37.5673103],[28.2825881,37.5480466],[28.2780469,37.542279],[28.2779246,37.5149072],[28.2808116,37.5120998],[28.2893568,37.509407],[28.2980031,37.5122163],[28.3185423,37.5292174],[28.3325383,37.5309633],[28.3426895,37.5291887],[28.3461618,37.530389],[28.3503659,37.5261496],[28.3564896,37.5259407],[28.357469,37.5226219],[28.3633892,37.5196995],[28.3631671,37.5212802],[28.3685981,37.5199386],[28.3677968,37.5173787],[28.3731388,37.5143774],[28.3751421,37.5156132],[28.3835291,37.5131527],[28.3891648,37.5163194],[28.3907228,37.5146422],[28.4002939,37.5171139],[28.402108,37.5149576],[28.411445,37.5130982],[28.4201613,37.5081005],[28.4512048,37.5073757],[28.4580756,37.5117706],[28.4669951,37.5091394],[28.4634492,37.5035056],[28.4634923,37.4967608],[28.4695427,37.4947396],[28.4701795,37.4919604],[28.4781405,37.482864],[28.4930181,37.4831187],[28.4975653,37.4752828],[28.5075194,37.4687827],[28.5228187,37.4740834],[28.5519076,37.4716636],[28.5645257,37.4727246],[28.5735278,37.4715023],[28.5860915,37.4719974],[28.5933048,37.4796401],[28.6027815,37.4790882],[28.607842,37.4811073],[28.6137621,37.4861167],[28.6142077,37.4881907],[28.6088237,37.4928645],[28.6052142,37.4937284],[28.6043821,37.4967184],[28.6062639,37.5001835],[28.6025621,37.5015483],[28.6052243,37.5045571],[28.5995857,37.5136763],[28.5962699,37.5117581],[28.5944015,37.5131992],[28.5955259,37.5165874],[28.5927523,37.5173431],[28.5928361,37.5198815],[28.588449,37.5200331],[28.5887088,37.5220918],[28.5854222,37.5197728],[28.5781209,37.5244973],[28.5747281,37.5242299],[28.5690471,37.5265307],[28.5707065,37.5312561],[28.5732243,37.5385529],[28.5702448,37.5494178],[28.5716821,37.5708346],[28.5684746,37.5729482],[28.5596604,37.5736927],[28.5469364,37.5791852],[28.5471529,37.5829849],[28.5588342,37.5997273],[28.562448,37.6102279],[28.5560124,37.6585739],[28.5525344,37.6676893],[28.5395513,37.6821245],[28.5330953,37.7012628],[28.5283808,37.7070406],[28.5212325,37.7111523],[28.5153977,37.7199401],[28.5106756,37.7393443],[28.5155443,37.7422165],[28.516008,37.7514438],[28.5254362,37.7591424],[28.5347871,37.7643966],[28.5375692,37.7691006],[28.5207994,37.7712387],[28.5098256,37.7683064],[28.5012668,37.7681079],[28.4630444,37.7963666],[28.458115,37.8007667],[28.450173,37.8032912],[28.4286833,37.7820602],[28.402382,37.7444277],[28.3873838,37.7389272],[28.3634735,37.7430526],[28.3468353,37.7438747],[28.340076,37.7485766],[28.3351799,37.7575474],[28.340089,37.7711782],[28.3380203,37.7819517],[28.3345703,37.7874083],[28.3195838,37.791971],[28.3185835,37.7934395],[28.3183584,37.8017376],[28.3158955,37.8045061],[28.314773,37.81263],[28.318969,37.8209635],[28.3185389,37.8248901],[28.3012908,37.8426104],[28.2984186,37.8371704],[28.2868868,37.8260088],[28.2736341,37.8056369],[28.2670986,37.7855181],[28.2523844,37.7682167],[28.2550177,37.7590126],[28.2482157,37.7302857],[28.2422318,37.7306892],[28.2349706,37.7210779],[28.2246276,37.7228973],[28.2141498,37.722258],[28.2084397,37.725269],[28.2041666,37.7388137],[28.1966243,37.7338663],[28.1881171,37.7331188],[28.1755749,37.7204491],[28.1704495,37.7125332],[28.1785038,37.70983],[28.1775275,37.7042303],[28.1678652,37.6964635]]]}},{"type":"Feature","properties":{"code":"09-02","provinceCode":"09","name":"Buharkent"},"geometry":{"type":"Polygon","coordinates":[[[28.6881099,38.0640962],[28.6922228,38.0559964],[28.6862321,38.040608],[28.6905112,38.036002],[28.6860895,38.0339798],[28.6708275,38.0313958],[28.6662632,38.032407],[28.6524275,38.0315082],[28.6490043,38.0292611],[28.6404461,38.0179126],[28.6395903,38.0119567],[28.6604151,37.9900393],[28.6604151,37.9787971],[28.6736802,37.9552953],[28.6771035,37.9396607],[28.680812,37.934036],[28.6841439,37.9320515],[28.6967784,37.9394624],[28.7045551,37.9420033],[28.7071906,37.945749],[28.7141414,37.94801],[28.7169797,37.9475761],[28.7199627,37.9498827],[28.7246256,37.9493575],[28.7285354,37.9506592],[28.7327059,37.9485124],[28.737935,37.949081],[28.7505752,37.9453379],[28.7548037,37.9473934],[28.7618993,37.9480557],[28.7637528,37.9460231],[28.7671993,37.9465712],[28.7704719,37.9448354],[28.773085,37.9409622],[28.7762643,37.9418891],[28.7756271,37.9447897],[28.7775386,37.9458632],[28.780985,37.9407014],[28.7864588,37.9372752],[28.794046,37.9378315],[28.8049979,37.9327072],[28.8084478,37.9346707],[28.8107967,37.9302036],[28.8140592,37.9287317],[28.8164792,37.9327244],[28.8198314,37.9299576],[28.8193934,37.9330755],[28.8213536,37.9358781],[28.8232377,37.9365219],[28.8249302,37.9335151],[28.8283994,37.9334609],[28.8276332,37.937171],[28.8323726,37.9398668],[28.8329639,37.9436779],[28.8393268,37.9425229],[28.8413659,37.9448947],[28.8411123,37.9570328],[28.8454106,37.9612339],[28.8441894,37.9766987],[28.835536,37.9861251],[28.8073396,37.9880408],[28.8018948,37.9857419],[28.7997558,37.9811438],[28.7945054,37.9777717],[28.7771014,37.9829064],[28.7701982,37.9825999],[28.7618365,37.9881175],[28.7581418,37.9925619],[28.7567806,38.0003006],[28.74803,38.0071958],[28.7421963,38.0146266],[28.7379323,38.027394],[28.7341628,38.0296242],[28.7330567,38.0366081],[28.7229449,38.0470222],[28.7219726,38.0517692],[28.7154583,38.0546786],[28.7155555,38.0594252],[28.6990266,38.0617983],[28.6926095,38.0662383],[28.6881099,38.0640962]]]}},{"type":"Feature","properties":{"code":"09-03","provinceCode":"09","name":"Çine"},"geometry":{"type":"Polygon","coordinates":[[[28.0987442,37.7365998],[28.095274,37.7374471],[28.0912578,37.7360996],[28.0907709,37.7339821],[28.0863287,37.7331158],[28.0856593,37.735859],[28.0810953,37.7348484],[28.0773833,37.736629],[28.0794787,37.7433889],[28.0734847,37.7425708],[28.0728153,37.744231],[28.0687158,37.7453568],[28.0662484,37.7580087],[28.0561952,37.7646115],[28.0540298,37.7687685],[28.0449046,37.7745145],[28.0385633,37.7714582],[28.0156729,37.7713359],[28.010569,37.7686462],[28.0053103,37.7605765],[28.0048464,37.747492],[27.9997424,37.7408877],[27.9935558,37.7419885],[27.9785533,37.7388084],[27.9610761,37.7308578],[27.9606121,37.7244967],[27.9558175,37.7226617],[27.9493216,37.723518],[27.9434443,37.7225394],[27.9179246,37.7056549],[27.8769272,37.7237334],[27.862709,37.7324165],[27.8617727,37.7349445],[27.8587036,37.7335063],[27.8524993,37.7152376],[27.8472857,37.7081134],[27.8374032,37.6874919],[27.8371485,37.662086],[27.8214642,37.6545947],[27.8346475,37.6509688],[27.8625325,37.6545745],[27.8646593,37.6455251],[27.8891178,37.6413113],[27.8903743,37.6346771],[27.9036896,37.6287226],[27.908789,37.6184336],[27.9248108,37.6058137],[27.9260975,37.5998843],[27.9156325,37.593182],[27.919959,37.5883821],[27.9260337,37.5869071],[27.9276984,37.5815171],[27.9363908,37.5763582],[27.9342598,37.5688164],[27.936094,37.552984],[27.9395586,37.544097],[27.9232545,37.5486215],[27.9156693,37.5485683],[27.9093477,37.5437761],[27.9082083,37.5391764],[27.9142675,37.511965],[27.9091335,37.5107049],[27.9069504,37.5116102],[27.8972006,37.5035813],[27.8976669,37.50055],[27.9033043,37.5010686],[27.9221559,37.4964201],[27.9388432,37.4968587],[27.9414917,37.4873412],[27.938982,37.4770753],[27.9461954,37.4727819],[27.963207,37.459263],[27.9893744,37.4635742],[28.0032994,37.4717501],[28.0290444,37.4681946],[28.0404711,37.4782899],[28.059996,37.4738411],[28.0812149,37.466684],[28.0896274,37.4604939],[28.0967421,37.4491981],[28.1019717,37.4491513],[28.1098235,37.4541284],[28.1258971,37.4594569],[28.1469386,37.4633598],[28.1575199,37.4687238],[28.1530037,37.4843524],[28.1553268,37.4877712],[28.1605521,37.4878819],[28.1689629,37.4782181],[28.1736279,37.4777885],[28.177669,37.4805439],[28.1865084,37.4689475],[28.1910618,37.4664286],[28.1923037,37.4708092],[28.1913378,37.4793506],[28.1928669,37.4815339],[28.1971331,37.482745],[28.2070678,37.4809931],[28.2239874,37.4875534],[28.2310768,37.4938031],[28.2250182,37.4996074],[28.2321158,37.5073555],[28.2229761,37.5299715],[28.2415638,37.5291218],[28.2428342,37.5329393],[28.2468124,37.5341853],[28.245542,37.5352722],[28.2479824,37.535988],[28.2492862,37.5349806],[28.2509911,37.5365446],[28.2485549,37.5423138],[28.2506736,37.5441656],[28.2494032,37.5447885],[28.2527238,37.5628832],[28.2487053,37.5741314],[28.2505293,37.5916079],[28.2572745,37.6006888],[28.2635957,37.6003228],[28.2614745,37.605605],[28.249561,37.6084382],[28.263183,37.6436958],[28.2515554,37.6487544],[28.2478252,37.6472636],[28.2442679,37.6515497],[28.2389369,37.6716448],[28.223995,37.6858101],[28.1678652,37.6964635],[28.1412915,37.7020946],[28.1296263,37.7065494],[28.1159988,37.7193237],[28.1073636,37.7339235],[28.0987442,37.7365998]]]}},{"type":"Feature","properties":{"code":"09-04","provinceCode":"09","name":"Didim"},"geometry":{"type":"Polygon","coordinates":[[[27.4625855,37.5008689],[27.3923501,37.5145183],[27.3621649,37.5083453],[27.3528089,37.508469],[27.3296373,37.5053023],[27.286974,37.517053],[27.2833637,37.5263],[27.2878546,37.5427211],[27.2624063,37.5366872],[27.2521771,37.5418308],[27.24668,37.5500271],[27.2419299,37.5472986],[27.2312822,37.5482125],[27.2223224,37.5424662],[27.215694,37.5408928],[27.2063214,37.5444412],[27.207799,37.5488933],[27.1976242,37.5498974],[27.1968047,37.5529048],[27.205439,37.55993],[27.199633,37.560583],[27.198981,37.558272],[27.193175,37.559052],[27.194138,37.557252],[27.191562,37.559312],[27.188975,37.556875],[27.185752,37.55855],[27.184782,37.557781],[27.186924,37.555553],[27.185099,37.555469],[27.187513,37.553153],[27.183479,37.552902],[27.183475,37.551104],[27.179596,37.548155],[27.180246,37.550338],[27.177985,37.549314],[27.174771,37.554457],[27.173791,37.549321],[27.175408,37.551116],[27.17884,37.548373],[27.171514,37.541103],[27.176683,37.544435],[27.175708,37.541097],[27.179584,37.543147],[27.181837,37.540831],[27.17959,37.545715],[27.183788,37.54725],[27.184437,37.548919],[27.188633,37.549426],[27.189919,37.547754],[27.187013,37.546731],[27.195078,37.546462],[27.196201,37.544404],[27.195071,37.543636],[27.192171,37.544925],[27.193133,37.542611],[27.19119,37.539789],[27.194736,37.539012],[27.198287,37.540034],[27.196664,37.535927],[27.193758,37.535161],[27.191814,37.531824],[27.194397,37.532591],[27.195694,37.535157],[27.202472,37.53643],[27.203112,37.534759],[27.210849,37.532819],[27.209554,37.53128],[27.205689,37.53347],[27.202139,37.532706],[27.20053,37.53425],[27.195691,37.533873],[27.195687,37.532589],[27.19988,37.532325],[27.197617,37.530273],[27.200033,37.529499],[27.200191,37.527957],[27.198256,37.52796],[27.199205,37.52128],[27.205652,37.519727],[27.206131,37.518442],[27.205148,37.512535],[27.201913,37.508944],[27.207551,37.506879],[27.200762,37.500469],[27.201232,37.49533],[27.20332,37.492244],[27.212984,37.489658],[27.215553,37.486057],[27.221032,37.485533],[27.224586,37.488223],[27.227643,37.486548],[27.227475,37.484237],[27.22037,37.479626],[27.222948,37.479364],[27.222943,37.477823],[27.226806,37.476274],[27.227922,37.472419],[27.222582,37.464722],[27.223683,37.455986],[27.2201958,37.4544733],[27.2219728,37.4539156],[27.2211711,37.4523245],[27.2188114,37.452295],[27.2193776,37.4549392],[27.21868,37.452913],[27.2185717,37.4522458],[27.2204892,37.451255],[27.221075,37.445715],[27.2192015,37.436436],[27.22037,37.425165],[27.2185143,37.4198379],[27.221956,37.416685],[27.221871,37.4139398],[27.2197322,37.413488],[27.220678,37.4121994],[27.224447,37.411021],[27.2232621,37.409077],[27.2280766,37.4081063],[27.2301973,37.4056413],[27.2268664,37.4008111],[27.22262,37.4011721],[27.2199304,37.3994287],[27.2144894,37.4012215],[27.2131349,37.3987477],[27.2100492,37.3990462],[27.2099852,37.3938051],[27.2149846,37.3958653],[27.2180638,37.3932419],[27.2175394,37.3914852],[27.2154148,37.3916292],[27.2160018,37.3887697],[27.2130462,37.3883024],[27.211564,37.38639],[27.2127884,37.3850063],[27.2084886,37.3807901],[27.2112638,37.3795924],[27.2105716,37.3778553],[27.212097,37.3768379],[27.2043931,37.3730528],[27.203634,37.3706723],[27.2076274,37.3682326],[27.2042102,37.3664474],[27.205389,37.364822],[27.202165,37.363029],[27.2028363,37.3607399],[27.193219,37.3568374],[27.1919448,37.3537842],[27.1979827,37.35362],[27.1973096,37.3513526],[27.198758,37.352117],[27.201917,37.3509047],[27.2043493,37.3519805],[27.2025953,37.3540388],[27.2084806,37.3568881],[27.208794,37.3526755],[27.220968,37.354261],[27.217738,37.350028],[27.2129534,37.3484234],[27.2154492,37.3455983],[27.223197,37.346164],[27.233293,37.3501834],[27.2313518,37.3469401],[27.2321431,37.3446741],[27.2300048,37.3428071],[27.236055,37.342158],[27.2352332,37.3389683],[27.2499354,37.3363525],[27.2540123,37.3362589],[27.2526854,37.3371359],[27.253837,37.3378827],[27.2550002,37.3363819],[27.2578616,37.3373511],[27.2583484,37.3347558],[27.2608362,37.3335192],[27.2634709,37.3341206],[27.2656013,37.3369006],[27.2621205,37.3338665],[27.2584771,37.3352654],[27.2611364,37.3367409],[27.2630185,37.3359713],[27.2617719,37.3376751],[27.2630432,37.3409623],[27.2645063,37.3395325],[27.2640959,37.336937],[27.2647726,37.3397119],[27.2639768,37.3410022],[27.2621722,37.3415028],[27.2625826,37.3430908],[27.2653697,37.3444606],[27.2679652,37.3434845],[27.2686885,37.3461034],[27.2754681,37.3489655],[27.2754469,37.3535608],[27.2816622,37.3562555],[27.2881674,37.3560878],[27.288707,37.353858],[27.2960187,37.3498458],[27.3001215,37.3522866],[27.3023696,37.351593],[27.3075977,37.3536516],[27.3084812,37.3521328],[27.306074,37.351246],[27.3073973,37.3495793],[27.3056265,37.3489731],[27.3128781,37.3412551],[27.3145745,37.3460691],[27.3174278,37.3450248],[27.3184329,37.3419034],[27.3200843,37.3441481],[27.3231488,37.3431721],[27.3234996,37.3416537],[27.3263395,37.3432323],[27.3301901,37.3428521],[27.330523,37.3444462],[27.3328439,37.3448432],[27.331829,37.3461464],[27.3334818,37.348384],[27.3295223,37.3530808],[27.3302945,37.3548304],[27.324598,37.355949],[27.3202216,37.3606973],[27.3208264,37.3673369],[27.3183117,37.3689945],[27.3214893,37.3690807],[27.3230412,37.3717774],[27.3250265,37.3707814],[27.3305194,37.3720134],[27.3313747,37.3734019],[27.3283948,37.3755788],[27.3288261,37.377944],[27.3314235,37.378676],[27.3335155,37.3753805],[27.338521,37.374792],[27.3380796,37.3735352],[27.3343481,37.3730131],[27.3388182,37.3706261],[27.3395338,37.3735503],[27.341448,37.3736355],[27.3424251,37.3717294],[27.3410765,37.370756],[27.343002,37.369255],[27.3477092,37.369289],[27.3596805,37.372842],[27.361269,37.379337],[27.3650993,37.382283],[27.3633996,37.3888975],[27.3649367,37.393244],[27.368576,37.399107],[27.3734441,37.401434],[27.3761364,37.405029],[27.3897881,37.4106396],[27.3950554,37.4093643],[27.3987093,37.4113698],[27.3999769,37.4099471],[27.3995631,37.41281],[27.4032165,37.4141426],[27.4139218,37.4162262],[27.4181073,37.4152688],[27.4222164,37.4127129],[27.4311114,37.400115],[27.4314294,37.3882433],[27.4297408,37.3859103],[27.4316626,37.3876485],[27.4324963,37.3825259],[27.4308843,37.3807429],[27.4245826,37.3818928],[27.4205961,37.3801543],[27.417988,37.3830064],[27.4136743,37.3831733],[27.4122379,37.3812872],[27.4129393,37.3771709],[27.405987,37.3694122],[27.4029699,37.3669492],[27.391259,37.364738],[27.387044,37.358715],[27.382686,37.356161],[27.382677,37.354363],[27.4185157,37.3607992],[27.4392867,37.3736236],[27.4732757,37.384127],[27.4904418,37.4022659],[27.4894119,37.4269442],[27.4731312,37.4387597],[27.4439735,37.4702764],[27.4497145,37.4866633],[27.4625855,37.5008689]]]}},{"type":"Feature","properties":{"code":"09-05","provinceCode":"09","name":"Efeler"},"geometry":{"type":"Polygon","coordinates":[[[28.1012714,37.8528587],[28.0938669,37.8517611],[28.0925363,37.8497422],[28.0935766,37.8471783],[28.0854965,37.8410558],[28.0840272,37.8367025],[28.0700204,37.8386543],[28.0694634,37.8367653],[28.0769084,37.8307329],[28.0767601,37.8293969],[28.0660355,37.8252351],[28.0625899,37.8267062],[28.0589297,37.8261061],[28.058519,37.8151946],[28.0472635,37.8163813],[28.043076,37.8119898],[28.0409016,37.8131257],[28.0404468,37.8164844],[28.0378629,37.8166555],[28.0347892,37.8141434],[28.0343808,37.8081681],[28.0259705,37.808511],[28.0227941,37.8027126],[28.017494,37.8084096],[28.0059926,37.8068127],[27.9982194,37.8145255],[27.9881643,37.8113493],[27.9888773,37.8193359],[27.9856423,37.8208627],[27.9850435,37.8229437],[27.9892748,37.8257725],[27.9980561,37.8394274],[27.9980083,37.8445898],[28.0009138,37.8475829],[28.0014609,37.8526767],[28.006137,37.8582823],[28.0132676,37.8607395],[28.025678,37.8704929],[28.0289873,37.8812408],[28.0278939,37.9005698],[28.0180416,37.9023687],[28.0093996,37.9235123],[28.010759,37.9268058],[28.0149022,37.9294138],[28.0161278,37.9331187],[28.0137255,37.9352668],[28.0162043,37.9378414],[28.0145836,37.9406207],[28.0174578,37.9452802],[28.015278,37.9491412],[28.0161534,37.9503388],[28.0115081,37.9535538],[28.0121814,37.9559263],[28.0051207,37.9585995],[28.0073733,37.9657834],[28.0040263,37.9727198],[27.9819684,37.9850483],[27.9658938,37.9994117],[27.95648,37.9947333],[27.9413397,37.9978946],[27.9276005,37.9976105],[27.9264088,37.9962612],[27.900342,37.9933131],[27.9062192,38.0149138],[27.9024766,38.0130886],[27.9016441,38.0109199],[27.8796,38.0123144],[27.8802548,38.0066007],[27.8741118,37.9941383],[27.866955,37.9861882],[27.8635889,37.9765115],[27.8561329,37.9704221],[27.8474171,37.9570773],[27.8355016,37.9495645],[27.8179581,37.9476563],[27.8117574,37.9444362],[27.8078252,37.9366834],[27.7845347,37.9226071],[27.7830223,37.917119],[27.7772753,37.9091247],[27.7744018,37.8993395],[27.7792414,37.8951625],[27.7769729,37.8925368],[27.7722845,37.8919401],[27.7703184,37.8894336],[27.7626053,37.8870465],[27.7616979,37.8816751],[27.7527749,37.8782133],[27.7471791,37.8655951],[27.7510198,37.8607045],[27.7513722,37.8562777],[27.7551782,37.8497915],[27.7534021,37.8423206],[27.7605405,37.8284651],[27.7670739,37.8205329],[27.7702196,37.8001728],[27.7744543,37.7962531],[27.7774053,37.7878231],[27.7813988,37.783702],[27.7853273,37.7836116],[27.7809103,37.7670753],[27.7848217,37.7655697],[27.7847262,37.7610009],[27.7865173,37.7598869],[27.7890369,37.760661],[27.7954969,37.7695059],[27.808851,37.7719285],[27.8158381,37.7660005],[27.8248561,37.7671489],[27.8294822,37.766299],[27.8415739,37.7602945],[27.8443079,37.7575809],[27.8443409,37.7534358],[27.8517169,37.7490933],[27.8534102,37.7440277],[27.8583555,37.7402943],[27.8617727,37.7349445],[27.862709,37.7324165],[27.8769272,37.7237334],[27.9179246,37.7056549],[27.9434443,37.7225394],[27.9493216,37.723518],[27.9558175,37.7226617],[27.9606121,37.7244967],[27.9610761,37.7308578],[27.9785533,37.7388084],[27.9935558,37.7419885],[27.9997424,37.7408877],[28.0048464,37.747492],[28.0053103,37.7605765],[28.010569,37.7686462],[28.0156729,37.7713359],[28.0385633,37.7714582],[28.0449046,37.7745145],[28.0540298,37.7687685],[28.0561952,37.7646115],[28.0662484,37.7580087],[28.0687158,37.7453568],[28.0728153,37.744231],[28.0734847,37.7425708],[28.0794787,37.7433889],[28.0773833,37.736629],[28.0810953,37.7348484],[28.0856593,37.735859],[28.0863287,37.7331158],[28.0907709,37.7339821],[28.0912578,37.7360996],[28.095274,37.7374471],[28.0987442,37.7365998],[28.102496,37.7630223],[28.1110385,37.7801928],[28.1198249,37.7825076],[28.1237301,37.7913803],[28.1153614,37.8062696],[28.1012714,37.8528587]]]}},{"type":"Feature","properties":{"code":"09-06","provinceCode":"09","name":"Germencik"},"geometry":{"type":"Polygon","coordinates":[[[27.6491523,37.8027656],[27.6505682,37.8137423],[27.6467207,37.8301809],[27.6480866,37.846223],[27.6522276,37.8471496],[27.6526328,37.8585507],[27.6590765,37.8632976],[27.6621802,37.8742784],[27.6700997,37.8890693],[27.6649619,37.8919502],[27.6605805,37.9144751],[27.6623239,37.9202934],[27.6696059,37.9188293],[27.6748044,37.9150736],[27.6781645,37.9156399],[27.6800684,37.9201417],[27.6783733,37.9220142],[27.6737575,37.9206929],[27.6737647,37.9228556],[27.6864039,37.9337776],[27.6978394,37.9500255],[27.7023784,37.9526898],[27.7023996,37.9664729],[27.692284,37.9800043],[27.6869052,37.9772291],[27.6802103,37.976678],[27.6725435,37.9684127],[27.6699257,37.9675965],[27.6706445,37.9662221],[27.6679248,37.9654947],[27.663424,37.9672498],[27.6609778,37.966184],[27.6623564,37.9623205],[27.6597158,37.9639872],[27.6529822,37.9624801],[27.6485989,37.9632123],[27.6415161,37.9682498],[27.6364507,37.9684918],[27.6317152,37.9724647],[27.6309621,37.9699588],[27.6272968,37.9691631],[27.6226893,37.9722983],[27.6243979,37.9820505],[27.6231099,37.989995],[27.6191028,37.9970099],[27.6237849,37.9992806],[27.6212236,38.0048934],[27.6223027,38.0074621],[27.6202897,38.006679],[27.6186633,38.008548],[27.6060391,38.0079099],[27.5841869,38.0036769],[27.5761373,38.0047892],[27.5626986,38.0103368],[27.5595358,38.0104115],[27.5559815,38.0085214],[27.5491252,38.008196],[27.5447988,38.0036872],[27.5240417,38.0077742],[27.5199902,38.0019879],[27.5143361,38.0015652],[27.5090146,37.9982933],[27.5057101,37.9893308],[27.5009894,37.9857117],[27.4998307,37.9787943],[27.4954104,37.9745996],[27.4875569,37.9784222],[27.4847857,37.9781635],[27.4823642,37.9717071],[27.473191,37.9665139],[27.4740708,37.9624665],[27.4840754,37.9593197],[27.4928336,37.9589889],[27.4959099,37.9508356],[27.4950135,37.9472814],[27.4967676,37.9458304],[27.4947834,37.937718],[27.5020505,37.9374906],[27.486398,37.929261],[27.4803897,37.9285706],[27.475089,37.9326146],[27.4731469,37.9324794],[27.4648895,37.9259332],[27.4598876,37.9273116],[27.456023,37.9264864],[27.4575882,37.9241204],[27.4547295,37.9180173],[27.4574806,37.9140377],[27.4576335,37.8986441],[27.4591757,37.8962961],[27.4319172,37.8791216],[27.4269605,37.8786219],[27.4246752,37.8732697],[27.4352646,37.8703648],[27.4379897,37.8657742],[27.4359727,37.8605566],[27.4388583,37.8561658],[27.4358825,37.8524403],[27.4412005,37.8443216],[27.4405581,37.8386567],[27.4558996,37.8407669],[27.4576569,37.8396566],[27.4672347,37.8402118],[27.4729462,37.8377136],[27.477164,37.8440977],[27.4793607,37.8448609],[27.4905201,37.8467344],[27.512136,37.8467344],[27.5095878,37.8395872],[27.5097636,37.8290387],[27.5051943,37.826679],[27.5037006,37.8181416],[27.4976376,37.8148097],[27.5010645,37.8036327],[27.5108454,37.8013044],[27.5245671,37.8015532],[27.529111,37.7979273],[27.5262767,37.7954032],[27.5282562,37.7936968],[27.5353645,37.8002024],[27.537299,37.790426],[27.5410781,37.7940167],[27.5469717,37.7947989],[27.5448324,37.8027511],[27.5506123,37.8016894],[27.559106,37.802492],[27.5675124,37.7996237],[27.5696499,37.8007748],[27.5703305,37.7955476],[27.5738172,37.7977367],[27.5751546,37.8029637],[27.5726351,37.8061337],[27.5757636,37.8079923],[27.5776741,37.8078696],[27.5803489,37.8034826],[27.5837401,37.8030203],[27.5898777,37.8047846],[27.5892807,37.8068507],[27.5921465,37.8082942],[27.5946302,37.8061903],[27.5922181,37.8017655],[27.5949287,37.800605],[27.6021291,37.8053035],[27.6155782,37.8086098],[27.6195747,37.802058],[27.6148342,37.7991142],[27.6124221,37.7950381],[27.6207688,37.7857055],[27.6231809,37.788546],[27.6204822,37.7934717],[27.6224047,37.7966516],[27.6266796,37.7953683],[27.6278856,37.7868096],[27.6295693,37.7866303],[27.6303812,37.7938586],[27.6356352,37.7889706],[27.6408415,37.7901502],[27.6413669,37.7925092],[27.6381309,37.7977838],[27.641749,37.8034354],[27.6452476,37.8028222],[27.6456775,37.8012182],[27.6431938,37.8008975],[27.6442566,37.7995199],[27.6491523,37.8027656]]]}},{"type":"Feature","properties":{"code":"09-07","provinceCode":"09","name":"İncirliova"},"geometry":{"type":"Polygon","coordinates":[[[27.7809103,37.7670753],[27.7853273,37.7836116],[27.7813988,37.783702],[27.7774053,37.7878231],[27.7744543,37.7962531],[27.7702196,37.8001728],[27.7670739,37.8205329],[27.7605405,37.8284651],[27.7534021,37.8423206],[27.7551782,37.8497915],[27.7513722,37.8562777],[27.7510198,37.8607045],[27.7471791,37.8655951],[27.7527749,37.8782133],[27.7616979,37.8816751],[27.7626053,37.8870465],[27.7703184,37.8894336],[27.7722845,37.8919401],[27.7769729,37.8925368],[27.7792414,37.8951625],[27.7744018,37.8993395],[27.7772753,37.9091247],[27.7830223,37.917119],[27.7845347,37.9226071],[27.8078252,37.9366834],[27.8117574,37.9444362],[27.8179581,37.9476563],[27.8355016,37.9495645],[27.8474171,37.9570773],[27.8561329,37.9704221],[27.8475898,37.9718636],[27.8450915,37.975162],[27.846677,37.9781898],[27.843985,37.9767097],[27.8430734,37.9784123],[27.8325028,37.973029],[27.8270549,37.9718995],[27.8239169,37.9672793],[27.8135847,37.9627746],[27.8068725,37.9650019],[27.8003258,37.9637952],[27.8021606,37.9698551],[27.8004748,37.9712729],[27.7974164,37.9717621],[27.7899715,37.9696813],[27.7853465,37.9718805],[27.7851864,37.9748621],[27.7776486,37.9750182],[27.7756691,37.969914],[27.7723002,37.9677319],[27.7717906,37.9637818],[27.7672952,37.9593028],[27.7640229,37.9606732],[27.7626765,37.9572768],[27.7577197,37.9542737],[27.7581078,37.9512175],[27.7553487,37.9491681],[27.754603,37.9548828],[27.7514166,37.957704],[27.7501506,37.9635196],[27.7480048,37.9647334],[27.7483642,37.9677784],[27.74516,37.9690024],[27.7437991,37.9727009],[27.7400494,37.972481],[27.7384025,37.9756863],[27.739352,37.9780586],[27.733891,37.9795047],[27.7332044,37.9812214],[27.730679,37.9786544],[27.7244121,37.9788197],[27.7228993,37.975699],[27.7186453,37.9789719],[27.718935,37.9806294],[27.7159738,37.9803926],[27.7168858,37.9812129],[27.7119559,37.9810565],[27.7125149,37.9793472],[27.710529,37.9786379],[27.7046442,37.9801897],[27.7030778,37.9782784],[27.7026388,37.9810871],[27.6940007,37.9824256],[27.692284,37.9800043],[27.7023996,37.9664729],[27.7023784,37.9526898],[27.6978394,37.9500255],[27.6864039,37.9337776],[27.6737647,37.9228556],[27.6737575,37.9206929],[27.6783733,37.9220142],[27.6800684,37.9201417],[27.6781645,37.9156399],[27.6748044,37.9150736],[27.6696059,37.9188293],[27.6623239,37.9202934],[27.6605805,37.9144751],[27.6649619,37.8919502],[27.6700997,37.8890693],[27.6621802,37.8742784],[27.6590765,37.8632976],[27.6526328,37.8585507],[27.6522276,37.8471496],[27.6480866,37.846223],[27.6467207,37.8301809],[27.6505682,37.8137423],[27.6491523,37.8027656],[27.6532122,37.8045204],[27.6594454,37.8041808],[27.6584543,37.8075111],[27.6627291,37.8089357],[27.6649262,37.8040959],[27.6722102,37.8076338],[27.6730819,37.8037845],[27.6804255,37.8026995],[27.6854646,37.8076432],[27.6965338,37.807379],[27.7218031,37.8108526],[27.7225673,37.8089508],[27.7162434,37.8039619],[27.7187367,37.8026184],[27.7225195,37.8031769],[27.7231023,37.7995841],[27.7303289,37.8002766],[27.7335577,37.7948267],[27.7367579,37.7935208],[27.7411235,37.7941473],[27.7469029,37.7984122],[27.7554621,37.7948795],[27.7516857,37.7902878],[27.7542053,37.7871265],[27.7535724,37.7821815],[27.7460377,37.7758487],[27.7513633,37.771035],[27.7552919,37.769185],[27.7603429,37.773272],[27.7639252,37.773961],[27.7671134,37.7714787],[27.769012,37.7726113],[27.7713166,37.7717335],[27.7720091,37.7661361],[27.7809103,37.7670753]]]}},{"type":"Feature","properties":{"code":"09-08","provinceCode":"09","name":"Karacasu"},"geometry":{"type":"Polygon","coordinates":[[[28.7726447,37.8011439],[28.7679076,37.8061694],[28.7560799,37.8109817],[28.7444013,37.8136181],[28.7439461,37.8163054],[28.7505497,37.8239064],[28.7448895,37.8274831],[28.7401727,37.8356791],[28.7460795,37.8499843],[28.7192863,37.8484291],[28.6929957,37.8447528],[28.6836844,37.8451132],[28.6598586,37.8490779],[28.6523731,37.8562137],[28.6292776,37.8597454],[28.6279083,37.8586643],[28.6300991,37.8541956],[28.6290037,37.8521053],[28.6149455,37.8532586],[28.6100161,37.8512403],[28.5902068,37.8603219],[28.5836342,37.8690421],[28.5798914,37.8709878],[28.5603561,37.8720687],[28.5548789,37.870051],[28.5536009,37.8673846],[28.5562482,37.8611147],[28.5554266,37.8583039],[28.5503145,37.853619],[28.5177252,37.833939],[28.4936255,37.8298293],[28.4879657,37.8262962],[28.4851358,37.8198786],[28.4672436,37.8080514],[28.4636835,37.8034354],[28.4630444,37.7963666],[28.5012668,37.7681079],[28.5098256,37.7683064],[28.5207994,37.7712387],[28.5375692,37.7691006],[28.5347871,37.7643966],[28.5254362,37.7591424],[28.516008,37.7514438],[28.5155443,37.7422165],[28.5106756,37.7393443],[28.5153977,37.7199401],[28.5212325,37.7111523],[28.5283808,37.7070406],[28.5330953,37.7012628],[28.5395513,37.6821245],[28.5525344,37.6676893],[28.5560124,37.6585739],[28.562448,37.6102279],[28.5588342,37.5997273],[28.5471529,37.5829849],[28.5469364,37.5791852],[28.5596604,37.5736927],[28.5684746,37.5729482],[28.5716821,37.5708346],[28.5702448,37.5494178],[28.5732243,37.5385529],[28.5707065,37.5312561],[28.6037142,37.5421433],[28.6150346,37.542263],[28.6317887,37.5477681],[28.6428072,37.5460926],[28.6514107,37.542622],[28.6563916,37.5490844],[28.6633348,37.5529137],[28.6716364,37.553512],[28.6776739,37.5577001],[28.6926168,37.5724161],[28.6906546,37.5852156],[28.6960884,37.5903586],[28.7075597,37.593229],[28.7134463,37.5962189],[28.7191819,37.6053074],[28.7226538,37.6069709],[28.7388228,37.6046273],[28.7477666,37.6089145],[28.7584447,37.6228012],[28.762822,37.6256703],[28.7637276,37.6323646],[28.7659917,37.6334404],[28.7694632,37.632006],[28.7742933,37.6385801],[28.7730858,37.6410901],[28.7747461,37.6427634],[28.7844061,37.6426438],[28.7902808,37.6447496],[28.7919114,37.6472526],[28.7911073,37.6514242],[28.7946932,37.6550763],[28.7937643,37.6744289],[28.8082544,37.6800436],[28.811649,37.6860153],[28.8058061,37.6894815],[28.8031381,37.6993938],[28.8096268,37.7073974],[28.8144857,37.7087415],[28.8213626,37.7066981],[28.8311383,37.7062428],[28.8362334,37.7120739],[28.8473633,37.7203403],[28.8550513,37.7228944],[28.8639294,37.7217618],[28.8738271,37.716595],[28.8891429,37.7113685],[28.9044737,37.7135821],[28.876954,37.7295461],[28.8710164,37.7350494],[28.868865,37.7400187],[28.8626915,37.7435109],[28.8618186,37.7512805],[28.8518876,37.755122],[28.8402817,37.7656056],[28.8291626,37.7705534],[28.813432,37.7725564],[28.8079062,37.7767971],[28.8080571,37.7843871],[28.7742091,37.7993006],[28.7726447,37.8011439]]]}},{"type":"Feature","properties":{"code":"09-09","provinceCode":"09","name":"Karpuzlu"},"geometry":{"type":"Polygon","coordinates":[[[27.8214642,37.6545947],[27.8139661,37.6564391],[27.7963339,37.6505325],[27.7828864,37.6513968],[27.7818126,37.6302231],[27.7733464,37.6205051],[27.763867,37.5998543],[27.7579424,37.5938457],[27.7403593,37.5874416],[27.732585,37.5816392],[27.7296404,37.5772398],[27.7119908,37.5752535],[27.6963324,37.5699895],[27.693382,37.5594888],[27.6927541,37.5450315],[27.7170808,37.5439026],[27.721423,37.5458158],[27.7336397,37.5471344],[27.7428697,37.5426965],[27.7418685,37.5289454],[27.7439539,37.5170835],[27.7623531,37.5109977],[27.77337,37.5106336],[27.7707214,37.4924943],[27.7654645,37.4793826],[27.7769802,37.4706698],[27.790411,37.4664035],[27.8106628,37.4485543],[27.82051,37.4466826],[27.8284073,37.4489073],[27.8347761,37.4565923],[27.8361055,37.4687459],[27.8419091,37.4760034],[27.8505707,37.4768121],[27.861615,37.4753176],[27.8737531,37.4790359],[27.8887834,37.4798446],[27.8944178,37.4893083],[27.8976669,37.50055],[27.8972006,37.5035813],[27.9069504,37.5116102],[27.9091335,37.5107049],[27.9142675,37.511965],[27.9082083,37.5391764],[27.9093477,37.5437761],[27.9156693,37.5485683],[27.9232545,37.5486215],[27.9395586,37.544097],[27.936094,37.552984],[27.9342598,37.5688164],[27.9363908,37.5763582],[27.9276984,37.5815171],[27.9260337,37.5869071],[27.919959,37.5883821],[27.9156325,37.593182],[27.9260975,37.5998843],[27.9248108,37.6058137],[27.908789,37.6184336],[27.9036896,37.6287226],[27.8903743,37.6346771],[27.8891178,37.6413113],[27.8646593,37.6455251],[27.8625325,37.6545745],[27.8346475,37.6509688],[27.8214642,37.6545947]]]}},{"type":"Feature","properties":{"code":"09-10","provinceCode":"09","name":"Koçarlı"},"geometry":{"type":"Polygon","coordinates":[[[27.8617727,37.7349445],[27.8583555,37.7402943],[27.8534102,37.7440277],[27.8517169,37.7490933],[27.8443409,37.7534358],[27.8443079,37.7575809],[27.8415739,37.7602945],[27.8294822,37.766299],[27.8248561,37.7671489],[27.8158381,37.7660005],[27.808851,37.7719285],[27.7954969,37.7695059],[27.7890369,37.760661],[27.7865173,37.7598869],[27.7847262,37.7610009],[27.7848217,37.7655697],[27.7809103,37.7670753],[27.7720091,37.7661361],[27.7713166,37.7717335],[27.769012,37.7726113],[27.7671134,37.7714787],[27.7639252,37.773961],[27.7603429,37.773272],[27.7552919,37.769185],[27.7513633,37.771035],[27.7460377,37.7758487],[27.7535724,37.7821815],[27.7542053,37.7871265],[27.7516857,37.7902878],[27.7554621,37.7948795],[27.7469029,37.7984122],[27.7411235,37.7941473],[27.7367579,37.7935208],[27.7335577,37.7948267],[27.7303289,37.8002766],[27.7231023,37.7995841],[27.7225195,37.8031769],[27.7187367,37.8026184],[27.7162434,37.8039619],[27.7225673,37.8089508],[27.7218031,37.8108526],[27.6965338,37.807379],[27.6854646,37.8076432],[27.6804255,37.8026995],[27.6730819,37.8037845],[27.6722102,37.8076338],[27.6649262,37.8040959],[27.6627291,37.8089357],[27.6584543,37.8075111],[27.6594454,37.8041808],[27.6532122,37.8045204],[27.6491523,37.8027656],[27.6442566,37.7995199],[27.6431938,37.8008975],[27.6456775,37.8012182],[27.6452476,37.8028222],[27.641749,37.8034354],[27.6381309,37.7977838],[27.6413669,37.7925092],[27.6408415,37.7901502],[27.6356352,37.7889706],[27.6303812,37.7938586],[27.6295693,37.7866303],[27.6278856,37.7868096],[27.6266796,37.7953683],[27.6224047,37.7966516],[27.6204822,37.7934717],[27.6231809,37.788546],[27.6207688,37.7857055],[27.6124221,37.7950381],[27.6148342,37.7991142],[27.6195747,37.802058],[27.6155782,37.8086098],[27.6021291,37.8053035],[27.5949287,37.800605],[27.5922181,37.8017655],[27.5946302,37.8061903],[27.5921465,37.8082942],[27.5892807,37.8068507],[27.5898777,37.8047846],[27.5837401,37.8030203],[27.5803489,37.8034826],[27.5776741,37.8078696],[27.5757636,37.8079923],[27.5726351,37.8061337],[27.5751546,37.8029637],[27.5738172,37.7977367],[27.5703305,37.7955476],[27.5696499,37.8007748],[27.5675124,37.7996237],[27.559106,37.802492],[27.5506123,37.8016894],[27.5448324,37.8027511],[27.5469717,37.7947989],[27.5531485,37.7897799],[27.5468771,37.7857303],[27.5468174,37.7842864],[27.5517529,37.781224],[27.5522584,37.7748408],[27.5488494,37.7658463],[27.5555522,37.7535968],[27.5621619,37.7354938],[27.5703153,37.7271383],[27.5795352,37.7266249],[27.5915616,37.7222297],[27.5992561,37.7159946],[27.6050668,37.7047484],[27.6162439,37.6910866],[27.6201291,37.681857],[27.6214348,37.6675633],[27.6318538,37.6530002],[27.6422271,37.6295637],[27.6594758,37.6153049],[27.6654575,37.6012608],[27.6589439,37.5869438],[27.6418465,37.5682683],[27.6325948,37.5600874],[27.6257824,37.5566647],[27.622568,37.550164],[27.6240965,37.5422867],[27.6231081,37.5338119],[27.6265692,37.5281849],[27.6200603,37.521782],[27.6220585,37.5097587],[27.6292397,37.5051915],[27.6421839,37.5049085],[27.6678044,37.4905937],[27.6739612,37.4917043],[27.6814906,37.5031264],[27.6985659,37.5123772],[27.7272709,37.5212764],[27.7439539,37.5170835],[27.7418685,37.5289454],[27.7428697,37.5426965],[27.7336397,37.5471344],[27.721423,37.5458158],[27.7170808,37.5439026],[27.6927541,37.5450315],[27.693382,37.5594888],[27.6963324,37.5699895],[27.7119908,37.5752535],[27.7296404,37.5772398],[27.732585,37.5816392],[27.7403593,37.5874416],[27.7579424,37.5938457],[27.763867,37.5998543],[27.7733464,37.6205051],[27.7818126,37.6302231],[27.7828864,37.6513968],[27.7963339,37.6505325],[27.8139661,37.6564391],[27.8214642,37.6545947],[27.8371485,37.662086],[27.8374032,37.6874919],[27.8472857,37.7081134],[27.8524993,37.7152376],[27.8587036,37.7335063],[27.8617727,37.7349445]]]}},{"type":"Feature","properties":{"code":"09-11","provinceCode":"09","name":"Köşk"},"geometry":{"type":"Polygon","coordinates":[[[28.1414192,38.0224544],[28.1365676,38.0243725],[28.1311691,38.0238134],[28.1275427,38.025622],[28.1146605,38.0243081],[28.1104302,38.0277771],[28.102169,38.0312928],[28.0901971,38.0255982],[28.0832954,38.0250006],[28.0805457,38.027046],[28.0728788,38.0266692],[28.0550801,38.032104],[28.0515845,38.0389644],[28.0437611,38.0340107],[28.0437358,38.0306321],[28.0364755,38.0206316],[28.0331174,38.0019617],[28.0269633,38.0013184],[28.0191599,37.9973997],[28.0176129,37.9949818],[28.0190709,37.9893378],[28.0182926,37.9820507],[28.0070999,37.9811459],[28.0100566,37.9697914],[28.0073733,37.9657834],[28.0051207,37.9585995],[28.0121814,37.9559263],[28.0115081,37.9535538],[28.0161534,37.9503388],[28.015278,37.9491412],[28.0174578,37.9452802],[28.0145836,37.9406207],[28.0162043,37.9378414],[28.0137255,37.9352668],[28.0161278,37.9331187],[28.0149022,37.9294138],[28.010759,37.9268058],[28.0093996,37.9235123],[28.0180416,37.9023687],[28.0278939,37.9005698],[28.0289873,37.8812408],[28.025678,37.8704929],[28.0132676,37.8607395],[28.006137,37.8582823],[28.0014609,37.8526767],[28.0009138,37.8475829],[27.9980083,37.8445898],[27.9980561,37.8394274],[27.9892748,37.8257725],[27.9850435,37.8229437],[27.9856423,37.8208627],[27.9888773,37.8193359],[27.9881643,37.8113493],[27.9982194,37.8145255],[28.0059926,37.8068127],[28.017494,37.8084096],[28.0227941,37.8027126],[28.0259705,37.808511],[28.0343808,37.8081681],[28.0347892,37.8141434],[28.0378629,37.8166555],[28.0404468,37.8164844],[28.0409016,37.8131257],[28.043076,37.8119898],[28.0472635,37.8163813],[28.058519,37.8151946],[28.0589297,37.8261061],[28.0625899,37.8267062],[28.0660355,37.8252351],[28.0767601,37.8293969],[28.0769084,37.8307329],[28.0694634,37.8367653],[28.0700204,37.8386543],[28.0840272,37.8367025],[28.0854965,37.8410558],[28.0935766,37.8471783],[28.0925363,37.8497422],[28.0938669,37.8517611],[28.1012714,37.8528587],[28.0966015,37.8623851],[28.0944824,37.8729916],[28.0880325,37.8835157],[28.0883359,37.8993206],[28.0837843,37.9140448],[28.0890945,37.9275694],[28.0944047,37.9313989],[28.101839,37.9323562],[28.1089699,37.9293645],[28.1156455,37.9292448],[28.1185282,37.9319972],[28.1183765,37.9355871],[28.1250522,37.9403735],[28.1267211,37.9455184],[28.1331103,37.9539862],[28.1300866,37.9769062],[28.1325411,37.9920351],[28.1352896,38.0012629],[28.1388046,38.0062745],[28.1386464,38.0145453],[28.1414192,38.0224544]]]}},{"type":"Feature","properties":{"code":"09-12","provinceCode":"09","name":"Kuşadası"},"geometry":{"type":"Polygon","coordinates":[[[27.2715964,37.9220023],[27.2660733,37.9215777],[27.2654414,37.9181817],[27.26313,37.9164067],[27.2638428,37.9147255],[27.2608366,37.9129719],[27.2636548,37.9121791],[27.2616824,37.9093914],[27.2643229,37.9053767],[27.2682539,37.9059304],[27.2686617,37.9106297],[27.2710252,37.9098199],[27.2715431,37.907814],[27.2688745,37.9065317],[27.2717354,37.9039441],[27.2726998,37.8979415],[27.2679624,37.8952023],[27.2682582,37.891907],[27.2639567,37.8901514],[27.263521,37.8864653],[27.2666286,37.8854354],[27.2645897,37.8835624],[27.2661678,37.8828668],[27.2661662,37.8799459],[27.2642569,37.8784903],[27.266161,37.8771868],[27.2603599,37.8729115],[27.2593052,37.8674604],[27.2604481,37.872355],[27.2630552,37.8728516],[27.2636135,37.8691553],[27.2609996,37.8683452],[27.263415,37.8665963],[27.260387,37.86294],[27.2557303,37.861213],[27.2562973,37.8626366],[27.2539496,37.8647143],[27.2555991,37.8630498],[27.2544007,37.8622116],[27.2527318,37.8635621],[27.254873,37.8615855],[27.2538262,37.8608641],[27.249961,37.8611154],[27.2487994,37.863622],[27.2467707,37.864111],[27.2495707,37.8612866],[27.2475668,37.8591826],[27.2450308,37.8582345],[27.2412679,37.8597437],[27.2438367,37.8532277],[27.2434961,37.8466388],[27.2412264,37.8421437],[27.2367189,37.8414993],[27.2360312,37.8399098],[27.238755,37.836656],[27.2391247,37.8321089],[27.2428262,37.8305116],[27.2432982,37.8250415],[27.2456693,37.8261389],[27.2507762,37.8242322],[27.2564141,37.8251561],[27.2605693,37.8235348],[27.2678474,37.8158115],[27.2696689,37.8101662],[27.262491,37.771102],[27.2526908,37.748005],[27.2503818,37.7465687],[27.2520104,37.746296],[27.2393202,37.7295966],[27.2297846,37.7214723],[27.2252348,37.7195564],[27.224198,37.7205796],[27.212898,37.7116871],[27.2044216,37.7076968],[27.2003937,37.7090789],[27.197092,37.7082503],[27.1956788,37.7062508],[27.1927628,37.7076312],[27.1920336,37.7050496],[27.189348,37.704068],[27.1842191,37.7042548],[27.1731481,37.6995416],[27.1634685,37.6994718],[27.1553382,37.6975555],[27.1491898,37.6926606],[27.1246761,37.6897455],[27.1136482,37.6839096],[27.1073883,37.6835497],[27.1027544,37.6811918],[27.0957409,37.6803802],[27.082953,37.683384],[27.0775801,37.6839316],[27.075461,37.6828562],[27.0753139,37.6839203],[27.0712603,37.6834953],[27.065219,37.6862311],[27.060851,37.6831572],[27.0476224,37.6805963],[27.047075,37.682248],[27.0443804,37.6827748],[27.045904,37.6837916],[27.0445339,37.6852837],[27.0364282,37.6849258],[27.0361363,37.687647],[27.0318764,37.6898867],[27.0250991,37.6877169],[27.025743,37.685465],[27.0198141,37.6859571],[27.017291,37.683902],[27.0153445,37.6848494],[27.015535,37.6811686],[27.0121835,37.6785691],[27.0106854,37.670088],[27.0055459,37.6683851],[27.0054938,37.6670998],[27.008447,37.666074],[27.0069293,37.665166],[27.0087962,37.6645198],[27.00877,37.66222],[27.0037736,37.6614107],[27.003047,37.6594703],[27.0064217,37.6548234],[27.013455,37.656569],[27.018624,37.655284],[27.019108,37.654256],[27.0130981,37.6497356],[27.017331,37.650403],[27.016684,37.647577],[27.0178378,37.6477699],[27.0271,37.6534],[27.0487,37.6579],[27.0605,37.6571],[27.0686,37.6539],[27.0777,37.6565],[27.0794,37.6553],[27.0976,37.6581],[27.1271,37.6549],[27.14,37.6573],[27.15,37.6611],[27.1652,37.6553],[27.1737,37.6581],[27.1797,37.6565],[27.1908,37.6613],[27.2197,37.6657],[27.2306,37.6721],[27.2454,37.6762],[27.2598,37.6852],[27.2698,37.6882],[27.2801,37.6868],[27.311,37.6909],[27.3285,37.6959],[27.3314,37.6977],[27.3208,37.7011],[27.328,37.7056],[27.3326,37.7106],[27.3345,37.7198],[27.3333,37.7229],[27.3249,37.7281],[27.3245,37.73],[27.3196,37.7312],[27.3165,37.7364],[27.3192,37.7398],[27.3161,37.7452],[27.3168,37.7472],[27.3316,37.755],[27.3347,37.7588],[27.3331,37.7592],[27.3338,37.7608],[27.3388,37.7631],[27.348,37.7718],[27.3511,37.7691],[27.3557,37.7759],[27.351,37.7744],[27.3505,37.777],[27.3577,37.7913],[27.3762,37.7897],[27.391,37.7992],[27.3996,37.809],[27.3992,37.8141],[27.3937449,37.8171242],[27.3897385,37.8152305],[27.3895943,37.8178114],[27.3871551,37.8168183],[27.380663,37.8263242],[27.3792279,37.8325372],[27.3755318,37.8345116],[27.3765979,37.8359916],[27.3743731,37.8377336],[27.3810035,37.8387715],[27.3828864,37.8430418],[27.3871243,37.845664],[27.3896402,37.8444482],[27.3916894,37.8510267],[27.3876715,37.8664137],[27.3786807,37.8781223],[27.3755532,37.8724948],[27.3728174,37.8726134],[27.3718572,37.8708518],[27.3665839,37.8721179],[27.3627216,37.8764116],[27.3635048,37.8779275],[27.3580545,37.8809507],[27.3556352,37.8794645],[27.3540667,37.8809715],[27.3496099,37.878178],[27.3280264,37.8735382],[27.3169015,37.8722099],[27.3130138,37.8755277],[27.2884907,37.9105433],[27.2715964,37.9220023]]]}},{"type":"Feature","properties":{"code":"09-13","provinceCode":"09","name":"Kuyucak"},"geometry":{"type":"Polygon","coordinates":[[[28.6881099,38.0640962],[28.6726858,38.0661921],[28.6596197,38.0637019],[28.6502695,38.0693421],[28.6389585,38.0905563],[28.6351832,38.0919325],[28.6199263,38.0911887],[28.6095752,38.0932985],[28.6009797,38.0853005],[28.5964857,38.0858065],[28.593528,38.0954143],[28.5908179,38.0978837],[28.5840122,38.0998817],[28.5793538,38.0994795],[28.5632893,38.1060774],[28.5414529,38.1021216],[28.535728,38.1040998],[28.5281857,38.1040957],[28.5223424,38.0829888],[28.5192386,38.0772403],[28.5215417,38.0679783],[28.5195727,38.0588589],[28.5151909,38.0592183],[28.5083444,38.0574214],[28.5026847,38.0602245],[28.5005851,38.0597214],[28.4991245,38.0573495],[28.4995893,38.0508833],[28.4942947,38.0444135],[28.4961204,38.0363612],[28.4931079,38.0280204],[28.4948424,38.0198224],[28.4920027,38.0111719],[28.4947738,37.9908866],[28.4895704,37.9842675],[28.4879203,37.9791541],[28.4888899,37.9742602],[28.4798027,37.9684367],[28.4798027,37.9658459],[28.4675703,37.9587206],[28.4639189,37.9470597],[28.4577114,37.9435323],[28.4432155,37.9430104],[28.4419064,37.9395941],[28.4363663,37.9366394],[28.4317822,37.9308274],[28.4229208,37.9338181],[28.4215553,37.9326839],[28.4215363,37.9223981],[28.4176341,37.9078371],[28.4383157,37.9087742],[28.4389448,37.8933234],[28.4431439,37.8871998],[28.4411356,37.8836695],[28.4423224,37.8813639],[28.4524552,37.8807875],[28.4557415,37.8732216],[28.463866,37.8673846],[28.4643225,37.8635651],[28.4599407,37.8554209],[28.4679739,37.8468433],[28.4680652,37.8423018],[28.4633183,37.832497],[28.4641399,37.8262962],[28.4494427,37.8085563],[28.450173,37.8032912],[28.458115,37.8007667],[28.4630444,37.7963666],[28.4636835,37.8034354],[28.4672436,37.8080514],[28.4851358,37.8198786],[28.4879657,37.8262962],[28.4936255,37.8298293],[28.5177252,37.833939],[28.5503145,37.853619],[28.5554266,37.8583039],[28.5562482,37.8611147],[28.5536009,37.8673846],[28.5548789,37.870051],[28.5603561,37.8720687],[28.5798914,37.8709878],[28.5836342,37.8690421],[28.5902068,37.8603219],[28.6100161,37.8512403],[28.6149455,37.8532586],[28.6290037,37.8521053],[28.6300991,37.8541956],[28.6279083,37.8586643],[28.6292776,37.8597454],[28.6523731,37.8562137],[28.6598586,37.8490779],[28.6836844,37.8451132],[28.6929957,37.8447528],[28.7192863,37.8484291],[28.7460795,37.8499843],[28.7479022,37.8588519],[28.7482117,37.8800921],[28.7442834,37.8889706],[28.7455333,37.8923525],[28.7408908,37.8953117],[28.737141,37.901934],[28.7471403,37.9182759],[28.7398194,37.93729],[28.7403657,37.9407498],[28.7375864,37.9445566],[28.737935,37.949081],[28.7327059,37.9485124],[28.7285354,37.9506592],[28.7246256,37.9493575],[28.7199627,37.9498827],[28.7169797,37.9475761],[28.7141414,37.94801],[28.7071906,37.945749],[28.7045551,37.9420033],[28.6967784,37.9394624],[28.6841439,37.9320515],[28.680812,37.934036],[28.6771035,37.9396607],[28.6736802,37.9552953],[28.6604151,37.9787971],[28.6604151,37.9900393],[28.6395903,38.0119567],[28.6404461,38.0179126],[28.6490043,38.0292611],[28.6524275,38.0315082],[28.6662632,38.032407],[28.6708275,38.0313958],[28.6860895,38.0339798],[28.6905112,38.036002],[28.6862321,38.040608],[28.6922228,38.0559964],[28.6881099,38.0640962]]]}},{"type":"Feature","properties":{"code":"09-14","provinceCode":"09","name":"Nazilli"},"geometry":{"type":"Polygon","coordinates":[[[28.3012908,37.8426104],[28.3185389,37.8248901],[28.318969,37.8209635],[28.314773,37.81263],[28.3158955,37.8045061],[28.3183584,37.8017376],[28.3185835,37.7934395],[28.3195838,37.791971],[28.3345703,37.7874083],[28.3380203,37.7819517],[28.340089,37.7711782],[28.3351799,37.7575474],[28.340076,37.7485766],[28.3468353,37.7438747],[28.3634735,37.7430526],[28.3873838,37.7389272],[28.402382,37.7444277],[28.4286833,37.7820602],[28.450173,37.8032912],[28.4494427,37.8085563],[28.4641399,37.8262962],[28.4633183,37.832497],[28.4680652,37.8423018],[28.4679739,37.8468433],[28.4599407,37.8554209],[28.4643225,37.8635651],[28.463866,37.8673846],[28.4557415,37.8732216],[28.4524552,37.8807875],[28.4423224,37.8813639],[28.4411356,37.8836695],[28.4431439,37.8871998],[28.4389448,37.8933234],[28.4383157,37.9087742],[28.4176341,37.9078371],[28.4215363,37.9223981],[28.4215553,37.9326839],[28.4229208,37.9338181],[28.4317822,37.9308274],[28.4363663,37.9366394],[28.4419064,37.9395941],[28.4432155,37.9430104],[28.4577114,37.9435323],[28.4639189,37.9470597],[28.4675703,37.9587206],[28.4798027,37.9658459],[28.4798027,37.9684367],[28.4888899,37.9742602],[28.4879203,37.9791541],[28.4895704,37.9842675],[28.4947738,37.9908866],[28.4920027,38.0111719],[28.4948424,38.0198224],[28.4931079,38.0280204],[28.4961204,38.0363612],[28.4942947,38.0444135],[28.4995893,38.0508833],[28.4991245,38.0573495],[28.5005851,38.0597214],[28.5026847,38.0602245],[28.5083444,38.0574214],[28.5151909,38.0592183],[28.5195727,38.0588589],[28.5215417,38.0679783],[28.5192386,38.0772403],[28.5223424,38.0829888],[28.5281857,38.1040957],[28.5109165,38.1178364],[28.5027712,38.1219828],[28.4850677,38.1225949],[28.4827664,38.1188283],[28.4755737,38.1144737],[28.4724533,38.1141485],[28.468827,38.1043728],[28.4648543,38.1043454],[28.4542479,38.0975189],[28.449955,38.0980872],[28.4468924,38.0958043],[28.4422892,38.0952207],[28.4363133,38.0877268],[28.4259868,38.0916828],[28.4240192,38.0909413],[28.4169912,38.0967467],[28.4136027,38.0958103],[28.4075493,38.0971205],[28.4036386,38.1000966],[28.4040719,38.1012439],[28.4000927,38.1001811],[28.3994907,38.1050723],[28.389911,38.1114843],[28.3754405,38.1078114],[28.3754689,38.1097297],[28.3701968,38.1150686],[28.3691561,38.1221124],[28.3672667,38.124055],[28.3677399,38.1283495],[28.3660293,38.1292952],[28.3599615,38.1258471],[28.3563191,38.1266109],[28.3541089,38.1251255],[28.3504879,38.1253238],[28.3430743,38.1212599],[28.3367819,38.1231336],[28.3305636,38.1217544],[28.3311599,38.1133339],[28.3294541,38.1094761],[28.331786,38.1010159],[28.3292109,38.1012239],[28.3230221,38.095892],[28.3137245,38.0946229],[28.3092254,38.092224],[28.3090678,38.089306],[28.3051104,38.0859594],[28.3041587,38.0807739],[28.3011688,38.0779587],[28.3010224,38.0756543],[28.3063616,38.0677234],[28.3097564,38.0547847],[28.2928689,38.0548346],[28.290225,38.0527602],[28.2854273,38.0395543],[28.279297,38.0332154],[28.2559644,38.0340867],[28.2563589,38.0355722],[28.2529357,38.0349711],[28.2488179,38.0369397],[28.2350115,38.0353813],[28.2115498,38.0444983],[28.2039971,38.0392844],[28.1997947,38.0444758],[28.1965162,38.0444318],[28.1998729,38.039112],[28.2033602,38.0198901],[28.206822,38.015373],[28.206822,38.011026],[28.2313795,37.9791407],[28.2364641,37.963534],[28.2467415,37.958331],[28.2468497,37.956625],[28.2440369,37.9556867],[28.234625,37.9579045],[28.2260786,37.9562838],[28.2262949,37.9514215],[28.2229413,37.9512509],[28.2208858,37.9484358],[28.2207776,37.9413548],[28.223374,37.9330785],[28.242306,37.9158404],[28.2516672,37.8928722],[28.2606837,37.8934505],[28.2623199,37.884426],[28.2608053,37.8812668],[28.2655653,37.8787905],[28.2687027,37.8722152],[28.2814682,37.8639311],[28.2908801,37.862223],[28.2998593,37.8564149],[28.3101049,37.8533953],[28.3114095,37.8505738],[28.3101616,37.8481105],[28.3046712,37.8463728],[28.3012908,37.8426104]]]}},{"type":"Feature","properties":{"code":"09-15","provinceCode":"09","name":"Söke"},"geometry":{"type":"Polygon","coordinates":[[[27.5469717,37.7947989],[27.5410781,37.7940167],[27.537299,37.790426],[27.5353645,37.8002024],[27.5282562,37.7936968],[27.5262767,37.7954032],[27.529111,37.7979273],[27.5245671,37.8015532],[27.5108454,37.8013044],[27.5010645,37.8036327],[27.4976376,37.8148097],[27.5037006,37.8181416],[27.5051943,37.826679],[27.5097636,37.8290387],[27.5095878,37.8395872],[27.512136,37.8467344],[27.4905201,37.8467344],[27.4793607,37.8448609],[27.477164,37.8440977],[27.4729462,37.8377136],[27.4672347,37.8402118],[27.4576569,37.8396566],[27.4558996,37.8407669],[27.4405581,37.8386567],[27.4293815,37.8356229],[27.4148658,37.8278442],[27.4075548,37.8263859],[27.4004665,37.8209454],[27.3947483,37.8193378],[27.3937449,37.8171242],[27.3992,37.8141],[27.3996,37.809],[27.391,37.7992],[27.3762,37.7897],[27.3577,37.7913],[27.3505,37.777],[27.351,37.7744],[27.3557,37.7759],[27.3511,37.7691],[27.348,37.7718],[27.3388,37.7631],[27.3338,37.7608],[27.3331,37.7592],[27.3347,37.7588],[27.3316,37.755],[27.3168,37.7472],[27.3161,37.7452],[27.3192,37.7398],[27.3165,37.7364],[27.3196,37.7312],[27.3245,37.73],[27.3249,37.7281],[27.3333,37.7229],[27.3345,37.7198],[27.3326,37.7106],[27.328,37.7056],[27.3208,37.7011],[27.3314,37.6977],[27.3285,37.6959],[27.311,37.6909],[27.2801,37.6868],[27.2698,37.6882],[27.2598,37.6852],[27.2454,37.6762],[27.2306,37.6721],[27.2197,37.6657],[27.1908,37.6613],[27.1797,37.6565],[27.1737,37.6581],[27.1652,37.6553],[27.15,37.6611],[27.14,37.6573],[27.1271,37.6549],[27.0976,37.6581],[27.0794,37.6553],[27.0777,37.6565],[27.0686,37.6539],[27.0605,37.6571],[27.0487,37.6579],[27.0271,37.6534],[27.0178378,37.6477699],[27.02522,37.648988],[27.0283555,37.6511926],[27.0284946,37.6493081],[27.0329511,37.6497221],[27.049634,37.643329],[27.05771,37.642684],[27.05674,37.640886],[27.074185,37.641775],[27.078384,37.641387],[27.078705,37.639203],[27.082581,37.639073],[27.085168,37.640869],[27.0877096,37.6393093],[27.0947232,37.6394823],[27.1042729,37.6347038],[27.1040243,37.632322],[27.1238311,37.6312194],[27.133115,37.6236554],[27.1293658,37.6297254],[27.1315329,37.6296279],[27.1363696,37.6252342],[27.1386465,37.6257265],[27.140994,37.6218446],[27.1403621,37.6231872],[27.1425122,37.6225045],[27.1422397,37.6206174],[27.144261,37.6226528],[27.1464503,37.6224236],[27.1514176,37.6186576],[27.1652305,37.6172227],[27.1721994,37.6141328],[27.1748853,37.6108726],[27.1782106,37.6106314],[27.1794132,37.6065344],[27.189759,37.6117099],[27.1954701,37.610938],[27.1976378,37.6092488],[27.2041052,37.6102217],[27.2009537,37.6041782],[27.2043241,37.6029265],[27.2040011,37.5981655],[27.2073414,37.5984083],[27.2075685,37.5949766],[27.2117797,37.5945653],[27.2172527,37.5903686],[27.219388,37.584695],[27.223255,37.582633],[27.226806,37.582626],[27.227607,37.580826],[27.218732,37.5811],[27.221634,37.580324],[27.222275,37.578524],[27.218076,37.577633],[27.214861,37.581878],[27.213567,37.581109],[27.217412,37.57134],[27.214189,37.572631],[27.213539,37.571091],[27.213223,37.57366],[27.20773,37.571486],[27.201926,37.573166],[27.19805,37.572145],[27.197237,37.570091],[27.199651,37.567262],[27.202876,37.566486],[27.20706,37.562368],[27.205766,37.561343],[27.208992,37.56108],[27.207378,37.560826],[27.208343,37.55954],[27.205439,37.55993],[27.1968047,37.5529048],[27.1976242,37.5498974],[27.207799,37.5488933],[27.2063214,37.5444412],[27.215694,37.5408928],[27.2223224,37.5424662],[27.2312822,37.5482125],[27.2419299,37.5472986],[27.24668,37.5500271],[27.2521771,37.5418308],[27.2624063,37.5366872],[27.2878546,37.5427211],[27.2833637,37.5263],[27.286974,37.517053],[27.3296373,37.5053023],[27.3528089,37.508469],[27.3621649,37.5083453],[27.3923501,37.5145183],[27.4625855,37.5008689],[27.4909395,37.5036785],[27.4980572,37.5279134],[27.5078147,37.5375809],[27.5149882,37.5412892],[27.522199,37.5415098],[27.5357304,37.5370459],[27.5691307,37.5221929],[27.5815792,37.5237257],[27.6049902,37.5352166],[27.6019331,37.5455185],[27.6032069,37.5491542],[27.6257824,37.5566647],[27.6325948,37.5600874],[27.6418465,37.5682683],[27.6589439,37.5869438],[27.6654575,37.6012608],[27.6594758,37.6153049],[27.6422271,37.6295637],[27.6318538,37.6530002],[27.6214348,37.6675633],[27.6201291,37.681857],[27.6162439,37.6910866],[27.6050668,37.7047484],[27.5992561,37.7159946],[27.5915616,37.7222297],[27.5795352,37.7266249],[27.5703153,37.7271383],[27.5621619,37.7354938],[27.5555522,37.7535968],[27.5488494,37.7658463],[27.5522584,37.7748408],[27.5517529,37.781224],[27.5468174,37.7842864],[27.5468771,37.7857303],[27.5531485,37.7897799],[27.5469717,37.7947989]]]}},{"type":"Feature","properties":{"code":"09-16","provinceCode":"09","name":"Sultanhisar"},"geometry":{"type":"Polygon","coordinates":[[[28.1414192,38.0224544],[28.1386464,38.0145453],[28.1388046,38.0062745],[28.1352896,38.0012629],[28.1325411,37.9920351],[28.1300866,37.9769062],[28.1331103,37.9539862],[28.1267211,37.9455184],[28.1250522,37.9403735],[28.1183765,37.9355871],[28.1185282,37.9319972],[28.1156455,37.9292448],[28.1089699,37.9293645],[28.101839,37.9323562],[28.0944047,37.9313989],[28.0890945,37.9275694],[28.0837843,37.9140448],[28.0883359,37.8993206],[28.0880325,37.8835157],[28.0944824,37.8729916],[28.0966015,37.8623851],[28.1012714,37.8528587],[28.1054573,37.8536175],[28.1190974,37.8492194],[28.1187423,37.8578616],[28.1215149,37.8562745],[28.1237588,37.8567268],[28.1245651,37.8606567],[28.1264969,37.8619752],[28.1303414,37.8573541],[28.1341348,37.8591792],[28.1380405,37.8583906],[28.1420401,37.8532712],[28.1508853,37.8476982],[28.1525013,37.8483945],[28.1533123,37.8533581],[28.1592991,37.8507614],[28.1634421,37.8511977],[28.16147,37.845328],[28.1583413,37.8420566],[28.1602634,37.8394365],[28.1715058,37.8410443],[28.1815344,37.8361312],[28.1808855,37.8454633],[28.1860633,37.8543611],[28.1913936,37.8575523],[28.2014296,37.8590288],[28.2037646,37.857712],[28.2014384,37.8555841],[28.2014208,37.8526245],[28.206407,37.8556881],[28.2050434,37.8609876],[28.2097155,37.8653791],[28.2112614,37.8643756],[28.2103894,37.8584792],[28.2149867,37.8580537],[28.2182628,37.8610305],[28.2238344,37.8613406],[28.2256021,37.8551179],[28.2280654,37.853245],[28.2335642,37.8576521],[28.2395116,37.8581305],[28.2407025,37.8571902],[28.238091,37.848928],[28.2422207,37.8451379],[28.2458493,37.8454724],[28.2506182,37.8525167],[28.25768,37.8516371],[28.2642211,37.8535754],[28.2727889,37.8497622],[28.2786528,37.8539966],[28.2821567,37.852324],[28.2878122,37.8452821],[28.3012908,37.8426104],[28.3046712,37.8463728],[28.3101616,37.8481105],[28.3114095,37.8505738],[28.3101049,37.8533953],[28.2998593,37.8564149],[28.2908801,37.862223],[28.2814682,37.8639311],[28.2687027,37.8722152],[28.2655653,37.8787905],[28.2608053,37.8812668],[28.2623199,37.884426],[28.2606837,37.8934505],[28.2516672,37.8928722],[28.242306,37.9158404],[28.223374,37.9330785],[28.2207776,37.9413548],[28.2208858,37.9484358],[28.2229413,37.9512509],[28.2262949,37.9514215],[28.2260786,37.9562838],[28.234625,37.9579045],[28.2440369,37.9556867],[28.2468497,37.956625],[28.2467415,37.958331],[28.2364641,37.963534],[28.2313795,37.9791407],[28.206822,38.011026],[28.206822,38.015373],[28.2033602,38.0198901],[28.1998729,38.039112],[28.1886161,38.0372361],[28.1822152,38.0393147],[28.1808742,38.0435472],[28.177676,38.0456887],[28.1706221,38.0437331],[28.1581521,38.0492739],[28.1529119,38.0468568],[28.1556308,38.0406557],[28.155072,38.0370516],[28.1529158,38.0369655],[28.1515963,38.0335341],[28.1511241,38.0283902],[28.1487241,38.0281157],[28.1461634,38.0242912],[28.1414192,38.0224544]]]}},{"type":"Feature","properties":{"code":"09-17","provinceCode":"09","name":"Yenipazar"},"geometry":{"type":"Polygon","coordinates":[[[28.1012714,37.8528587],[28.1153614,37.8062696],[28.1237301,37.7913803],[28.1198249,37.7825076],[28.1110385,37.7801928],[28.102496,37.7630223],[28.0987442,37.7365998],[28.1073636,37.7339235],[28.1159988,37.7193237],[28.1296263,37.7065494],[28.1412915,37.7020946],[28.1678652,37.6964635],[28.1775275,37.7042303],[28.1785038,37.70983],[28.1704495,37.7125332],[28.1755749,37.7204491],[28.1881171,37.7331188],[28.1966243,37.7338663],[28.2041666,37.7388137],[28.2084397,37.725269],[28.2141498,37.722258],[28.2246276,37.7228973],[28.2349706,37.7210779],[28.2422318,37.7306892],[28.2482157,37.7302857],[28.2550177,37.7590126],[28.2523844,37.7682167],[28.2670986,37.7855181],[28.2736341,37.8056369],[28.2868868,37.8260088],[28.2984186,37.8371704],[28.3012908,37.8426104],[28.2878122,37.8452821],[28.2821567,37.852324],[28.2786528,37.8539966],[28.2727889,37.8497622],[28.2642211,37.8535754],[28.25768,37.8516371],[28.2506182,37.8525167],[28.2458493,37.8454724],[28.2422207,37.8451379],[28.238091,37.848928],[28.2407025,37.8571902],[28.2395116,37.8581305],[28.2335642,37.8576521],[28.2280654,37.853245],[28.2256021,37.8551179],[28.2238344,37.8613406],[28.2182628,37.8610305],[28.2149867,37.8580537],[28.2103894,37.8584792],[28.2112614,37.8643756],[28.2097155,37.8653791],[28.2050434,37.8609876],[28.206407,37.8556881],[28.2014208,37.8526245],[28.2014384,37.8555841],[28.2037646,37.857712],[28.2014296,37.8590288],[28.1913936,37.8575523],[28.1860633,37.8543611],[28.1808855,37.8454633],[28.1815344,37.8361312],[28.1715058,37.8410443],[28.1602634,37.8394365],[28.1583413,37.8420566],[28.16147,37.845328],[28.1634421,37.8511977],[28.1592991,37.8507614],[28.1533123,37.8533581],[28.1525013,37.8483945],[28.1508853,37.8476982],[28.1420401,37.8532712],[28.1380405,37.8583906],[28.1341348,37.8591792],[28.1303414,37.8573541],[28.1264969,37.8619752],[28.1245651,37.8606567],[28.1237588,37.8567268],[28.1215149,37.8562745],[28.1187423,37.8578616],[28.1190974,37.8492194],[28.1054573,37.8536175],[28.1012714,37.8528587]]]}}]}