{"type":"FeatureCollection","features":[{"type":"Feature","properties":{"code":"67-01","provinceCode":"67","name":"Alaplı"},"geometry":{"type":"Polygon","coordinates":[[[31.6825834,41.0799925],[31.6723855,41.0866345],[31.6667437,41.0943475],[31.6598265,41.0985398],[31.642435,41.1206656],[31.6342708,41.1286364],[31.6270392,41.1331216],[31.5922562,41.1279677],[31.579093,41.1287373],[31.5597482,41.1347731],[31.5582186,41.1398326],[31.5432179,41.1518011],[31.5401789,41.1525124],[31.534639,41.1498639],[31.5248517,41.1510949],[31.515985,41.1663545],[31.5124465,41.1669272],[31.5104113,41.1752571],[31.4925714,41.1835331],[31.4796278,41.1832084],[31.4705157,41.1859257],[31.4603987,41.1969731],[31.4355024,41.1989443],[31.4220667,41.1979177],[31.4076869,41.2037035],[31.4049335,41.2073336],[31.3889993,41.1934252],[31.3867555,41.1945508],[31.3864272,41.191421],[31.3840649,41.1931781],[31.3874305,41.1963215],[31.3837456,41.1936929],[31.3850134,41.1905219],[31.3810445,41.1788122],[31.3458564,41.1545664],[31.3456851,41.1455076],[31.343545,41.1428813],[31.3412366,41.1433609],[31.341822,41.138302],[31.3089211,41.1212507],[31.2929831,41.1157622],[31.295738,41.114231],[31.3013201,41.1053245],[31.3086955,41.1019397],[31.3073881,41.0869858],[31.3123222,41.0738298],[31.3274608,41.0466678],[31.3231091,41.0227818],[31.3362175,41.0240482],[31.361269,41.0217935],[31.3794014,41.0235442],[31.3926316,41.0200663],[31.4405635,41.0285911],[31.5387297,41.0398784],[31.5706761,41.0462769],[31.6322896,41.0509796],[31.655405,41.0487761],[31.6825834,41.0799925]]]}},{"type":"Feature","properties":{"code":"67-02","provinceCode":"67","name":"Devrek"},"geometry":{"type":"Polygon","coordinates":[[[31.9809328,41.0463319],[31.973824,41.0574457],[31.9800751,41.0727432],[31.9919155,41.0846393],[32.0240841,41.1078845],[32.0332379,41.1184847],[32.0459309,41.1273674],[32.0533011,41.1410656],[32.0573316,41.1572716],[32.0610933,41.1616799],[32.089687,41.1603353],[32.0963617,41.1638951],[32.1023168,41.1807811],[32.1203673,41.2087863],[32.1284628,41.2186362],[32.1452709,41.2291915],[32.1407215,41.2380997],[32.1319386,41.2427777],[32.1118114,41.257635],[32.1055902,41.2642372],[32.1037605,41.2843147],[32.1066881,41.2942136],[32.0909522,41.3145567],[32.0832672,41.3164808],[32.0781439,41.3211532],[32.0719228,41.3219777],[32.0682633,41.3186796],[32.0657016,41.3090592],[32.062408,41.3054856],[32.0576507,41.3065852],[32.048136,41.3181299],[32.0382553,41.3068601],[32.0287406,41.3005372],[32.018494,41.297238],[32.0053198,41.2975129],[31.9990986,41.3032863],[31.9928774,41.3129075],[31.9822649,41.3200538],[31.9668949,41.3250007],[31.9551882,41.3256121],[31.9480668,41.3285291],[31.9435351,41.3346057],[31.9347952,41.3397096],[31.9270265,41.33655],[31.9148148,41.3197529],[31.8954671,41.3131903],[31.8903647,41.3076186],[31.8811603,41.3020537],[31.8444253,41.2872671],[31.8310627,41.2753645],[31.8426089,41.2638808],[31.85517,41.2590693],[31.8618968,41.2528535],[31.8631919,41.2493873],[31.8567729,41.2370491],[31.8561587,41.229247],[31.8341178,41.2098897],[31.8161561,41.2015243],[31.7753858,41.1749192],[31.7483007,41.1510942],[31.7269177,41.1291933],[31.6995475,41.0958986],[31.6825834,41.0799925],[31.655405,41.0487761],[31.7544285,41.0328691],[31.7813648,41.0293353],[31.7903435,41.0296298],[31.8075203,41.0187327],[31.8536456,41.0082997],[31.8849799,41.0082956],[31.8936946,41.00698],[31.901254,41.0118286],[31.9269972,41.0118792],[31.9435865,41.0354964],[31.96251,41.0443112],[31.9809328,41.0463319]]]}},{"type":"Feature","properties":{"code":"67-03","provinceCode":"67","name":"Ereğli"},"geometry":{"type":"Polygon","coordinates":[[[31.6565862,41.4024999],[31.6479248,41.3986946],[31.6435713,41.3990258],[31.6406306,41.3976148],[31.636904,41.3920966],[31.6343607,41.392335],[31.6303162,41.3895194],[31.628241,41.3903343],[31.6235077,41.3864917],[31.6233929,41.3846696],[31.6207437,41.384345],[31.6206377,41.3823374],[31.6165591,41.3820682],[31.6156406,41.3803982],[31.6065088,41.3780325],[31.6052901,41.3764486],[31.5947053,41.3787283],[31.5932128,41.3779596],[31.5938133,41.3750304],[31.5889824,41.3718625],[31.5853879,41.3732013],[31.5755718,41.3719089],[31.565805,41.3725319],[31.5631469,41.3710474],[31.5600874,41.3721224],[31.5493261,41.3647637],[31.542757,41.3628877],[31.5368033,41.3651348],[31.531373,41.3642503],[31.5286103,41.3612618],[31.5242514,41.3616765],[31.5117886,41.3563377],[31.5026323,41.3552251],[31.4949221,41.3507309],[31.4875752,41.3492801],[31.4874301,41.3474783],[31.4786284,41.3399316],[31.4712543,41.3373764],[31.4682378,41.3288575],[31.4661073,41.3274699],[31.4637719,41.3279999],[31.4607153,41.3263345],[31.455746,41.328485],[31.442524,41.325997],[31.437046,41.327206],[31.435728,41.325391],[31.431989,41.325084],[31.426963,41.3218974],[31.427881,41.318867],[31.4223394,41.3161406],[31.4118057,41.314684],[31.4039268,41.3172992],[31.3968227,41.3133497],[31.3980938,41.3098839],[31.3923826,41.3051666],[31.3941761,41.3001262],[31.3916223,41.2949372],[31.3956909,41.2872533],[31.3991617,41.2874975],[31.4010014,41.2802859],[31.3996028,41.2870091],[31.4018838,41.2878944],[31.4027311,41.2869044],[31.4020347,41.2879249],[31.4064283,41.2896039],[31.4095218,41.2883567],[31.4121948,41.2846442],[31.4102948,41.2836964],[31.4116032,41.2836199],[31.4109021,41.2821139],[31.408614,41.2820564],[31.4135239,41.2808816],[31.411749,41.2816361],[31.4136705,41.2834648],[31.418798,41.2798604],[31.4206991,41.2748133],[31.4208702,41.26934],[31.4146633,41.2687922],[31.4196924,41.2675594],[31.4177026,41.2623591],[31.4146414,41.263916],[31.4105668,41.2710101],[31.4133423,41.2654711],[31.4071016,41.2634193],[31.4031261,41.2733272],[31.4065628,41.263515],[31.4042709,41.2615864],[31.4024531,41.2515823],[31.4057894,41.2479929],[31.4027425,41.2458602],[31.4034562,41.2438098],[31.3980261,41.2431874],[31.3946373,41.2393717],[31.3950827,41.2383077],[31.3986462,41.2430298],[31.4004629,41.2404159],[31.4009433,41.2424125],[31.4013712,41.2405276],[31.4038866,41.2403437],[31.4035285,41.2364622],[31.4002271,41.2362585],[31.399834,41.233743],[31.3982881,41.238623],[31.3995546,41.2309974],[31.4024805,41.2306952],[31.4002358,41.2301435],[31.4023119,41.2229383],[31.4094215,41.2201769],[31.4102917,41.2183042],[31.4094576,41.2131407],[31.4049335,41.2073336],[31.4076869,41.2037035],[31.4220667,41.1979177],[31.4355024,41.1989443],[31.4603987,41.1969731],[31.4705157,41.1859257],[31.4796278,41.1832084],[31.4925714,41.1835331],[31.5104113,41.1752571],[31.5124465,41.1669272],[31.515985,41.1663545],[31.5248517,41.1510949],[31.534639,41.1498639],[31.5401789,41.1525124],[31.5432179,41.1518011],[31.5582186,41.1398326],[31.5597482,41.1347731],[31.579093,41.1287373],[31.5922562,41.1279677],[31.6270392,41.1331216],[31.6342708,41.1286364],[31.642435,41.1206656],[31.6598265,41.0985398],[31.6667437,41.0943475],[31.6723855,41.0866345],[31.6825834,41.0799925],[31.6995475,41.0958986],[31.7269177,41.1291933],[31.7483007,41.1510942],[31.7753858,41.1749192],[31.8161561,41.2015243],[31.8341178,41.2098897],[31.8561587,41.229247],[31.8567729,41.2370491],[31.8631919,41.2493873],[31.8618968,41.2528535],[31.85517,41.2590693],[31.8426089,41.2638808],[31.8310627,41.2753645],[31.7896412,41.2677753],[31.7808028,41.2643465],[31.7668326,41.2639179],[31.7588496,41.2677753],[31.7414581,41.2885587],[31.7334752,41.2932716],[31.7103815,41.2930574],[31.6761688,41.2994834],[31.6627687,41.3054805],[31.6602028,41.3106205],[31.660773,41.3176872],[31.6644794,41.3241109],[31.6659049,41.3410235],[31.658207,41.3497991],[31.6496538,41.3682028],[31.6573517,41.3812535],[31.6579219,41.3883125],[31.660773,41.3919487],[31.6565862,41.4024999]]]}},{"type":"Feature","properties":{"code":"67-04","provinceCode":"67","name":"Gökçebey"},"geometry":{"type":"Polygon","coordinates":[[[32.1452709,41.2291915],[32.1744023,41.2473788],[32.2162027,41.2537944],[32.2418732,41.2511626],[32.2489923,41.2556622],[32.2459159,41.2711443],[32.2401232,41.2798399],[32.2418749,41.2863193],[32.257877,41.2923226],[32.2728862,41.3025202],[32.2790763,41.3081334],[32.2841299,41.3203363],[32.2797197,41.3324035],[32.2811225,41.3392226],[32.2795927,41.3425825],[32.2898388,41.368173],[32.2713208,41.3696118],[32.26419,41.3745339],[32.224112,41.3692078],[32.2040799,41.3495558],[32.1930784,41.3479599],[32.1821885,41.3506819],[32.1692764,41.3430559],[32.1432139,41.3427022],[32.1093442,41.3567256],[32.0953436,41.3533011],[32.0825353,41.3390151],[32.0744844,41.3340692],[32.0569188,41.3255504],[32.048136,41.3181299],[32.0576507,41.3065852],[32.062408,41.3054856],[32.0657016,41.3090592],[32.0682633,41.3186796],[32.0719228,41.3219777],[32.0781439,41.3211532],[32.0832672,41.3164808],[32.0909522,41.3145567],[32.1066881,41.2942136],[32.1037605,41.2843147],[32.1055902,41.2642372],[32.1118114,41.257635],[32.1319386,41.2427777],[32.1407215,41.2380997],[32.1452709,41.2291915]]]}},{"type":"Feature","properties":{"code":"67-05","provinceCode":"67","name":"Kilimli"},"geometry":{"type":"Polygon","coordinates":[[[32.001357,41.548994],[31.9882203,41.5453582],[31.9669582,41.5422565],[31.9577207,41.5369145],[31.9469789,41.5352666],[31.9345631,41.5310903],[31.9296094,41.5311807],[31.9164871,41.5278832],[31.9038685,41.5293452],[31.9014743,41.528583],[31.9045015,41.5290499],[31.9099045,41.527285],[31.9099687,41.5240229],[31.907868,41.5229722],[31.9039419,41.5231026],[31.9021348,41.5256574],[31.9050335,41.5205958],[31.9032539,41.5177111],[31.9041529,41.5207057],[31.9012266,41.520637],[31.898016,41.5228142],[31.8945213,41.5229213],[31.8984085,41.522403],[31.9008757,41.5203033],[31.8959058,41.518961],[31.8954265,41.5213],[31.8942284,41.5185623],[31.8750356,41.5109607],[31.8678375,41.5099365],[31.8676972,41.5084396],[31.8614899,41.5047589],[31.8441128,41.4996871],[31.8404093,41.4970474],[31.8443846,41.4995164],[31.846123,41.4990199],[31.8430737,41.4962465],[31.8421489,41.4968797],[31.8423944,41.4955895],[31.8307336,41.4907955],[31.8314115,41.4875115],[31.8291055,41.484922],[31.8170149,41.4788111],[31.8182282,41.4767351],[31.8154747,41.4716733],[31.8208145,41.4661054],[31.8267853,41.467482],[31.8313782,41.4646139],[31.8473003,41.4664495],[31.8502092,41.4600248],[31.8647534,41.4525666],[31.8665906,41.4482061],[31.8780729,41.4462553],[31.8760826,41.4366149],[31.9002719,41.428121],[31.9108356,41.4218072],[31.9320819,41.4135603],[31.9715975,41.4276515],[31.9723234,41.4407643],[31.9842256,41.458092],[31.9882294,41.4742258],[31.9924656,41.4821029],[32.0046411,41.4868181],[32.0132944,41.4966766],[32.0157246,41.5063638],[32.0231366,41.5167315],[32.0306899,41.5218728],[32.029406,41.5305618],[32.01421,41.5453461],[32.001357,41.548994]]]}},{"type":"Feature","properties":{"code":"67-06","provinceCode":"67","name":"Kozlu"},"geometry":{"type":"Polygon","coordinates":[[[31.6565862,41.4024999],[31.660773,41.3919487],[31.6579219,41.3883125],[31.6573517,41.3812535],[31.6496538,41.3682028],[31.658207,41.3497991],[31.6659049,41.3410235],[31.6644794,41.3241109],[31.660773,41.3176872],[31.6602028,41.3106205],[31.6627687,41.3054805],[31.6761688,41.2994834],[31.7103815,41.2930574],[31.7334752,41.2932716],[31.7414581,41.2885587],[31.7588496,41.2677753],[31.7668326,41.2639179],[31.7808028,41.2643465],[31.7896412,41.2677753],[31.8043862,41.2840508],[31.8061085,41.2884093],[31.8091014,41.2894212],[31.8114458,41.2976288],[31.8073556,41.297254],[31.8036145,41.3014137],[31.8052606,41.3034372],[31.8082646,41.3014513],[31.8097498,41.3100693],[31.8184737,41.3201965],[31.818551,41.3224176],[31.822914,41.3246086],[31.8228412,41.3258943],[31.828319,41.3266037],[31.8273134,41.3289297],[31.8322694,41.3497804],[31.8265044,41.3618671],[31.820143,41.3654479],[31.7756133,41.3654479],[31.7688543,41.3882709],[31.7755399,41.4123747],[31.7941652,41.4302413],[31.8108548,41.4366769],[31.8069286,41.4418929],[31.791373,41.4416321],[31.7893656,41.4455721],[31.7826183,41.4504979],[31.7776633,41.4505769],[31.7747499,41.4538511],[31.7656353,41.4561397],[31.755759,41.454699],[31.7522619,41.4514745],[31.7515101,41.4417236],[31.7444902,41.438474],[31.7416581,41.4385804],[31.7447678,41.435609],[31.7476035,41.4354351],[31.7448627,41.4353561],[31.7412415,41.438257],[31.7334875,41.4364038],[31.7220638,41.4306112],[31.720525,41.424406],[31.7190709,41.4258761],[31.713387,41.423171],[31.7050569,41.4221667],[31.7036837,41.4191707],[31.6983152,41.4184997],[31.6918747,41.4152776],[31.6839814,41.4106402],[31.6825285,41.4079161],[31.6802657,41.4084895],[31.6805872,41.4103929],[31.6739619,41.4099228],[31.672877,41.4080536],[31.666011,41.405047],[31.662256,41.40526],[31.6565862,41.4024999]]]}},{"type":"Feature","properties":{"code":"67-07","provinceCode":"67","name":"Zonguldak merkez"},"geometry":{"type":"Polygon","coordinates":[[[31.7896412,41.2677753],[31.8310627,41.2753645],[31.8444253,41.2872671],[31.8811603,41.3020537],[31.8903647,41.3076186],[31.8954671,41.3131903],[31.9148148,41.3197529],[31.9270265,41.33655],[31.9347952,41.3397096],[31.9435351,41.3346057],[31.9480668,41.3285291],[31.9551882,41.3256121],[31.9668949,41.3250007],[31.9822649,41.3200538],[31.9928774,41.3129075],[31.9990986,41.3032863],[32.0053198,41.2975129],[32.018494,41.297238],[32.0287406,41.3005372],[32.0382553,41.3068601],[32.048136,41.3181299],[32.0569188,41.3255504],[32.0744844,41.3340692],[32.0606317,41.337487],[32.034711,41.3511222],[32.0272789,41.359071],[31.9826725,41.3940785],[31.9689036,41.4160536],[31.9715975,41.4276515],[31.9320819,41.4135603],[31.9108356,41.4218072],[31.9002719,41.428121],[31.8760826,41.4366149],[31.8780729,41.4462553],[31.8665906,41.4482061],[31.8647534,41.4525666],[31.8502092,41.4600248],[31.8473003,41.4664495],[31.8313782,41.4646139],[31.8267853,41.467482],[31.8208145,41.4661054],[31.8154747,41.4716733],[31.8182282,41.4767351],[31.8170149,41.4788111],[31.8140647,41.4761379],[31.8015827,41.4736055],[31.8031237,41.4715274],[31.8004748,41.4692918],[31.7990231,41.4697065],[31.7993303,41.4671564],[31.796161,41.465653],[31.7926237,41.4653725],[31.7929752,41.4670097],[31.7881612,41.4653268],[31.7846349,41.4593278],[31.7791563,41.4585923],[31.7848484,41.4590756],[31.7873482,41.4611606],[31.7868846,41.4527656],[31.7817288,41.4553474],[31.7812599,41.4571946],[31.7794683,41.4548662],[31.7747499,41.4538511],[31.7776633,41.4505769],[31.7826183,41.4504979],[31.7893656,41.4455721],[31.791373,41.4416321],[31.8069286,41.4418929],[31.8108548,41.4366769],[31.7941652,41.4302413],[31.7755399,41.4123747],[31.7688543,41.3882709],[31.7756133,41.3654479],[31.820143,41.3654479],[31.8265044,41.3618671],[31.8322694,41.3497804],[31.8273134,41.3289297],[31.828319,41.3266037],[31.8228412,41.3258943],[31.822914,41.3246086],[31.818551,41.3224176],[31.8184737,41.3201965],[31.8097498,41.3100693],[31.8082646,41.3014513],[31.8052606,41.3034372],[31.8036145,41.3014137],[31.8073556,41.297254],[31.8114458,41.2976288],[31.8091014,41.2894212],[31.8061085,41.2884093],[31.8043862,41.2840508],[31.7896412,41.2677753]]]}}]}