{"type":"FeatureCollection","features":[{"type":"Feature","properties":{"code":"20-01","provinceCode":"20","name":"Acıpayam"},"geometry":{"type":"Polygon","coordinates":[[[29.2557639,37.525315],[29.2510222,37.5184052],[29.2481939,37.49804],[29.2490642,37.4932068],[29.2378596,37.4831079],[29.2351401,37.4696404],[29.228722,37.4611789],[29.2204546,37.4557388],[29.2314415,37.4578113],[29.2491729,37.4277551],[29.251131,37.4153145],[29.2465622,37.4111672],[29.240688,37.4008428],[29.2410361,37.3945711],[29.2478349,37.3763388],[29.2434157,37.3762037],[29.2393363,37.3599935],[29.2165602,37.3422933],[29.2165602,37.3363473],[29.2092514,37.329725],[29.2024526,37.3198581],[29.2038123,37.3136399],[29.2014327,37.2982275],[29.1910301,37.2888732],[29.1798098,37.2874155],[29.1628492,37.2921427],[29.1507813,37.285787],[29.1487416,37.2826766],[29.1424527,37.2856518],[29.1351439,37.2855166],[29.1286453,37.2755331],[29.128817,37.2733144],[29.1365019,37.2680964],[29.1348039,37.2615764],[29.1356717,37.2525407],[29.1409586,37.2433892],[29.128685,37.2480475],[29.1019995,37.2488593],[29.09877,37.2443943],[29.0923111,37.2407409],[29.0916312,37.2357341],[29.0852478,37.2300307],[29.0815085,37.222587],[29.0648513,37.2160901],[29.0634915,37.2120292],[29.0578824,37.2076974],[29.060432,37.2051253],[29.0555028,37.2035007],[29.0461544,37.2033653],[29.0420751,37.199033],[29.0271176,37.1941588],[29.0140005,37.1705529],[29.0138922,37.1645775],[29.0074009,37.1449934],[29.0074009,37.1395738],[29.0000922,37.1425547],[28.995342,37.1513235],[28.9932865,37.1533264],[28.990016,37.153423],[28.9816579,37.1492715],[28.9741477,37.143092],[28.9639727,37.1400021],[28.9643361,37.1361395],[28.9583848,37.1254446],[28.9626726,37.123793],[28.9667851,37.1181043],[28.9719714,37.115615],[28.9739777,37.1103439],[28.9740943,37.1015801],[28.9797801,37.0989176],[28.9859239,37.0998804],[28.9913517,37.094243],[28.9968877,37.0922974],[28.9965131,37.0884458],[29.0009086,37.084541],[29.0011916,37.0808816],[29.0068026,37.0781719],[29.0075185,37.0748377],[29.013579,37.0730045],[29.0126549,37.0702745],[29.0393518,37.0626889],[29.0516844,37.0565589],[29.0534358,37.0541706],[29.0596624,37.0548805],[29.065296,37.0503844],[29.0764149,37.050976],[29.0898526,37.0487573],[29.0874236,37.0362764],[29.0980504,37.0317319],[29.1085253,37.0299746],[29.1187725,37.0242783],[29.1232281,37.0234121],[29.1244659,37.0319346],[29.1374619,37.0502117],[29.1468995,37.0583609],[29.1606691,37.0647809],[29.1657747,37.0695955],[29.168869,37.0878635],[29.1679407,37.0953916],[29.1849593,37.0992171],[29.1858876,37.1137768],[29.1911479,37.1201921],[29.2007402,37.1217958],[29.2169853,37.1368445],[29.2310643,37.1399279],[29.2380265,37.1390646],[29.255664,37.1530001],[29.2852145,37.1612615],[29.2948068,37.1612615],[29.2893918,37.1657001],[29.3047086,37.1632342],[29.3091953,37.1644672],[29.3096594,37.168659],[29.3051727,37.1774118],[29.3237385,37.1673029],[29.3334855,37.1680426],[29.3370439,37.1855473],[29.3416854,37.190231],[29.3499759,37.1949007],[29.3718214,37.2014346],[29.371447,37.2069527],[29.3800602,37.2241009],[29.3883547,37.2271089],[29.3929182,37.2090872],[29.4002826,37.1951703],[29.4171471,37.1887619],[29.4288781,37.186789],[29.438476,37.1878923],[29.4460415,37.1997929],[29.4525336,37.2042021],[29.4617386,37.2060042],[29.4699616,37.217828],[29.4746711,37.2296499],[29.4820365,37.2408886],[29.4970001,37.2541382],[29.5022215,37.2557433],[29.5112177,37.2760049],[29.5241745,37.2931317],[29.5410564,37.2884664],[29.5560867,37.2876043],[29.5681638,37.287593],[29.5806715,37.2921099],[29.5808548,37.2957361],[29.5889078,37.3006169],[29.5899233,37.3169906],[29.593086,37.3301806],[29.6009503,37.3315206],[29.6157426,37.341793],[29.6182018,37.3449679],[29.6206109,37.3538501],[29.6204237,37.3635241],[29.6236068,37.3684351],[29.6232323,37.3834636],[29.6254793,37.3903073],[29.624309,37.3996048],[29.62033,37.4042531],[29.6231387,37.4116898],[29.6229416,37.4255471],[29.6230363,37.4380585],[29.619591,37.4418645],[29.6082066,37.4480487],[29.6016156,37.446027],[29.5935266,37.4490001],[29.585887,37.4490001],[29.5795956,37.4453134],[29.5697091,37.444362],[29.5623226,37.4404107],[29.5528093,37.4474846],[29.5452925,37.4576809],[29.5369316,37.4782329],[29.5306737,37.4827364],[29.5222676,37.484004],[29.5157609,37.4867857],[29.5086505,37.4931282],[29.500837,37.5052904],[29.5413491,37.5117854],[29.5399748,37.5164304],[29.563078,37.5240834],[29.5785495,37.5256631],[29.5847408,37.5280371],[29.586636,37.5407514],[29.5703083,37.5614156],[29.5716565,37.5681836],[29.5655149,37.5698458],[29.5559279,37.5662839],[29.5334586,37.572814],[29.5117383,37.582074],[29.5064954,37.5858726],[29.5138354,37.5888401],[29.5208758,37.5953683],[29.5283656,37.5965552],[29.5364266,37.5999773],[29.5431398,37.6085873],[29.5438095,37.6186594],[29.551761,37.6285682],[29.5499223,37.6388015],[29.5462249,37.6416696],[29.5376925,37.6421668],[29.5283303,37.6478007],[29.5215895,37.6489868],[29.5104888,37.6535485],[29.5082951,37.6568438],[29.4991201,37.6516553],[29.4920049,37.652693],[29.4747784,37.6518035],[29.4652289,37.6420185],[29.4571774,37.6371255],[29.4483769,37.6267453],[29.4393892,37.6328253],[29.4318994,37.6338633],[29.4266566,37.6300078],[29.4142985,37.6346047],[29.4084939,37.6350496],[29.4083066,37.6406841],[29.4107408,37.6436494],[29.4105536,37.6467629],[29.405498,37.6547685],[29.4030638,37.6561026],[29.3946963,37.6479918],[29.3897531,37.6439592],[29.3849596,37.636249],[29.385409,37.6294872],[29.3836115,37.6237925],[29.3863078,37.6195212],[29.3878057,37.6078926],[29.3849596,37.5853421],[29.3872066,37.5772698],[29.3831621,37.5674155],[29.3840609,37.5595787],[29.3885887,37.553251],[29.3836732,37.5398178],[29.3750731,37.5243029],[29.3692311,37.5285796],[29.3614417,37.5315494],[29.3570977,37.5315494],[29.3424177,37.5391591],[29.3382234,37.5354769],[29.3389724,37.5298938],[29.3304341,37.5392778],[29.3250414,37.5392778],[29.3181509,37.5350017],[29.3042296,37.531146],[29.2958012,37.5351589],[29.2886411,37.5335763],[29.2818565,37.5254579],[29.2557639,37.525315]]]}},{"type":"Feature","properties":{"code":"20-02","provinceCode":"20","name":"Babadağ"},"geometry":{"type":"Polygon","coordinates":[[[28.7726447,37.8011439],[28.7742091,37.7993006],[28.8080571,37.7843871],[28.8079062,37.7767971],[28.813432,37.7725564],[28.8291626,37.7705534],[28.8402817,37.7656056],[28.8518876,37.755122],[28.8618186,37.7512805],[28.8626915,37.7435109],[28.868865,37.7400187],[28.8710164,37.7350494],[28.876954,37.7295461],[28.9044737,37.7135821],[28.9051067,37.7561131],[28.9096829,37.7735933],[28.9174521,37.78421],[28.9239007,37.7881978],[28.9336477,37.79754],[28.9361992,37.7980647],[28.9383449,37.8018287],[28.9460548,37.8057703],[28.9421918,37.8278312],[28.9602005,37.8382835],[28.9620671,37.8473958],[28.9601029,37.8554323],[28.9618885,37.8610714],[28.9559961,37.8655824],[28.954389,37.8712207],[28.9509964,37.8692474],[28.9502822,37.8729122],[28.9445683,37.8743216],[28.9409971,37.8796774],[28.9313549,37.8775634],[28.9243911,37.8801003],[28.9206413,37.8738988],[28.9076065,37.8692474],[28.9081422,37.8779862],[28.9038568,37.8819324],[28.8977857,37.8684016],[28.8913576,37.8592387],[28.8858223,37.8568421],[28.8836796,37.8493697],[28.8761801,37.8462678],[28.8695734,37.8520486],[28.8620739,37.8520486],[28.8554672,37.8496517],[28.8479677,37.8512026],[28.8379684,37.8476778],[28.8293976,37.8469728],[28.8193982,37.8424606],[28.820291,37.8385123],[28.8101132,37.8262429],[28.8042207,37.8253967],[28.7935071,37.8208832],[28.79315,37.8131251],[28.7860077,37.8036732],[28.7726447,37.8011439]]]}},{"type":"Feature","properties":{"code":"20-03","provinceCode":"20","name":"Baklan"},"geometry":{"type":"Polygon","coordinates":[[[29.5644468,38.1549488],[29.5349961,38.141256],[29.5316863,38.141256],[29.5148917,38.1185951],[29.527886,38.1128082],[29.5412481,38.1118437],[29.5634298,38.1020064],[29.5601722,38.1012264],[29.5571246,38.1031458],[29.5549438,38.0991015],[29.5503769,38.0982572],[29.5509182,38.0965971],[29.5430677,38.0988512],[29.5461622,38.093672],[29.5414348,38.0895008],[29.5500745,38.083481],[29.5521585,38.0786563],[29.5416159,38.0636977],[29.5329122,38.0591613],[29.5356091,38.0553968],[29.5186919,38.0454538],[29.52997,38.0312609],[29.5294797,38.0264328],[29.5334025,38.02257],[29.5380608,38.0223769],[29.5465194,38.0095743],[29.5260423,37.9931293],[29.5109002,37.9875025],[29.5023485,37.9799583],[29.4993672,37.9721659],[29.500544,37.9605994],[29.4956797,37.9547845],[29.4940321,37.9482268],[29.4951305,37.9347383],[29.4993672,37.9279313],[29.5078662,37.9217444],[29.5325685,37.9134383],[29.5621302,37.9067288],[29.5710393,37.9030542],[29.5744814,37.8979416],[29.581973,37.8937873],[29.58663,37.896184],[29.5947291,37.9040128],[29.5989812,37.9182304],[29.6040431,37.9268554],[29.6044481,37.9334034],[29.6161918,37.9407492],[29.6218611,37.9484136],[29.6271255,37.9503296],[29.6327949,37.9503296],[29.6285429,37.9607069],[29.6546625,37.9653363],[29.65446,37.9686885],[29.6588901,37.9763043],[29.6658441,37.9845262],[29.6633605,37.9894197],[29.6688243,38.0017499],[29.6688243,38.0085992],[29.660877,38.0091862],[29.6681494,38.0154021],[29.6494379,38.0218298],[29.6259117,38.0460361],[29.6309985,38.0460361],[29.636933,38.0510433],[29.6346016,38.0680653],[29.6307865,38.076241],[29.6324821,38.0864178],[29.6278193,38.1122704],[29.6235803,38.1177733],[29.608532,38.116606],[29.600478,38.113938],[29.5926359,38.1167728],[29.600266,38.1251099],[29.6000541,38.1301116],[29.5862774,38.1444482],[29.5898806,38.150282],[29.5951793,38.1519488],[29.5900925,38.1547821],[29.5763159,38.158282],[29.5644468,38.1549488]]]}},{"type":"Feature","properties":{"code":"20-04","provinceCode":"20","name":"Bekilli"},"geometry":{"type":"Polygon","coordinates":[[[29.6144149,38.2440546],[29.6061127,38.2472096],[29.5893742,38.2454218],[29.5899098,38.2598282],[29.5793311,38.264139],[29.546122,38.2718138],[29.5307226,38.2890528],[29.5244289,38.2883171],[29.509833,38.276124],[29.4971118,38.277911],[29.4821141,38.27276],[29.4787664,38.2759137],[29.4704641,38.2759137],[29.4564038,38.2830617],[29.4448877,38.295569],[29.4352464,38.296725],[29.4264085,38.302715],[29.4202487,38.3197366],[29.4156959,38.3226782],[29.3826206,38.32646],[29.3698994,38.3216276],[29.3602581,38.3234135],[29.3538305,38.3221529],[29.3455282,38.3160594],[29.3374937,38.3063928],[29.3206214,38.3057624],[29.2981249,38.2991421],[29.2862071,38.2906294],[29.2843324,38.2845332],[29.277637,38.2804338],[29.2741554,38.2700266],[29.2598273,38.2624568],[29.2477756,38.251416],[29.2452749,38.2424807],[29.2425794,38.2432242],[29.2417222,38.242056],[29.2347858,38.2417726],[29.2308665,38.2368164],[29.2215027,38.2377979],[29.2193962,38.2401415],[29.2149209,38.2407363],[29.2134596,38.2312045],[29.2192545,38.2268055],[29.2172999,38.2250096],[29.2137978,38.22503],[29.2072859,38.227998],[29.2041605,38.2269914],[29.2117344,38.2134377],[29.2194078,38.2113879],[29.232652,38.2108941],[29.2362143,38.2142599],[29.2654544,38.2178128],[29.26905,38.2156106],[29.2824426,38.2198594],[29.2922736,38.2206803],[29.3073686,38.2315311],[29.3129821,38.2325751],[29.3171516,38.2353812],[29.323377,38.2292994],[29.3295333,38.2280505],[29.3338592,38.223242],[29.3374161,38.2236098],[29.3480869,38.2095141],[29.3537359,38.2095008],[29.3618372,38.2047696],[29.3621319,38.203118],[29.3679259,38.2005165],[29.3672325,38.19835],[29.3687546,38.1971671],[29.3707335,38.196755],[29.3751112,38.1990387],[29.3845683,38.1953461],[29.3877875,38.1959574],[29.386926,38.1895965],[29.3921407,38.1894229],[29.3972459,38.1924201],[29.4012571,38.1926579],[29.403046,38.1897378],[29.4052478,38.1909275],[29.4085504,38.1904948],[29.4102018,38.1880072],[29.4130916,38.1890888],[29.4144677,38.1860603],[29.4225867,38.1835725],[29.4166695,38.1820582],[29.418596,38.1804356],[29.426197,38.1813104],[29.4224773,38.1751833],[29.4240899,38.1718026],[29.4308091,38.1694783],[29.4407536,38.1709574],[29.4560735,38.1785638],[29.4574173,38.1832117],[29.4678994,38.1906056],[29.4756937,38.1880706],[29.4881455,38.1886071],[29.4957757,38.1917722],[29.4981071,38.1904395],[29.4991668,38.1861082],[29.5053133,38.1824431],[29.514851,38.1799024],[29.5315419,38.1803189],[29.5405497,38.1909393],[29.5564458,38.1992679],[29.5777995,38.2069293],[29.5883969,38.2067628],[29.5989943,38.2124251],[29.6184935,38.2254135],[29.6218847,38.2309079],[29.6210369,38.2352365],[29.6144149,38.2440546]]]}},{"type":"Feature","properties":{"code":"20-05","provinceCode":"20","name":"Beyağaç"},"geometry":{"type":"Polygon","coordinates":[[[28.9583848,37.1254446],[28.9643361,37.1361395],[28.9639727,37.1400021],[28.9741477,37.143092],[28.9816579,37.1492715],[28.990016,37.153423],[28.9932865,37.1533264],[28.995342,37.1513235],[29.0051913,37.1546123],[29.000942,37.1819721],[28.9965228,37.1867116],[28.995163,37.2020115],[28.9977126,37.2166315],[28.9907437,37.227324],[28.9939732,37.2388269],[28.9820752,37.2422097],[28.9807154,37.2487044],[28.9841148,37.2545221],[28.983265,37.2570925],[28.9788457,37.2603393],[28.9740865,37.2553338],[28.9659279,37.2542515],[28.959299,37.2553338],[28.9480809,37.2604746],[28.9348231,37.2746775],[28.9360129,37.2863084],[28.9426418,37.2883369],[28.9451914,37.2944219],[28.9541999,37.3049681],[28.9521384,37.3061399],[28.9247117,37.3059041],[28.9064766,37.3198176],[28.90025,37.3286595],[28.8932821,37.3347894],[28.8840904,37.3339642],[28.8781603,37.3275986],[28.872675,37.3251229],[28.862742,37.3142761],[28.8582945,37.3119178],[28.8496958,37.3105029],[28.8421349,37.3121537],[28.8224173,37.3063758],[28.808185,37.3061399],[28.8035892,37.2967056],[28.7865402,37.282316],[28.7745317,37.279249],[28.7720114,37.2731147],[28.7651918,37.2687495],[28.7529783,37.2665667],[28.7635563,37.2549521],[28.7635563,37.2495197],[28.7618262,37.2473519],[28.7664676,37.2468604],[28.7674699,37.2445809],[28.7729528,37.246778],[28.7822649,37.2407055],[28.7795709,37.2376504],[28.7819477,37.2360982],[28.7785519,37.2304256],[28.780961,37.2274745],[28.7785519,37.2230477],[28.7820729,37.2205391],[28.7831848,37.2167022],[28.7818876,37.2096181],[28.7854086,37.2068139],[28.7833701,37.201943],[28.7848526,37.1963338],[28.7911533,37.189986],[28.7928212,37.1857046],[28.7968981,37.183933],[28.8011604,37.1790607],[28.8178388,37.178913],[28.8189507,37.175517],[28.8282165,37.167543],[28.8298844,37.1634081],[28.8274753,37.1603067],[28.8352585,37.156319],[28.8319228,37.1523312],[28.8335907,37.1490816],[28.8313669,37.1449457],[28.8341466,37.1400708],[28.8424858,37.1384458],[28.872507,37.1456843],[28.8739895,37.1428776],[28.890668,37.142139],[28.8951156,37.1459797],[28.897154,37.1442071],[28.9018624,37.1495811],[28.9058843,37.1495811],[28.9094331,37.1461867],[28.9080136,37.1443009],[28.924338,37.1458095],[28.9361673,37.1420378],[28.9420819,37.1426036],[28.9482331,37.1382659],[28.9583848,37.1254446]]]}},{"type":"Feature","properties":{"code":"20-06","provinceCode":"20","name":"Bozkurt"},"geometry":{"type":"Polygon","coordinates":[[[29.4755164,37.9044112],[29.4791069,37.8965832],[29.4838612,37.8930101],[29.4915586,37.8912235],[29.4904266,37.8788945],[29.4926906,37.8690656],[29.4965393,37.861559],[29.4845896,37.8612425],[29.4748054,37.8651336],[29.4637121,37.8617377],[29.4521659,37.852264],[29.4431102,37.846901],[29.4374503,37.8463647],[29.433828,37.8433255],[29.4526187,37.8190071],[29.4580522,37.8157879],[29.4623537,37.8204378],[29.4811445,37.8225839],[29.4825028,37.8134629],[29.4865779,37.8127474],[29.4951809,37.7885979],[29.4888419,37.7864509],[29.4750318,37.7748202],[29.4720887,37.7703464],[29.476843,37.7599661],[29.4847668,37.7554913],[29.4858988,37.7422445],[29.4825028,37.7393801],[29.4800125,37.7306069],[29.4829556,37.7128784],[29.4637121,37.7096545],[29.4700511,37.7069679],[29.4784277,37.7058932],[29.4815973,37.7032064],[29.4815973,37.6904878],[29.4895211,37.6849338],[29.4840876,37.6763334],[29.4840876,37.6716744],[29.4779749,37.666836],[29.4752582,37.6623556],[29.4747784,37.6518035],[29.4920049,37.652693],[29.4991201,37.6516553],[29.5082951,37.6568438],[29.5104888,37.6535485],[29.5138359,37.671316],[29.5194504,37.6812071],[29.528144,37.6855072],[29.5306796,37.6895203],[29.5341208,37.6912402],[29.5420899,37.6895203],[29.5509646,37.6895203],[29.5573036,37.6958263],[29.5600204,37.7019884],[29.5904478,37.6931033],[29.5947946,37.6899503],[29.5913534,37.6807771],[29.598598,37.6763334],[29.6054804,37.67576],[29.6129062,37.6730363],[29.6139929,37.6856505],[29.6190641,37.6883737],[29.6208753,37.69296],[29.6145362,37.7034214],[29.6156229,37.7130216],[29.6232298,37.7216178],[29.6264898,37.7325049],[29.6311989,37.7396665],[29.6398924,37.7452521],[29.6527516,37.7465411],[29.6748477,37.7547038],[29.6791705,37.7791326],[29.6613661,37.7848785],[29.6442931,37.7838452],[29.6329915,37.7950666],[29.6302385,37.8026229],[29.6247326,37.8080034],[29.6276304,37.8203657],[29.6361791,37.8294072],[29.6426993,37.8421091],[29.6557396,37.8503471],[29.6618251,37.865562],[29.6718227,37.8702516],[29.6799711,37.879343],[29.6822895,37.8864444],[29.6780054,37.8932216],[29.669439,37.8981155],[29.6684703,37.9121635],[29.6943739,37.9154927],[29.7056274,37.9231459],[29.7227018,37.9433465],[29.7137766,37.9549623],[29.7093062,37.9559415],[29.6961434,37.9528082],[29.6832289,37.9561373],[29.6782618,37.9600536],[29.6668375,37.9631866],[29.6588901,37.9763043],[29.65446,37.9686885],[29.6546625,37.9653363],[29.6285429,37.9607069],[29.6327949,37.9503296],[29.6271255,37.9503296],[29.6218611,37.9484136],[29.6161918,37.9407492],[29.6044481,37.9334034],[29.6040431,37.9268554],[29.5989812,37.9182304],[29.5947291,37.9040128],[29.58663,37.896184],[29.581973,37.8937873],[29.5744814,37.8979416],[29.5710393,37.9030542],[29.5621302,37.9067288],[29.5325685,37.9134383],[29.5078662,37.9217444],[29.4993672,37.9279313],[29.4818714,37.9270649],[29.4752811,37.9155532],[29.4742611,37.908992],[29.4755164,37.9044112]]]}},{"type":"Feature","properties":{"code":"20-07","provinceCode":"20","name":"Buldan"},"geometry":{"type":"Polygon","coordinates":[[[28.8441894,37.9766987],[28.8551132,37.9784569],[28.8558446,37.980835],[28.8505421,37.9852305],[28.8476166,37.9930122],[28.847708,38.0004328],[28.8427712,38.0038187],[28.8456053,38.0140474],[28.8512735,38.0175767],[28.8631584,38.008501],[28.8690094,37.9995683],[28.8717521,37.9993522],[28.8743119,38.0054756],[28.8781517,38.0057637],[28.8849169,38.0021618],[28.8937849,37.9903464],[28.9045727,37.9870319],[28.9103323,37.9893376],[28.9149949,37.9889053],[28.9186518,37.9865996],[28.921943,37.9815556],[28.9368448,37.9966145],[28.955495,37.9993522],[28.9652771,37.9891215],[28.9692083,37.9896979],[28.9639058,37.9968307],[28.96546,38.0029542],[28.9741451,38.0123187],[28.9839273,38.0187291],[28.9888521,38.026365],[28.980636,38.0333398],[28.9683026,38.0393236],[28.9764052,38.0561545],[28.9830437,38.0620086],[28.9826855,38.0707293],[28.9893367,38.0769722],[28.9889018,38.0806975],[28.9858824,38.0841073],[28.9678291,38.0931319],[28.9634378,38.105707],[28.961608,38.1235579],[28.9638037,38.1261488],[28.9608762,38.1273962],[28.9468482,38.1250932],[28.9422129,38.1228861],[28.9331863,38.1236538],[28.9212321,38.1287396],[28.9255014,38.1338249],[28.9244036,38.1380465],[28.9283029,38.1420295],[28.9273271,38.145675],[28.9248875,38.1470181],[28.9269768,38.1511739],[28.9200672,38.1590238],[28.9226722,38.167931],[28.9213541,38.1749747],[28.9175726,38.1801528],[28.9121996,38.1827065],[28.9141299,38.1850966],[28.9141293,38.1867267],[28.9110329,38.1884443],[28.9127962,38.1950622],[28.9092189,38.199213],[28.9108219,38.2017458],[28.9106194,38.212254],[28.9131759,38.2160393],[28.908392,38.2247559],[28.9089151,38.2293888],[28.9004864,38.2368181],[28.8989086,38.2435377],[28.8953543,38.2443507],[28.8695194,38.2325753],[28.8486891,38.2207535],[28.8460814,38.2134392],[28.8350874,38.2143865],[28.8288354,38.2125588],[28.8302084,38.203836],[28.8119696,38.1948168],[28.812114,38.1867542],[28.808591,38.1812902],[28.8069025,38.1722268],[28.7852675,38.1826358],[28.7399842,38.1771983],[28.7305996,38.1743323],[28.731626,38.1656791],[28.7291341,38.153221],[28.7322468,38.1502632],[28.7320897,38.1369955],[28.73011,38.1308589],[28.7189051,38.1176765],[28.7094854,38.1145796],[28.7025937,38.1075017],[28.6782865,38.1078842],[28.6780659,38.1040122],[28.6859432,38.1002333],[28.6798664,38.094399],[28.6576355,38.0953598],[28.6522777,38.0918164],[28.6409141,38.0921617],[28.6389585,38.0905563],[28.6502695,38.0693421],[28.6596197,38.0637019],[28.6726858,38.0661921],[28.6881099,38.0640962],[28.6926095,38.0662383],[28.6990266,38.0617983],[28.7155555,38.0594252],[28.7154583,38.0546786],[28.7219726,38.0517692],[28.7229449,38.0470222],[28.7330567,38.0366081],[28.7341628,38.0296242],[28.7379323,38.027394],[28.7421963,38.0146266],[28.74803,38.0071958],[28.7567806,38.0003006],[28.7581418,37.9925619],[28.7618365,37.9881175],[28.7701982,37.9825999],[28.7771014,37.9829064],[28.7945054,37.9777717],[28.7997558,37.9811438],[28.8018948,37.9857419],[28.8073396,37.9880408],[28.835536,37.9861251],[28.8441894,37.9766987]]]}},{"type":"Feature","properties":{"code":"20-08","provinceCode":"20","name":"Çal"},"geometry":{"type":"Polygon","coordinates":[[[29.1788623,38.1216331],[29.1826343,38.1209194],[29.1995368,38.110739],[29.2011603,38.1072075],[29.1958126,38.1004821],[29.2113304,38.0977016],[29.2151989,38.0803759],[29.2209237,38.0776417],[29.2366187,38.0769328],[29.2370047,38.0738947],[29.2399635,38.0730845],[29.241057,38.0740972],[29.2424722,38.0728313],[29.2494834,38.0728819],[29.2581671,38.0664507],[29.2657573,38.064425],[29.2748913,38.0544983],[29.2764994,38.0368699],[29.2745697,38.0333235],[29.2692951,38.035958],[29.2671081,38.0340328],[29.2666579,38.035958],[29.2644709,38.035806],[29.2615763,38.0335261],[29.263313,38.0322089],[29.261126,38.0313475],[29.2630557,38.0297262],[29.2606114,38.0296249],[29.2625411,38.0252674],[29.2595179,38.0269395],[29.2564304,38.021467],[29.2541791,38.0304862],[29.2513488,38.0322595],[29.2485162,38.0288709],[29.248858,38.0157466],[29.2455573,38.0072846],[29.2463292,38.0009997],[29.2534048,37.9929907],[29.2516038,37.9752461],[29.2577788,37.9685528],[29.2602231,37.9567872],[29.2667842,37.9472517],[29.267942,37.9405558],[29.2647258,37.9293946],[29.2709186,37.9215144],[29.2672521,37.9173534],[29.2675094,37.9141057],[29.2705969,37.9131922],[29.2705326,37.9111116],[29.2677024,37.9090308],[29.2708542,37.9025852],[29.2650739,37.8886781],[29.2677554,37.8871525],[29.2679597,37.8851742],[29.265837,37.877508],[29.2821283,37.8683836],[29.281081,37.8657341],[29.2854201,37.8628895],[29.2886476,37.8660392],[29.2935017,37.8655122],[29.2970322,37.8614087],[29.3039668,37.8604444],[29.3040674,37.8646823],[29.3080642,37.8710553],[29.3077728,37.8755395],[29.3118221,37.8817399],[29.313022,37.8879791],[29.3200358,37.8922177],[29.3235112,37.8836268],[29.3198826,37.8734863],[29.320471,37.8639638],[29.3239035,37.8607119],[29.3386141,37.8545949],[29.3623471,37.852659],[29.3713696,37.8551369],[29.3754885,37.8541303],[29.3844129,37.8569953],[29.3891203,37.8539754],[29.4020656,37.8509554],[29.4094209,37.8631121],[29.431879,37.8824657],[29.4382968,37.8909766],[29.4391755,37.8952363],[29.4514147,37.8971184],[29.4560593,37.8904812],[29.4655525,37.9010682],[29.4711229,37.9042255],[29.4755164,37.9044112],[29.4742611,37.908992],[29.4752811,37.9155532],[29.4818714,37.9270649],[29.4993672,37.9279313],[29.4951305,37.9347383],[29.4940321,37.9482268],[29.4956797,37.9547845],[29.500544,37.9605994],[29.4993672,37.9721659],[29.5023485,37.9799583],[29.5109002,37.9875025],[29.5260423,37.9931293],[29.5465194,38.0095743],[29.5380608,38.0223769],[29.5334025,38.02257],[29.5294797,38.0264328],[29.52997,38.0312609],[29.5186919,38.0454538],[29.5356091,38.0553968],[29.5329122,38.0591613],[29.5416159,38.0636977],[29.5521585,38.0786563],[29.5500745,38.083481],[29.5414348,38.0895008],[29.5461622,38.093672],[29.5430677,38.0988512],[29.5509182,38.0965971],[29.5503769,38.0982572],[29.5549438,38.0991015],[29.5571246,38.1031458],[29.5601722,38.1012264],[29.5634298,38.1020064],[29.5412481,38.1118437],[29.527886,38.1128082],[29.5148917,38.1185951],[29.5316863,38.141256],[29.5349961,38.141256],[29.5644468,38.1549488],[29.5623273,38.1581153],[29.5566047,38.1584486],[29.5400728,38.1692805],[29.5375294,38.1667809],[29.5366816,38.1626149],[29.5254484,38.1552821],[29.5216333,38.1551154],[29.5161756,38.1521988],[29.5140562,38.1651146],[29.5100821,38.172613],[29.514851,38.1799024],[29.5053133,38.1824431],[29.4991668,38.1861082],[29.4981071,38.1904395],[29.4957757,38.1917722],[29.4881455,38.1886071],[29.4756937,38.1880706],[29.4678994,38.1906056],[29.4574173,38.1832117],[29.4560735,38.1785638],[29.4407536,38.1709574],[29.4308091,38.1694783],[29.4240899,38.1718026],[29.4224773,38.1751833],[29.426197,38.1813104],[29.418596,38.1804356],[29.4166695,38.1820582],[29.4225867,38.1835725],[29.4144677,38.1860603],[29.4130916,38.1890888],[29.4102018,38.1880072],[29.4085504,38.1904948],[29.4052478,38.1909275],[29.403046,38.1897378],[29.4012571,38.1926579],[29.3972459,38.1924201],[29.3921407,38.1894229],[29.386926,38.1895965],[29.3877875,38.1959574],[29.3845683,38.1953461],[29.3751112,38.1990387],[29.3707335,38.196755],[29.3687546,38.1971671],[29.3672325,38.19835],[29.3679259,38.2005165],[29.3621319,38.203118],[29.3618372,38.2047696],[29.3537359,38.2095008],[29.3480869,38.2095141],[29.3374161,38.2236098],[29.3338592,38.223242],[29.3295333,38.2280505],[29.323377,38.2292994],[29.3171516,38.2353812],[29.3129821,38.2325751],[29.3073686,38.2315311],[29.2922736,38.2206803],[29.2824426,38.2198594],[29.26905,38.2156106],[29.2654544,38.2178128],[29.2362143,38.2142599],[29.232652,38.2108941],[29.2194078,38.2113879],[29.2210856,38.204195],[29.216209,38.199114],[29.2208672,38.193141],[29.2119702,38.1786413],[29.2101278,38.1671882],[29.2067923,38.1658584],[29.2075939,38.1539396],[29.2109182,38.1524157],[29.2113064,38.1481777],[29.2085238,38.1449263],[29.2041261,38.1439103],[29.2045467,38.1409728],[29.2000332,38.1390562],[29.1974757,38.1339376],[29.1928656,38.1316182],[29.1884547,38.1331586],[29.1822994,38.1316845],[29.1775507,38.1323377],[29.1788623,38.1216331]]]}},{"type":"Feature","properties":{"code":"20-09","provinceCode":"20","name":"Çameli"},"geometry":{"type":"Polygon","coordinates":[[[29.3451584,36.9261416],[29.3506416,36.937246],[29.3500357,36.9456037],[29.358622,36.9566562],[29.3788236,36.9662692],[29.3914215,36.9817531],[29.3859947,36.9863977],[29.3803742,36.9862429],[29.3726216,36.9887199],[29.3790175,36.9944476],[29.3788236,36.9990914],[29.3662258,37.0127116],[29.3658381,37.0240082],[29.3681639,37.0332919],[29.3735907,37.040254],[29.370102,37.0455137],[29.3712649,37.0510825],[29.3813432,37.0619095],[29.3826999,37.0665492],[29.3952978,37.0639201],[29.4013572,37.0653454],[29.3992733,37.0573475],[29.4046319,37.0499032],[29.4133643,37.0463392],[29.4206083,37.0400819],[29.425173,37.0384185],[29.4295393,37.0397651],[29.432417,37.0562388],[29.4318216,37.0615445],[29.4398594,37.0706504],[29.4415464,37.0831593],[29.4412487,37.0907587],[29.4319208,37.0918669],[29.431127,37.0992279],[29.4400579,37.1084084],[29.4380733,37.1218606],[29.4475004,37.1239969],[29.4434318,37.1334117],[29.4461111,37.1439328],[29.4458134,37.1561133],[29.4513704,37.1629145],[29.4514697,37.1672638],[29.4466073,37.1687663],[29.4461111,37.1761989],[29.4441264,37.1767524],[29.442241,37.1829193],[29.438476,37.1878923],[29.4288781,37.186789],[29.4171471,37.1887619],[29.4002826,37.1951703],[29.3929182,37.2090872],[29.3883547,37.2271089],[29.3800602,37.2241009],[29.371447,37.2069527],[29.3718214,37.2014346],[29.3499759,37.1949007],[29.3416854,37.190231],[29.3370439,37.1855473],[29.3334855,37.1680426],[29.3237385,37.1673029],[29.3051727,37.1774118],[29.3096594,37.168659],[29.3091953,37.1644672],[29.3047086,37.1632342],[29.2893918,37.1657001],[29.2948068,37.1612615],[29.2852145,37.1612615],[29.255664,37.1530001],[29.2380265,37.1390646],[29.2310643,37.1399279],[29.2169853,37.1368445],[29.2007402,37.1217958],[29.1911479,37.1201921],[29.1858876,37.1137768],[29.1849593,37.0992171],[29.1679407,37.0953916],[29.168869,37.0878635],[29.1657747,37.0695955],[29.1606691,37.0647809],[29.1468995,37.0583609],[29.1374619,37.0502117],[29.1244659,37.0319346],[29.1232281,37.0234121],[29.1222751,37.0168696],[29.1236844,37.0094018],[29.1279122,37.0054118],[29.1351883,36.9900257],[29.1436702,36.9827981],[29.1372645,36.9776809],[29.1177911,36.9701069],[29.1016487,36.9767598],[29.0998551,36.9683668],[29.1031861,36.9618155],[29.099727,36.9593587],[29.0972928,36.951578],[29.0978053,36.9432847],[29.1140758,36.917887],[29.133293,36.9052874],[29.1413642,36.9036483],[29.1431578,36.9006773],[29.1418766,36.8941202],[29.1674995,36.882439],[29.1938911,36.8823365],[29.1999124,36.8880749],[29.2049089,36.8966816],[29.2084961,36.9095899],[29.2330941,36.91717],[29.2560265,36.9173748],[29.2685817,36.9132776],[29.2785747,36.9185015],[29.2790871,36.9211646],[29.2831868,36.9222912],[29.2898487,36.921267],[29.299073,36.9174773],[29.3097064,36.9192185],[29.3200837,36.9155311],[29.3257207,36.9179894],[29.3254645,36.9242372],[29.3290517,36.9266952],[29.331614,36.9185015],[29.3366105,36.9175797],[29.3369948,36.921984],[29.3408382,36.9250565],[29.3451584,36.9261416]]]}},{"type":"Feature","properties":{"code":"20-10","provinceCode":"20","name":"Çardak"},"geometry":{"type":"Polygon","coordinates":[[[29.8970523,37.7774879],[29.8957542,37.8008886],[29.8906435,37.8071856],[29.8868858,37.8254386],[29.7702514,37.8125987],[29.7474416,37.8215969],[29.7418215,37.8582439],[29.7352292,37.8631011],[29.7045421,37.872527],[29.6976929,37.8789011],[29.6799711,37.879343],[29.6718227,37.8702516],[29.6618251,37.865562],[29.6557396,37.8503471],[29.6426993,37.8421091],[29.6361791,37.8294072],[29.6276304,37.8203657],[29.6247326,37.8080034],[29.6302385,37.8026229],[29.6329915,37.7950666],[29.6442931,37.7838452],[29.6613661,37.7848785],[29.6791705,37.7791326],[29.6748477,37.7547038],[29.6527516,37.7465411],[29.6398924,37.7452521],[29.6311989,37.7396665],[29.6264898,37.7325049],[29.6232298,37.7216178],[29.6156229,37.7130216],[29.6145362,37.7034214],[29.6208753,37.69296],[29.6190641,37.6883737],[29.6139929,37.6856505],[29.6129062,37.6730363],[29.6054804,37.67576],[29.598598,37.6763334],[29.5913534,37.6807771],[29.5947946,37.6899503],[29.5904478,37.6931033],[29.5600204,37.7019884],[29.5573036,37.6958263],[29.5509646,37.6895203],[29.5420899,37.6895203],[29.5341208,37.6912402],[29.5306796,37.6895203],[29.528144,37.6855072],[29.5194504,37.6812071],[29.5138359,37.671316],[29.5104888,37.6535485],[29.5215895,37.6489868],[29.5283303,37.6478007],[29.5376925,37.6421668],[29.5462249,37.6416696],[29.5499223,37.6388015],[29.551761,37.6285682],[29.5438095,37.6186594],[29.5431398,37.6085873],[29.5509956,37.6059042],[29.5729968,37.6096126],[29.5835293,37.617585],[29.6015089,37.6181591],[29.6144474,37.6210085],[29.6230659,37.6340914],[29.6519221,37.6280274],[29.6672558,37.6176508],[29.6777758,37.61527],[29.684689,37.6102699],[29.6940067,37.6102699],[29.7102376,37.6074125],[29.7267691,37.6188413],[29.7306766,37.6233646],[29.7249657,37.6297921],[29.7003187,37.6457395],[29.6937062,37.6469294],[29.6831861,37.6552586],[29.6795792,37.6671558],[29.6864924,37.6776238],[29.6864924,37.6861874],[29.7021222,37.7078299],[29.6946079,37.7171034],[29.7081336,37.7152012],[29.7306766,37.7094945],[29.7426995,37.7109212],[29.7475087,37.7144879],[29.7601327,37.7071165],[29.7643407,37.6940365],[29.7733579,37.6959392],[29.7865831,37.6942744],[29.8043169,37.685236],[29.8202472,37.6854738],[29.8313684,37.6949879],[29.8373799,37.7061653],[29.8454953,37.7297038],[29.8566165,37.7384991],[29.8632291,37.7411138],[29.8662348,37.7491947],[29.8719457,37.7513336],[29.8737492,37.7567995],[29.8881766,37.7646411],[29.8965927,37.7727195],[29.8970523,37.7774879]]]}},{"type":"Feature","properties":{"code":"20-11","provinceCode":"20","name":"Çivril"},"geometry":{"type":"Polygon","coordinates":[[[29.612808,38.4096113],[29.6166914,38.4012165],[29.6117368,38.3959693],[29.6137454,38.3886225],[29.6189678,38.3836893],[29.622985,38.3840042],[29.6367775,38.3748716],[29.6484275,38.3746616],[29.6457493,38.363323],[29.6399913,38.361748],[29.6298143,38.3552378],[29.6228511,38.3527176],[29.6150845,38.3457865],[29.6145488,38.3423207],[29.6264666,38.336439],[29.624458,38.3325526],[29.6249936,38.3270903],[29.6174948,38.3226782],[29.624458,38.3073385],[29.6249936,38.3004031],[29.6319569,38.2909447],[29.6239224,38.2895784],[29.6185661,38.2870558],[29.6078535,38.2546759],[29.6136115,38.2488922],[29.6144149,38.2440546],[29.6210369,38.2352365],[29.6218847,38.2309079],[29.6184935,38.2254135],[29.5989943,38.2124251],[29.5883969,38.2067628],[29.5777995,38.2069293],[29.5564458,38.1992679],[29.5405497,38.1909393],[29.5315419,38.1803189],[29.514851,38.1799024],[29.5100821,38.172613],[29.5140562,38.1651146],[29.5161756,38.1521988],[29.5216333,38.1551154],[29.5254484,38.1552821],[29.5366816,38.1626149],[29.5375294,38.1667809],[29.5400728,38.1692805],[29.5566047,38.1584486],[29.5623273,38.1581153],[29.5644468,38.1549488],[29.5763159,38.158282],[29.5900925,38.1547821],[29.5951793,38.1519488],[29.5898806,38.150282],[29.5862774,38.1444482],[29.6000541,38.1301116],[29.600266,38.1251099],[29.5926359,38.1167728],[29.600478,38.113938],[29.608532,38.116606],[29.6235803,38.1177733],[29.6278193,38.1122704],[29.6324821,38.0864178],[29.6307865,38.076241],[29.6346016,38.0680653],[29.636933,38.0510433],[29.6309985,38.0460361],[29.6259117,38.0460361],[29.6494379,38.0218298],[29.6681494,38.0154021],[29.6723341,38.0123171],[29.6765233,38.0054682],[29.67702,38.0005757],[29.6837256,37.988441],[29.6951891,37.9877381],[29.6999698,37.9850487],[29.7028988,37.9854845],[29.7070459,37.979505],[29.7101392,37.9793522],[29.7247042,37.9862879],[29.7401022,37.9858964],[29.745566,37.9878538],[29.7448209,37.9949001],[29.7631992,38.0177957],[29.7708982,38.0219044],[29.7785566,38.0360475],[29.8024393,38.0453784],[29.8117676,38.0506935],[29.8140598,38.0603923],[29.8120447,38.070631],[29.8410232,38.0756454],[29.8474276,38.0733807],[29.863375,38.0818633],[29.8937984,38.0931607],[29.8853668,38.0971097],[29.8702176,38.1155617],[29.8671318,38.1357952],[29.874205,38.137965],[29.8850134,38.1504655],[29.8994776,38.1584648],[29.9120344,38.1620891],[29.9293597,38.170212],[29.9583936,38.1637359],[29.9520039,38.152236],[29.9581291,38.1413404],[29.9724344,38.1480906],[29.9686483,38.1349431],[29.9993449,38.1414641],[30.0019415,38.1517142],[30.000948,38.1625157],[30.0033716,38.1686913],[29.9988677,38.1771398],[30.0047006,38.1795639],[30.0096677,38.1837807],[30.0174164,38.1845616],[30.0175312,38.1903443],[30.0199993,38.1950242],[30.0580578,38.184182],[30.0719765,38.1894002],[30.08002,38.1978189],[30.0763187,38.2111817],[30.0765616,38.21929],[30.0843492,38.2248335],[30.0929783,38.235894],[30.0852879,38.2517733],[30.0643409,38.2792412],[30.0543895,38.288187],[30.0364806,38.2960521],[30.0245128,38.2973569],[30.019017,38.3029901],[30.0038524,38.3047543],[29.9911354,38.3114133],[29.9902876,38.3205595],[29.9697287,38.3381835],[29.9796902,38.3459966],[29.9830814,38.3564681],[29.9841391,38.3686294],[29.9795001,38.3749578],[29.9931416,38.3879444],[30.0059384,38.392377],[30.0055947,38.404135],[29.9781627,38.4210296],[29.9666626,38.4114148],[29.9320539,38.4094307],[29.9007051,38.4250509],[29.8952346,38.4387167],[29.8909532,38.444614],[29.8852568,38.447652],[29.8855932,38.4544877],[29.8811858,38.4594829],[29.873535,38.4629123],[29.8653178,38.461088],[29.8460459,38.4631163],[29.8342817,38.4709478],[29.8142623,38.4740857],[29.804445,38.4671142],[29.797203,38.4594401],[29.7840622,38.459938],[29.7571448,38.4579464],[29.7535417,38.4620955],[29.7406878,38.4655822],[29.7297074,38.4636949],[29.7126339,38.4644082],[29.6762803,38.4592255],[29.6565959,38.4344751],[29.6690493,38.4254538],[29.6702545,38.420628],[29.6662372,38.41811],[29.6544534,38.4251391],[29.6469545,38.4226213],[29.6268684,38.4233557],[29.6182983,38.4209427],[29.612808,38.4096113]]]}},{"type":"Feature","properties":{"code":"20-12","provinceCode":"20","name":"Güney"},"geometry":{"type":"Polygon","coordinates":[[[28.8953543,38.2443507],[28.8989086,38.2435377],[28.9004864,38.2368181],[28.9089151,38.2293888],[28.908392,38.2247559],[28.9131759,38.2160393],[28.9106194,38.212254],[28.9108219,38.2017458],[28.9092189,38.199213],[28.9127962,38.1950622],[28.9110329,38.1884443],[28.9141293,38.1867267],[28.9141299,38.1850966],[28.9121996,38.1827065],[28.9175726,38.1801528],[28.9213541,38.1749747],[28.9226722,38.167931],[28.9200672,38.1590238],[28.9269768,38.1511739],[28.9248875,38.1470181],[28.9273271,38.145675],[28.9283029,38.1420295],[28.9244036,38.1380465],[28.9255014,38.1338249],[28.9212321,38.1287396],[28.9331863,38.1236538],[28.9422129,38.1228861],[28.9468482,38.1250932],[28.9608762,38.1273962],[28.9638037,38.1261488],[28.961608,38.1235579],[28.9634378,38.105707],[28.9678291,38.0931319],[28.9858824,38.0841073],[28.9889018,38.0806975],[28.9893367,38.0769722],[28.9826855,38.0707293],[28.9830437,38.0620086],[28.9764052,38.0561545],[28.9833987,38.0560291],[29.0001721,38.0471718],[29.0214842,38.0414217],[29.0240496,38.0436752],[29.022921,38.0502083],[29.0282234,38.0562514],[29.0584331,38.0638871],[29.0605959,38.0702038],[29.064154,38.0668533],[29.0886427,38.0698194],[29.1054613,38.0679691],[29.122136,38.0695226],[29.12036,38.0749598],[29.1173507,38.0756589],[29.1215934,38.0847846],[29.1306214,38.0919679],[29.1442814,38.1078239],[29.1502815,38.1117215],[29.1514327,38.115564],[29.1574676,38.1181439],[29.1598397,38.1172931],[29.1788623,38.1216331],[29.1775507,38.1323377],[29.1822994,38.1316845],[29.1884547,38.1331586],[29.1928656,38.1316182],[29.1974757,38.1339376],[29.2000332,38.1390562],[29.2045467,38.1409728],[29.2041261,38.1439103],[29.2085238,38.1449263],[29.2113064,38.1481777],[29.2109182,38.1524157],[29.2075939,38.1539396],[29.2067923,38.1658584],[29.1880917,38.1772316],[29.1825774,38.1858313],[29.1854453,38.1930518],[29.1833375,38.1964974],[29.1819836,38.2147799],[29.1728207,38.214522],[29.1647677,38.2230191],[29.1597515,38.2223179],[29.1548907,38.2266301],[29.1456082,38.2275337],[29.1366263,38.2261646],[29.1248364,38.2350592],[29.1147668,38.2345744],[29.1038339,38.2365224],[29.0948904,38.230268],[29.0820627,38.2378242],[29.0776589,38.23402],[29.0621006,38.2292134],[29.0450495,38.2192873],[29.0336876,38.2285874],[29.0356564,38.2359585],[29.0231063,38.2342291],[29.0183758,38.2351019],[29.0115626,38.2304463],[29.0118459,38.2373442],[29.0086108,38.2394832],[29.0018603,38.2400142],[28.9948492,38.2431847],[28.97805,38.2406045],[28.9731993,38.2435505],[28.971686,38.2427168],[28.9725214,38.2361753],[28.9752602,38.2312245],[28.9659122,38.2316947],[28.9609321,38.2353664],[28.9526939,38.2342967],[28.9500007,38.2303899],[28.9446199,38.2304193],[28.9415249,38.2313094],[28.938165,38.2353409],[28.9309058,38.2363345],[28.9249304,38.241404],[28.9177068,38.2435176],[28.9103625,38.2480927],[28.8953543,38.2443507]]]}},{"type":"Feature","properties":{"code":"20-13","provinceCode":"20","name":"Honaz"},"geometry":{"type":"Polygon","coordinates":[[[29.3946963,37.6479918],[29.4030638,37.6561026],[29.405498,37.6547685],[29.4105536,37.6467629],[29.4107408,37.6436494],[29.4083066,37.6406841],[29.4084939,37.6350496],[29.4142985,37.6346047],[29.4266566,37.6300078],[29.4318994,37.6338633],[29.4393892,37.6328253],[29.4483769,37.6267453],[29.4571774,37.6371255],[29.4652289,37.6420185],[29.4747784,37.6518035],[29.4752582,37.6623556],[29.4779749,37.666836],[29.4840876,37.6716744],[29.4840876,37.6763334],[29.4895211,37.6849338],[29.4815973,37.6904878],[29.4815973,37.7032064],[29.4784277,37.7058932],[29.4700511,37.7069679],[29.4637121,37.7096545],[29.4829556,37.7128784],[29.4800125,37.7306069],[29.4825028,37.7393801],[29.4858988,37.7422445],[29.4847668,37.7554913],[29.476843,37.7599661],[29.4720887,37.7703464],[29.4750318,37.7748202],[29.4888419,37.7864509],[29.4951809,37.7885979],[29.4865779,37.8127474],[29.4825028,37.8134629],[29.4811445,37.8225839],[29.4623537,37.8204378],[29.4580522,37.8157879],[29.4526187,37.8190071],[29.433828,37.8433255],[29.4374503,37.8463647],[29.4431102,37.846901],[29.4521659,37.852264],[29.4637121,37.8617377],[29.4748054,37.8651336],[29.4845896,37.8612425],[29.4965393,37.861559],[29.4926906,37.8690656],[29.4904266,37.8788945],[29.4915586,37.8912235],[29.4838612,37.8930101],[29.4791069,37.8965832],[29.4755164,37.9044112],[29.4711229,37.9042255],[29.4655525,37.9010682],[29.4560593,37.8904812],[29.4514147,37.8971184],[29.4391755,37.8952363],[29.4382968,37.8909766],[29.431879,37.8824657],[29.4094209,37.8631121],[29.4020656,37.8509554],[29.3891203,37.8539754],[29.3844129,37.8569953],[29.3754885,37.8541303],[29.3713696,37.8551369],[29.3623471,37.852659],[29.3386141,37.8545949],[29.3239035,37.8607119],[29.320471,37.8639638],[29.3198826,37.8734863],[29.3235112,37.8836268],[29.3200358,37.8922177],[29.313022,37.8879791],[29.3118221,37.8817399],[29.3077728,37.8755395],[29.3080642,37.8710553],[29.3040674,37.8646823],[29.3039668,37.8604444],[29.2970322,37.8614087],[29.2935017,37.8655122],[29.2886476,37.8660392],[29.2854201,37.8628895],[29.2816018,37.8599914],[29.2814647,37.8529838],[29.2780599,37.8532094],[29.2739246,37.8473961],[29.2717593,37.8483148],[29.2719459,37.8464243],[29.2683102,37.8459714],[29.26972,37.8442544],[29.2673162,37.8439552],[29.2657815,37.8405271],[29.266965,37.8399476],[29.2456096,37.8197824],[29.2530451,37.8007594],[29.2370221,37.7830964],[29.2142667,37.7783075],[29.1890877,37.7799038],[29.1785852,37.778946],[29.1804702,37.763726],[29.1769694,37.7634067],[29.1783159,37.7522291],[29.1799316,37.7488223],[29.1931271,37.7425406],[29.2010713,37.7414758],[29.2114391,37.744883],[29.2321748,37.7422211],[29.244293,37.7114433],[29.2441584,37.7028147],[29.2473899,37.7005775],[29.3040234,37.7062183],[29.3211108,37.689506],[29.3315413,37.6858755],[29.3564924,37.6871075],[29.3653178,37.6845466],[29.3731135,37.6807052],[29.3776733,37.6759322],[29.3878225,37.6726724],[29.3931177,37.6689467],[29.3966479,37.6630086],[29.3973833,37.6587002],[29.3940003,37.6541587],[29.3946963,37.6479918]]]}},{"type":"Feature","properties":{"code":"20-14","provinceCode":"20","name":"Kale"},"geometry":{"type":"Polygon","coordinates":[[[28.6137621,37.4861167],[28.619286,37.4776205],[28.6238112,37.4777225],[28.6240086,37.4748144],[28.6258116,37.4743341],[28.6272388,37.4774168],[28.6286351,37.4771915],[28.6270197,37.4693856],[28.6292943,37.4690907],[28.6309485,37.4623214],[28.6295281,37.4533248],[28.6211619,37.4472656],[28.6230656,37.4440503],[28.6189915,37.4406546],[28.6156505,37.4286681],[28.6174496,37.4223733],[28.6254683,37.4179966],[28.6270775,37.4143752],[28.627871,37.4102972],[28.6245124,37.40458],[28.6271239,37.3977734],[28.6335335,37.3941574],[28.6315883,37.3905325],[28.6407961,37.3839025],[28.6344222,37.3835855],[28.6396419,37.3786068],[28.6440187,37.3789973],[28.6440947,37.3743283],[28.6401996,37.3742177],[28.6400564,37.3719564],[28.6458929,37.3656808],[28.6493262,37.3684094],[28.6503561,37.3715471],[28.6543043,37.3737299],[28.6587675,37.3719564],[28.666149,37.3730478],[28.6750754,37.3678637],[28.6800535,37.3678637],[28.6896666,37.3633614],[28.6974111,37.3658987],[28.7009962,37.3656808],[28.7073477,37.3598139],[28.708206,37.3562663],[28.7160127,37.3512789],[28.7153156,37.3459466],[28.7175756,37.3428047],[28.7173476,37.3379268],[28.722435,37.3343278],[28.7281187,37.3348406],[28.7271209,37.3321091],[28.7341658,37.3266104],[28.7407347,37.323821],[28.7403683,37.3169667],[28.7365713,37.3146191],[28.7374366,37.3028435],[28.7332144,37.2997548],[28.7351568,37.2936097],[28.7341269,37.2923806],[28.7301787,37.2929269],[28.729492,37.2916978],[28.7320669,37.2843227],[28.7382468,37.2779032],[28.7348135,37.2735321],[28.7364976,37.2704529],[28.7405734,37.2672824],[28.7482548,37.268426],[28.7529783,37.2665667],[28.7651918,37.2687495],[28.7720114,37.2731147],[28.7745317,37.279249],[28.7865402,37.282316],[28.8035892,37.2967056],[28.808185,37.3061399],[28.8224173,37.3063758],[28.8421349,37.3121537],[28.8496958,37.3105029],[28.8582945,37.3119178],[28.862742,37.3142761],[28.872675,37.3251229],[28.8781603,37.3275986],[28.8840904,37.3339642],[28.8932821,37.3347894],[28.90025,37.3286595],[28.9064766,37.3198176],[28.9247117,37.3059041],[28.9521384,37.3061399],[28.9541999,37.3049681],[28.965418,37.3049681],[28.9803755,37.3074017],[28.9761262,37.3192979],[28.9737466,37.342544],[28.983265,37.3591633],[28.9807154,37.3632163],[28.9718769,37.3687549],[28.9689874,37.3861787],[28.9640582,37.389555],[28.9696673,37.3967121],[28.9598089,37.400628],[28.9453614,37.4027884],[28.9406022,37.4130494],[28.9152764,37.4062989],[28.9168062,37.429923],[28.9140866,37.4318126],[28.9020187,37.4307328],[28.8800924,37.4334322],[28.8743133,37.4385608],[28.8726136,37.4416648],[28.8809422,37.4490868],[28.8743133,37.4544842],[28.8758431,37.478228],[28.8727836,37.4868603],[28.8816221,37.4965704],[28.8812822,37.5025037],[28.8772028,37.50965],[28.8726136,37.5123466],[28.8687043,37.5185483],[28.8568063,37.5200312],[28.8496675,37.5184135],[28.8440584,37.5193572],[28.8454182,37.5254235],[28.8375995,37.5267715],[28.8325004,37.516526],[28.8200925,37.5101893],[28.8161831,37.511268],[28.816693,37.5157171],[28.8126137,37.5174698],[28.8078545,37.5266367],[28.8030953,37.5287934],[28.8034353,37.5313545],[28.8178828,37.5353981],[28.8180528,37.5398458],[28.8143134,37.5436194],[28.8095542,37.5424065],[28.804795,37.5460452],[28.8005457,37.5583078],[28.7957865,37.5611373],[28.7920472,37.5666613],[28.7706308,37.576361],[28.7699509,37.5828268],[28.7641719,37.5847125],[28.7527487,37.5923732],[28.7643747,37.5995455],[28.7509539,37.6086291],[28.7477666,37.6089145],[28.7388228,37.6046273],[28.7226538,37.6069709],[28.7191819,37.6053074],[28.7134463,37.5962189],[28.7075597,37.593229],[28.6960884,37.5903586],[28.6906546,37.5852156],[28.6926168,37.5724161],[28.6776739,37.5577001],[28.6716364,37.553512],[28.6633348,37.5529137],[28.6563916,37.5490844],[28.6514107,37.542622],[28.6428072,37.5460926],[28.6317887,37.5477681],[28.6150346,37.542263],[28.6037142,37.5421433],[28.5707065,37.5312561],[28.5690471,37.5265307],[28.5747281,37.5242299],[28.5781209,37.5244973],[28.5854222,37.5197728],[28.5887088,37.5220918],[28.588449,37.5200331],[28.5928361,37.5198815],[28.5927523,37.5173431],[28.5955259,37.5165874],[28.5944015,37.5131992],[28.5962699,37.5117581],[28.5995857,37.5136763],[28.6052243,37.5045571],[28.6025621,37.5015483],[28.6062639,37.5001835],[28.6043821,37.4967184],[28.6052142,37.4937284],[28.6088237,37.4928645],[28.6142077,37.4881907],[28.6137621,37.4861167]]]}},{"type":"Feature","properties":{"code":"20-15","provinceCode":"20","name":"Merkezefendi"},"geometry":{"type":"Polygon","coordinates":[[[28.9044737,37.7135821],[28.9841173,37.7009431],[29.0052608,37.6933543],[29.0168733,37.6909857],[29.0264388,37.6916782],[29.0305308,37.6897421],[29.0446222,37.689612],[29.0452294,37.6929724],[29.0432309,37.6973378],[29.0469984,37.7032996],[29.047417,37.7146147],[29.0495101,37.717595],[29.0632544,37.7253762],[29.0659754,37.7315013],[29.0654427,37.7327206],[29.0611986,37.7325887],[29.0608831,37.7358977],[29.0625576,37.7457183],[29.0661027,37.7486138],[29.0558151,37.7530743],[29.057395,37.7653074],[29.0625096,37.7684739],[29.0701164,37.7665932],[29.0758456,37.7627341],[29.0802044,37.7677576],[29.0849818,37.7695149],[29.0874216,37.7734936],[29.0844158,37.7806151],[29.0854732,37.7830929],[29.0904591,37.7865898],[29.0952578,37.7832532],[29.0973963,37.7837156],[29.1097126,37.8094959],[29.1140349,37.8151481],[29.1217111,37.8183874],[29.1290213,37.8188323],[29.1283501,37.8202088],[29.1343825,37.8258788],[29.1307072,37.8248462],[29.1202238,37.8307204],[29.1204756,37.8328352],[29.0947598,37.840019],[29.0871643,37.8434585],[29.0780355,37.848533],[29.0714601,37.8547832],[29.0811157,37.8566093],[29.088401,37.8642227],[29.0946781,37.8677275],[29.0971499,37.8752243],[29.0948766,37.8786231],[29.1003076,37.883486],[29.0994078,37.8849195],[29.1013979,37.8886251],[29.1072647,37.8949299],[29.0943662,37.9019611],[29.0888511,37.9130453],[29.0553449,37.9130829],[29.0512821,37.9184305],[29.036528,37.9139248],[29.0312688,37.9164969],[29.0337274,37.9236053],[29.0202509,37.9272828],[29.0099017,37.9184417],[28.9953127,37.9273933],[28.992886,37.9216366],[28.9885871,37.8995598],[29.0089068,37.8908248],[29.0107037,37.8912191],[29.0071547,37.8823799],[28.992323,37.8633156],[28.98969,37.862454],[28.9836869,37.8467579],[28.9912429,37.8369186],[29.0006361,37.8340533],[28.9969857,37.829986],[28.9833014,37.831112],[28.9761789,37.8258512],[28.966531,37.8227168],[28.9565317,37.8235631],[28.9421918,37.8278312],[28.9460548,37.8057703],[28.9383449,37.8018287],[28.9361992,37.7980647],[28.9336477,37.79754],[28.9239007,37.7881978],[28.9174521,37.78421],[28.9096829,37.7735933],[28.9051067,37.7561131],[28.9044737,37.7135821]]]}},{"type":"Feature","properties":{"code":"20-16","provinceCode":"20","name":"Pamukkale"},"geometry":{"type":"Polygon","coordinates":[[[29.3211108,37.689506],[29.3040234,37.7062183],[29.2473899,37.7005775],[29.2441584,37.7028147],[29.244293,37.7114433],[29.2321748,37.7422211],[29.2114391,37.744883],[29.2010713,37.7414758],[29.1931271,37.7425406],[29.1799316,37.7488223],[29.1783159,37.7522291],[29.1769694,37.7634067],[29.1804702,37.763726],[29.1785852,37.778946],[29.1890877,37.7799038],[29.2142667,37.7783075],[29.2370221,37.7830964],[29.2530451,37.8007594],[29.2456096,37.8197824],[29.266965,37.8399476],[29.2657815,37.8405271],[29.2673162,37.8439552],[29.26972,37.8442544],[29.2683102,37.8459714],[29.2719459,37.8464243],[29.2717593,37.8483148],[29.2739246,37.8473961],[29.2780599,37.8532094],[29.2814647,37.8529838],[29.2816018,37.8599914],[29.2854201,37.8628895],[29.281081,37.8657341],[29.2821283,37.8683836],[29.265837,37.877508],[29.2679597,37.8851742],[29.2677554,37.8871525],[29.2650739,37.8886781],[29.2708542,37.9025852],[29.2677024,37.9090308],[29.2705326,37.9111116],[29.2705969,37.9131922],[29.2675094,37.9141057],[29.2672521,37.9173534],[29.2709186,37.9215144],[29.2647258,37.9293946],[29.267942,37.9405558],[29.2667842,37.9472517],[29.2602231,37.9567872],[29.2577788,37.9685528],[29.2516038,37.9752461],[29.2534048,37.9929907],[29.2463292,38.0009997],[29.2455573,38.0072846],[29.248858,38.0157466],[29.2485162,38.0288709],[29.2513488,38.0322595],[29.2541791,38.0304862],[29.2564304,38.021467],[29.2595179,38.0269395],[29.2625411,38.0252674],[29.2606114,38.0296249],[29.2630557,38.0297262],[29.261126,38.0313475],[29.263313,38.0322089],[29.2615763,38.0335261],[29.2644709,38.035806],[29.2666579,38.035958],[29.2671081,38.0340328],[29.2692951,38.035958],[29.2745697,38.0333235],[29.2764994,38.0368699],[29.2748913,38.0544983],[29.2657573,38.064425],[29.2581671,38.0664507],[29.2494834,38.0728819],[29.2424722,38.0728313],[29.241057,38.0740972],[29.2399635,38.0730845],[29.2370047,38.0738947],[29.2366187,38.0769328],[29.2209237,38.0776417],[29.2151989,38.0803759],[29.2113304,38.0977016],[29.1958126,38.1004821],[29.2011603,38.1072075],[29.1995368,38.110739],[29.1826343,38.1209194],[29.1788623,38.1216331],[29.1598397,38.1172931],[29.1574676,38.1181439],[29.1514327,38.115564],[29.1502815,38.1117215],[29.1442814,38.1078239],[29.1306214,38.0919679],[29.1215934,38.0847846],[29.1173507,38.0756589],[29.12036,38.0749598],[29.122136,38.0695226],[29.1054613,38.0679691],[29.0886427,38.0698194],[29.064154,38.0668533],[29.0605959,38.0702038],[29.0584331,38.0638871],[29.0282234,38.0562514],[29.022921,38.0502083],[29.0240496,38.0436752],[29.0214842,38.0414217],[29.0001721,38.0471718],[28.9833987,38.0560291],[28.9764052,38.0561545],[28.9683026,38.0393236],[28.980636,38.0333398],[28.9888521,38.026365],[29.0017055,38.0259702],[29.011194,38.0164068],[29.0118219,38.0021693],[29.0169847,37.9981559],[29.0140545,37.9959017],[29.0011473,37.9963965],[29.0069381,37.9935375],[29.003659,37.9847947],[28.994938,37.9773157],[29.0002403,37.973521],[29.0024729,37.9791305],[29.0249383,37.9866643],[29.0342872,37.973026],[29.03045,37.970716],[29.0339673,37.9656975],[29.047978,37.9582295],[29.0434393,37.9495938],[29.0375479,37.9290466],[29.0337274,37.9236053],[29.0312688,37.9164969],[29.036528,37.9139248],[29.0512821,37.9184305],[29.0553449,37.9130829],[29.0888511,37.9130453],[29.0943662,37.9019611],[29.1072647,37.8949299],[29.1013979,37.8886251],[29.0994078,37.8849195],[29.1003076,37.883486],[29.0948766,37.8786231],[29.0971499,37.8752243],[29.0946781,37.8677275],[29.088401,37.8642227],[29.0811157,37.8566093],[29.0714601,37.8547832],[29.0780355,37.848533],[29.0871643,37.8434585],[29.0947598,37.840019],[29.1204756,37.8328352],[29.1202238,37.8307204],[29.1307072,37.8248462],[29.1343825,37.8258788],[29.1283501,37.8202088],[29.1290213,37.8188323],[29.1217111,37.8183874],[29.1140349,37.8151481],[29.1097126,37.8094959],[29.0973963,37.7837156],[29.0952578,37.7832532],[29.0904591,37.7865898],[29.0854732,37.7830929],[29.0844158,37.7806151],[29.0874216,37.7734936],[29.0849818,37.7695149],[29.0802044,37.7677576],[29.0758456,37.7627341],[29.0701164,37.7665932],[29.0625096,37.7684739],[29.057395,37.7653074],[29.0558151,37.7530743],[29.0661027,37.7486138],[29.0625576,37.7457183],[29.0608831,37.7358977],[29.0611986,37.7325887],[29.0654427,37.7327206],[29.0659754,37.7315013],[29.0632544,37.7253762],[29.0495101,37.717595],[29.047417,37.7146147],[29.0469984,37.7032996],[29.0432309,37.6973378],[29.0452294,37.6929724],[29.0446222,37.689612],[29.0510799,37.6881919],[29.0587266,37.6834288],[29.0606507,37.6770256],[29.066916,37.672457],[29.0764867,37.6702703],[29.0786574,37.6710513],[29.0802361,37.6685131],[29.0868468,37.6666777],[29.0968122,37.6699189],[29.1044589,37.6753466],[29.1121056,37.675737],[29.1157563,37.6806177],[29.1201963,37.6819842],[29.1243896,37.6814376],[29.1307537,37.6890898],[29.1363284,37.6903781],[29.1469351,37.6837802],[29.1455044,37.6769084],[29.1473791,37.6702313],[29.1555685,37.6685912],[29.1580845,37.6657795],[29.1630178,37.6660919],[29.1676059,37.6638269],[29.1822579,37.6622257],[29.1912366,37.6638659],[29.1954793,37.6670682],[29.2005113,37.665389],[29.2058394,37.6681616],[29.2101349,37.6671288],[29.2199288,37.6513261],[29.2257151,37.6490561],[29.2314932,37.6496866],[29.2389384,37.642989],[29.2790906,37.6673959],[29.3127151,37.6783989],[29.3211108,37.689506]]]}},{"type":"Feature","properties":{"code":"20-17","provinceCode":"20","name":"Sarayköy"},"geometry":{"type":"Polygon","coordinates":[[[28.9421918,37.8278312],[28.9565317,37.8235631],[28.966531,37.8227168],[28.9761789,37.8258512],[28.9833014,37.831112],[28.9969857,37.829986],[29.0006361,37.8340533],[28.9912429,37.8369186],[28.9836869,37.8467579],[28.98969,37.862454],[28.992323,37.8633156],[29.0071547,37.8823799],[29.0107037,37.8912191],[29.0089068,37.8908248],[28.9885871,37.8995598],[28.992886,37.9216366],[28.9953127,37.9273933],[29.0099017,37.9184417],[29.0202509,37.9272828],[29.0337274,37.9236053],[29.0375479,37.9290466],[29.0434393,37.9495938],[29.047978,37.9582295],[29.0339673,37.9656975],[29.03045,37.970716],[29.0342872,37.973026],[29.0249383,37.9866643],[29.0024729,37.9791305],[29.0002403,37.973521],[28.994938,37.9773157],[29.003659,37.9847947],[29.0069381,37.9935375],[29.0011473,37.9963965],[29.0140545,37.9959017],[29.0169847,37.9981559],[29.0118219,38.0021693],[29.011194,38.0164068],[29.0017055,38.0259702],[28.9888521,38.026365],[28.9839273,38.0187291],[28.9741451,38.0123187],[28.96546,38.0029542],[28.9639058,37.9968307],[28.9692083,37.9896979],[28.9652771,37.9891215],[28.955495,37.9993522],[28.9368448,37.9966145],[28.921943,37.9815556],[28.9186518,37.9865996],[28.9149949,37.9889053],[28.9103323,37.9893376],[28.9045727,37.9870319],[28.8937849,37.9903464],[28.8849169,38.0021618],[28.8781517,38.0057637],[28.8743119,38.0054756],[28.8717521,37.9993522],[28.8690094,37.9995683],[28.8631584,38.008501],[28.8512735,38.0175767],[28.8456053,38.0140474],[28.8427712,38.0038187],[28.847708,38.0004328],[28.8476166,37.9930122],[28.8505421,37.9852305],[28.8558446,37.980835],[28.8551132,37.9784569],[28.8441894,37.9766987],[28.8454106,37.9612339],[28.8411123,37.9570328],[28.8413659,37.9448947],[28.8393268,37.9425229],[28.8329639,37.9436779],[28.8323726,37.9398668],[28.8276332,37.937171],[28.8283994,37.9334609],[28.8249302,37.9335151],[28.8232377,37.9365219],[28.8213536,37.9358781],[28.8193934,37.9330755],[28.8198314,37.9299576],[28.8164792,37.9327244],[28.8140592,37.9287317],[28.8107967,37.9302036],[28.8084478,37.9346707],[28.8049979,37.9327072],[28.794046,37.9378315],[28.7864588,37.9372752],[28.780985,37.9407014],[28.7775386,37.9458632],[28.7756271,37.9447897],[28.7762643,37.9418891],[28.773085,37.9409622],[28.7704719,37.9448354],[28.7671993,37.9465712],[28.7637528,37.9460231],[28.7618993,37.9480557],[28.7548037,37.9473934],[28.7505752,37.9453379],[28.737935,37.949081],[28.7375864,37.9445566],[28.7403657,37.9407498],[28.7398194,37.93729],[28.7471403,37.9182759],[28.737141,37.901934],[28.7408908,37.8953117],[28.7455333,37.8923525],[28.7442834,37.8889706],[28.7482117,37.8800921],[28.7479022,37.8588519],[28.7460795,37.8499843],[28.7401727,37.8356791],[28.7448895,37.8274831],[28.7505497,37.8239064],[28.7439461,37.8163054],[28.7444013,37.8136181],[28.7560799,37.8109817],[28.7679076,37.8061694],[28.7726447,37.8011439],[28.7860077,37.8036732],[28.79315,37.8131251],[28.7935071,37.8208832],[28.8042207,37.8253967],[28.8101132,37.8262429],[28.820291,37.8385123],[28.8193982,37.8424606],[28.8293976,37.8469728],[28.8379684,37.8476778],[28.8479677,37.8512026],[28.8554672,37.8496517],[28.8620739,37.8520486],[28.8695734,37.8520486],[28.8761801,37.8462678],[28.8836796,37.8493697],[28.8858223,37.8568421],[28.8913576,37.8592387],[28.8977857,37.8684016],[28.9038568,37.8819324],[28.9081422,37.8779862],[28.9076065,37.8692474],[28.9206413,37.8738988],[28.9243911,37.8801003],[28.9313549,37.8775634],[28.9409971,37.8796774],[28.9445683,37.8743216],[28.9502822,37.8729122],[28.9509964,37.8692474],[28.954389,37.8712207],[28.9559961,37.8655824],[28.9618885,37.8610714],[28.9601029,37.8554323],[28.9620671,37.8473958],[28.9602005,37.8382835],[28.9421918,37.8278312]]]}},{"type":"Feature","properties":{"code":"20-18","provinceCode":"20","name":"Serinhisar"},"geometry":{"type":"Polygon","coordinates":[[[29.2389384,37.642989],[29.2417618,37.6271463],[29.2403605,37.6187431],[29.2215437,37.5932106],[29.2205428,37.5855968],[29.2106604,37.5796684],[29.2314008,37.5774194],[29.2400859,37.5711008],[29.2344792,37.5547282],[29.2369653,37.5371822],[29.2269346,37.5281207],[29.2378599,37.5249425],[29.2557639,37.525315],[29.2818565,37.5254579],[29.2886411,37.5335763],[29.2958012,37.5351589],[29.3042296,37.531146],[29.3181509,37.5350017],[29.3250414,37.5392778],[29.3304341,37.5392778],[29.3389724,37.5298938],[29.3382234,37.5354769],[29.3424177,37.5391591],[29.3570977,37.5315494],[29.3614417,37.5315494],[29.3692311,37.5285796],[29.3750731,37.5243029],[29.3836732,37.5398178],[29.3885887,37.553251],[29.3840609,37.5595787],[29.3831621,37.5674155],[29.3872066,37.5772698],[29.3849596,37.5853421],[29.3878057,37.6078926],[29.3863078,37.6195212],[29.3836115,37.6237925],[29.385409,37.6294872],[29.3849596,37.636249],[29.3897531,37.6439592],[29.3946963,37.6479918],[29.3940003,37.6541587],[29.3973833,37.6587002],[29.3966479,37.6630086],[29.3931177,37.6689467],[29.3878225,37.6726724],[29.3776733,37.6759322],[29.3731135,37.6807052],[29.3653178,37.6845466],[29.3564924,37.6871075],[29.3315413,37.6858755],[29.3211108,37.689506],[29.3127151,37.6783989],[29.2790906,37.6673959],[29.2389384,37.642989]]]}},{"type":"Feature","properties":{"code":"20-19","provinceCode":"20","name":"Tavas"},"geometry":{"type":"Polygon","coordinates":[[[29.2389384,37.642989],[29.2314932,37.6496866],[29.2257151,37.6490561],[29.2199288,37.6513261],[29.2101349,37.6671288],[29.2058394,37.6681616],[29.2005113,37.665389],[29.1954793,37.6670682],[29.1912366,37.6638659],[29.1822579,37.6622257],[29.1676059,37.6638269],[29.1630178,37.6660919],[29.1580845,37.6657795],[29.1555685,37.6685912],[29.1473791,37.6702313],[29.1455044,37.6769084],[29.1469351,37.6837802],[29.1363284,37.6903781],[29.1307537,37.6890898],[29.1243896,37.6814376],[29.1201963,37.6819842],[29.1157563,37.6806177],[29.1121056,37.675737],[29.1044589,37.6753466],[29.0968122,37.6699189],[29.0868468,37.6666777],[29.0802361,37.6685131],[29.0786574,37.6710513],[29.0764867,37.6702703],[29.066916,37.672457],[29.0606507,37.6770256],[29.0587266,37.6834288],[29.0510799,37.6881919],[29.0446222,37.689612],[29.0305308,37.6897421],[29.0264388,37.6916782],[29.0168733,37.6909857],[29.0052608,37.6933543],[28.9841173,37.7009431],[28.9044737,37.7135821],[28.8891429,37.7113685],[28.8738271,37.716595],[28.8639294,37.7217618],[28.8550513,37.7228944],[28.8473633,37.7203403],[28.8362334,37.7120739],[28.8311383,37.7062428],[28.8213626,37.7066981],[28.8144857,37.7087415],[28.8096268,37.7073974],[28.8031381,37.6993938],[28.8058061,37.6894815],[28.811649,37.6860153],[28.8082544,37.6800436],[28.7937643,37.6744289],[28.7946932,37.6550763],[28.7911073,37.6514242],[28.7919114,37.6472526],[28.7902808,37.6447496],[28.7844061,37.6426438],[28.7747461,37.6427634],[28.7730858,37.6410901],[28.7742933,37.6385801],[28.7694632,37.632006],[28.7659917,37.6334404],[28.7637276,37.6323646],[28.762822,37.6256703],[28.7584447,37.6228012],[28.7477666,37.6089145],[28.7509539,37.6086291],[28.7643747,37.5995455],[28.7527487,37.5923732],[28.7641719,37.5847125],[28.7699509,37.5828268],[28.7706308,37.576361],[28.7920472,37.5666613],[28.7957865,37.5611373],[28.8005457,37.5583078],[28.804795,37.5460452],[28.8095542,37.5424065],[28.8143134,37.5436194],[28.8180528,37.5398458],[28.8178828,37.5353981],[28.8034353,37.5313545],[28.8030953,37.5287934],[28.8078545,37.5266367],[28.8126137,37.5174698],[28.816693,37.5157171],[28.8161831,37.511268],[28.8200925,37.5101893],[28.8325004,37.516526],[28.8375995,37.5267715],[28.8454182,37.5254235],[28.8440584,37.5193572],[28.8496675,37.5184135],[28.8568063,37.5200312],[28.8687043,37.5185483],[28.8726136,37.5123466],[28.8772028,37.50965],[28.8812822,37.5025037],[28.8816221,37.4965704],[28.8727836,37.4868603],[28.8758431,37.478228],[28.8743133,37.4544842],[28.8809422,37.4490868],[28.8726136,37.4416648],[28.8743133,37.4385608],[28.8800924,37.4334322],[28.9020187,37.4307328],[28.9140866,37.4318126],[28.9168062,37.429923],[28.9152764,37.4062989],[28.9406022,37.4130494],[28.9453614,37.4027884],[28.9598089,37.400628],[28.9696673,37.3967121],[28.9640582,37.389555],[28.9689874,37.3861787],[28.9718769,37.3687549],[28.9807154,37.3632163],[28.983265,37.3591633],[28.9737466,37.342544],[28.9761262,37.3192979],[28.9803755,37.3074017],[28.965418,37.3049681],[28.9541999,37.3049681],[28.9451914,37.2944219],[28.9426418,37.2883369],[28.9360129,37.2863084],[28.9348231,37.2746775],[28.9480809,37.2604746],[28.959299,37.2553338],[28.9659279,37.2542515],[28.9740865,37.2553338],[28.9788457,37.2603393],[28.983265,37.2570925],[28.9841148,37.2545221],[28.9807154,37.2487044],[28.9820752,37.2422097],[28.9939732,37.2388269],[28.9907437,37.227324],[28.9977126,37.2166315],[28.995163,37.2020115],[28.9965228,37.1867116],[29.000942,37.1819721],[29.0051913,37.1546123],[28.995342,37.1513235],[29.0000922,37.1425547],[29.0074009,37.1395738],[29.0074009,37.1449934],[29.0138922,37.1645775],[29.0140005,37.1705529],[29.0271176,37.1941588],[29.0420751,37.199033],[29.0461544,37.2033653],[29.0555028,37.2035007],[29.060432,37.2051253],[29.0578824,37.2076974],[29.0634915,37.2120292],[29.0648513,37.2160901],[29.0815085,37.222587],[29.0852478,37.2300307],[29.0916312,37.2357341],[29.0923111,37.2407409],[29.09877,37.2443943],[29.1019995,37.2488593],[29.128685,37.2480475],[29.1409586,37.2433892],[29.1356717,37.2525407],[29.1348039,37.2615764],[29.1365019,37.2680964],[29.128817,37.2733144],[29.1286453,37.2755331],[29.1351439,37.2855166],[29.1424527,37.2856518],[29.1487416,37.2826766],[29.1507813,37.285787],[29.1628492,37.2921427],[29.1798098,37.2874155],[29.1910301,37.2888732],[29.2014327,37.2982275],[29.2038123,37.3136399],[29.2024526,37.3198581],[29.2092514,37.329725],[29.2165602,37.3363473],[29.2165602,37.3422933],[29.2393363,37.3599935],[29.2434157,37.3762037],[29.2478349,37.3763388],[29.2410361,37.3945711],[29.240688,37.4008428],[29.2465622,37.4111672],[29.251131,37.4153145],[29.2491729,37.4277551],[29.2314415,37.4578113],[29.2204546,37.4557388],[29.228722,37.4611789],[29.2351401,37.4696404],[29.2378596,37.4831079],[29.2490642,37.4932068],[29.2481939,37.49804],[29.2510222,37.5184052],[29.2557639,37.525315],[29.2378599,37.5249425],[29.2269346,37.5281207],[29.2369653,37.5371822],[29.2344792,37.5547282],[29.2400859,37.5711008],[29.2314008,37.5774194],[29.2106604,37.5796684],[29.2205428,37.5855968],[29.2215437,37.5932106],[29.2403605,37.6187431],[29.2417618,37.6271463],[29.2389384,37.642989]]]}}]}