{"type":"FeatureCollection","features":[{"type":"Feature","properties":{"code":"08-01","provinceCode":"08","name":"Ardanuç"},"geometry":{"type":"Polygon","coordinates":[[[42.3388563,40.9320536],[42.3396562,40.9379257],[42.3518279,40.9449936],[42.3626239,40.9553273],[42.3763413,40.9950234],[42.3724337,41.0149614],[42.3593904,41.0631445],[42.3579362,41.0787422],[42.3696259,41.0896188],[42.2755769,41.1226856],[42.2594115,41.13334],[42.2457158,41.1482194],[42.24145,41.1625884],[42.2459403,41.1822543],[42.2371841,41.1925611],[42.2379699,41.2023595],[42.2278665,41.2093696],[42.2172018,41.2236407],[42.2085578,41.2320837],[42.1978932,41.2347008],[42.1939641,41.2479536],[42.1795948,41.2589252],[42.1717366,41.2608661],[42.1620823,41.2696418],[42.1593914,41.2960308],[42.1336301,41.3312679],[42.1307113,41.3385169],[42.1048916,41.3592482],[42.0727853,41.3587427],[42.0673968,41.3563833],[42.0496597,41.336494],[42.0312491,41.3284017],[42.0096953,41.3140691],[41.9636688,41.3139005],[41.9409923,41.307492],[41.9311134,41.3012515],[41.9126649,41.2812347],[41.8945025,41.2760159],[41.8819491,41.2762166],[41.8726008,41.2800304],[41.8592461,41.2802311],[41.8182234,41.292541],[41.7959375,41.2958046],[41.7795063,41.2967979],[41.7594868,41.2901995],[41.7523778,41.2931171],[41.7519524,41.289464],[41.7574072,41.2838923],[41.7588913,41.2756551],[41.7607755,41.2740892],[41.7659582,41.274941],[41.7695041,41.273853],[41.7715749,41.2722528],[41.7731333,41.2661992],[41.7771942,41.263456],[41.774973,41.2523764],[41.7788589,41.2489846],[41.7786275,41.2447684],[41.7857814,41.2397075],[41.7805935,41.2317787],[41.7893084,41.2225725],[41.7890393,41.214785],[41.8104278,41.1993855],[41.8177108,41.1977083],[41.8193843,41.1962032],[41.8190054,41.190411],[41.8242692,41.1902196],[41.8350742,41.1859181],[41.8397881,41.1772503],[41.8449814,41.1780447],[41.8480788,41.1814932],[41.855962,41.180148],[41.8651237,41.1815457],[41.8667696,41.1807828],[41.8693337,41.1718546],[41.874283,41.1660497],[41.8821336,41.1686842],[41.888058,41.166521],[41.89342,41.1588696],[41.9001596,41.1549663],[41.9003496,41.1524157],[41.8950557,41.1479565],[41.8964117,41.1448932],[41.893621,41.140084],[41.9100444,41.1433483],[41.9234293,41.1433996],[41.9238835,41.1412765],[41.9331478,41.1337064],[41.9368581,41.1065544],[41.9413109,41.1001018],[41.9390845,41.0972625],[41.9454213,41.0932614],[41.9418247,41.0873238],[41.9342891,41.0862912],[41.9308638,41.0769964],[41.9188753,41.0679585],[41.917334,41.0649886],[41.9288087,41.0562074],[41.9315489,41.0445834],[41.9499472,41.017594],[41.9547912,41.0044351],[41.9528536,40.9967578],[41.9630984,40.9911565],[41.9651282,40.9804049],[41.9896235,40.9828689],[41.9944864,40.9869662],[42.0055983,40.9907862],[42.0051142,40.9818943],[42.0085028,40.9777525],[42.0214117,40.9747069],[42.0320989,40.9756968],[42.039142,40.9792943],[42.0689557,40.9830067],[42.075515,40.9874866],[42.0744218,40.9812383],[42.077389,40.9755789],[42.0896693,40.9764593],[42.1119032,40.9743998],[42.1187749,40.9703907],[42.1211174,40.9642587],[42.1251779,40.9687398],[42.1434502,40.9721595],[42.1498533,40.9754609],[42.1509465,40.9794697],[42.168194,40.979617],[42.1724106,40.9784379],[42.1750563,40.9708258],[42.2078619,40.9712454],[42.2184816,40.9730141],[42.227852,40.9654673],[42.2271706,40.9540546],[42.2303155,40.9449955],[42.2400335,40.9386924],[42.2564734,40.9349309],[42.2653544,40.9371021],[42.2710502,40.9322656],[42.2771729,40.9228176],[42.2815401,40.9249193],[42.2896611,40.9242113],[42.3150169,40.9294963],[42.3178727,40.9328652],[42.3177564,40.9378744],[42.3315777,40.9385226],[42.3345204,40.9327722],[42.3388563,40.9320536]]]}},{"type":"Feature","properties":{"code":"08-02","provinceCode":"08","name":"Arhavi"},"geometry":{"type":"Polygon","coordinates":[[[41.2462108,41.3235292],[41.2691709,41.2780848],[41.2871606,41.2498575],[41.3341691,41.2157105],[41.3389768,41.2064677],[41.3403122,41.185164],[41.3437845,41.1724991],[41.3686242,41.1457541],[41.373966,41.1344897],[41.3757653,41.1208494],[41.3685538,41.1035432],[41.3681149,41.0888653],[41.3870915,41.0906594],[41.3919503,41.097385],[41.4195012,41.0953194],[41.4239787,41.1005088],[41.4214818,41.1110672],[41.4291723,41.1172411],[41.4398795,41.1225458],[41.4570745,41.1246096],[41.4765715,41.1110329],[41.4902521,41.1116557],[41.5150624,41.1240264],[41.5183267,41.1418379],[41.5228595,41.1520777],[41.5255036,41.18762],[41.5171936,41.205526],[41.5247481,41.2168924],[41.5251258,41.2276886],[41.5205931,41.2325179],[41.5122831,41.2347904],[41.5107722,41.2452997],[41.5039731,41.2538195],[41.4903749,41.2569431],[41.4797985,41.2648935],[41.4714885,41.2813591],[41.4718663,41.287036],[41.4775701,41.2930876],[41.4826449,41.3081368],[41.4917206,41.3187655],[41.4632916,41.3215148],[41.4495671,41.3434026],[41.4403595,41.3522839],[41.4152822,41.3517178],[41.4002138,41.3480847],[41.3906277,41.3393454],[41.3806443,41.3382686],[41.3758513,41.3402744],[41.3659508,41.3507745],[41.3375566,41.3699133],[41.3289659,41.3642428],[41.3143408,41.3594814],[41.3087325,41.3554039],[41.2912782,41.3500177],[41.2932863,41.3524339],[41.2904664,41.3498039],[41.2787028,41.3473984],[41.2613564,41.3397749],[41.2462108,41.3235292]]]}},{"type":"Feature","properties":{"code":"08-03","provinceCode":"08","name":"Artvin Merkez"},"geometry":{"type":"Polygon","coordinates":[[[41.9651282,40.9804049],[41.9630984,40.9911565],[41.9528536,40.9967578],[41.9547912,41.0044351],[41.9499472,41.017594],[41.9315489,41.0445834],[41.9288087,41.0562074],[41.917334,41.0649886],[41.9188753,41.0679585],[41.9308638,41.0769964],[41.9342891,41.0862912],[41.9418247,41.0873238],[41.9454213,41.0932614],[41.9390845,41.0972625],[41.9413109,41.1001018],[41.9368581,41.1065544],[41.9331478,41.1337064],[41.9238835,41.1412765],[41.9234293,41.1433996],[41.9100444,41.1433483],[41.893621,41.140084],[41.8964117,41.1448932],[41.8950557,41.1479565],[41.9003496,41.1524157],[41.9001596,41.1549663],[41.89342,41.1588696],[41.888058,41.166521],[41.8821336,41.1686842],[41.874283,41.1660497],[41.8693337,41.1718546],[41.8667696,41.1807828],[41.8651237,41.1815457],[41.855962,41.180148],[41.8480788,41.1814932],[41.8449814,41.1780447],[41.8397881,41.1772503],[41.8350742,41.1859181],[41.8242692,41.1902196],[41.8190054,41.190411],[41.8193843,41.1962032],[41.8177108,41.1977083],[41.8104278,41.1993855],[41.7890393,41.214785],[41.7893084,41.2225725],[41.7805935,41.2317787],[41.7857814,41.2397075],[41.7786275,41.2447684],[41.7788589,41.2489846],[41.774973,41.2523764],[41.7771942,41.263456],[41.7731333,41.2661992],[41.7715749,41.2722528],[41.7695041,41.273853],[41.7659582,41.274941],[41.7607755,41.2740892],[41.7588913,41.2756551],[41.7574072,41.2838923],[41.7519524,41.289464],[41.7523778,41.2931171],[41.7504189,41.2953109],[41.7381879,41.2997199],[41.7281354,41.2977912],[41.7240381,41.2884892],[41.7128951,41.2795481],[41.7004301,41.2738706],[41.6796551,41.2676248],[41.672856,41.258397],[41.6500035,41.2485998],[41.6483037,41.2441977],[41.6483037,41.2326941],[41.653403,41.2224669],[41.6320614,41.2210463],[41.6124196,41.2128064],[41.5929666,41.2146534],[41.5842789,41.2108173],[41.5691698,41.1846693],[41.5686032,41.1387429],[41.5648259,41.1262249],[41.5576491,41.1235218],[41.5150624,41.1240264],[41.531043,41.0970234],[41.5497262,41.0928013],[41.5604281,41.0818795],[41.557986,41.0710395],[41.5603972,41.0647371],[41.5690059,41.0618007],[41.5784986,41.0664126],[41.588888,41.0653552],[41.5906583,41.0577872],[41.6070537,41.0524239],[41.6233229,41.0602552],[41.6372608,41.0611825],[41.6532298,41.0728241],[41.663087,41.0753995],[41.6782548,41.0761721],[41.7032611,41.0669006],[41.7260127,41.0622644],[41.7352364,41.0562368],[41.7504041,41.0387691],[41.7698763,41.0231525],[41.812715,40.9999527],[41.8200939,40.9880403],[41.8133299,40.9573984],[41.8168143,40.9519805],[41.8264479,40.9522901],[41.8362865,40.9556957],[41.8471499,40.9535285],[41.8647773,40.9468717],[41.873591,40.9482651],[41.8842494,40.9538381],[41.9018768,40.9535285],[41.9102806,40.9488843],[41.9146135,40.9360831],[41.9186764,40.9290102],[41.9307785,40.9338864],[41.9375556,40.9458318],[41.9382011,40.9507069],[41.9473987,40.9625275],[41.9517554,40.9638677],[41.9595008,40.9694725],[41.9651282,40.9804049]]]}},{"type":"Feature","properties":{"code":"08-04","provinceCode":"08","name":"Borçka"},"geometry":{"type":"Polygon","coordinates":[[[41.5385516,41.4222473],[41.5387861,41.4172163],[41.5330799,41.3984167],[41.5257901,41.3937343],[41.5231202,41.3873914],[41.5293263,41.3804117],[41.5324057,41.3729716],[41.539707,41.3705212],[41.552172,41.3597486],[41.553683,41.3534401],[41.5747413,41.3377017],[41.5881506,41.3357164],[41.6304561,41.335291],[41.6321558,41.3313202],[41.6306449,41.3251508],[41.6401825,41.3209666],[41.653403,41.3214631],[41.6626573,41.3167822],[41.6669068,41.3113917],[41.6722894,41.2737287],[41.6796551,41.2676248],[41.7004301,41.2738706],[41.7128951,41.2795481],[41.7240381,41.2884892],[41.7281354,41.2977912],[41.7381879,41.2997199],[41.7504189,41.2953109],[41.7523778,41.2931171],[41.7594868,41.2901995],[41.7795063,41.2967979],[41.7959375,41.2958046],[41.8182234,41.292541],[41.8592461,41.2802311],[41.8726008,41.2800304],[41.8819491,41.2762166],[41.8945025,41.2760159],[41.9126649,41.2812347],[41.9311134,41.3012515],[41.9409923,41.307492],[41.9636688,41.3139005],[42.0096953,41.3140691],[42.0312491,41.3284017],[42.0496597,41.336494],[42.0673968,41.3563833],[42.0727853,41.3587427],[42.0768266,41.3899117],[42.0824396,41.4017014],[42.0885016,41.4043959],[42.1060142,41.3979963],[42.1109536,41.3998489],[42.115444,41.4054064],[42.1140969,41.4173617],[42.1170156,41.4235911],[42.1172401,41.4326815],[42.1203834,41.4389094],[42.1183627,41.4653293],[42.1156685,41.4803014],[42.1087084,41.4920748],[42.103065,41.506924],[42.09833,41.509411],[42.08479,41.510166],[42.065304,41.503816],[42.063312,41.500793],[42.057829,41.498274],[42.051468,41.498386],[42.046993,41.495115],[42.038341,41.494115],[42.031218,41.495578],[42.027002,41.499996],[42.005051,41.502444],[42.002949,41.504493],[41.99448,41.504775],[41.990659,41.511746],[41.991097,41.516742],[41.984769,41.521973],[41.973304,41.521214],[41.962682,41.524546],[41.955316,41.5233],[41.948647,41.517612],[41.941879,41.515329],[41.936783,41.509842],[41.925104,41.507244],[41.91833,41.501278],[41.911428,41.499309],[41.910075,41.494516],[41.901027,41.489105],[41.897349,41.483335],[41.892625,41.479744],[41.894443,41.478604],[41.894624,41.474813],[41.887779,41.471747],[41.881394,41.460353],[41.856632,41.45195],[41.852062,41.449052],[41.847343,41.448603],[41.84494,41.440488],[41.829529,41.434988],[41.823607,41.430572],[41.822239,41.432454],[41.814921,41.434218],[41.812076,41.440199],[41.805968,41.445791],[41.789443,41.449355],[41.78688,41.461247],[41.775875,41.463729],[41.773277,41.460958],[41.752828,41.470545],[41.707818,41.474495],[41.714164,41.480072],[41.7153,41.485272],[41.7144289,41.4928796],[41.709758,41.496232],[41.70104,41.494232],[41.691548,41.488335],[41.686209,41.486901],[41.682577,41.487756],[41.675103,41.484065],[41.665694,41.482557],[41.655724,41.485451],[41.633678,41.487231],[41.623506,41.49573],[41.620516,41.500581],[41.615509,41.502125],[41.60091,41.4952549],[41.5957871,41.4882081],[41.5975942,41.4692291],[41.578934,41.4403106],[41.5598884,41.4355248],[41.5478527,41.4348883],[41.5382057,41.4296694],[41.5385516,41.4222473]]]}},{"type":"Feature","properties":{"code":"08-05","provinceCode":"08","name":"Hopa"},"geometry":{"type":"Polygon","coordinates":[[[41.5385516,41.4222473],[41.52139,41.4252917],[41.5143668,41.4326808],[41.507457,41.4348889],[41.4915982,41.4350587],[41.4892194,41.4388802],[41.4832158,41.4424467],[41.4812901,41.4491546],[41.4706561,41.4540671],[41.4633348,41.4508363],[41.4556953,41.4409394],[41.4546189,41.441914],[41.4477065,41.4310234],[41.4377294,41.4201482],[41.4362348,41.4155885],[41.4347487,41.4146014],[41.4299127,41.4154424],[41.4339504,41.413627],[41.4323539,41.4106464],[41.4293986,41.4110285],[41.430932,41.4097865],[41.4292209,41.4063372],[41.4277343,41.4074312],[41.4294378,41.4094028],[41.427562,41.4106603],[41.4273378,41.4079927],[41.4248233,41.4115125],[41.4294422,41.4204477],[41.424421,41.4117912],[41.4277875,41.40449],[41.412788,41.3903243],[41.4131648,41.3890939],[41.4019178,41.3816076],[41.3999654,41.3812273],[41.4005081,41.3822794],[41.3990631,41.3808065],[41.3798818,41.3770743],[41.3763416,41.3776215],[41.3772708,41.3785658],[41.3602318,41.3776114],[41.342166,41.3728271],[41.3375566,41.3699133],[41.3659508,41.3507745],[41.3758513,41.3402744],[41.3806443,41.3382686],[41.3906277,41.3393454],[41.4002138,41.3480847],[41.4152822,41.3517178],[41.4403595,41.3522839],[41.4495671,41.3434026],[41.4632916,41.3215148],[41.4917206,41.3187655],[41.5009757,41.3265651],[41.5008977,41.3462309],[41.5196912,41.3640048],[41.5267154,41.367524],[41.5324057,41.3729716],[41.5293263,41.3804117],[41.5231202,41.3873914],[41.5257901,41.3937343],[41.5330799,41.3984167],[41.5387861,41.4172163],[41.5385516,41.4222473]]]}},{"type":"Feature","properties":{"code":"08-06","provinceCode":"08","name":"Kemalpaşa"},"geometry":{"type":"Polygon","coordinates":[[[41.615509,41.502125],[41.602207,41.504065],[41.596304,41.507017],[41.585204,41.508705],[41.5823,41.510722],[41.581022,41.515348],[41.571783,41.519783],[41.55489,41.518226],[41.5470851,41.5206665],[41.5423796,41.5118719],[41.5368674,41.5096026],[41.521864,41.4822875],[41.5200137,41.481795],[41.5212245,41.4841104],[41.5188341,41.481527],[41.5100306,41.4780708],[41.50246,41.47163],[41.4946425,41.4700454],[41.4931442,41.4708989],[41.4808456,41.4621487],[41.4740962,41.461057],[41.4706561,41.4540671],[41.4812901,41.4491546],[41.4832158,41.4424467],[41.4892194,41.4388802],[41.4915982,41.4350587],[41.507457,41.4348889],[41.5143668,41.4326808],[41.52139,41.4252917],[41.5385516,41.4222473],[41.5382057,41.4296694],[41.5478527,41.4348883],[41.5598884,41.4355248],[41.578934,41.4403106],[41.5975942,41.4692291],[41.5957871,41.4882081],[41.60091,41.4952549],[41.615509,41.502125]]]}},{"type":"Feature","properties":{"code":"08-07","provinceCode":"08","name":"Murgul"},"geometry":{"type":"Polygon","coordinates":[[[41.5324057,41.3729716],[41.5267154,41.367524],[41.5196912,41.3640048],[41.5008977,41.3462309],[41.5009757,41.3265651],[41.4917206,41.3187655],[41.4826449,41.3081368],[41.4775701,41.2930876],[41.4718663,41.287036],[41.4714885,41.2813591],[41.4797985,41.2648935],[41.4903749,41.2569431],[41.5039731,41.2538195],[41.5107722,41.2452997],[41.5122831,41.2347904],[41.5205931,41.2325179],[41.5251258,41.2276886],[41.5247481,41.2168924],[41.5171936,41.205526],[41.5255036,41.18762],[41.5228595,41.1520777],[41.5183267,41.1418379],[41.5150624,41.1240264],[41.5576491,41.1235218],[41.5648259,41.1262249],[41.5686032,41.1387429],[41.5691698,41.1846693],[41.5842789,41.2108173],[41.5929666,41.2146534],[41.6124196,41.2128064],[41.6320614,41.2210463],[41.653403,41.2224669],[41.6483037,41.2326941],[41.6483037,41.2441977],[41.6500035,41.2485998],[41.672856,41.258397],[41.6796551,41.2676248],[41.6722894,41.2737287],[41.6669068,41.3113917],[41.6626573,41.3167822],[41.653403,41.3214631],[41.6401825,41.3209666],[41.6306449,41.3251508],[41.6321558,41.3313202],[41.6304561,41.335291],[41.5881506,41.3357164],[41.5747413,41.3377017],[41.553683,41.3534401],[41.552172,41.3597486],[41.539707,41.3705212],[41.5324057,41.3729716]]]}},{"type":"Feature","properties":{"code":"08-08","provinceCode":"08","name":"Şavşat"},"geometry":{"type":"Polygon","coordinates":[[[42.0727853,41.3587427],[42.1048916,41.3592482],[42.1307113,41.3385169],[42.1336301,41.3312679],[42.1593914,41.2960308],[42.1620823,41.2696418],[42.1717366,41.2608661],[42.1795948,41.2589252],[42.1939641,41.2479536],[42.1978932,41.2347008],[42.2085578,41.2320837],[42.2172018,41.2236407],[42.2278665,41.2093696],[42.2379699,41.2023595],[42.2371841,41.1925611],[42.2459403,41.1822543],[42.24145,41.1625884],[42.2457158,41.1482194],[42.2594115,41.13334],[42.2755769,41.1226856],[42.3696259,41.0896188],[42.3844015,41.1014395],[42.5016164,41.1722446],[42.5129021,41.1825704],[42.5701639,41.2600522],[42.5879487,41.3168014],[42.5916385,41.3363045],[42.591089,41.3492056],[42.5822617,41.3615284],[42.5691965,41.3719835],[42.533032,41.3945861],[42.5200423,41.4075304],[42.520234,41.436706],[42.506615,41.441625],[42.503254,41.4405],[42.497282,41.444074],[42.492137,41.445106],[42.489646,41.440335],[42.485921,41.440802],[42.482153,41.437656],[42.477265,41.438326],[42.472873,41.435623],[42.46131,41.436814],[42.456295,41.439173],[42.448301,41.438447],[42.446492,41.441197],[42.439242,41.44163],[42.437816,41.443885],[42.43324,41.444332],[42.424929,41.453155],[42.416098,41.458937],[42.411428,41.458649],[42.405938,41.463693],[42.399614,41.466751],[42.39192,41.466074],[42.384983,41.463172],[42.3814,41.467618],[42.375554,41.464833],[42.373623,41.465978],[42.367769,41.464883],[42.358841,41.466891],[42.348559,41.471547],[42.344783,41.471689],[42.329555,41.467906],[42.325641,41.472892],[42.313454,41.481594],[42.311603,41.480773],[42.304111,41.482518],[42.293659,41.489636],[42.289628,41.490044],[42.284952,41.492769],[42.277653,41.492779],[42.274307,41.494226],[42.267,41.491537],[42.262769,41.49162],[42.253872,41.494883],[42.242405,41.494197],[42.2326,41.497345],[42.228911,41.496845],[42.225908,41.498785],[42.219147,41.496152],[42.211332,41.495414],[42.208627,41.491827],[42.205382,41.490924],[42.201994,41.493312],[42.196404,41.506586],[42.186381,41.509039],[42.17823,41.514602],[42.171835,41.513347],[42.159163,41.506769],[42.148939,41.505464],[42.137205,41.508054],[42.133887,41.50605],[42.127287,41.505337],[42.120421,41.506537],[42.116991,41.509789],[42.11206,41.51122],[42.103065,41.506924],[42.1087084,41.4920748],[42.1156685,41.4803014],[42.1183627,41.4653293],[42.1203834,41.4389094],[42.1172401,41.4326815],[42.1170156,41.4235911],[42.1140969,41.4173617],[42.115444,41.4054064],[42.1109536,41.3998489],[42.1060142,41.3979963],[42.0885016,41.4043959],[42.0824396,41.4017014],[42.0768266,41.3899117],[42.0727853,41.3587427]]]}},{"type":"Feature","properties":{"code":"08-09","provinceCode":"08","name":"Yusufeli"},"geometry":{"type":"Polygon","coordinates":[[[41.9146135,40.9360831],[41.9102806,40.9488843],[41.9018768,40.9535285],[41.8842494,40.9538381],[41.873591,40.9482651],[41.8647773,40.9468717],[41.8471499,40.9535285],[41.8362865,40.9556957],[41.8264479,40.9522901],[41.8168143,40.9519805],[41.8133299,40.9573984],[41.8200939,40.9880403],[41.812715,40.9999527],[41.7698763,41.0231525],[41.7504041,41.0387691],[41.7352364,41.0562368],[41.7260127,41.0622644],[41.7032611,41.0669006],[41.6782548,41.0761721],[41.663087,41.0753995],[41.6532298,41.0728241],[41.6372608,41.0611825],[41.6233229,41.0602552],[41.6070537,41.0524239],[41.5906583,41.0577872],[41.588888,41.0653552],[41.5784986,41.0664126],[41.5690059,41.0618007],[41.5603972,41.0647371],[41.557986,41.0710395],[41.5604281,41.0818795],[41.5497262,41.0928013],[41.531043,41.0970234],[41.5150624,41.1240264],[41.4902521,41.1116557],[41.4765715,41.1110329],[41.4570745,41.1246096],[41.4398795,41.1225458],[41.4291723,41.1172411],[41.4214818,41.1110672],[41.4239787,41.1005088],[41.4195012,41.0953194],[41.3919503,41.097385],[41.3870915,41.0906594],[41.3681149,41.0888653],[41.357619,41.0655126],[41.3514145,41.0613936],[41.3514145,41.056157],[41.3434931,41.0504441],[41.3312356,41.0409206],[41.3293054,41.0352032],[41.3202872,41.0288452],[41.3212793,41.0158401],[41.3115736,41.0094776],[41.245238,40.979704],[41.2293184,40.9524916],[41.2269053,40.9458115],[41.227549,40.9388595],[41.2166949,40.9314495],[41.2152405,40.9274209],[41.2174109,40.9245438],[41.2159921,40.9081451],[41.2011781,40.9075417],[41.1808165,40.8863184],[41.1513405,40.8665123],[41.1436766,40.8589133],[41.1378025,40.8489113],[41.1293315,40.8256779],[41.1413465,40.8246918],[41.1421832,40.8130395],[41.1501584,40.8104394],[41.1627163,40.8093387],[41.1710996,40.8119191],[41.1778037,40.8191496],[41.1825132,40.8191496],[41.1902198,40.8261154],[41.2032782,40.8283832],[41.2150522,40.8345382],[41.2180492,40.8384253],[41.2268262,40.8335664],[41.2319639,40.8272493],[41.2148381,40.8222276],[41.2171929,40.8183395],[41.2018585,40.8092854],[41.2041442,40.8072819],[41.2177633,40.8042171],[41.2169216,40.7984082],[41.225125,40.790842],[41.2248797,40.7872191],[41.2283151,40.7833173],[41.2316072,40.7694119],[41.2384988,40.76873],[41.2404619,40.7625038],[41.2575165,40.7591582],[41.2736808,40.7639652],[41.2831598,40.7628755],[41.2918711,40.7642695],[41.2991101,40.760831],[41.3069743,40.7602412],[41.3118456,40.7565364],[41.3191705,40.7554206],[41.3302693,40.7510062],[41.3400902,40.7419627],[41.3478476,40.7412884],[41.356782,40.7353014],[41.3782151,40.7138595],[41.3735859,40.7091395],[41.3636477,40.7067213],[41.3486789,40.6962103],[41.3443845,40.694908],[41.3408264,40.6899774],[41.3296627,40.6930017],[41.3231583,40.6922101],[41.320459,40.6897913],[41.3149378,40.6901634],[41.3156739,40.6873724],[41.3135792,40.6844971],[41.3046314,40.6820691],[41.2972697,40.6842091],[41.2910122,40.681883],[41.2908895,40.6749973],[41.2933434,40.6738807],[41.2969016,40.6593624],[41.3044645,40.6530636],[41.3018941,40.641939],[41.3116321,40.6395279],[41.3153957,40.6359497],[41.3171955,40.6168087],[41.3122088,40.6094202],[41.317594,40.5968698],[41.3221581,40.5726782],[41.3171577,40.5572232],[41.3287916,40.5589669],[41.3344322,40.5658258],[41.3508823,40.564588],[41.3580557,40.5620731],[41.3850978,40.5679587],[41.3939027,40.571653],[41.4114171,40.5694158],[41.4328443,40.5877873],[41.4418945,40.5983486],[41.4420772,40.6063923],[41.4533637,40.609912],[41.4732323,40.6223446],[41.4752421,40.6317962],[41.49148,40.6333129],[41.5063671,40.6427336],[41.5198423,40.6447628],[41.5330983,40.6603904],[41.5447306,40.6627907],[41.5766776,40.6904299],[41.6094549,40.6921847],[41.6516638,40.6886448],[41.6600919,40.6828443],[41.6999122,40.6734336],[41.7081969,40.6690812],[41.7138959,40.6729592],[41.7196081,40.6840358],[41.7235704,40.6855512],[41.7358693,40.6726776],[41.7648596,40.662469],[41.77665,40.6622904],[41.7829406,40.6684313],[41.7912772,40.6719982],[41.7975837,40.6666642],[41.7976364,40.6765117],[41.8068035,40.6842902],[41.807505,40.6984875],[41.804955,40.7044333],[41.8058201,40.711744],[41.8151837,40.7152298],[41.8111934,40.7296276],[41.8132496,40.7422893],[41.8192032,40.7507884],[41.8195844,40.7563474],[41.8212129,40.7586134],[41.8233877,40.7584009],[41.8303756,40.7480953],[41.8373162,40.7567947],[41.8452752,40.76053],[41.8508206,40.7731233],[41.8488229,40.7748782],[41.8516163,40.7791489],[41.8531812,40.7790229],[41.8525792,40.7818544],[41.8552263,40.7864117],[41.8680926,40.7877686],[41.8699606,40.8004623],[41.8735126,40.8059189],[41.8691949,40.8341997],[41.8559319,40.8465699],[41.8471276,40.8510235],[41.8363237,40.8595008],[41.8485436,40.8729514],[41.8495999,40.8946649],[41.8701564,40.9034859],[41.8805912,40.9184042],[41.88928,40.9163427],[41.8986159,40.9381203],[41.9146135,40.9360831]]]}}]}