{"type":"FeatureCollection","features":[{"type":"Feature","properties":{"code":"46-01","provinceCode":"46","name":"Afşin"},"geometry":{"type":"Polygon","coordinates":[[[37.0528071,38.5854461],[37.021465,38.5822177],[36.9519274,38.5664301],[36.9315323,38.5662929],[36.9111092,38.5704941],[36.8806079,38.5684144],[36.8401536,38.5546506],[36.7804256,38.5370853],[36.7548472,38.5334297],[36.7488153,38.5310144],[36.7492658,38.5293047],[36.7540881,38.5271033],[36.751395,38.5245808],[36.7411556,38.5219058],[36.7269061,38.5209542],[36.7154917,38.5219186],[36.6987231,38.5127417],[36.6964042,38.5097328],[36.6812753,38.5032419],[36.6781936,38.4987481],[36.6681142,38.4995217],[36.6682619,38.4971592],[36.687735,38.4884444],[36.697355,38.4685708],[36.7066339,38.4622158],[36.7169183,38.4631558],[36.7244958,38.4608975],[36.7297517,38.4467853],[36.7283975,38.4351581],[36.7405164,38.4368567],[36.7384572,38.4248092],[36.7409606,38.4250908],[36.7419692,38.4226439],[36.7404033,38.4203972],[36.6991347,38.4062114],[36.7029373,38.3847112],[36.6999693,38.3655448],[36.6700596,38.2945096],[36.6831105,38.2595826],[36.7062462,38.2269688],[36.7311615,38.2111226],[36.7353141,38.1840828],[36.7267717,38.1568464],[36.7262971,38.1359458],[36.7300937,38.1221332],[36.7366171,38.1137894],[36.7572221,38.1050712],[36.7778271,38.109201],[36.8151495,38.1219713],[36.8469804,38.128088],[36.8615594,38.1332486],[36.8985807,38.1350953],[36.9245563,38.1347051],[36.9433599,38.1366322],[36.9490925,38.1339572],[36.9569996,38.1341881],[36.9663725,38.1374622],[36.9768086,38.1349458],[36.9818205,38.1317361],[36.9989183,38.1355922],[37.0030248,38.1330963],[37.0080646,38.1337325],[37.0111133,38.1377945],[37.0259876,38.1430218],[37.034319,38.1483394],[37.0411483,38.15729],[37.0545224,38.181451],[37.0593153,38.2004128],[37.0593153,38.2111456],[37.0650617,38.2291417],[37.0627493,38.2379307],[37.0748021,38.2601182],[37.0688287,38.2751029],[37.0589217,38.2851672],[37.0640209,38.3120365],[37.0613984,38.3217528],[37.0619812,38.3350105],[37.0638752,38.3416385],[37.0752392,38.3554638],[37.0750935,38.3713426],[37.0676126,38.3917449],[37.0688061,38.4055882],[37.0583993,38.4126554],[37.0459153,38.4243576],[37.0269849,38.453226],[37.0267518,38.4634481],[37.0289569,38.4708077],[37.0326464,38.4781815],[37.0388267,38.4842098],[37.0410299,38.4968673],[37.0481817,38.500904],[37.0552193,38.5161033],[37.0560346,38.5349741],[37.0535954,38.5513359],[37.0546389,38.5718222],[37.0528071,38.5854461]]]}},{"type":"Feature","properties":{"code":"46-02","provinceCode":"46","name":"Andırın"},"geometry":{"type":"Polygon","coordinates":[[[36.4653279,37.4140848],[36.4593346,37.419447],[36.4602105,37.428158],[36.4688588,37.4397175],[36.4793038,37.4448916],[36.4826011,37.4553155],[36.4819569,37.4653716],[36.4761107,37.4860454],[36.4776205,37.5008194],[36.4863696,37.5091978],[36.4867039,37.5129363],[36.4805869,37.519432],[36.4798322,37.5225834],[36.4806371,37.5252776],[36.485183,37.5260332],[36.4860354,37.5288431],[36.4891774,37.5302613],[36.4875179,37.5432616],[36.4995961,37.5532366],[36.5037899,37.5682632],[36.5116743,37.5747782],[36.5406954,37.5870089],[36.5541156,37.5969782],[36.5752524,37.6026932],[36.5848143,37.6141221],[36.5876661,37.6275421],[36.5726126,37.6407426],[36.5572594,37.6428981],[36.5476741,37.6414719],[36.5390625,37.6427301],[36.5305438,37.6528475],[36.5238312,37.6657419],[36.5207801,37.6997747],[36.5264114,37.7115206],[36.5392431,37.7178531],[36.5440502,37.7223965],[36.5426558,37.729785],[36.5442619,37.7343325],[36.548663,37.7388371],[36.5361383,37.7601041],[36.5243636,37.7706264],[36.4977428,37.7855977],[36.487504,37.7936891],[36.478801,37.806229],[36.4685622,37.8147225],[36.4534594,37.8197315],[36.4439903,37.8185466],[36.412216,37.8299958],[36.3908334,37.8341411],[36.3669238,37.8344482],[36.3535111,37.8299958],[36.3294071,37.8287675],[36.3086076,37.8233936],[36.2694593,37.816237],[36.2611416,37.7964598],[36.2555254,37.7898151],[36.2684122,37.7778333],[36.2698275,37.7720868],[36.2699156,37.7651448],[36.2672972,37.7556632],[36.2611519,37.7516016],[36.260667,37.7497797],[36.25884,37.7440168],[36.2541637,37.7441012],[36.2507609,37.7423482],[36.2418882,37.7324515],[36.2336052,37.7315976],[36.2318215,37.7286846],[36.2274196,37.7266585],[36.2272031,37.7246893],[36.2222961,37.7260306],[36.2181828,37.7212075],[36.2186158,37.7196663],[36.2161623,37.7178397],[36.2134922,37.7179824],[36.2130232,37.7157561],[36.2659868,37.6685076],[36.2662639,37.6584109],[36.2562992,37.6285932],[36.2568241,37.6228811],[36.2627608,37.6158345],[36.2606255,37.6151797],[36.2606944,37.6115786],[36.2581114,37.609396],[36.2594201,37.6062857],[36.2576292,37.6049488],[36.2607977,37.6016746],[36.2494013,37.5922225],[36.2469379,37.5798596],[36.2543488,37.5678933],[36.2512207,37.566259],[36.24949,37.5628518],[36.2514055,37.5591895],[36.2463835,37.5508194],[36.2459614,37.5438025],[36.2435159,37.5391212],[36.2404358,37.5372099],[36.2376566,37.5307069],[36.2386826,37.5295506],[36.2365592,37.5202859],[36.2394132,37.5181108],[36.2409002,37.5106121],[36.2429539,37.5096071],[36.2408183,37.5057436],[36.2453121,37.5038443],[36.2466003,37.50174],[36.2451923,37.4967253],[36.2514984,37.4974758],[36.2515947,37.4951819],[36.2457178,37.4868017],[36.2498167,37.4809636],[36.2456918,37.4768638],[36.2532851,37.4727896],[36.2565433,37.4626959],[36.258985,37.4614305],[36.2578258,37.4561266],[36.2543386,37.4547668],[36.2521602,37.4502485],[36.2548108,37.4464578],[36.2578753,37.4452756],[36.2522099,37.4365403],[36.2539552,37.4351273],[36.2569325,37.4364588],[36.2605601,37.4318935],[36.2519707,37.4252663],[36.2522692,37.4239969],[36.2578845,37.4245901],[36.2526229,37.4160966],[36.2554004,37.4154785],[36.2624175,37.4186809],[36.2635019,37.4150698],[36.2616854,37.410309],[36.2666554,37.4076548],[36.2570544,37.3968021],[36.2627089,37.3932502],[36.2734459,37.3587707],[36.285112,37.3526451],[36.3022781,37.3613778],[36.3192726,37.3656073],[36.3356906,37.3644025],[36.3422086,37.3577723],[36.3465668,37.3591947],[36.3525218,37.3645373],[36.3575531,37.3635608],[36.3671661,37.351144],[36.3759209,37.3477325],[36.3881675,37.352621],[36.4039017,37.3520992],[36.4125706,37.3572844],[36.4119189,37.3632681],[36.4141686,37.3658663],[36.4196945,37.3658119],[36.4212395,37.3626739],[36.426297,37.3629539],[36.4304667,37.3689052],[36.4538057,37.3692279],[36.460191,37.3727656],[36.4631587,37.3724177],[36.4686042,37.376091],[36.4744887,37.383952],[36.4750802,37.3950312],[36.471028,37.4076253],[36.4653279,37.4140848]]]}},{"type":"Feature","properties":{"code":"46-03","provinceCode":"46","name":"Çağlayancerit"},"geometry":{"type":"Polygon","coordinates":[[[37.482929,37.8820347],[37.4792007,37.8814178],[37.4787066,37.886945],[37.4857009,37.8932323],[37.489383,37.8941704],[37.4884544,37.8976785],[37.482814,37.8980702],[37.4800022,37.9003627],[37.4770105,37.899587],[37.4723039,37.9027813],[37.4708229,37.899052],[37.4646075,37.8996625],[37.4609243,37.9048603],[37.458104,37.9043419],[37.454827,37.9062893],[37.4543519,37.9085546],[37.4506876,37.9073116],[37.4483535,37.9083842],[37.445511,37.9066904],[37.4505824,37.900426],[37.444491,37.9002635],[37.4380906,37.8962425],[37.4407076,37.8942226],[37.44018,37.8906498],[37.442246,37.8897935],[37.4411031,37.8871461],[37.4338571,37.8912353],[37.4288722,37.8904021],[37.4271885,37.892179],[37.4224653,37.8903897],[37.4224864,37.8884683],[37.4194522,37.8868572],[37.4135414,37.8931602],[37.41247,37.8893983],[37.4137902,37.8868127],[37.4082296,37.8888837],[37.4016686,37.8866811],[37.3930365,37.8869139],[37.3943935,37.8828235],[37.3921924,37.8820745],[37.3835203,37.8848145],[37.3808079,37.8872012],[37.3771254,37.8828107],[37.3739551,37.8846241],[37.3708958,37.8844206],[37.3653938,37.8789502],[37.3593251,37.8804033],[37.3553243,37.8791484],[37.3528897,37.8707909],[37.3422678,37.8564858],[37.3344575,37.8485921],[37.3260224,37.8451383],[37.3085273,37.8414377],[37.2979053,37.8414377],[37.2816599,37.845385],[37.2654145,37.8436581],[37.2032446,37.8305814],[37.1951673,37.8877893],[37.1660158,37.7995872],[37.1572683,37.7929218],[37.1460215,37.7808238],[37.1485208,37.7669951],[37.1528945,37.7588449],[37.1625793,37.7501997],[37.1959942,37.7263421],[37.1993532,37.7211548],[37.1999931,37.7143222],[37.2123096,37.6925549],[37.2207872,37.6860995],[37.2332681,37.684787],[37.2453156,37.6725445],[37.257537,37.6660365],[37.2700047,37.6538684],[37.2807279,37.6380101],[37.3058225,37.6518109],[37.3193186,37.6561641],[37.3508097,37.6595277],[37.4232272,37.6846229],[37.4302191,37.6845581],[37.4341502,37.6827433],[37.4462709,37.6728262],[37.4578441,37.6723779],[37.4626101,37.6747042],[37.4693787,37.6822334],[37.4665942,37.7131483],[37.4590619,37.7211717],[37.4558607,37.7352121],[37.4562754,37.7429179],[37.4533164,37.7482244],[37.458752,37.7557778],[37.467017,37.7526227],[37.4836389,37.7499437],[37.4900958,37.7591744],[37.4997577,37.7647565],[37.5066723,37.7715794],[37.5151631,37.7744227],[37.5208841,37.7867765],[37.519556,37.7903289],[37.5211905,37.7974331],[37.5149587,37.7978367],[37.5104637,37.7938811],[37.5082161,37.7948498],[37.5107701,37.8398019],[37.5131198,37.8447232],[37.5104637,37.8581138],[37.512609,37.8612595],[37.5122004,37.8648082],[37.5085226,37.8675504],[37.508114,37.8744052],[37.5039254,37.8779533],[37.482929,37.8820347]]]}},{"type":"Feature","properties":{"code":"46-04","provinceCode":"46","name":"Dulkadiroğlu"},"geometry":{"type":"Polygon","coordinates":[[[36.8915825,37.4656465],[36.9005231,37.4590186],[36.9054916,37.4449316],[36.9502554,37.4229499],[36.9677845,37.4030696],[36.9819977,37.397334],[36.9851052,37.393313],[36.9922309,37.3897495],[37.0068916,37.3862607],[37.0083044,37.3776603],[37.0167158,37.3713851],[37.0167147,37.355262],[37.0244406,37.3466886],[37.0280455,37.3390461],[37.044525,37.3346785],[37.1013449,37.3559678],[37.0943068,37.3626536],[37.1044348,37.3664738],[37.1075247,37.3741135],[37.1183394,37.390891],[37.1270941,37.3981191],[37.129669,37.4038466],[37.1361922,37.3996192],[37.1506117,37.4178907],[37.1703528,37.4324774],[37.1811674,37.4521037],[37.2165297,37.4867096],[37.2134398,37.4899787],[37.2148131,37.4944733],[37.2254561,37.5010106],[37.206745,37.5075472],[37.1919821,37.5045513],[37.1876906,37.5140833],[37.1808241,37.5139471],[37.1799658,37.5211634],[37.1895788,37.5233418],[37.2139548,37.5334159],[37.1959303,37.5404941],[37.194557,37.5487966],[37.1998785,37.5530156],[37.2064017,37.5553292],[37.2105215,37.5592755],[37.2206495,37.5594116],[37.2321509,37.5701612],[37.2316359,37.5809091],[37.2362707,37.5913835],[37.2472571,37.5996803],[37.2512463,37.6171715],[37.2630288,37.6353284],[37.2807279,37.6380101],[37.2700047,37.6538684],[37.257537,37.6660365],[37.2453156,37.6725445],[37.2332681,37.684787],[37.2207872,37.6860995],[37.2123096,37.6925549],[37.1999931,37.7143222],[37.1993532,37.7211548],[37.1959942,37.7263421],[37.1625793,37.7501997],[37.1528945,37.7588449],[37.1485208,37.7669951],[37.1460215,37.7808238],[37.1572683,37.7929218],[37.1660158,37.7995872],[37.1951673,37.8877893],[37.1599381,37.9141677],[37.1502682,37.8919249],[37.1392819,37.885422],[37.1318588,37.8917478],[37.108396,37.8798062],[37.0638833,37.8791048],[37.0442894,37.8721105],[37.0270671,37.8740105],[37.0194294,37.8787149],[37.0050296,37.8810865],[36.9951758,37.8769837],[36.989765,37.8709239],[36.9663761,37.8685863],[36.9721269,37.8600314],[36.9731998,37.8538816],[36.9711613,37.8476295],[36.9721699,37.8357508],[36.9696808,37.832497],[36.9721913,37.8281414],[36.9668054,37.8184293],[36.9420431,37.8013751],[36.9384382,37.7954068],[36.9380949,37.7895738],[36.9415281,37.7822479],[36.9392966,37.7789917],[36.9413565,37.7760067],[36.9379233,37.7689508],[36.9429014,37.7637942],[36.9408415,37.7590444],[36.9273177,37.7512972],[36.9241903,37.7261942],[36.9073675,37.7198125],[36.9197272,37.7085414],[36.9281386,37.7048746],[36.9321624,37.6964205],[36.9321002,37.6897986],[36.9408785,37.6703853],[36.9360504,37.6594538],[36.9460672,37.6476131],[36.9355009,37.6376276],[36.9355214,37.6357668],[36.9479736,37.6361684],[36.9438964,37.6314351],[36.9464663,37.6240957],[36.9171522,37.6244293],[36.9166568,37.6142975],[36.9200922,37.6111422],[36.9228651,37.5991814],[36.925391,37.5989873],[36.9274528,37.5814106],[36.9168596,37.526416],[36.8948167,37.4941847],[36.8949921,37.4740013],[36.8915825,37.4656465]]]}},{"type":"Feature","properties":{"code":"46-05","provinceCode":"46","name":"Ekinözü"},"geometry":{"type":"Polygon","coordinates":[[[36.9667066,38.0997627],[36.9682084,38.0922573],[36.9757945,38.0772853],[36.9822037,38.0699509],[36.9783844,38.0599088],[36.9717663,38.0542169],[36.9608273,38.0486903],[36.953755,38.046902],[36.9416287,38.0399133],[36.9346603,38.0399177],[36.9273708,38.0286738],[36.9006466,38.0098329],[36.911445,38.0018923],[36.934247,37.9940877],[36.9469148,37.9940877],[36.9609644,37.9911834],[36.9724806,37.9870084],[36.9775477,37.978476],[36.9797278,37.9591986],[36.9789058,37.9554384],[36.9742691,37.9523439],[36.9734604,37.9497931],[36.9753573,37.9454458],[36.9702439,37.9391814],[36.978469,37.9279877],[36.9816935,37.916723],[36.9712369,37.9085923],[36.9723628,37.9036195],[36.9636983,37.8899135],[36.9603013,37.8886615],[36.9605827,37.8793926],[36.962943,37.8724482],[36.9663761,37.8685863],[36.989765,37.8709239],[36.9951758,37.8769837],[37.0050296,37.8810865],[37.0194294,37.8787149],[37.0270671,37.8740105],[37.0442894,37.8721105],[37.0638833,37.8791048],[37.108396,37.8798062],[37.1318588,37.8917478],[37.1392819,37.885422],[37.1502682,37.8919249],[37.1599381,37.9141677],[37.1951673,37.8877893],[37.2097427,37.8856771],[37.2181016,37.8673973],[37.2309886,37.8812688],[37.2352842,37.8954459],[37.2333317,37.9090041],[37.2348937,37.9154741],[37.2523737,37.9388848],[37.2621366,37.9613643],[37.2652607,37.9727554],[37.2621366,37.978912],[37.2607789,38.0063462],[37.2528469,38.0110174],[37.2477758,38.0201135],[37.2471674,38.0253555],[37.2494058,38.0340523],[37.2497183,38.0549652],[37.2459693,38.0650504],[37.2534822,38.0840735],[37.239349,38.0936125],[37.2327473,38.1054359],[37.2225033,38.114929],[37.2145358,38.1197646],[37.1942755,38.1233464],[37.1667307,38.1260326],[37.1421451,38.1312257],[37.1305353,38.1355231],[37.1189255,38.143401],[37.0902424,38.1428639],[37.0732507,38.1376259],[37.0623857,38.1284204],[37.0601369,38.1172996],[37.0220256,38.0990232],[36.9667066,38.0997627]]]}},{"type":"Feature","properties":{"code":"46-06","provinceCode":"46","name":"Elbistan"},"geometry":{"type":"Polygon","coordinates":[[[36.9667066,38.0997627],[37.0220256,38.0990232],[37.0601369,38.1172996],[37.0623857,38.1284204],[37.0732507,38.1376259],[37.0902424,38.1428639],[37.1189255,38.143401],[37.1305353,38.1355231],[37.1421451,38.1312257],[37.1667307,38.1260326],[37.1942755,38.1233464],[37.2145358,38.1197646],[37.2225033,38.114929],[37.2327473,38.1054359],[37.239349,38.0936125],[37.2534822,38.0840735],[37.2853054,38.0854001],[37.3215451,38.0908097],[37.3352913,38.0905638],[37.3684069,38.0959729],[37.3937122,38.1050692],[37.4171431,38.1114605],[37.4327636,38.113427],[37.4427608,38.1126896],[37.4555697,38.1092482],[37.4733771,38.0986773],[37.4883729,38.0925308],[37.5139906,38.0888426],[37.5636641,38.0866296],[37.6014658,38.0807279],[37.6226115,38.0670857],[37.6373056,38.080084],[37.6648406,38.0790741],[37.6804216,38.0932085],[37.7162842,38.1170072],[37.7227754,38.1249359],[37.7157784,38.1384289],[37.7159768,38.1460289],[37.7389358,38.1525262],[37.7518928,38.1758584],[37.732209,38.2038044],[37.7319913,38.2098039],[37.7190238,38.2194849],[37.7026339,38.2222122],[37.6917184,38.2296327],[37.6804636,38.2347062],[37.6801652,38.2485613],[37.6713488,38.2561441],[37.6627424,38.2609241],[37.666215,38.2756304],[37.6658923,38.2812903],[37.6511984,38.3043554],[37.6440613,38.3091322],[37.6243296,38.3178615],[37.6121546,38.318685],[37.6033383,38.3224728],[37.5948733,38.3349788],[37.5630351,38.3507928],[37.5449826,38.3507928],[37.5359563,38.352439],[37.4941837,38.3776208],[37.4855773,38.3861773],[37.4796997,38.3878227],[37.4692041,38.3960489],[37.4475831,38.4046033],[37.411898,38.4124987],[37.4061122,38.4197971],[37.3943047,38.4236515],[37.3014839,38.4478016],[37.2930538,38.4554122],[37.290191,38.4680508],[37.2796336,38.4723713],[37.2690131,38.4742546],[37.2627813,38.4878625],[37.2608133,38.4986444],[37.2634372,38.5071147],[37.269669,38.5125044],[37.2936122,38.5232825],[37.3118687,38.5390385],[37.3111116,38.5500905],[37.3001507,38.5655675],[37.268363,38.5683092],[37.2425362,38.5747996],[37.2271631,38.5752803],[37.199184,38.5726362],[37.1718199,38.5726362],[37.1444557,38.5743188],[37.0638104,38.5861136],[37.0528071,38.5854461],[37.0546389,38.5718222],[37.0535954,38.5513359],[37.0560346,38.5349741],[37.0552193,38.5161033],[37.0481817,38.500904],[37.0410299,38.4968673],[37.0388267,38.4842098],[37.0326464,38.4781815],[37.0289569,38.4708077],[37.0267518,38.4634481],[37.0269849,38.453226],[37.0459153,38.4243576],[37.0583993,38.4126554],[37.0688061,38.4055882],[37.0676126,38.3917449],[37.0750935,38.3713426],[37.0752392,38.3554638],[37.0638752,38.3416385],[37.0619812,38.3350105],[37.0613984,38.3217528],[37.0640209,38.3120365],[37.0589217,38.2851672],[37.0688287,38.2751029],[37.0748021,38.2601182],[37.0627493,38.2379307],[37.0650617,38.2291417],[37.0593153,38.2111456],[37.0593153,38.2004128],[37.0545224,38.181451],[37.0411483,38.15729],[37.034319,38.1483394],[37.0259876,38.1430218],[37.0111133,38.1377945],[37.0080646,38.1337325],[37.0030248,38.1330963],[36.9989183,38.1355922],[36.9818205,38.1317361],[36.9836999,38.1262137],[36.9684745,38.1094892],[36.9667066,38.0997627]]]}},{"type":"Feature","properties":{"code":"46-07","provinceCode":"46","name":"Göksun"},"geometry":{"type":"Polygon","coordinates":[[[36.9818205,38.1317361],[36.9768086,38.1349458],[36.9663725,38.1374622],[36.9569996,38.1341881],[36.9490925,38.1339572],[36.9433599,38.1366322],[36.9245563,38.1347051],[36.8985807,38.1350953],[36.8615594,38.1332486],[36.8469804,38.128088],[36.8151495,38.1219713],[36.7778271,38.109201],[36.7572221,38.1050712],[36.7366171,38.1137894],[36.7300937,38.1221332],[36.7262971,38.1359458],[36.7267717,38.1568464],[36.7353141,38.1840828],[36.7311615,38.2111226],[36.7062462,38.2269688],[36.6831105,38.2595826],[36.6700596,38.2945096],[36.6999693,38.3655448],[36.7029373,38.3847112],[36.6991347,38.4062114],[36.6880039,38.4017294],[36.6742753,38.392765],[36.6577922,38.3926233],[36.617625,38.3831108],[36.61551,38.3964058],[36.6003911,38.389805],[36.6073167,38.3856669],[36.5754744,38.357755],[36.565495,38.3437922],[36.5654628,38.3245669],[36.5768711,38.3182833],[36.5813942,38.3181297],[36.5836614,38.3119461],[36.5740542,38.3019522],[36.5645186,38.2968603],[36.5540256,38.2876039],[36.5504053,38.2796339],[36.5496694,38.273185],[36.5398069,38.2667914],[36.5260253,38.2650631],[36.5228014,38.2610175],[36.5230542,38.2552878],[36.5185722,38.247215],[36.4835433,38.2423903],[36.4815831,38.2448269],[36.4690053,38.2499889],[36.4610083,38.2499764],[36.4437339,38.2556281],[36.4445986,38.2590586],[36.4402769,38.2602347],[36.4400806,38.2616283],[36.4285069,38.2636978],[36.4260894,38.2625025],[36.4226992,38.2649686],[36.4195325,38.2637653],[36.4164875,38.2661883],[36.4124125,38.264875],[36.4115675,38.2610542],[36.4095784,38.2628794],[36.4072481,38.2555682],[36.3977408,38.2430889],[36.3914932,38.2430889],[36.3891218,38.2415567],[36.3856107,38.249493],[36.3869873,38.2550458],[36.3825722,38.2586],[36.3788353,38.2571889],[36.3793868,38.2539649],[36.3824384,38.2510295],[36.3804874,38.2451958],[36.3777756,38.2434089],[36.3820106,38.2374175],[36.3805386,38.2338591],[36.3838874,38.2327411],[36.3848381,38.2268732],[36.3807227,38.2108006],[36.3913574,38.2157761],[36.3940737,38.2131083],[36.3890485,38.2085195],[36.3909499,38.2061716],[36.3860301,38.1980188],[36.3893201,38.1908016],[36.3889127,38.1862114],[36.3738914,38.1763947],[36.372207,38.1722253],[36.3609342,38.1636828],[36.3606625,38.1596248],[36.3516985,38.1484108],[36.3626707,38.1411666],[36.3480314,38.1224515],[36.3511553,38.1128347],[36.3582178,38.1047128],[36.3571313,38.0970175],[36.3527851,38.0914593],[36.3462658,38.089749],[36.3427345,38.0859007],[36.343142,38.0824798],[36.3516985,38.0685808],[36.3492538,38.0535027],[36.3406973,38.0582082],[36.3321715,38.0675739],[36.3192213,38.0618439],[36.2899255,38.0545152],[36.2660884,38.0537065],[36.2641048,38.0498087],[36.2613713,38.0485066],[36.2600046,38.0440817],[36.2551367,38.0411649],[36.2536535,38.0365448],[36.2568716,38.0294978],[36.2544033,38.0260337],[36.2508734,38.0250648],[36.2484134,38.0272548],[36.2435356,38.0218992],[36.2337968,38.0215807],[36.2349594,38.0182291],[36.2337968,38.0138751],[36.2261979,38.0017542],[36.229753,37.9951353],[36.2258188,37.9928979],[36.2257682,37.9893857],[36.2209746,37.9864841],[36.2152291,37.9783963],[36.2157009,37.9750295],[36.2118256,37.9706131],[36.2132915,37.9650807],[36.2056757,37.9576615],[36.2047153,37.9480957],[36.2013033,37.9430333],[36.2052291,37.9391591],[36.2018762,37.934954],[36.2353572,37.9466038],[36.2679566,37.9220816],[36.2923058,37.906644],[36.2928034,37.8943859],[36.2832379,37.8828419],[36.2826601,37.8678701],[36.2709921,37.8447965],[36.2694593,37.816237],[36.3086076,37.8233936],[36.3294071,37.8287675],[36.3535111,37.8299958],[36.3669238,37.8344482],[36.3908334,37.8341411],[36.412216,37.8299958],[36.4439903,37.8185466],[36.4534594,37.8197315],[36.4619449,37.8361967],[36.4714699,37.8395741],[36.4862433,37.8535425],[36.4940188,37.8822385],[36.497129,37.8873014],[36.4951851,37.9011074],[36.5064596,37.9474152],[36.5185116,37.9587577],[36.527259,37.9717841],[36.5500023,37.9901704],[36.5750783,37.9955322],[36.5899994,37.9967365],[36.6168715,37.9918556],[36.6308674,37.9875659],[36.6503061,37.9785263],[36.66333,37.978373],[36.7096914,37.9901895],[36.7294338,37.9909076],[36.7704373,37.9966524],[36.797773,37.9961736],[36.8084036,38.0000032],[36.8105297,38.0031146],[36.8231914,38.0076169],[36.8502234,38.0080955],[36.8881896,38.004745],[36.9006466,38.0098329],[36.9273708,38.0286738],[36.9346603,38.0399177],[36.9416287,38.0399133],[36.953755,38.046902],[36.9608273,38.0486903],[36.9717663,38.0542169],[36.9783844,38.0599088],[36.9822037,38.0699509],[36.9757945,38.0772853],[36.9682084,38.0922573],[36.9667066,38.0997627],[36.9684745,38.1094892],[36.9836999,38.1262137],[36.9818205,38.1317361]]]}},{"type":"Feature","properties":{"code":"46-08","provinceCode":"46","name":"Nurhak"},"geometry":{"type":"Polygon","coordinates":[[[37.6120289,37.938501],[37.5938628,37.9522427],[37.5969022,37.9621211],[37.5929684,37.9746661],[37.5737406,37.9908695],[37.5796865,38.0187003],[37.5878048,38.027752],[37.5805048,38.0377703],[37.5948681,38.0427856],[37.603553,38.0395988],[37.6211064,38.0437216],[37.6289168,38.0497028],[37.6354184,38.0591635],[37.6226115,38.0670857],[37.6014658,38.0807279],[37.5636641,38.0866296],[37.5139906,38.0888426],[37.4883729,38.0925308],[37.4733771,38.0986773],[37.4555697,38.1092482],[37.4427608,38.1126896],[37.4327636,38.113427],[37.4171431,38.1114605],[37.3937122,38.1050692],[37.3684069,38.0959729],[37.3352913,38.0905638],[37.3215451,38.0908097],[37.2853054,38.0854001],[37.2534822,38.0840735],[37.2459693,38.0650504],[37.2497183,38.0549652],[37.2494058,38.0340523],[37.2471674,38.0253555],[37.2477758,38.0201135],[37.2528469,38.0110174],[37.2607789,38.0063462],[37.2621366,37.978912],[37.2652607,37.9727554],[37.2621366,37.9613643],[37.2523737,37.9388848],[37.2348937,37.9154741],[37.2333317,37.9090041],[37.2352842,37.8954459],[37.2309886,37.8812688],[37.2181016,37.8673973],[37.2097427,37.8856771],[37.1951673,37.8877893],[37.2032446,37.8305814],[37.2654145,37.8436581],[37.2816599,37.845385],[37.2979053,37.8414377],[37.3085273,37.8414377],[37.3260224,37.8451383],[37.3344575,37.8485921],[37.3422678,37.8564858],[37.3528897,37.8707909],[37.3553243,37.8791484],[37.3593251,37.8804033],[37.3653938,37.8789502],[37.3708958,37.8844206],[37.3739551,37.8846241],[37.3771254,37.8828107],[37.3808079,37.8872012],[37.3835203,37.8848145],[37.3921924,37.8820745],[37.3943935,37.8828235],[37.3930365,37.8869139],[37.4016686,37.8866811],[37.4082296,37.8888837],[37.4137902,37.8868127],[37.41247,37.8893983],[37.4135414,37.8931602],[37.4194522,37.8868572],[37.4224864,37.8884683],[37.4224653,37.8903897],[37.4271885,37.892179],[37.4288722,37.8904021],[37.4338571,37.8912353],[37.4411031,37.8871461],[37.442246,37.8897935],[37.44018,37.8906498],[37.4407076,37.8942226],[37.4380906,37.8962425],[37.444491,37.9002635],[37.4505824,37.900426],[37.445511,37.9066904],[37.4483535,37.9083842],[37.4506876,37.9073116],[37.4543519,37.9085546],[37.454827,37.9062893],[37.458104,37.9043419],[37.4609243,37.9048603],[37.4646075,37.8996625],[37.4708229,37.899052],[37.4723039,37.9027813],[37.4770105,37.899587],[37.4800022,37.9003627],[37.482814,37.8980702],[37.4884544,37.8976785],[37.489383,37.8941704],[37.4857009,37.8932323],[37.4787066,37.886945],[37.4792007,37.8814178],[37.482929,37.8820347],[37.4876378,37.8875711],[37.4954837,37.8918926],[37.5092959,37.9044686],[37.5356942,37.9196214],[37.5378191,37.9195569],[37.5428863,37.9114973],[37.564054,37.9006637],[37.5699385,37.8998899],[37.5828876,37.9025804],[37.5873336,37.9102154],[37.6005692,37.9146944],[37.6052351,37.9180784],[37.6078504,37.9213665],[37.5992689,37.9297474],[37.598043,37.9330995],[37.6120289,37.938501]]]}},{"type":"Feature","properties":{"code":"46-09","provinceCode":"46","name":"Onikişubat"},"geometry":{"type":"Polygon","coordinates":[[[36.640468,37.3490603],[36.6413573,37.3621237],[36.645922,37.3680923],[36.6915693,37.4031921],[36.7082439,37.4083885],[36.720872,37.420385],[36.7224396,37.4232738],[36.7229244,37.434651],[36.7316133,37.4406049],[36.7358397,37.4413804],[36.7572469,37.4595497],[36.7631963,37.4586393],[36.780422,37.4615069],[36.7857297,37.4688059],[36.7937292,37.473276],[36.8146767,37.4771336],[36.8305797,37.4819245],[36.8469244,37.4816908],[36.8541554,37.4835145],[36.8623855,37.4750301],[36.8701898,37.4722254],[36.8744481,37.4686472],[36.8819697,37.470005],[36.8915825,37.4656465],[36.8949921,37.4740013],[36.8948167,37.4941847],[36.9168596,37.526416],[36.9274528,37.5814106],[36.925391,37.5989873],[36.9228651,37.5991814],[36.9200922,37.6111422],[36.9166568,37.6142975],[36.9171522,37.6244293],[36.9464663,37.6240957],[36.9438964,37.6314351],[36.9479736,37.6361684],[36.9355214,37.6357668],[36.9355009,37.6376276],[36.9460672,37.6476131],[36.9360504,37.6594538],[36.9408785,37.6703853],[36.9321002,37.6897986],[36.9321624,37.6964205],[36.9281386,37.7048746],[36.9197272,37.7085414],[36.9073675,37.7198125],[36.9241903,37.7261942],[36.9273177,37.7512972],[36.9408415,37.7590444],[36.9429014,37.7637942],[36.9379233,37.7689508],[36.9413565,37.7760067],[36.9392966,37.7789917],[36.9415281,37.7822479],[36.9380949,37.7895738],[36.9384382,37.7954068],[36.9420431,37.8013751],[36.9668054,37.8184293],[36.9721913,37.8281414],[36.9696808,37.832497],[36.9721699,37.8357508],[36.9711613,37.8476295],[36.9731998,37.8538816],[36.9721269,37.8600314],[36.9663761,37.8685863],[36.962943,37.8724482],[36.9605827,37.8793926],[36.9603013,37.8886615],[36.9636983,37.8899135],[36.9723628,37.9036195],[36.9712369,37.9085923],[36.9816935,37.916723],[36.978469,37.9279877],[36.9702439,37.9391814],[36.9753573,37.9454458],[36.9734604,37.9497931],[36.9742691,37.9523439],[36.9789058,37.9554384],[36.9797278,37.9591986],[36.9775477,37.978476],[36.9724806,37.9870084],[36.9609644,37.9911834],[36.9469148,37.9940877],[36.934247,37.9940877],[36.911445,38.0018923],[36.9006466,38.0098329],[36.8881896,38.004745],[36.8502234,38.0080955],[36.8231914,38.0076169],[36.8105297,38.0031146],[36.8084036,38.0000032],[36.797773,37.9961736],[36.7704373,37.9966524],[36.7294338,37.9909076],[36.7096914,37.9901895],[36.66333,37.978373],[36.6503061,37.9785263],[36.6308674,37.9875659],[36.6168715,37.9918556],[36.5899994,37.9967365],[36.5750783,37.9955322],[36.5500023,37.9901704],[36.527259,37.9717841],[36.5185116,37.9587577],[36.5064596,37.9474152],[36.4951851,37.9011074],[36.497129,37.8873014],[36.4940188,37.8822385],[36.4862433,37.8535425],[36.4714699,37.8395741],[36.4619449,37.8361967],[36.4534594,37.8197315],[36.4685622,37.8147225],[36.478801,37.806229],[36.487504,37.7936891],[36.4977428,37.7855977],[36.5243636,37.7706264],[36.5361383,37.7601041],[36.548663,37.7388371],[36.5442619,37.7343325],[36.5426558,37.729785],[36.5440502,37.7223965],[36.5392431,37.7178531],[36.5264114,37.7115206],[36.5207801,37.6997747],[36.5238312,37.6657419],[36.5305438,37.6528475],[36.5390625,37.6427301],[36.5476741,37.6414719],[36.5572594,37.6428981],[36.5726126,37.6407426],[36.5876661,37.6275421],[36.5848143,37.6141221],[36.5752524,37.6026932],[36.5541156,37.5969782],[36.5406954,37.5870089],[36.5116743,37.5747782],[36.5037899,37.5682632],[36.4995961,37.5532366],[36.4875179,37.5432616],[36.4891774,37.5302613],[36.4860354,37.5288431],[36.485183,37.5260332],[36.4806371,37.5252776],[36.4798322,37.5225834],[36.4805869,37.519432],[36.4867039,37.5129363],[36.4863696,37.5091978],[36.4776205,37.5008194],[36.4761107,37.4860454],[36.4819569,37.4653716],[36.4826011,37.4553155],[36.4793038,37.4448916],[36.4688588,37.4397175],[36.4602105,37.428158],[36.4593346,37.419447],[36.4653279,37.4140848],[36.4788288,37.4168008],[36.5045944,37.4283755],[36.5139637,37.440155],[36.5186484,37.440155],[36.5251548,37.4360221],[36.5402498,37.4327155],[36.5503999,37.4265154],[36.5860554,37.4118396],[36.5850144,37.406258],[36.5733027,37.3942663],[36.5628924,37.3876494],[36.5582077,37.3808251],[36.5247054,37.355107],[36.5301156,37.3527353],[36.5527031,37.3492855],[36.5783986,37.3469706],[36.6120563,37.3480992],[36.628243,37.3452151],[36.640468,37.3490603]]]}},{"type":"Feature","properties":{"code":"46-10","provinceCode":"46","name":"Pazarcık"},"geometry":{"type":"Polygon","coordinates":[[[37.4578441,37.6723779],[37.4462709,37.6728262],[37.4341502,37.6827433],[37.4302191,37.6845581],[37.4232272,37.6846229],[37.3508097,37.6595277],[37.3193186,37.6561641],[37.3058225,37.6518109],[37.2807279,37.6380101],[37.2630288,37.6353284],[37.2512463,37.6171715],[37.2472571,37.5996803],[37.2362707,37.5913835],[37.2316359,37.5809091],[37.2321509,37.5701612],[37.2206495,37.5594116],[37.2105215,37.5592755],[37.2064017,37.5553292],[37.1998785,37.5530156],[37.194557,37.5487966],[37.1959303,37.5404941],[37.2139548,37.5334159],[37.1895788,37.5233418],[37.1799658,37.5211634],[37.1808241,37.5139471],[37.1876906,37.5140833],[37.1919821,37.5045513],[37.206745,37.5075472],[37.2254561,37.5010106],[37.2148131,37.4944733],[37.2134398,37.4899787],[37.2165297,37.4867096],[37.1811674,37.4521037],[37.1703528,37.4324774],[37.1506117,37.4178907],[37.1361922,37.3996192],[37.129669,37.4038466],[37.1270941,37.3981191],[37.1183394,37.390891],[37.1075247,37.3741135],[37.1044348,37.3664738],[37.0943068,37.3626536],[37.1013449,37.3559678],[37.044525,37.3346785],[37.0280455,37.3390461],[37.0244406,37.3466886],[37.0167147,37.355262],[37.0106522,37.354474],[37.0044747,37.3480967],[37.0136915,37.3434063],[37.0141501,37.3285437],[37.0182692,37.308844],[37.0154285,37.2953593],[36.9851789,37.2964911],[36.9654134,37.2946987],[36.9694407,37.2899751],[36.9670284,37.2752827],[36.9689433,37.2664443],[36.9838883,37.2559586],[37.0033911,37.2452757],[37.0095129,37.233372],[36.996092,37.2046179],[36.9991338,37.1924106],[37.0055753,37.1809892],[37.0698298,37.1949467],[37.0924097,37.2051661],[37.1119035,37.2165686],[37.1214346,37.234248],[37.1384754,37.2438612],[37.1655342,37.2539868],[37.1895387,37.274108],[37.1972819,37.2839488],[37.2128389,37.2939237],[37.2306,37.3240227],[37.2454875,37.3310692],[37.26629,37.3347664],[37.2815545,37.3325698],[37.2972724,37.3228879],[37.3372837,37.3236716],[37.3610165,37.3302534],[37.3762246,37.330679],[37.3924486,37.3376787],[37.4451388,37.3707609],[37.4468615,37.3821864],[37.4515161,37.3926975],[37.4544516,37.3917317],[37.4688462,37.3948582],[37.4764711,37.392326],[37.4785996,37.3941574],[37.4970309,37.3973119],[37.5067131,37.4018049],[37.532905,37.4258105],[37.544317,37.4449874],[37.5712486,37.477468],[37.5817771,37.481553],[37.6037704,37.4834572],[37.6033388,37.490042],[37.5813531,37.5210817],[37.5783759,37.5426587],[37.5870767,37.5760561],[37.586324,37.5831633],[37.5644119,37.5987922],[37.5632484,37.6055033],[37.5583012,37.606894],[37.5538328,37.6103706],[37.5498431,37.6081582],[37.5422088,37.6069298],[37.5273919,37.5907474],[37.5175268,37.5906463],[37.5077122,37.5859673],[37.5081881,37.5790962],[37.4986736,37.5755114],[37.4941503,37.5706901],[37.4957101,37.560923],[37.4713595,37.562552],[37.4584319,37.5736571],[37.4506751,37.5740043],[37.4495825,37.6001687],[37.4514193,37.6064323],[37.4455002,37.6162597],[37.448406,37.6230036],[37.4421559,37.6348937],[37.435966,37.6409023],[37.4421559,37.6499122],[37.4455407,37.6507347],[37.4468042,37.6531609],[37.451754,37.6544555],[37.4541779,37.6676823],[37.4578441,37.6723779]]]}},{"type":"Feature","properties":{"code":"46-11","provinceCode":"46","name":"Türkoğlu"},"geometry":{"type":"Polygon","coordinates":[[[36.6931381,37.2161761],[36.714,37.2197566],[36.7200504,37.2187449],[36.7405899,37.2293467],[36.746391,37.2369043],[36.7524151,37.2330845],[36.7622355,37.232544],[36.7660738,37.2311437],[36.7661736,37.2296828],[36.7683191,37.2306555],[36.771499,37.2283798],[36.7754357,37.2338099],[36.7811456,37.2343727],[36.7815534,37.2357058],[36.785468,37.2360199],[36.7855664,37.2374889],[36.7954405,37.2387522],[36.8020738,37.2367062],[36.8102534,37.2366687],[36.8132467,37.2343784],[36.8133502,37.2375229],[36.8153175,37.2373565],[36.8211253,37.243801],[36.8322072,37.2449035],[36.8379658,37.2433719],[36.8359256,37.2535261],[36.8383886,37.2552211],[36.8435841,37.2557203],[36.8462769,37.2621568],[36.8521428,37.2634356],[36.8555758,37.2698034],[36.8544083,37.2765971],[36.8759961,37.2911662],[36.8795266,37.3117906],[36.8879857,37.3182652],[36.8905876,37.3230933],[36.8957914,37.323783],[36.9067772,37.3166558],[36.9173976,37.3164617],[36.9423139,37.3087006],[36.9654134,37.2946987],[36.9851789,37.2964911],[37.0154285,37.2953593],[37.0182692,37.308844],[37.0141501,37.3285437],[37.0136915,37.3434063],[37.0044747,37.3480967],[37.0106522,37.354474],[37.0167147,37.355262],[37.0167158,37.3713851],[37.0083044,37.3776603],[37.0068916,37.3862607],[36.9922309,37.3897495],[36.9851052,37.393313],[36.9819977,37.397334],[36.9677845,37.4030696],[36.9502554,37.4229499],[36.9054916,37.4449316],[36.9005231,37.4590186],[36.8915825,37.4656465],[36.8819697,37.470005],[36.8744481,37.4686472],[36.8701898,37.4722254],[36.8623855,37.4750301],[36.8541554,37.4835145],[36.8469244,37.4816908],[36.8305797,37.4819245],[36.8146767,37.4771336],[36.7937292,37.473276],[36.7857297,37.4688059],[36.780422,37.4615069],[36.7631963,37.4586393],[36.7572469,37.4595497],[36.7358397,37.4413804],[36.7316133,37.4406049],[36.7229244,37.434651],[36.7224396,37.4232738],[36.720872,37.420385],[36.7082439,37.4083885],[36.6915693,37.4031921],[36.645922,37.3680923],[36.6413573,37.3621237],[36.640468,37.3490603],[36.6527596,37.3521038],[36.6712595,37.360961],[36.6855595,37.3640842],[36.6913618,37.3583128],[36.6697005,37.3302386],[36.6502911,37.3187523],[36.6421556,37.3102926],[36.6350548,37.3060682],[36.6305018,37.2979077],[36.6369381,37.2919761],[36.65937,37.2724258],[36.6880281,37.2782119],[36.6850609,37.270477],[36.6757177,37.2632346],[36.6743049,37.25902],[36.6762641,37.2548116],[36.6711336,37.24207],[36.6767323,37.2428659],[36.6892423,37.2406733],[36.6927209,37.2328371],[36.691983,37.2265055],[36.6965365,37.2202735],[36.6931381,37.2161761]]]}}]}