{"type":"FeatureCollection","features":[{"type":"Feature","properties":{"code":"27-01","provinceCode":"27","name":"Araban"},"geometry":{"type":"Polygon","coordinates":[[[37.4970309,37.3973119],[37.4977397,37.3903291],[37.5021135,37.3792079],[37.5124358,37.3741499],[37.5211836,37.3728986],[37.5316808,37.3759573],[37.5461577,37.3874203],[37.55648,37.3922855],[37.5710012,37.3940925],[37.5827231,37.3932585],[37.5950209,37.3848776],[37.6149657,37.3759802],[37.6338608,37.3727824],[37.6933387,37.37324],[37.7213315,37.377689],[37.7834377,37.3719482],[37.8157468,37.3600657],[37.8741573,37.3426473],[37.9035114,37.3595],[37.9215358,37.3787361],[37.9338954,37.3863064],[37.9398177,37.3995356],[37.9496883,37.4077856],[37.9634212,37.4150121],[37.9683135,37.4212155],[37.9697726,37.4281681],[37.9750941,37.4349837],[37.9811095,37.4380413],[37.9895137,37.4403676],[38.0104564,37.4353926],[38.0283092,37.4424802],[38.0371689,37.4426835],[38.0450225,37.4397497],[38.0596487,37.4299799],[38.0626414,37.4291223],[38.066933,37.430281],[38.0750869,37.4441157],[38.0809598,37.4479079],[38.0796738,37.4610584],[38.0760636,37.463924],[38.0631272,37.4684609],[38.0416631,37.472918],[38.0000034,37.4754649],[37.9677736,37.4729765],[37.9308229,37.4678043],[37.8977106,37.4661661],[37.8610024,37.4666592],[37.8376565,37.4697605],[37.8173538,37.4758989],[37.797996,37.4859833],[37.7478151,37.5221904],[37.7314597,37.5270811],[37.719488,37.5265556],[37.7011166,37.52067],[37.6710903,37.5169997],[37.6494776,37.5116811],[37.6401234,37.5166377],[37.6366615,37.515346],[37.6300378,37.5048374],[37.6292225,37.4880206],[37.6037704,37.4834572],[37.5817771,37.481553],[37.5712486,37.477468],[37.544317,37.4449874],[37.532905,37.4258105],[37.5067131,37.4018049],[37.4970309,37.3973119]]]}},{"type":"Feature","properties":{"code":"27-02","provinceCode":"27","name":"Hasanbeyli"},"geometry":{"type":"Polygon","coordinates":[[[36.4505107,37.1706668],[36.4488989,37.1673894],[36.4550126,37.1652303],[36.4722889,37.1189554],[36.4603191,37.1058658],[36.4602123,37.0938492],[36.4688627,37.0797775],[36.4822622,37.0659738],[36.5010894,37.053792],[36.5138105,37.0479711],[36.5343339,37.0414728],[36.5480924,37.0409811],[36.5506137,37.0485918],[36.5622654,37.0513246],[36.5720239,37.0728119],[36.5734526,37.0924883],[36.5827608,37.0952047],[36.5880042,37.102439],[36.595872,37.1031401],[36.6007331,37.1088712],[36.6072121,37.111015],[36.6175618,37.118561],[36.6237938,37.1261465],[36.6180332,37.1410695],[36.59537,37.1432136],[36.5774761,37.1477165],[36.5619139,37.1553581],[36.553577,37.1660439],[36.5472549,37.1690888],[36.5375893,37.1689954],[36.5124049,37.1593931],[36.5086055,37.1593066],[36.4846152,37.1663138],[36.4505107,37.1706668]]]}},{"type":"Feature","properties":{"code":"27-03","provinceCode":"27","name":"İslahiye"},"geometry":{"type":"Polygon","coordinates":[[[36.6180332,37.1410695],[36.6237938,37.1261465],[36.6175618,37.118561],[36.6072121,37.111015],[36.6007331,37.1088712],[36.595872,37.1031401],[36.5880042,37.102439],[36.5827608,37.0952047],[36.5734526,37.0924883],[36.5720239,37.0728119],[36.5622654,37.0513246],[36.5506137,37.0485918],[36.5480924,37.0409811],[36.5239473,37.0126684],[36.5049754,37.0003153],[36.4870471,36.9914561],[36.4719651,36.9874723],[36.4606509,36.9787552],[36.4570903,36.9652962],[36.4428239,36.9330997],[36.4482614,36.931072],[36.4614947,36.9194321],[36.4634928,36.9188062],[36.4763977,36.9032289],[36.4942286,36.8930202],[36.5096276,36.8875522],[36.5219641,36.8861681],[36.5323275,36.8790426],[36.5714735,36.8640238],[36.6180584,36.856855],[36.627407,36.8539188],[36.6425195,36.8459089],[36.6651945,36.8267665],[36.6656696,36.8283613],[36.6698448,36.8290154],[36.6851866,36.8252455],[36.6941571,36.827268],[36.7030325,36.8265542],[36.7049599,36.8252455],[36.7065541,36.8262925],[36.7112892,36.8255072],[36.7123606,36.8267519],[36.7204745,36.8573249],[36.7473593,36.8705725],[36.7602356,36.8802029],[36.7850955,36.9071019],[36.8149216,36.919862],[36.8344639,36.9059667],[36.8618916,36.8918072],[36.8722901,36.8916585],[36.8825549,36.89585],[36.8833921,36.8974005],[36.8803831,36.9004844],[36.8833249,36.9013622],[36.8847311,36.9035761],[36.8818864,36.9069717],[36.8893658,36.9139494],[36.886361,36.9165076],[36.8873283,36.9202799],[36.8835637,36.9214773],[36.8802431,36.9274255],[36.8897758,36.9320726],[36.89503,36.9383138],[36.9045936,36.9443878],[36.9190983,36.949653],[36.9268846,36.9559572],[36.9339508,36.9769312],[36.95215,37.0001942],[36.9508661,37.0138315],[36.9768539,37.0244718],[36.87888,37.0351428],[36.8375951,37.0295462],[36.8189001,37.0301681],[36.8108193,37.0343652],[36.8039806,37.0336316],[36.8002356,37.0428189],[36.7960381,37.045138],[36.7685983,37.0487745],[36.7618277,37.0543108],[36.7593097,37.0817647],[36.744899,37.0932604],[36.7129617,37.1047543],[36.696993,37.1137618],[36.6786875,37.1327052],[36.6611609,37.156921],[36.6565253,37.1710982],[36.6479138,37.1619606],[36.6462247,37.1578684],[36.6256856,37.1537221],[36.6216911,37.1445394],[36.6180332,37.1410695]]]}},{"type":"Feature","properties":{"code":"27-04","provinceCode":"27","name":"Karkamış"},"geometry":{"type":"Polygon","coordinates":[[[37.7672743,36.8158991],[37.7627691,36.800691],[37.7652898,36.788821],[37.7786094,36.7705131],[37.7881325,36.752471],[37.7997093,36.7632778],[37.8259216,36.7683653],[37.8776629,36.7876064],[37.9035013,36.7917964],[37.9249165,36.8109384],[37.9407121,36.8185642],[37.9635,36.8207962],[37.9933487,36.8319709],[38.0005708,36.8287809],[38.0008927,36.8301406],[38.0082493,36.829101],[38.0156752,36.8255114],[38.0250356,36.83034],[38.0214361,36.8373447],[38.0241893,36.8558466],[38.0305408,36.8673835],[38.0370639,36.8738379],[38.0386045,36.8833234],[38.0214427,36.8986891],[38.0099414,36.9169448],[38.0071948,36.9305308],[38.0081182,36.9535596],[37.9683919,36.9528015],[37.9499318,36.9495663],[37.9219179,36.9419308],[37.8984379,36.9315763],[37.8806256,36.9125463],[37.8624894,36.8986915],[37.844839,36.8907919],[37.813088,36.8682906],[37.8103478,36.8559461],[37.8022513,36.8528364],[37.7902684,36.8534842],[37.7782856,36.8515406],[37.7698652,36.8441545],[37.7677601,36.8344348],[37.7672743,36.8158991]]]}},{"type":"Feature","properties":{"code":"27-05","provinceCode":"27","name":"Musabeyli"},"geometry":{"type":"Polygon","coordinates":[[[37.0891752,36.9043492],[37.0680007,36.9336404],[37.0714963,36.9383038],[37.0639054,36.9412896],[37.0613855,36.9452383],[37.0618034,36.9472346],[37.0649671,36.9473315],[37.0651229,36.9490285],[37.0702618,36.9514496],[37.0705405,36.9552297],[37.0750007,36.9534841],[37.0722611,36.9639577],[37.0665512,36.9613494],[37.0647831,36.9643635],[37.0662954,36.9658707],[37.0647877,36.9669498],[37.0527177,36.9684235],[37.0490724,36.9721162],[37.0571222,36.9817146],[37.0664428,36.987915],[37.0640061,36.9960277],[37.0484035,36.9963269],[37.0410821,36.9998531],[37.0372714,36.993781],[37.0342452,36.9964143],[37.0169631,36.9960162],[37.0175368,37.0002987],[37.0134211,37.0033587],[37.0084325,37.0047162],[37.0097421,37.0062506],[37.0051941,37.0100068],[37.004604,37.0170332],[37.0042177,37.0177513],[37.0000497,37.0225141],[37.0015264,37.0300644],[37.0041836,37.0314461],[36.9937196,37.0346424],[36.9768539,37.0244718],[36.9508661,37.0138315],[36.95215,37.0001942],[36.9339508,36.9769312],[36.9268846,36.9559572],[36.9190983,36.949653],[36.9045936,36.9443878],[36.89503,36.9383138],[36.8897758,36.9320726],[36.8802431,36.9274255],[36.8835637,36.9214773],[36.8873283,36.9202799],[36.886361,36.9165076],[36.8893658,36.9139494],[36.8818864,36.9069717],[36.8847311,36.9035761],[36.8833249,36.9013622],[36.8803831,36.9004844],[36.8833921,36.8974005],[36.8825549,36.89585],[36.8722901,36.8916585],[36.8618916,36.8918072],[36.8344639,36.9059667],[36.8149216,36.919862],[36.7850955,36.9071019],[36.7602356,36.8802029],[36.7737196,36.876055],[36.7791391,36.8710422],[36.7893008,36.8528848],[36.8023415,36.8489547],[36.827053,36.8476762],[36.828531,36.8507223],[36.8342908,36.8511081],[36.839744,36.8451623],[36.8387005,36.8414717],[36.8464427,36.8365417],[36.8495538,36.8360607],[36.8576519,36.82986],[36.8655287,36.8309377],[36.8689586,36.8280124],[36.8839079,36.8333356],[36.8856247,36.8330931],[36.8859613,36.8298061],[36.9033827,36.8264877],[36.9129394,36.8269161],[36.9149523,36.832527],[36.9428181,36.8354707],[36.9493225,36.8417472],[36.9895881,36.8393654],[36.991779,36.8295771],[36.995189,36.8345645],[37.0043651,36.8387939],[37.0071037,36.8394085],[37.0103028,36.8380365],[37.0105084,36.8425739],[37.0187786,36.843871],[37.0208371,36.8511665],[37.0229799,36.8505613],[37.0279122,36.8534751],[37.0304079,36.8526314],[37.0338597,36.854987],[37.0279868,36.8578511],[37.0308491,36.8611762],[37.0330458,36.8591584],[37.0351842,36.859459],[37.0332686,36.8615894],[37.0365952,36.8659747],[37.0346055,36.8679954],[37.0360692,36.8695349],[37.0392033,36.8658726],[37.0417428,36.8660939],[37.0413747,36.8694018],[37.0365525,36.873569],[37.0409243,36.8747906],[37.0385699,36.8784126],[37.0442759,36.8789339],[37.0466206,36.875132],[37.0462971,36.8803571],[37.0615839,36.8820817],[37.0731354,36.8896875],[37.0891752,36.9043492]]]}},{"type":"Feature","properties":{"code":"27-06","provinceCode":"27","name":"Nizip"},"geometry":{"type":"Polygon","coordinates":[[[37.6543362,37.2290192],[37.6297423,37.2184829],[37.6201277,37.2063927],[37.6145606,37.1669314],[37.6113858,37.1604742],[37.6191974,37.1546026],[37.6219619,37.1502455],[37.6468331,37.1459505],[37.6550289,37.1374654],[37.6739062,37.1423523],[37.6950548,37.1353761],[37.7045353,37.1196773],[37.6916314,37.1114656],[37.6918947,37.0981588],[37.6765503,37.0740812],[37.671996,37.0076367],[37.6644017,36.9950818],[37.6641525,36.9817702],[37.6692128,36.9664078],[37.6828757,36.945785],[37.6828757,36.9395162],[37.6798395,36.9302131],[37.6704779,36.9219203],[37.6707309,36.9000715],[37.6798395,36.8873234],[37.7218402,36.8626307],[37.7317078,36.851901],[37.7357561,36.8448146],[37.7372742,36.8280069],[37.749672,36.8215259],[37.7672743,36.8158991],[37.7677601,36.8344348],[37.7698652,36.8441545],[37.7782856,36.8515406],[37.7902684,36.8534842],[37.8022513,36.8528364],[37.8103478,36.8559461],[37.813088,36.8682906],[37.844839,36.8907919],[37.8624894,36.8986915],[37.8806256,36.9125463],[37.8984379,36.9315763],[37.9219179,36.9419308],[37.9499318,36.9495663],[37.9683919,36.9528015],[38.0081182,36.9535596],[38.0074337,36.9581199],[38.0041049,36.9623592],[37.990887,36.9663368],[37.9780425,36.9733273],[37.9663846,36.9869314],[37.9623912,36.9995212],[37.9636937,37.0061989],[37.969974,37.0187121],[37.9654806,37.0219183],[37.9601872,37.0202857],[37.9583322,37.0251352],[37.9539027,37.0282923],[37.9521196,37.0317278],[37.9516241,37.0335671],[37.9549976,37.0339315],[37.9535226,37.0372189],[37.9571853,37.0376901],[37.9651482,37.0358529],[37.9670876,37.0366557],[37.9763196,37.0320384],[37.9805873,37.0400907],[37.981274,37.0470786],[37.9776691,37.0535177],[37.9721759,37.0568056],[37.9602975,37.0556319],[37.9526065,37.0525588],[37.9441951,37.0444753],[37.9398238,37.0425424],[37.9335521,37.0403648],[37.9227675,37.0402753],[37.9133225,37.0419383],[37.9021381,37.0489967],[37.8949283,37.0509147],[37.8741573,37.0643398],[37.8695224,37.0705036],[37.8666536,37.0786054],[37.8691791,37.0961123],[37.8743289,37.1069283],[37.8783186,37.1263883],[37.8757022,37.1405986],[37.8633426,37.1544183],[37.8502963,37.1693298],[37.8441616,37.1791533],[37.8351901,37.2066639],[37.8363918,37.213363],[37.8402613,37.2238914],[37.8484081,37.224709],[37.8564761,37.2230687],[37.8697125,37.2130503],[37.8747176,37.2119373],[37.8786205,37.2134997],[37.882397,37.2176009],[37.8810237,37.2251191],[37.8640017,37.2441194],[37.8488372,37.2498555],[37.8412419,37.2638532],[37.8408549,37.2677536],[37.8430865,37.2720567],[37.8373992,37.2741001],[37.8358586,37.2732995],[37.8354813,37.2684206],[37.8277468,37.2670194],[37.8259233,37.2651929],[37.81976,37.2650906],[37.8109744,37.2690661],[37.7915881,37.2715809],[37.7873103,37.2698104],[37.7821077,37.2711457],[37.7741458,37.2690513],[37.7663851,37.2690223],[37.7507854,37.2574378],[37.7246164,37.2472188],[37.7051211,37.2456008],[37.6898807,37.2378735],[37.6696438,37.2369183],[37.6543362,37.2290192]]]}},{"type":"Feature","properties":{"code":"27-07","provinceCode":"27","name":"Nurdağı"},"geometry":{"type":"Polygon","coordinates":[[[36.6565253,37.1710982],[36.6611609,37.156921],[36.6786875,37.1327052],[36.696993,37.1137618],[36.7129617,37.1047543],[36.744899,37.0932604],[36.7593097,37.0817647],[36.7618277,37.0543108],[36.7685983,37.0487745],[36.7960381,37.045138],[36.8002356,37.0428189],[36.8039806,37.0336316],[36.8108193,37.0343652],[36.8189001,37.0301681],[36.8375951,37.0295462],[36.87888,37.0351428],[36.9768539,37.0244718],[36.9937196,37.0346424],[37.0041836,37.0314461],[37.0015264,37.0300644],[37.0000497,37.0225141],[37.0042177,37.0177513],[37.0133572,37.0558686],[37.0285469,37.1015459],[37.0347786,37.1416074],[37.0234837,37.1645788],[37.0055753,37.1809892],[36.9991338,37.1924106],[36.996092,37.2046179],[37.0095129,37.233372],[37.0033911,37.2452757],[36.9838883,37.2559586],[36.9689433,37.2664443],[36.9670284,37.2752827],[36.9694407,37.2899751],[36.9654134,37.2946987],[36.9423139,37.3087006],[36.9173976,37.3164617],[36.9067772,37.3166558],[36.8957914,37.323783],[36.8905876,37.3230933],[36.8879857,37.3182652],[36.8795266,37.3117906],[36.8759961,37.2911662],[36.8544083,37.2765971],[36.8555758,37.2698034],[36.8521428,37.2634356],[36.8462769,37.2621568],[36.8435841,37.2557203],[36.8383886,37.2552211],[36.8359256,37.2535261],[36.8379658,37.2433719],[36.8322072,37.2449035],[36.8211253,37.243801],[36.8153175,37.2373565],[36.8133502,37.2375229],[36.8132467,37.2343784],[36.8102534,37.2366687],[36.8020738,37.2367062],[36.7954405,37.2387522],[36.7855664,37.2374889],[36.785468,37.2360199],[36.7815534,37.2357058],[36.7811456,37.2343727],[36.7754357,37.2338099],[36.771499,37.2283798],[36.7683191,37.2306555],[36.7661736,37.2296828],[36.7660738,37.2311437],[36.7622355,37.232544],[36.7524151,37.2330845],[36.746391,37.2369043],[36.7405899,37.2293467],[36.7200504,37.2187449],[36.714,37.2197566],[36.6931381,37.2161761],[36.6795332,37.1839792],[36.6565253,37.1710982]]]}},{"type":"Feature","properties":{"code":"27-08","provinceCode":"27","name":"Oğuzeli"},"geometry":{"type":"Polygon","coordinates":[[[37.5727431,36.7058108],[37.6220349,36.7247781],[37.6592735,36.7493817],[37.6653411,36.7490962],[37.6732885,36.7440041],[37.6827436,36.7439893],[37.697607,36.7560689],[37.7027913,36.757683],[37.7288513,36.7517021],[37.7794333,36.7490073],[37.7881325,36.752471],[37.7786094,36.7705131],[37.7652898,36.788821],[37.7627691,36.800691],[37.7672743,36.8158991],[37.749672,36.8215259],[37.7372742,36.8280069],[37.7357561,36.8448146],[37.7317078,36.851901],[37.7218402,36.8626307],[37.6798395,36.8873234],[37.6707309,36.9000715],[37.6704779,36.9219203],[37.6798395,36.9302131],[37.6828757,36.9395162],[37.6828757,36.945785],[37.6692128,36.9664078],[37.6641525,36.9817702],[37.6644017,36.9950818],[37.6122176,37.0062459],[37.6052069,36.9984699],[37.576289,37.0019638],[37.5610993,37.0106726],[37.5568151,37.0318182],[37.5427938,37.0473627],[37.5226684,37.0617922],[37.5198091,37.0594804],[37.5221133,37.0533501],[37.5139877,37.0529853],[37.5130268,37.0454521],[37.5161665,37.0427694],[37.5156832,37.0375121],[37.5144398,37.0357977],[37.512066,37.037061],[37.5099748,37.0334065],[37.5057059,37.0321939],[37.5020056,37.0282628],[37.5041533,37.0186062],[37.4975406,37.0202307],[37.4939233,37.0138677],[37.4987826,37.0088065],[37.4949407,37.005789],[37.4925104,37.0062403],[37.4896844,37.0030357],[37.4807544,37.003487],[37.4747068,37.0022684],[37.4695635,36.9966712],[37.4674158,36.9992441],[37.4643316,36.9977101],[37.4631769,36.9942787],[37.4496688,36.9959038],[37.4429367,36.9984677],[37.437178,36.994685],[37.4313,36.9951364],[37.4315925,36.9924349],[37.4422082,36.989629],[37.4436777,36.9871911],[37.4418126,36.9860173],[37.4424908,36.9791547],[37.4501774,36.9750911],[37.4452593,36.9695335],[37.4560362,36.9474392],[37.4346149,36.8695827],[37.4195254,36.8725002],[37.4132938,36.8531803],[37.4167991,36.8416483],[37.4094,36.8265],[37.4151,36.8258],[37.4224,36.8195],[37.4306,36.8164],[37.4326,36.817],[37.4338,36.8151],[37.4436,36.8146],[37.4454,36.8162],[37.4452,36.8134],[37.4493,36.8135],[37.449,36.8087],[37.4474,36.8084],[37.4468,36.7946],[37.4527,36.7931],[37.4533,36.7885],[37.458,36.7857],[37.4631,36.7859],[37.477,36.7814],[37.4763,36.7837],[37.4893,36.7821],[37.4896,36.7846],[37.493,36.7841],[37.4911,36.7747],[37.4928,36.7759],[37.4988,36.7708],[37.4973,36.767],[37.4875,36.7651],[37.4914,36.752],[37.5017,36.7526],[37.5072,36.7505],[37.5086,36.7425],[37.5105,36.7421],[37.5114,36.7388],[37.5163,36.7396],[37.5168,36.7373],[37.5187,36.7407],[37.5312,36.7442],[37.5393,36.7427],[37.5441,36.7309],[37.5417,36.7288],[37.5442,36.7225],[37.5508,36.7264],[37.5545,36.7252],[37.5579,36.7202],[37.5651,36.7158],[37.5727431,36.7058108]]]}},{"type":"Feature","properties":{"code":"27-09","provinceCode":"27","name":"Şahinbey"},"geometry":{"type":"Polygon","coordinates":[[[37.4094,36.8265],[37.4167991,36.8416483],[37.4132938,36.8531803],[37.4195254,36.8725002],[37.4346149,36.8695827],[37.4560362,36.9474392],[37.4452593,36.9695335],[37.4501774,36.9750911],[37.4424908,36.9791547],[37.4418126,36.9860173],[37.4436777,36.9871911],[37.4422082,36.989629],[37.4315925,36.9924349],[37.4313,36.9951364],[37.437178,36.994685],[37.4429367,36.9984677],[37.4496688,36.9959038],[37.4631769,36.9942787],[37.4643316,36.9977101],[37.4674158,36.9992441],[37.4695635,36.9966712],[37.4747068,37.0022684],[37.4807544,37.003487],[37.4896844,37.0030357],[37.4925104,37.0062403],[37.4949407,37.005789],[37.4987826,37.0088065],[37.4939233,37.0138677],[37.4975406,37.0202307],[37.5041533,37.0186062],[37.5020056,37.0282628],[37.5057059,37.0321939],[37.5099748,37.0334065],[37.512066,37.037061],[37.5144398,37.0357977],[37.5156832,37.0375121],[37.5161665,37.0427694],[37.5130268,37.0454521],[37.5139877,37.0529853],[37.5221133,37.0533501],[37.5198091,37.0594804],[37.5226684,37.0617922],[37.5158528,37.0625474],[37.5118399,37.0606982],[37.5079966,37.0632239],[37.5065391,37.0612406],[37.5009345,37.0629771],[37.4984449,37.0560976],[37.5015556,37.0541273],[37.4998013,37.0533462],[37.4942624,37.0557368],[37.4897409,37.0544287],[37.4878609,37.0509436],[37.4814399,37.0506655],[37.4763875,37.0480566],[37.4772918,37.0453951],[37.4758788,37.0444478],[37.46495,37.0475574],[37.4643957,37.0448592],[37.4617566,37.0446597],[37.4502659,37.0485583],[37.4511702,37.045987],[37.4497573,37.044769],[37.4454618,37.0480621],[37.4419546,37.0472394],[37.4421272,37.0458968],[37.4395273,37.0470246],[37.4309929,37.046393],[37.4296364,37.0407089],[37.4261779,37.0441257],[37.4254307,37.0487551],[37.4240483,37.049098],[37.4250384,37.05],[37.4201069,37.0541296],[37.4181724,37.0581046],[37.4111518,37.0613592],[37.4063762,37.0603512],[37.3896745,37.0689123],[37.3822515,37.0677833],[37.3769089,37.0643254],[37.3703422,37.0647903],[37.3638499,37.0627713],[37.347468,37.0626502],[37.3407999,37.0612135],[37.3345381,37.062628],[37.3202871,37.0370158],[37.3110947,37.026733],[37.3090859,37.0279284],[37.3036661,37.0601549],[37.3147804,37.0808146],[37.3068695,37.0839822],[37.3028183,37.0889249],[37.3049096,37.0996094],[37.3034966,37.1024493],[37.2909077,37.1098843],[37.2865973,37.1097966],[37.2884059,37.1079035],[37.2815106,37.1073175],[37.2785716,37.1089402],[37.2772716,37.106371],[37.2730327,37.104613],[37.2712806,37.1056498],[37.2673243,37.1047482],[37.2636505,37.1062357],[37.2590755,37.1136075],[37.2469185,37.118774],[37.22793,37.1231123],[37.2192622,37.127108],[37.2146369,37.1316434],[37.2101582,37.1272465],[37.2122364,37.1222756],[37.2041634,37.1136712],[37.2027217,37.1092756],[37.2007264,37.1071695],[37.1986483,37.107297],[37.1992078,37.1039184],[37.1967299,37.1060858],[37.1893763,37.100731],[37.0245245,37.0646292],[37.018692,37.0516198],[37.0349942,37.041512],[37.0381352,37.0345476],[37.0363902,37.0281397],[37.0283634,37.0222886],[37.004604,37.0170332],[37.0051941,37.0100068],[37.0097421,37.0062506],[37.0084325,37.0047162],[37.0134211,37.0033587],[37.0175368,37.0002987],[37.0169631,36.9960162],[37.0342452,36.9964143],[37.0372714,36.993781],[37.0410821,36.9998531],[37.0484035,36.9963269],[37.0640061,36.9960277],[37.0664428,36.987915],[37.0571222,36.9817146],[37.0490724,36.9721162],[37.0527177,36.9684235],[37.0647877,36.9669498],[37.0662954,36.9658707],[37.0647831,36.9643635],[37.0665512,36.9613494],[37.0722611,36.9639577],[37.0750007,36.9534841],[37.0705405,36.9552297],[37.0702618,36.9514496],[37.0651229,36.9490285],[37.0649671,36.9473315],[37.0618034,36.9472346],[37.0613855,36.9452383],[37.0639054,36.9412896],[37.0714963,36.9383038],[37.0680007,36.9336404],[37.0891752,36.9043492],[37.10195,36.898027],[37.1134666,36.8951015],[37.1251633,36.8951049],[37.1526637,36.8909464],[37.1648167,36.8833983],[37.1890692,36.8807973],[37.2211357,36.8806151],[37.2569489,36.8773292],[37.2779584,36.8716512],[37.2969409,36.8603722],[37.3083662,36.8464653],[37.309383,36.835483],[37.302788,36.8197464],[37.3028985,36.7824591],[37.3059053,36.7693863],[37.3156965,36.7602707],[37.3518564,36.7427125],[37.3596,36.7307],[37.3648,36.7327],[37.3661,36.7286],[37.3693,36.7262],[37.3691,36.7238],[37.3832,36.7276],[37.3927,36.7285],[37.3858,36.7419],[37.3844,36.7488],[37.3975,36.7595],[37.401,36.7688],[37.391,36.771],[37.3826,36.7758],[37.3863,36.7839],[37.3831,36.7833],[37.385,36.7872],[37.3818,36.7941],[37.3807,36.8041],[37.4047,36.807],[37.4031,36.8105],[37.4038,36.8141],[37.4056,36.8144],[37.4094,36.8265]]]}},{"type":"Feature","properties":{"code":"27-10","provinceCode":"27","name":"Şehitkamil"},"geometry":{"type":"Polygon","coordinates":[[[37.6543362,37.2290192],[37.6184559,37.2342309],[37.6072118,37.244115],[37.5926882,37.2474716],[37.5828496,37.2469121],[37.5694972,37.2424367],[37.554505,37.2340444],[37.5336565,37.2180033],[37.5125738,37.2103545],[37.5055462,37.2181898],[37.5132765,37.224159],[37.4910225,37.2377744],[37.4863754,37.2505874],[37.4872538,37.2655031],[37.4749556,37.2925302],[37.4503591,37.3328198],[37.4451388,37.3707609],[37.3924486,37.3376787],[37.3762246,37.330679],[37.3610165,37.3302534],[37.3372837,37.3236716],[37.2972724,37.3228879],[37.2815545,37.3325698],[37.26629,37.3347664],[37.2454875,37.3310692],[37.2306,37.3240227],[37.2128389,37.2939237],[37.1972819,37.2839488],[37.1895387,37.274108],[37.1655342,37.2539868],[37.1384754,37.2438612],[37.1214346,37.234248],[37.1119035,37.2165686],[37.0924097,37.2051661],[37.0698298,37.1949467],[37.0055753,37.1809892],[37.0234837,37.1645788],[37.0347786,37.1416074],[37.0285469,37.1015459],[37.0133572,37.0558686],[37.0042177,37.0177513],[37.004604,37.0170332],[37.0283634,37.0222886],[37.0363902,37.0281397],[37.0381352,37.0345476],[37.0349942,37.041512],[37.018692,37.0516198],[37.0245245,37.0646292],[37.1893763,37.100731],[37.1967299,37.1060858],[37.1992078,37.1039184],[37.1986483,37.107297],[37.2007264,37.1071695],[37.2027217,37.1092756],[37.2041634,37.1136712],[37.2122364,37.1222756],[37.2101582,37.1272465],[37.2146369,37.1316434],[37.2192622,37.127108],[37.22793,37.1231123],[37.2469185,37.118774],[37.2590755,37.1136075],[37.2636505,37.1062357],[37.2673243,37.1047482],[37.2712806,37.1056498],[37.2730327,37.104613],[37.2772716,37.106371],[37.2785716,37.1089402],[37.2815106,37.1073175],[37.2884059,37.1079035],[37.2865973,37.1097966],[37.2909077,37.1098843],[37.3034966,37.1024493],[37.3049096,37.0996094],[37.3028183,37.0889249],[37.3068695,37.0839822],[37.3147804,37.0808146],[37.3036661,37.0601549],[37.3090859,37.0279284],[37.3110947,37.026733],[37.3202871,37.0370158],[37.3345381,37.062628],[37.3407999,37.0612135],[37.347468,37.0626502],[37.3638499,37.0627713],[37.3703422,37.0647903],[37.3769089,37.0643254],[37.3822515,37.0677833],[37.3896745,37.0689123],[37.4063762,37.0603512],[37.4111518,37.0613592],[37.4181724,37.0581046],[37.4201069,37.0541296],[37.4250384,37.05],[37.4240483,37.049098],[37.4254307,37.0487551],[37.4261779,37.0441257],[37.4296364,37.0407089],[37.4309929,37.046393],[37.4395273,37.0470246],[37.4421272,37.0458968],[37.4419546,37.0472394],[37.4454618,37.0480621],[37.4497573,37.044769],[37.4511702,37.045987],[37.4502659,37.0485583],[37.4617566,37.0446597],[37.4643957,37.0448592],[37.46495,37.0475574],[37.4758788,37.0444478],[37.4772918,37.0453951],[37.4763875,37.0480566],[37.4814399,37.0506655],[37.4878609,37.0509436],[37.4897409,37.0544287],[37.4942624,37.0557368],[37.4998013,37.0533462],[37.5015556,37.0541273],[37.4984449,37.0560976],[37.5009345,37.0629771],[37.5065391,37.0612406],[37.5079966,37.0632239],[37.5118399,37.0606982],[37.5158528,37.0625474],[37.5226684,37.0617922],[37.5427938,37.0473627],[37.5568151,37.0318182],[37.5610993,37.0106726],[37.576289,37.0019638],[37.6052069,36.9984699],[37.6122176,37.0062459],[37.6644017,36.9950818],[37.671996,37.0076367],[37.6765503,37.0740812],[37.6918947,37.0981588],[37.6916314,37.1114656],[37.7045353,37.1196773],[37.6950548,37.1353761],[37.6739062,37.1423523],[37.6550289,37.1374654],[37.6468331,37.1459505],[37.6219619,37.1502455],[37.6191974,37.1546026],[37.6113858,37.1604742],[37.6145606,37.1669314],[37.6201277,37.2063927],[37.6297423,37.2184829],[37.6543362,37.2290192]]]}},{"type":"Feature","properties":{"code":"27-11","provinceCode":"27","name":"Yavuzeli"},"geometry":{"type":"Polygon","coordinates":[[[37.8430865,37.2720567],[37.849953,37.2803208],[37.8533004,37.287423],[37.8615401,37.3150743],[37.8663467,37.3184191],[37.8791656,37.3205413],[37.8854869,37.3232654],[37.887976,37.3266098],[37.8856586,37.3307048],[37.8738785,37.3369374],[37.8741573,37.3426473],[37.8157468,37.3600657],[37.7834377,37.3719482],[37.7213315,37.377689],[37.6933387,37.37324],[37.6338608,37.3727824],[37.6149657,37.3759802],[37.5950209,37.3848776],[37.5827231,37.3932585],[37.5710012,37.3940925],[37.55648,37.3922855],[37.5461577,37.3874203],[37.5316808,37.3759573],[37.5211836,37.3728986],[37.5124358,37.3741499],[37.5021135,37.3792079],[37.4977397,37.3903291],[37.4970309,37.3973119],[37.4785996,37.3941574],[37.4764711,37.392326],[37.4688462,37.3948582],[37.4544516,37.3917317],[37.4515161,37.3926975],[37.4468615,37.3821864],[37.4451388,37.3707609],[37.4503591,37.3328198],[37.4749556,37.2925302],[37.4872538,37.2655031],[37.4863754,37.2505874],[37.4910225,37.2377744],[37.5132765,37.224159],[37.5055462,37.2181898],[37.5125738,37.2103545],[37.5336565,37.2180033],[37.554505,37.2340444],[37.5694972,37.2424367],[37.5828496,37.2469121],[37.5926882,37.2474716],[37.6072118,37.244115],[37.6184559,37.2342309],[37.6543362,37.2290192],[37.6696438,37.2369183],[37.6898807,37.2378735],[37.7051211,37.2456008],[37.7246164,37.2472188],[37.7507854,37.2574378],[37.7663851,37.2690223],[37.7741458,37.2690513],[37.7821077,37.2711457],[37.7873103,37.2698104],[37.7915881,37.2715809],[37.8109744,37.2690661],[37.81976,37.2650906],[37.8259233,37.2651929],[37.8277468,37.2670194],[37.8354813,37.2684206],[37.8358586,37.2732995],[37.8373992,37.2741001],[37.8430865,37.2720567]]]}}]}