{"type":"FeatureCollection","features":[{"type":"Feature","properties":{"code":"10-01","provinceCode":"10","name":"Altıeylül"},"geometry":{"type":"Polygon","coordinates":[[[28.1139163,39.5325161],[28.1151456,39.5347636],[28.1204552,39.5358864],[28.1201983,39.5432173],[28.1178004,39.5440758],[28.1140323,39.5398491],[28.1095811,39.543614],[28.1097503,39.5516699],[28.1051159,39.5551016],[28.1080187,39.56054],[28.0989598,39.5762955],[28.1021285,39.5834901],[28.097368,39.5859442],[28.0939927,39.5914098],[28.0869247,39.5970725],[28.0881365,39.5994522],[28.0846581,39.6037496],[28.0800561,39.6055977],[28.0704836,39.6059104],[28.0685956,39.6089842],[28.0676652,39.6157937],[28.0719184,39.6256484],[28.069649,39.6289135],[28.0737659,39.6407774],[28.0785362,39.642759],[28.0773952,39.6485951],[28.0794327,39.6520463],[28.0686659,39.6557086],[28.0525055,39.6574912],[28.0495954,39.661575],[28.0587429,39.6875354],[28.0656207,39.6947586],[28.0713434,39.7087271],[28.0593058,39.7523623],[28.0959265,39.7475389],[28.1035126,39.7511605],[28.1098499,39.7577384],[28.1133964,39.7694508],[28.1217553,39.7736323],[28.1212713,39.7811583],[28.1132181,39.790444],[28.1112593,39.7846364],[28.106894,39.7843509],[28.0977917,39.7867775],[28.0899957,39.785962],[28.0848107,39.7884919],[28.0830125,39.7911816],[28.0805048,39.7913957],[28.0779036,39.7881698],[28.0572711,39.7917673],[28.0542248,39.7915229],[28.0493906,39.7832799],[28.0426786,39.7765866],[28.0436974,39.7692784],[28.0391429,39.7606028],[28.0492508,39.7585143],[28.0547642,39.760572],[28.0600179,39.7595432],[28.0597781,39.7547058],[28.0548241,39.7492998],[28.0454063,39.7543029],[28.0322981,39.7539554],[28.0308573,39.7524568],[28.0237382,39.751436],[28.0208002,39.7496767],[28.0231732,39.7453977],[28.017631,39.7425503],[28.0159194,39.7383632],[28.0196484,39.7321499],[28.0161454,39.7301511],[28.0115123,39.7303683],[28.0082353,39.728413],[28.0039977,39.7301945],[28.0031502,39.7320195],[27.9946302,39.7320017],[27.9937113,39.7334764],[27.9874052,39.7351001],[27.9730012,39.7312927],[27.966828,39.7252776],[27.9729324,39.7205962],[27.9733819,39.7158328],[27.9675048,39.705907],[27.967355,39.7005862],[27.9653374,39.7006169],[27.9625407,39.7047358],[27.9630002,39.7081322],[27.9595736,39.7110031],[27.9609533,39.7168681],[27.9568981,39.7190346],[27.9551203,39.7159615],[27.9466304,39.7143941],[27.9415965,39.7177746],[27.941956,39.7165146],[27.9374614,39.7167912],[27.932847,39.7147014],[27.9363827,39.7106446],[27.9297835,39.7041597],[27.9321361,39.6961232],[27.951292,39.6978048],[27.9537246,39.7087781],[27.9526118,39.7121335],[27.9551383,39.7125353],[27.956281,39.707708],[27.9589506,39.7070958],[27.9601582,39.7035502],[27.9563911,39.6995056],[27.9499761,39.696149],[27.9485462,39.6878768],[27.939277,39.6815997],[27.9450974,39.677847],[27.9441803,39.6743127],[27.9337703,39.6712834],[27.9198528,39.6637707],[27.9225611,39.657904],[27.912092,39.6566089],[27.9109366,39.6530798],[27.9089724,39.6523274],[27.9070028,39.6520583],[27.9045127,39.6554372],[27.8990326,39.6524102],[27.8980522,39.6496304],[27.8924788,39.6497188],[27.8839881,39.6443357],[27.8800795,39.6457372],[27.868117,39.6443444],[27.85975,39.6475649],[27.852495,39.6461262],[27.8462052,39.6469679],[27.8327135,39.6408284],[27.8276266,39.6493431],[27.817832,39.6523903],[27.8160885,39.6553084],[27.8083348,39.6554211],[27.7975871,39.6500297],[27.7946412,39.6464479],[27.7873017,39.6443044],[27.7823579,39.6390616],[27.7686282,39.6386918],[27.7635431,39.6357765],[27.7637973,39.6374517],[27.7580843,39.6367521],[27.7546297,39.6329561],[27.7467427,39.6369384],[27.7445239,39.639689],[27.7300049,39.6375685],[27.7269545,39.6320545],[27.7218606,39.6325776],[27.7212813,39.6349622],[27.7181517,39.636089],[27.7156431,39.6346153],[27.7108405,39.626478],[27.6951898,39.6227788],[27.6956983,39.6184267],[27.6936077,39.6173386],[27.6855846,39.6192971],[27.6743409,39.6134213],[27.6698209,39.6157717],[27.6659223,39.6134648],[27.6658093,39.6116367],[27.6699904,39.607545],[27.6616848,39.612159],[27.6560347,39.6038884],[27.6490286,39.6047155],[27.6439853,39.603364],[27.636871,39.600411],[27.6308462,39.593684],[27.6386663,39.577702],[27.6551863,39.5727784],[27.6458294,39.5727207],[27.637531,39.5666792],[27.6308057,39.5648623],[27.631653,39.5603707],[27.6354564,39.5575272],[27.636077,39.543824],[27.6411106,39.5455502],[27.6492313,39.5437475],[27.6534147,39.5390032],[27.6561216,39.5317914],[27.6643654,39.5355872],[27.6651036,39.533974],[27.6681796,39.5338791],[27.6726091,39.5372952],[27.6767925,39.5350178],[27.6830676,39.5372952],[27.7025081,39.5297036],[27.708291,39.532171],[27.7137048,39.5323607],[27.7167809,39.5285648],[27.7160447,39.5247645],[27.7102597,39.5196433],[27.7132127,39.5186942],[27.721909,39.5203497],[27.7333914,39.5158467],[27.7418916,39.5049858],[27.7550466,39.5013224],[27.753078,39.4975247],[27.7538288,39.4852638],[27.756277,39.4784382],[27.7658743,39.4663758],[27.7646798,39.4600443],[27.7566462,39.4578264],[27.7427425,39.4476608],[27.7362214,39.4460455],[27.7357292,39.4356881],[27.7460646,39.4339776],[27.7596903,39.4158413],[27.7731747,39.4070654],[27.7788702,39.405748],[27.7904988,39.3987663],[27.7909746,39.3906297],[27.7968806,39.3834975],[27.7972497,39.3786472],[27.8057396,39.371704],[27.8059856,39.3634284],[27.8150907,39.3640943],[27.8141119,39.3575274],[27.8234575,39.356008],[27.8326855,39.3572448],[27.8346542,39.3529636],[27.8476966,39.3483015],[27.8552021,39.3369779],[27.855079,39.3308871],[27.8586548,39.3287203],[27.8711974,39.3377392],[27.8843068,39.3391493],[27.8852241,39.3433536],[27.8958056,39.3463033],[27.8988816,39.353249],[27.9040494,39.3569594],[27.9049107,39.3621917],[27.909008,39.364209],[27.9171026,39.359579],[27.9332833,39.3623133],[27.9350693,39.3676993],[27.940114,39.3709334],[27.9437857,39.3702031],[27.9516799,39.379113],[27.9494651,39.3841535],[27.9607384,39.3836659],[27.9624928,39.3885854],[27.9594696,39.3939242],[27.9655835,39.3971809],[27.9654106,39.4014901],[27.9716125,39.4141034],[27.9652144,39.418571],[27.9707512,39.422183],[27.9698899,39.4297864],[27.9862544,39.4369138],[27.9758341,39.4504238],[27.9613848,39.4584215],[27.9547583,39.4641144],[27.9635667,39.4711775],[27.966477,39.4790811],[27.9664046,39.4906207],[27.9815151,39.4948445],[27.9859183,39.4927874],[27.9808867,39.4848872],[27.9840188,39.4726651],[28.0094155,39.4825607],[28.0075097,39.4860959],[27.9973303,39.4924074],[27.9917093,39.4991945],[27.9868896,39.4946194],[27.9821047,39.4965029],[27.9801037,39.5059015],[27.9836408,39.5218057],[27.9969135,39.5240515],[27.9993314,39.5330831],[28.0145431,39.5365125],[28.0149919,39.5425438],[28.0292604,39.5352974],[28.0286453,39.5440292],[28.0335997,39.5546108],[28.0289124,39.5598515],[28.0328517,39.5616053],[28.0325726,39.5639995],[28.041562,39.5674644],[28.0467758,39.5672565],[28.0541471,39.5716221],[28.0586418,39.568296],[28.0633163,39.5675337],[28.0663726,39.5625442],[28.0693391,39.5625442],[28.0722157,39.5593562],[28.0720359,39.5549206],[28.0739445,39.553536],[28.0717662,39.5471575],[28.0733843,39.5413346],[28.083118,39.5403391],[28.1139163,39.5325161]]]}},{"type":"Feature","properties":{"code":"10-02","provinceCode":"10","name":"Ayvalık"},"geometry":{"type":"MultiPolygon","coordinates":[[[[26.5307271,39.32538],[26.5371912,39.322183],[26.5430128,39.3255365],[26.5390091,39.3316069],[26.5368395,39.32972],[26.531312,39.331289],[26.5307271,39.32538]]],[[[26.568352,39.384334],[26.56971,39.378689],[26.574663,39.380505],[26.5719202,39.3849513],[26.568352,39.384334]]],[[[26.5726399,39.3347284],[26.5755951,39.3346036],[26.5796033,39.3395032],[26.5774548,39.3445536],[26.5749412,39.3411517],[26.5761046,39.33817],[26.5726399,39.3347284]]],[[[26.5762067,39.3891182],[26.5783384,39.3862948],[26.5771848,39.3819478],[26.5792433,39.3800225],[26.5851264,39.3794717],[26.5893443,39.3756784],[26.5844361,39.3718554],[26.5887532,39.3681883],[26.592786,39.3696285],[26.5909978,39.3749208],[26.5919106,39.3777374],[26.5956516,39.3772863],[26.5943273,39.3857296],[26.6025724,39.3950797],[26.589301,39.3971031],[26.5893222,39.3925706],[26.5845882,39.3912832],[26.585213,39.386963],[26.583095,39.3871605],[26.5805871,39.3919543],[26.5764492,39.3908561],[26.5762067,39.3891182]]],[[[26.57676,39.279587],[26.578264,39.276768],[26.581901,39.276395],[26.589157,39.278605],[26.590781,39.28349],[26.59872,39.282104],[26.603172,39.283533],[26.598696,39.286342],[26.598512,39.289423],[26.595854,39.291982],[26.60045,39.297391],[26.600252,39.303297],[26.591333,39.302239],[26.593834,39.298395],[26.592214,39.29274],[26.586449,39.289638],[26.584826,39.284753],[26.57676,39.279587]]],[[[26.5855149,39.3474952],[26.5862241,39.3436061],[26.5915361,39.3459687],[26.5928682,39.3446514],[26.6016354,39.3442377],[26.5995582,39.3489015],[26.595353,39.350276],[26.5917406,39.348411],[26.5872634,39.3496631],[26.5855149,39.3474952]]],[[[26.5958397,39.3366193],[26.6021893,39.3332216],[26.608378,39.3330392],[26.6134552,39.3347998],[26.6102887,39.3402898],[26.6025571,39.3427635],[26.5958397,39.3366193]]],[[[26.5987166,39.3864288],[26.610048,39.384352],[26.617186,39.380139],[26.6180686,39.3733946],[26.6136364,39.3697314],[26.6206843,39.3647569],[26.6239323,39.3595602],[26.6237574,39.3568742],[26.620792,39.355882],[26.6153186,39.3578662],[26.6112259,39.3575185],[26.6082932,39.351861],[26.6101351,39.3514113],[26.6122191,39.3539618],[26.6156811,39.3536507],[26.6133501,39.3395871],[26.6158814,39.3356541],[26.623076,39.330852],[26.622817,39.3268111],[26.6330845,39.3250496],[26.6481077,39.3254461],[26.6520855,39.3275292],[26.6554409,39.3319889],[26.6691691,39.329379],[26.6822475,39.3330139],[26.6908419,39.3333636],[26.6901703,39.3351792],[26.6854622,39.3361795],[26.6833327,39.3383708],[26.682682,39.340277],[26.6851043,39.3419364],[26.6840374,39.3438276],[26.6802511,39.3427735],[26.6754902,39.3435601],[26.676102,39.341283],[26.6659921,39.338994],[26.6621249,39.3407797],[26.6577054,39.3490235],[26.6518306,39.354099],[26.6565992,39.358717],[26.6533799,39.3634072],[26.64953,39.36419],[26.643581,39.362888],[26.6397951,39.3594656],[26.6332833,39.3573486],[26.6300951,39.3604667],[26.630508,39.363747],[26.6232583,39.3700607],[26.6234147,39.3757568],[26.621402,39.3787424],[26.6230174,39.3807727],[26.644505,39.376502],[26.6612698,39.3754969],[26.6629871,39.381565],[26.6682106,39.3832813],[26.6640943,39.386358],[26.6702668,39.3899042],[26.661802,39.3888869],[26.6529992,39.3847956],[26.650084,39.385764],[26.645608,39.3836004],[26.6432417,39.3855912],[26.6456326,39.3888869],[26.6399758,39.3878868],[26.6366606,39.3909014],[26.6292447,39.3885122],[26.6275755,39.3914647],[26.6294829,39.3947178],[26.62455,39.395443],[26.6169549,39.3932969],[26.614618,39.395796],[26.6118892,39.3932125],[26.604715,39.39114],[26.5987166,39.3864288]]],[[[26.887607,39.2435166],[26.8875848,39.2516948],[26.8931054,39.2581973],[26.892879,39.260071],[26.8977821,39.2584677],[26.8991017,39.2602205],[26.8957329,39.2642244],[26.8978357,39.266816],[26.8992519,39.2642576],[26.9059038,39.2635931],[26.9053459,39.2710688],[26.9061827,39.273112],[26.9109449,39.2735745],[26.9091224,39.2773477],[26.910882,39.2801547],[26.9135964,39.2814088],[26.9185531,39.2810101],[26.9187569,39.2824634],[26.9256556,39.2849381],[26.927619,39.2878445],[26.9318354,39.2893849],[26.9315457,39.2916061],[26.9408007,39.2898104],[26.9572828,39.2934699],[26.9772421,39.2915844],[26.9849217,39.2884009],[26.9886435,39.2814194],[26.9907957,39.2807278],[26.9955969,39.2743163],[26.9982203,39.2744706],[27.000044,39.2838959],[27.0084071,39.2867484],[27.0126557,39.2914982],[27.0164752,39.2923783],[27.0170867,39.2959901],[27.0129978,39.2990977],[27.0108813,39.3086009],[27.0165609,39.3100954],[27.0172906,39.3120544],[27.0292673,39.3155506],[27.0389628,39.3160553],[26.9995318,39.3193551],[26.9852132,39.3182891],[26.8824505,39.3116719],[26.8603997,39.3209629],[26.7946053,39.3437878],[26.7650293,39.3681107],[26.7530895,39.3596963],[26.749458,39.359441],[26.747149,39.357509],[26.738486,39.357896],[26.736886,39.35967],[26.7354283,39.3575263],[26.7368362,39.3549931],[26.7343018,39.3517042],[26.7293582,39.3511339],[26.7287665,39.3495291],[26.7189989,39.3452278],[26.7141125,39.3410781],[26.7091563,39.3421568],[26.7058848,39.340245],[26.699952,39.3419816],[26.7027427,39.3370742],[26.698596,39.333156],[26.6958903,39.3284149],[26.6974555,39.3279951],[26.6903674,39.3190582],[26.6897171,39.3134626],[26.688593,39.3128392],[26.6880452,39.3137744],[26.686965,39.3126224],[26.6852839,39.3130411],[26.6848332,39.3126258],[26.6853535,39.3136497],[26.6879877,39.3144631],[26.6855092,39.3138308],[26.6848686,39.3133214],[26.6843975,39.311836],[26.675243,39.31239],[26.662064,39.303236],[26.663071,39.2999],[26.660434,39.298609],[26.6608598,39.2925471],[26.664257,39.29374],[26.6646919,39.2956223],[26.6667325,39.2952181],[26.6736982,39.2845144],[26.670772,39.278864],[26.665284,39.2796394],[26.6594381,39.2832742],[26.660159,39.287051],[26.655872,39.285112],[26.654547,39.285879],[26.654371,39.287805],[26.659142,39.292184],[26.657807,39.295005],[26.654501,39.295252],[26.65118,39.298324],[26.6492,39.297805],[26.6471086,39.293606],[26.639313,39.292253],[26.634684,39.292624],[26.634336,39.295961],[26.631695,39.295311],[26.630529,39.296977],[26.63447,39.301868],[26.634291,39.304693],[26.641908,39.301891],[26.644852,39.307935],[26.647332,39.307558],[26.6473062,39.3054919],[26.65182,39.302563],[26.6565549,39.3040568],[26.65162,39.309625],[26.657533,39.31709],[26.653728,39.31785],[26.6521928,39.3233065],[26.64281,39.319485],[26.635899,39.313173],[26.631265,39.314313],[26.625987,39.312114],[26.622714,39.30594],[26.6258914,39.3024827],[26.626392,39.298248],[26.623757,39.296441],[26.62018,39.285644],[26.611445,39.2825244],[26.6115515,39.2782776],[26.6085295,39.2758961],[26.6093784,39.2732251],[26.6137531,39.2721842],[26.633662,39.272043],[26.6360454,39.270784],[26.6360253,39.2675748],[26.6387137,39.2667435],[26.6758204,39.2670841],[26.7039025,39.2643878],[26.7216059,39.2568628],[26.7345142,39.2400093],[26.735715,39.231519],[26.731103,39.228427],[26.731438,39.227144],[26.734078,39.227663],[26.73668,39.223111],[26.7403921,39.2223731],[26.7371311,39.2222368],[26.7370092,39.2084835],[26.7350647,39.206717],[26.7292311,39.2198584],[26.7274674,39.2192785],[26.7290433,39.2152588],[26.7340882,39.2062332],[26.7616642,39.1798062],[26.766474,39.1712354],[26.7658354,39.1692955],[26.7675982,39.1661327],[26.7686313,39.1666913],[26.7808914,39.1791128],[26.7848792,39.1864958],[26.7905903,39.1894913],[26.7926824,39.1977148],[26.8089366,39.2090466],[26.8155241,39.2118896],[26.8176921,39.218072],[26.8239784,39.2199526],[26.8239569,39.2235433],[26.8271541,39.227433],[26.8266821,39.2303085],[26.8324327,39.2316797],[26.8307483,39.2340067],[26.8369603,39.2333169],[26.8376791,39.236508],[26.8433232,39.237087],[26.8571115,39.2370673],[26.8701385,39.233987],[26.8785865,39.2361056],[26.8847842,39.2438336],[26.887607,39.2435166]]],[[[26.6639587,39.3514171],[26.6734488,39.3540488],[26.6681338,39.3539189],[26.6639587,39.3514171]]],[[[26.6833575,39.3466321],[26.6887103,39.3422158],[26.6939688,39.3433999],[26.6991797,39.3424956],[26.6955983,39.3446195],[26.6969977,39.3487155],[26.6864069,39.3459403],[26.6833575,39.3466321]]],[[[26.6938119,39.3709986],[26.6957151,39.3680099],[26.6979412,39.3686208],[26.697083,39.3722531],[26.6938119,39.3709986]]],[[[26.7028472,39.3747692],[26.709025,39.3735276],[26.7082263,39.3821587],[26.7056515,39.3819617],[26.7036885,39.3797416],[26.7028472,39.3747692]]],[[[26.7241934,39.3777285],[26.7252574,39.376731],[26.7279254,39.3782416],[26.7263535,39.3791085],[26.7241934,39.3777285]]],[[[26.7596744,39.3738911],[26.761439,39.3718247],[26.7606815,39.3736752],[26.7690715,39.3756382],[26.7698872,39.3786133],[26.7681029,39.3794671],[26.7596744,39.3738911]]]]}},{"type":"Feature","properties":{"code":"10-03","provinceCode":"10","name":"Balya"},"geometry":{"type":"Polygon","coordinates":[[[27.5857953,39.6551145],[27.5758221,39.6551581],[27.5704685,39.6594027],[27.5700689,39.6614326],[27.5748632,39.6646927],[27.5735048,39.6673991],[27.5772603,39.6747796],[27.5767809,39.679761],[27.5810957,39.6910139],[27.5795776,39.692797],[27.5834929,39.6967933],[27.5836527,39.7031256],[27.5870886,39.7023879],[27.5972364,39.7117931],[27.6026699,39.7131454],[27.6124182,39.7134527],[27.6123383,39.7106252],[27.6101809,39.7093344],[27.6110598,39.7068755],[27.6218469,39.7018961],[27.621767,39.6991296],[27.6266412,39.6908294],[27.6257622,39.6867712],[27.6364694,39.6834506],[27.6370287,39.678039],[27.6404646,39.6756406],[27.6436608,39.6757021],[27.6469368,39.673242],[27.6462976,39.67152],[27.6535689,39.6719505],[27.6641962,39.6750871],[27.6696297,39.6696748],[27.6682713,39.6679527],[27.672666,39.6668455],[27.6719469,39.6638316],[27.6892861,39.6574957],[27.6963976,39.6629704],[27.6996737,39.6617402],[27.70271,39.6648157],[27.706066,39.6648772],[27.7071047,39.6683832],[27.7055866,39.6687522],[27.7078239,39.672996],[27.7061459,39.6737341],[27.7072646,39.6757636],[27.7153349,39.679761],[27.7161339,39.6833891],[27.714376,39.684373],[27.713577,39.6892307],[27.7164535,39.6939037],[27.7206885,39.692551],[27.7231655,39.7009739],[27.7222866,39.7030641],[27.7162937,39.7026953],[27.7100612,39.7073673],[27.7056665,39.705769],[27.708543,39.709027],[27.7090224,39.7160957],[27.7067052,39.7194147],[27.6969569,39.7242699],[27.693521,39.7242085],[27.6947196,39.7264209],[27.692722,39.7277729],[27.6957583,39.7305382],[27.6963177,39.7337336],[27.6933612,39.7348397],[27.693197,39.7455508],[27.6900329,39.7465934],[27.696022,39.7478532],[27.6975476,39.749504],[27.6949485,39.7512416],[27.6955135,39.7525013],[27.692745,39.7522841],[27.6948355,39.7568885],[27.693197,39.7574097],[27.6902589,39.7560198],[27.690937,39.754456],[27.6878294,39.7511113],[27.6873774,39.7479401],[27.6829703,39.7489393],[27.6818968,39.7525448],[27.6778288,39.7546298],[27.6757947,39.7598855],[27.6814448,39.7693969],[27.6823488,39.7765621],[27.6789588,39.7814254],[27.6799758,39.787721],[27.6782808,39.7907167],[27.6695796,39.7977495],[27.6725177,39.7998332],[27.6726307,39.8019167],[27.6778853,39.7992688],[27.6805973,39.7996595],[27.6816708,39.802047],[27.694101,39.8059535],[27.7027456,39.8044343],[27.7045537,39.8056497],[27.7078307,39.7997029],[27.7146108,39.7974022],[27.7137068,39.7953619],[27.7175488,39.7925401],[27.7203174,39.792323],[27.7209389,39.7962301],[27.7378892,39.7970984],[27.7395842,39.7983138],[27.7417312,39.797272],[27.7481723,39.799182],[27.763145,39.8002672],[27.7661961,39.8039569],[27.7724112,39.8034794],[27.7695861,39.8078199],[27.7660831,39.8088616],[27.7611675,39.8131584],[27.7612805,39.8214473],[27.758286,39.8247887],[27.76032,39.8264376],[27.7553479,39.8303428],[27.7534834,39.835072],[27.7532574,39.8387598],[27.759868,39.8549402],[27.7650096,39.8612291],[27.7701511,39.858757],[27.7807733,39.8656527],[27.7816208,39.8644384],[27.7897004,39.8636578],[27.7932035,39.8680379],[27.7917345,39.8689486],[27.7939945,39.8747592],[27.8010006,39.8806995],[27.7998141,39.8875497],[27.8050687,39.8832142],[27.8113402,39.882824],[27.8154762,39.884722],[27.8102025,39.891037],[27.8200707,39.8967997],[27.8192716,39.9021941],[27.8220683,39.9019489],[27.8224278,39.9037878],[27.8290998,39.9071897],[27.8290599,39.909243],[27.8335745,39.9137784],[27.8343735,39.9167202],[27.8303384,39.9195086],[27.8328154,39.9253301],[27.8311374,39.9264638],[27.8314171,39.9347355],[27.8316903,39.9389429],[27.8343736,39.9410453],[27.8335249,39.9426151],[27.8306842,39.9454262],[27.81528,39.9512665],[27.7984246,39.9529168],[27.7884621,39.9494326],[27.7728904,39.9388402],[27.7423171,39.9362878],[27.7354539,39.9390022],[27.683465,39.9314877],[27.6303033,39.9347006],[27.6178135,39.9316719],[27.607352,39.9310989],[27.5518889,39.9398002],[27.5369796,39.9408572],[27.5486965,39.9258991],[27.5455957,39.9113218],[27.532644,39.8999392],[27.5097312,39.8910009],[27.4967414,39.8814891],[27.4894745,39.8707906],[27.490114,39.8641985],[27.4834336,39.8513078],[27.4763064,39.8310549],[27.4760513,39.8127427],[27.4795806,39.7981399],[27.4764427,39.7846008],[27.4666524,39.7651766],[27.4535954,39.7516717],[27.4111084,39.7595561],[27.3834472,39.7455046],[27.3787136,39.7210886],[27.3879432,39.696637],[27.4055358,39.6955273],[27.4196711,39.6896227],[27.4491533,39.6911766],[27.4645002,39.6946194],[27.4828126,39.6914186],[27.4958084,39.6845924],[27.5008481,39.6709733],[27.5138275,39.6470097],[27.561903,39.6474696],[27.5801877,39.643064],[27.5857953,39.6551145]]]}},{"type":"Feature","properties":{"code":"10-04","provinceCode":"10","name":"Bandırma"},"geometry":{"type":"Polygon","coordinates":[[[28.1128601,40.1473324],[28.1282673,40.1716128],[28.131409,40.1851905],[28.1204635,40.2163832],[28.1142113,40.2259518],[28.1074662,40.2310163],[28.1069363,40.2484331],[28.1102919,40.2501217],[28.1097623,40.2632325],[28.1258101,40.2575026],[28.1325794,40.2590415],[28.1618811,40.2505361],[28.1720398,40.2532329],[28.1754261,40.2570531],[28.1774872,40.2648054],[28.17734,40.2841259],[28.1757205,40.2916504],[28.1671771,40.3049914],[28.1648155,40.312889],[28.1746593,40.3222736],[28.1832437,40.3358276],[28.1803037,40.3559564],[28.175619,40.3684838],[28.1744899,40.3776202],[28.1749143,40.3869439],[28.178987,40.397401],[28.170553,40.395175],[28.159153,40.396189],[28.151044,40.393317],[28.146716,40.395543],[28.142969,40.39237],[28.133168,40.388616],[28.126117,40.388684],[28.125134,40.390107],[28.123911,40.387294],[28.122059,40.386927],[28.1174942,40.3875784],[28.118066,40.389148],[28.1123594,40.3899385],[28.1125554,40.3875954],[28.10764,40.388093],[28.095831,40.38461],[28.088787,40.385063],[28.087749,40.383146],[28.08169,40.382176],[28.081667,40.380765],[28.074959,40.381212],[28.074595,40.379418],[28.069222,40.37934],[28.067247,40.381797],[28.0614147,40.3818375],[28.0495149,40.3741889],[28.0457324,40.3757663],[28.0457389,40.3744411],[28.0431811,40.3746676],[28.0422738,40.373067],[28.0350453,40.3735656],[28.0333347,40.3714114],[28.0284902,40.3706461],[28.0253193,40.3723438],[28.0154645,40.3701637],[28.0085441,40.3707004],[28.0077624,40.3689673],[28.0002047,40.3682544],[27.9980159,40.3659697],[27.9943231,40.3671549],[27.9873109,40.3663072],[27.9835239,40.3617839],[27.9788276,40.3631172],[27.9723523,40.3616628],[27.9786559,40.3629179],[27.9790973,40.3617097],[27.9734214,40.3609084],[27.9686911,40.3570079],[27.9582981,40.3586139],[27.9689095,40.3567021],[27.9677913,40.3531852],[27.9653357,40.3531533],[27.9634673,40.3510168],[27.9622411,40.351395],[27.9643382,40.3537798],[27.9630712,40.354458],[27.9606401,40.3516896],[27.9598271,40.3539569],[27.957681,40.3529963],[27.9581593,40.3548205],[27.9568158,40.3536127],[27.9556518,40.3551261],[27.9548202,40.3532918],[27.952479,40.3547543],[27.9576552,40.3562697],[27.9518743,40.3555159],[27.9379733,40.3621906],[27.9339286,40.3608977],[27.927872,40.3627413],[27.9212432,40.3704011],[27.9224085,40.3720784],[27.919206,40.371387],[27.9170555,40.374875],[27.9115382,40.3701512],[27.9058643,40.3677751],[27.90606,40.3700123],[27.9038603,40.3708161],[27.8960748,40.3689429],[27.8962828,40.3727751],[27.8927373,40.3735773],[27.8900829,40.3775414],[27.8849016,40.3794063],[27.8791569,40.377833],[27.879702,40.3732751],[27.8746799,40.370785],[27.87286,40.3665372],[27.8659584,40.3665844],[27.8613896,40.3600276],[27.85342,40.358924],[27.8498871,40.35547],[27.8430732,40.3537657],[27.8341668,40.3482044],[27.8251061,40.3467731],[27.795617,40.32416],[27.790401,40.322784],[27.789177,40.318427],[27.782743,40.313207],[27.7678835,40.3104353],[27.7617614,40.3065347],[27.7720496,40.2714273],[27.8016134,40.242097],[27.8294033,40.2256213],[27.86243,40.1697855],[27.9647054,40.2016703],[28.0209018,40.1819099],[28.048554,40.1549856],[28.0506075,40.1305305],[28.0728929,40.1240001],[28.0820348,40.1194878],[28.088896,40.1276474],[28.1067989,40.1356088],[28.1128601,40.1473324]]]}},{"type":"Feature","properties":{"code":"10-05","provinceCode":"10","name":"Bigadiç"},"geometry":{"type":"Polygon","coordinates":[[[28.1139163,39.5325161],[28.083118,39.5403391],[28.0733843,39.5413346],[28.0717662,39.5471575],[28.0739445,39.553536],[28.0720359,39.5549206],[28.0722157,39.5593562],[28.0693391,39.5625442],[28.0663726,39.5625442],[28.0633163,39.5675337],[28.0586418,39.568296],[28.0541471,39.5716221],[28.0467758,39.5672565],[28.041562,39.5674644],[28.0325726,39.5639995],[28.0328517,39.5616053],[28.0289124,39.5598515],[28.0335997,39.5546108],[28.0286453,39.5440292],[28.0292604,39.5352974],[28.0149919,39.5425438],[28.0145431,39.5365125],[27.9993314,39.5330831],[27.9969135,39.5240515],[27.9836408,39.5218057],[27.9801037,39.5059015],[27.9821047,39.4965029],[27.9868896,39.4946194],[27.9917093,39.4991945],[27.9973303,39.4924074],[28.0075097,39.4860959],[28.0094155,39.4825607],[27.9840188,39.4726651],[27.9808867,39.4848872],[27.9859183,39.4927874],[27.9815151,39.4948445],[27.9664046,39.4906207],[27.966477,39.4790811],[27.9635667,39.4711775],[27.9547583,39.4641144],[27.9613848,39.4584215],[27.9758341,39.4504238],[27.9862544,39.4369138],[27.9698899,39.4297864],[27.9707512,39.422183],[27.9652144,39.418571],[27.9716125,39.4141034],[27.9654106,39.4014901],[27.9655835,39.3971809],[27.9594696,39.3939242],[27.9624928,39.3885854],[27.9607384,39.3836659],[27.9733351,39.3673188],[27.9848156,39.363897],[28.0079314,39.3637116],[28.0300655,39.3668871],[28.0417029,39.3647701],[28.0549377,39.3587717],[28.0744199,39.3452993],[28.1015573,39.3334123],[28.1279574,39.3315434],[28.1562935,39.3415002],[28.1844868,39.3624408],[28.2011949,39.3704337],[28.2277173,39.3724328],[28.2577784,39.3701867],[28.2845121,39.3507004],[28.3150698,39.3393506],[28.3391363,39.33418],[28.3753125,39.3230063],[28.4298992,39.3250302],[28.4567963,39.3380876],[28.4738743,39.3293886],[28.4799246,39.3313008],[28.4849058,39.3349934],[28.5021059,39.3257007],[28.5205263,39.3296986],[28.5859017,39.3307393],[28.6172828,39.3265115],[28.6558257,39.3099644],[28.6644451,39.2889604],[28.6723536,39.3234825],[28.6635333,39.3380531],[28.6629534,39.3432111],[28.6675929,39.3541986],[28.6661431,39.3604764],[28.6632434,39.3638393],[28.6490348,39.3674262],[28.6414955,39.3793064],[28.61234,39.3927949],[28.5620435,39.4006614],[28.5489948,39.4096235],[28.5492876,39.41814],[28.5304367,39.4322478],[28.5188333,39.434933],[28.4968117,39.4328323],[28.4886197,39.4432484],[28.4784735,39.4504152],[28.4334314,39.4620932],[28.4288067,39.4691063],[28.4148557,39.4819339],[28.4042122,39.4950085],[28.3841236,39.5001964],[28.357104,39.5009888],[28.3400226,39.4970954],[28.3202561,39.4996808],[28.3164375,39.5089241],[28.2528768,39.5355821],[28.2176382,39.5466562],[28.1739807,39.5473418],[28.1625392,39.5385067],[28.1282389,39.5304042],[28.1139163,39.5325161]]]}},{"type":"Feature","properties":{"code":"10-06","provinceCode":"10","name":"Burhaniye"},"geometry":{"type":"Polygon","coordinates":[[[27.2080676,39.4549037],[27.067994,39.530032],[27.0626888,39.536705],[27.0554198,39.551419],[27.0569342,39.5609931],[26.9951482,39.5518861],[26.9712212,39.5518861],[26.9527151,39.554098],[26.951287,39.547167],[26.9436894,39.5435675],[26.9394314,39.5387585],[26.9433293,39.534822],[26.9398372,39.5350453],[26.9419166,39.5354283],[26.9394864,39.5380508],[26.9408097,39.5255428],[26.9318144,39.5039714],[26.9323484,39.4950076],[26.9301777,39.4915042],[26.9276714,39.491066],[26.9306992,39.4907978],[26.9306339,39.4853804],[26.9241505,39.483446],[26.9269545,39.4865632],[26.9239866,39.484878],[26.9239522,39.4829386],[26.9164847,39.4801449],[26.8834206,39.4742073],[26.8723938,39.4743466],[26.8652861,39.477531],[26.858055,39.477626],[26.857573,39.47005],[26.853768,39.467605],[26.852631,39.45669],[26.8552894,39.4553924],[26.8563992,39.4523833],[26.856964,39.443855],[26.8979313,39.4294797],[26.909036,39.424476],[26.9153002,39.419857],[26.9276557,39.4003153],[26.9438627,39.3843224],[26.9537034,39.3801209],[26.9579117,39.3736338],[26.9587935,39.3474708],[26.961764,39.3367812],[26.9709349,39.3260733],[26.9852132,39.3182891],[26.9995318,39.3193551],[27.0389628,39.3160553],[27.0415608,39.3158317],[27.0468042,39.3206032],[27.0516872,39.3187778],[27.066493,39.3243388],[27.0788312,39.3322228],[27.0788312,39.3507926],[27.0993956,39.3601963],[27.1058039,39.3652131],[27.1124124,39.3668691],[27.1209301,39.3640366],[27.12901,39.3651604],[27.1308982,39.3668276],[27.135902,39.3649416],[27.1408546,39.3665539],[27.1427393,39.3658886],[27.1610801,39.3727162],[27.1747154,39.3798341],[27.1840574,39.3780264],[27.210007,39.3684737],[27.2176737,39.3680306],[27.2191063,39.3689142],[27.2080676,39.4549037]]]}},{"type":"Feature","properties":{"code":"10-07","provinceCode":"10","name":"Dursunbey"},"geometry":{"type":"Polygon","coordinates":[[[28.6644451,39.2889604],[28.7586232,39.2846221],[28.7722968,39.2931205],[28.7969908,39.3025249],[28.8109989,39.3137473],[28.8235351,39.3268245],[28.8531258,39.3417403],[28.864312,39.3554654],[28.8702506,39.3571874],[28.8730343,39.3612051],[28.8702506,39.3649356],[28.8719208,39.368092],[28.890479,39.3688093],[28.8941906,39.3759824],[28.8921492,39.3822941],[28.8934483,39.3924777],[28.891778,39.4006522],[28.904212,39.401656],[28.9121792,39.4085489],[28.9190457,39.4078319],[28.9264689,39.4092658],[28.9327787,39.407115],[28.9503045,39.4075591],[28.9498128,39.4231264],[28.9515922,39.4270407],[28.9503567,39.428766],[28.9463545,39.4295838],[28.9487967,39.433373],[28.9506874,39.4333002],[28.9429185,39.4379414],[28.9467452,39.4406878],[28.9453544,39.4444771],[28.9486574,39.4502868],[28.9478032,39.4547497],[28.95074,39.4558642],[28.951413,39.4589221],[28.9394809,39.4718943],[28.9392845,39.4769862],[28.9309294,39.4806361],[28.9271531,39.4874794],[28.922621,39.4908619],[28.9251065,39.4940257],[28.9246284,39.496167],[28.9265938,39.497187],[28.9242932,39.5036803],[28.9253304,39.506316],[28.9236023,39.5076195],[28.9243728,39.5118824],[28.9276154,39.5126249],[28.9238458,39.5146812],[28.9280085,39.5200163],[28.9263346,39.5243516],[28.9285151,39.5250334],[28.9318162,39.5231407],[28.936437,39.5272131],[28.9408087,39.5274995],[28.9393387,39.531701],[28.9428724,39.5303342],[28.948499,39.5315787],[28.9441485,39.533439],[28.9442774,39.534907],[28.9473167,39.5363552],[28.9475181,39.5386781],[28.9528961,39.5377732],[28.9538189,39.5401999],[28.9515265,39.5434126],[28.9542597,39.5457713],[28.9448085,39.5510499],[28.9465669,39.5520818],[28.9505372,39.5497507],[28.9525637,39.5518536],[28.9566132,39.5518129],[28.9518242,39.5561702],[28.9540759,39.5596096],[28.9554124,39.5565231],[28.9572542,39.5561631],[28.9705195,39.5634288],[28.9736261,39.560754],[28.97766,39.5653684],[28.9825387,39.5671421],[28.986395,39.5662089],[28.9836846,39.5698742],[28.9862011,39.5723353],[28.9847917,39.5754874],[28.9906885,39.5768799],[28.9899327,39.5785528],[28.9870479,39.5787787],[28.9873861,39.5810255],[28.9978975,39.5806211],[28.9995273,39.5871236],[28.997332,39.5875704],[28.9951793,39.5912057],[28.9975543,39.5987255],[28.9933505,39.5975937],[28.9934709,39.5961908],[28.9893124,39.5938437],[28.9874077,39.5945612],[28.989796,39.5990424],[28.9867597,39.6017616],[28.9871316,39.6065459],[28.9919136,39.6073955],[28.9953009,39.6096112],[28.9948484,39.6108405],[28.986492,39.609882],[28.9838162,39.6071793],[28.9807706,39.6080184],[28.9771502,39.6138901],[28.9696181,39.6108753],[28.9658101,39.6155604],[28.9552916,39.6195988],[28.9508051,39.6177503],[28.9454337,39.6184895],[28.9412589,39.6202734],[28.9407216,39.6231045],[28.9250173,39.6193924],[28.9177666,39.6231058],[28.9145776,39.6218514],[28.9101222,39.6225329],[28.9060952,39.6205759],[28.8969303,39.6243132],[28.8947739,39.6234827],[28.8954477,39.6207316],[28.8873055,39.6175475],[28.8841264,39.6194858],[28.8823069,39.6163192],[28.878331,39.6154886],[28.8711877,39.6166826],[28.8701095,39.6141908],[28.8666053,39.612893],[28.8615511,39.614087],[28.8569687,39.6192262],[28.8548796,39.6183957],[28.855001,39.6165437],[28.8504336,39.6192303],[28.8390535,39.6132952],[28.8341141,39.6167277],[28.8258286,39.6147153],[28.8183605,39.6174852],[28.8149082,39.6171577],[28.808301,39.6208419],[28.8070699,39.6242345],[28.7962797,39.6244217],[28.7880689,39.6302885],[28.7916306,39.6386783],[28.7889127,39.638783],[28.7842569,39.6345516],[28.7799353,39.6355907],[28.7823216,39.6424418],[28.7846897,39.6426422],[28.7867413,39.6400032],[28.7888333,39.6436548],[28.7780586,39.6479862],[28.7696019,39.6463985],[28.7674944,39.6550607],[28.7622611,39.65282],[28.7622266,39.6549934],[28.7566022,39.6558618],[28.7586406,39.6581081],[28.7580613,39.6607458],[28.7644969,39.6661105],[28.7691547,39.6731989],[28.7806035,39.6816001],[28.7816702,39.6852667],[28.7793235,39.6963201],[28.7613324,39.6977427],[28.741208,39.6868537],[28.7362303,39.6881123],[28.7314729,39.6873316],[28.7264243,39.6908288],[28.7311686,39.7032304],[28.7269776,39.7103416],[28.7283555,39.7143521],[28.7245809,39.7168154],[28.727112,39.7214697],[28.7241508,39.7258634],[28.7294182,39.7319751],[28.725297,39.734256],[28.7247644,39.7385158],[28.7292784,39.7419658],[28.7273156,39.746433],[28.730142,39.7547025],[28.7347741,39.7589275],[28.7321048,39.761583],[28.7288073,39.7582636],[28.7253908,39.7599323],[28.7183608,39.750213],[28.6924143,39.7623526],[28.6693868,39.7758507],[28.6332288,39.7709081],[28.6069245,39.7636761],[28.5803208,39.7597387],[28.5628863,39.7523824],[28.5428547,39.7418953],[28.5275806,39.7375196],[28.4994282,39.7257731],[28.4787631,39.7101079],[28.4497122,39.703426],[28.4305446,39.6939782],[28.4089811,39.6670103],[28.3978998,39.6427993],[28.388915,39.6347271],[28.364656,39.6241164],[28.3562702,39.6146578],[28.3416699,39.6059045],[28.31202,39.5936739],[28.2979438,39.5839803],[28.2949488,39.5756704],[28.3015377,39.5694373],[28.3146406,39.5435755],[28.3164375,39.5089241],[28.3202561,39.4996808],[28.3400226,39.4970954],[28.357104,39.5009888],[28.3841236,39.5001964],[28.4042122,39.4950085],[28.4148557,39.4819339],[28.4288067,39.4691063],[28.4334314,39.4620932],[28.4784735,39.4504152],[28.4886197,39.4432484],[28.4968117,39.4328323],[28.5188333,39.434933],[28.5304367,39.4322478],[28.5492876,39.41814],[28.5489948,39.4096235],[28.5620435,39.4006614],[28.61234,39.3927949],[28.6414955,39.3793064],[28.6490348,39.3674262],[28.6632434,39.3638393],[28.6661431,39.3604764],[28.6675929,39.3541986],[28.6629534,39.3432111],[28.6635333,39.3380531],[28.6723536,39.3234825],[28.6644451,39.2889604]]]}},{"type":"Feature","properties":{"code":"10-08","provinceCode":"10","name":"Edremit"},"geometry":{"type":"Polygon","coordinates":[[[27.0406,39.761176],[27.0284012,39.7613891],[26.9728103,39.7730414],[26.948378,39.7866502],[26.9233027,39.7789618],[26.841106,39.7709147],[26.7830193,39.7573496],[26.7519696,39.7465597],[26.7271019,39.7355033],[26.6922186,39.7108303],[26.6777724,39.7038884],[26.6724966,39.6799923],[26.652927,39.6625767],[26.6590004,39.6534262],[26.6568386,39.6219583],[26.6598922,39.6168358],[26.6559799,39.6134934],[26.6569563,39.6114262],[26.6539152,39.6122366],[26.6554104,39.6087253],[26.6592026,39.6085465],[26.6622569,39.6059848],[26.6613769,39.6025365],[26.6630236,39.6011513],[26.6598921,39.5969355],[26.6562345,39.5950363],[26.656287,39.5931138],[26.654118,39.5924816],[26.6516355,39.5843872],[26.652519,39.5805745],[26.6493897,39.5780808],[26.6528812,39.5749866],[26.6519194,39.5684977],[26.6561435,39.5634081],[26.6559922,39.553792],[26.6586812,39.5522737],[26.664487,39.556579],[26.670119,39.558136],[26.681401,39.557654],[26.6903973,39.5552633],[26.6967793,39.556537],[26.702951,39.560793],[26.7188307,39.5625922],[26.728139,39.567531],[26.7406371,39.5670344],[26.7440602,39.5652543],[26.74241,39.566665],[26.7458654,39.5663649],[26.7590643,39.5635559],[26.7724908,39.5714346],[26.782548,39.569443],[26.7991113,39.5690121],[26.8045761,39.5662986],[26.8181536,39.5682956],[26.8244095,39.5660303],[26.8380234,39.5575847],[26.8412976,39.5621515],[26.851901,39.566728],[26.866171,39.565204],[26.872943,39.581262],[26.8758479,39.5843653],[26.8799453,39.5855937],[26.8823847,39.5850258],[26.8808371,39.583829],[26.8831698,39.5847108],[26.8885134,39.5821839],[26.8962093,39.5846736],[26.9072899,39.5825989],[26.9223334,39.5836407],[26.942454,39.5695603],[26.9527151,39.554098],[26.9712212,39.5518861],[26.9951482,39.5518861],[27.0569342,39.5609931],[27.0842093,39.593914],[27.1127259,39.6492782],[27.1130326,39.6632878],[27.1018235,39.6802352],[27.0862109,39.6944062],[27.0661947,39.7181208],[27.0406,39.761176]]]}},{"type":"Feature","properties":{"code":"10-09","provinceCode":"10","name":"Erdek"},"geometry":{"type":"MultiPolygon","coordinates":[[[[27.5777677,40.4630716],[27.5869222,40.4628506],[27.5963034,40.4585553],[27.6062516,40.4607546],[27.6117257,40.4577495],[27.6254568,40.4617893],[27.628921,40.4600459],[27.6282719,40.4580725],[27.6339297,40.4574035],[27.637501,40.454803],[27.6405091,40.4557447],[27.6418681,40.4539053],[27.6535481,40.4508466],[27.655902,40.4487622],[27.6560468,40.445747],[27.6615981,40.4447207],[27.6668238,40.4461423],[27.662782,40.4512136],[27.668007,40.4624177],[27.6645321,40.4631263],[27.6635747,40.4667281],[27.6612377,40.4660815],[27.6590884,40.4630283],[27.660948,40.463786],[27.6606689,40.4623062],[27.6571776,40.4613375],[27.6566184,40.4576068],[27.6506639,40.4528218],[27.6465574,40.4540403],[27.6472763,40.4586344],[27.643575,40.457337],[27.6373816,40.4613221],[27.637566,40.463804],[27.6405174,40.4653069],[27.6336338,40.4677157],[27.632088,40.4720233],[27.6366973,40.4778653],[27.6497132,40.4878154],[27.6511959,40.4928001],[27.6489497,40.4947196],[27.6463179,40.4932478],[27.6423692,40.494756],[27.6399181,40.4991321],[27.6373156,40.4991182],[27.6342662,40.4951122],[27.6231431,40.4983267],[27.6212146,40.5010046],[27.623937,40.5035336],[27.6189038,40.5052921],[27.6212272,40.5109224],[27.6131979,40.507238],[27.6084901,40.5082147],[27.6066383,40.5066847],[27.6008145,40.5092796],[27.598365,40.5089767],[27.601485,40.505706],[27.6012638,40.5001731],[27.6039125,40.4928213],[27.608625,40.4870806],[27.6078335,40.4811045],[27.6045952,40.4791068],[27.5972586,40.478343],[27.5826597,40.4827314],[27.583304,40.4768251],[27.5806041,40.4743365],[27.581251,40.4702393],[27.5777677,40.4630716]]],[[[27.9170555,40.374875],[27.9142036,40.3790373],[27.910137,40.3806569],[27.9128322,40.3837517],[27.9094517,40.382054],[27.9089877,40.3799182],[27.9026099,40.378691],[27.8977337,40.3831794],[27.8960783,40.3873953],[27.8970738,40.3911247],[27.9019647,40.3944056],[27.905757,40.394858],[27.907515,40.4008841],[27.9152841,40.4029286],[27.917872,40.4016767],[27.9193538,40.407525],[27.922558,40.407819],[27.9265956,40.4118681],[27.9337013,40.4122192],[27.9349905,40.4101696],[27.9377184,40.413166],[27.9415379,40.4129168],[27.9446477,40.4143928],[27.9460837,40.4134132],[27.9519103,40.4226824],[27.9558798,40.4225021],[27.9598148,40.4250394],[27.9669274,40.4246156],[27.9708041,40.4229277],[27.9801721,40.4309299],[27.985725,40.432331],[27.987727,40.431416],[27.998953,40.44069],[28.0035917,40.440771],[28.0046191,40.442413],[28.0059641,40.44215],[28.0053943,40.4401028],[28.0017237,40.439463],[28.0059547,40.4398469],[28.0064964,40.4424912],[28.011475,40.446616],[28.0162446,40.4473064],[28.0244967,40.453371],[28.023623,40.4548619],[28.0263237,40.4579041],[28.0240731,40.4578235],[28.0230669,40.4607983],[28.0272592,40.4631553],[28.0284948,40.4660695],[28.0261824,40.4670095],[28.0286272,40.4701988],[28.0303835,40.4696147],[28.0299863,40.4654182],[28.0305689,40.4698497],[28.0285036,40.4719579],[28.0345669,40.4771879],[28.031835,40.481354],[28.027472,40.481906],[28.026831,40.483966],[28.024806,40.483471],[28.022499,40.486572],[28.014117,40.488186],[28.0112859,40.4863849],[28.0102798,40.489042],[28.004351,40.487245],[27.997624,40.487174],[27.99596,40.488344],[27.993925,40.487206],[27.993293,40.489908],[27.9897286,40.4908679],[27.9871218,40.4896118],[27.9893241,40.4900006],[27.9897466,40.4884756],[27.9874039,40.4877443],[27.9880457,40.4889872],[27.9861194,40.4887125],[27.985226,40.490234],[27.9749681,40.4931508],[27.9719109,40.4929669],[27.9761513,40.4924415],[27.9739145,40.4915943],[27.974545,40.490596],[27.9731027,40.4921131],[27.9714705,40.4906025],[27.9700487,40.4935097],[27.964745,40.49246],[27.963765,40.494523],[27.9580808,40.4954749],[27.9562662,40.4999778],[27.949002,40.496955],[27.94768,40.498635],[27.9431656,40.4981504],[27.942999,40.500599],[27.937292,40.501416],[27.935303,40.503486],[27.9318397,40.5012992],[27.9300896,40.5034077],[27.927886,40.502262],[27.92826,40.504954],[27.924587,40.50691],[27.920216,40.507073],[27.919896,40.508231],[27.91183,40.508809],[27.9110294,40.5062749],[27.905102,40.508733],[27.9042091,40.5067451],[27.9015161,40.5061333],[27.8964843,40.507985],[27.896379,40.51047],[27.892329,40.509474],[27.891369,40.513204],[27.888656,40.511557],[27.88867,40.512584],[27.878262,40.514204],[27.876548,40.511777],[27.872403,40.5133984],[27.870554,40.516444],[27.866162,40.515065],[27.860462,40.516519],[27.8567339,40.513956],[27.8550839,40.5149553],[27.856084,40.516167],[27.853056,40.51619],[27.85338,40.51516],[27.8487465,40.513356],[27.845994,40.51637],[27.8430557,40.5163381],[27.8408682,40.5102479],[27.8379297,40.5096958],[27.8300525,40.5111518],[27.8286055,40.517917],[27.8280315,40.514922],[27.8256121,40.5137339],[27.8225637,40.5175363],[27.8208074,40.5159374],[27.8176014,40.5183113],[27.8181583,40.5197057],[27.8145244,40.5189967],[27.8150945,40.5161821],[27.8137495,40.5157986],[27.8120216,40.5183548],[27.8079951,40.5167619],[27.8052932,40.5130372],[27.8020549,40.51383],[27.802246,40.51527],[27.7986094,40.5149395],[27.7944641,40.5197501],[27.7917248,40.5147511],[27.7933528,40.5116622],[27.7915761,40.5092728],[27.7923065,40.5072184],[27.7833971,40.506302],[27.7787702,40.5090395],[27.7818196,40.5089719],[27.7775751,40.5091947],[27.7747668,40.5119348],[27.7773876,40.5146725],[27.7757701,40.5170542],[27.779601,40.520817],[27.7772282,40.5261423],[27.775402,40.5262149],[27.7726698,40.5203366],[27.770387,40.5201429],[27.767686,40.523335],[27.7666616,40.5210892],[27.7639244,40.5203528],[27.7633391,40.524695],[27.762304,40.523371],[27.7593924,40.5234615],[27.7577348,40.5211985],[27.7529315,40.521674],[27.7535785,40.5282221],[27.7521242,40.5258592],[27.7471699,40.5253065],[27.748992,40.521533],[27.7483728,40.5177702],[27.7407914,40.5172436],[27.7369595,40.5259492],[27.7328719,40.5178956],[27.7250344,40.5196328],[27.7271856,40.5243875],[27.7222718,40.520065],[27.7212252,40.5229538],[27.7184678,40.5226561],[27.714484,40.51944],[27.7131249,40.5199974],[27.7124077,40.5170171],[27.708748,40.517806],[27.705015,40.514748],[27.7016485,40.5151929],[27.6987747,40.5095585],[27.6923514,40.5058226],[27.6917988,40.5046927],[27.6946446,40.5063202],[27.6935798,40.5034128],[27.6890321,40.5023773],[27.685723,40.50331],[27.684029,40.502165],[27.684473,40.496258],[27.6822765,40.4943857],[27.688326,40.4892995],[27.684204,40.4849398],[27.6887505,40.4804043],[27.6870517,40.4726061],[27.6879882,40.4717942],[27.6881091,40.4737495],[27.6907733,40.4723263],[27.697409,40.4726187],[27.699746,40.4698757],[27.7084349,40.4672608],[27.7122679,40.4635571],[27.7115795,40.4604524],[27.7152603,40.4594736],[27.7175054,40.4559575],[27.724233,40.456089],[27.7317311,40.4538502],[27.740373,40.4561747],[27.7505471,40.4503975],[27.7549715,40.4451214],[27.7552482,40.4421779],[27.749065,40.437317],[27.745797,40.430405],[27.7601658,40.4241546],[27.7688458,40.4155543],[27.7818728,40.4104814],[27.7851587,40.4075456],[27.7887099,40.4003003],[27.7872766,40.3942578],[27.7882329,40.3961481],[27.7904137,40.3959095],[27.7906552,40.3936311],[27.79342,40.39427],[27.7968864,40.3904157],[27.7969391,40.3885882],[27.7937254,40.3869117],[27.79559,40.3840739],[27.801184,40.383562],[27.8024157,40.3876665],[27.8058228,40.3871808],[27.8024886,40.3877706],[27.8018824,40.3893362],[27.8058453,40.39201],[27.8097409,40.3910641],[27.8159911,40.398578],[27.8207862,40.4003084],[27.8331462,40.3965164],[27.8427074,40.3904914],[27.8543326,40.3876535],[27.8644458,40.3831248],[27.8752939,40.3819472],[27.8791569,40.377833],[27.8849016,40.3794063],[27.8900829,40.3775414],[27.8927373,40.3735773],[27.8962828,40.3727751],[27.8960748,40.3689429],[27.9038603,40.3708161],[27.90606,40.3700123],[27.9058643,40.3677751],[27.9115382,40.3701512],[27.9170555,40.374875]]]]}},{"type":"Feature","properties":{"code":"10-10","provinceCode":"10","name":"Gömeç"},"geometry":{"type":"Polygon","coordinates":[[[26.856964,39.443855],[26.8545305,39.4396334],[26.852064,39.439218],[26.8496585,39.4361764],[26.8458014,39.4365135],[26.8418023,39.4337384],[26.8386659,39.4345929],[26.833936,39.4294814],[26.8301724,39.4320619],[26.8291586,39.4310073],[26.8272844,39.4324404],[26.8248939,39.4314002],[26.821527,39.4326832],[26.8172275,39.4320033],[26.814098,39.434293],[26.8151243,39.4366011],[26.812823,39.439128],[26.8079617,39.4334384],[26.8022344,39.4355743],[26.8008517,39.4349054],[26.7970774,39.4315498],[26.7965232,39.4275258],[26.8001603,39.4237475],[26.799398,39.421171],[26.8026419,39.4205994],[26.8038645,39.4183956],[26.8005314,39.4072181],[26.8017322,39.4031133],[26.8061714,39.4043785],[26.8074304,39.406504],[26.8077797,39.4042211],[26.8095263,39.4045528],[26.8080521,39.4040076],[26.80927,39.3989584],[26.8079352,39.3989606],[26.805916,39.391472],[26.8036347,39.3936437],[26.7998613,39.3894858],[26.7953835,39.387136],[26.7917768,39.3870418],[26.7878304,39.3779851],[26.7755816,39.3688263],[26.7650293,39.3681107],[26.7946053,39.3437878],[26.8603997,39.3209629],[26.8824505,39.3116719],[26.9852132,39.3182891],[26.9709349,39.3260733],[26.961764,39.3367812],[26.9587935,39.3474708],[26.9579117,39.3736338],[26.9537034,39.3801209],[26.9438627,39.3843224],[26.9276557,39.4003153],[26.9153002,39.419857],[26.909036,39.424476],[26.8979313,39.4294797],[26.856964,39.443855]]]}},{"type":"Feature","properties":{"code":"10-11","provinceCode":"10","name":"Gönen"},"geometry":{"type":"Polygon","coordinates":[[[27.7423171,39.9362878],[27.7407457,39.9405165],[27.7525667,39.9491323],[27.7516393,39.9518668],[27.7442613,39.9524493],[27.7450355,39.955923],[27.7525009,39.955428],[27.7553849,39.9567161],[27.7574864,39.9619027],[27.7610512,39.962655],[27.7677136,39.9719207],[27.7707031,39.9923945],[27.781221,40.0078903],[27.7843431,40.0160887],[27.7733698,40.0342062],[27.7764918,40.0434257],[27.7939573,40.0522617],[27.7938324,40.0621615],[27.7827002,40.0801822],[27.7875705,40.0875393],[27.806713,40.0973248],[27.8242142,40.1150634],[27.8195044,40.1247085],[27.8198969,40.1525721],[27.831939,40.1610939],[27.86243,40.1697855],[27.8294033,40.2256213],[27.8016134,40.242097],[27.7720496,40.2714273],[27.7617614,40.3065347],[27.7552817,40.3061859],[27.7456881,40.308956],[27.730026,40.307903],[27.723,40.309488],[27.716682,40.314662],[27.712665,40.315457],[27.703937,40.31474],[27.692481,40.309674],[27.676365,40.307972],[27.6726925,40.3090314],[27.6727269,40.3108772],[27.6725805,40.3092153],[27.6714004,40.3106276],[27.6704183,40.3093992],[27.6613821,40.3112254],[27.642946,40.320616],[27.634948,40.326309],[27.63505,40.319376],[27.634202,40.318225],[27.63185,40.317853],[27.634039,40.318868],[27.63294,40.326834],[27.616161,40.326282],[27.603386,40.323268],[27.6090399,40.3186825],[27.6089996,40.3160958],[27.602712,40.322887],[27.596661,40.321506],[27.5817931,40.316005],[27.5668924,40.3080813],[27.5525461,40.3038836],[27.5359882,40.3019137],[27.5169518,40.3037124],[27.518044,40.2957377],[27.5073349,40.2632809],[27.4444648,40.2212736],[27.4132582,40.1841414],[27.4066984,40.1740217],[27.4028075,40.1723518],[27.3997555,40.1654007],[27.3994774,40.1567948],[27.3872189,40.1397497],[27.3794153,40.1332946],[27.4114244,40.1387367],[27.4150335,40.1367908],[27.4250355,40.1351348],[27.4436475,40.1390108],[27.4544774,40.1395677],[27.4775334,40.1295738],[27.5003145,40.1281767],[27.5036414,40.1262466],[27.5028134,40.1140167],[27.4819814,40.0695675],[27.4792005,40.0354116],[27.4753094,40.0290175],[27.4575365,40.0106764],[27.4478095,39.9948454],[27.4478095,39.9912364],[27.4505863,39.9843014],[27.4533675,39.9817913],[27.4775854,39.9737646],[27.4885864,39.9727454],[27.5167641,39.9776625],[27.5169494,39.9658304],[27.5196349,39.9557044],[27.5369796,39.9408572],[27.5518889,39.9398002],[27.607352,39.9310989],[27.6178135,39.9316719],[27.6303033,39.9347006],[27.683465,39.9314877],[27.7354539,39.9390022],[27.7423171,39.9362878]]]}},{"type":"Feature","properties":{"code":"10-12","provinceCode":"10","name":"Havran"},"geometry":{"type":"Polygon","coordinates":[[[27.3879432,39.696637],[27.3787136,39.7210886],[27.3725159,39.7111067],[27.3523346,39.7054865],[27.3472324,39.6989643],[27.3313313,39.6910828],[27.3141634,39.678152],[27.2970992,39.6869414],[27.2558954,39.6817681],[27.20237,39.6840718],[27.1815976,39.6946332],[27.1385691,39.7305867],[27.1122327,39.7471304],[27.0862672,39.7562563],[27.0610436,39.7608188],[27.0406,39.761176],[27.0661947,39.7181208],[27.0862109,39.6944062],[27.1018235,39.6802352],[27.1130326,39.6632878],[27.1127259,39.6492782],[27.0842093,39.593914],[27.0569342,39.5609931],[27.0554198,39.551419],[27.0626888,39.536705],[27.067994,39.530032],[27.2080676,39.4549037],[27.2128994,39.4680597],[27.2363609,39.5008795],[27.2603111,39.516718],[27.3233637,39.5351917],[27.3482915,39.5457458],[27.3746856,39.5630814],[27.3829949,39.5758918],[27.3722925,39.6156743],[27.3811868,39.64383],[27.3908153,39.6654985],[27.3879432,39.696637]]]}},{"type":"Feature","properties":{"code":"10-13","provinceCode":"10","name":"İvrindi"},"geometry":{"type":"Polygon","coordinates":[[[27.2080676,39.4549037],[27.2191063,39.3689142],[27.2176737,39.3680306],[27.2205591,39.3572801],[27.2179413,39.345101],[27.218821,39.3439726],[27.2233271,39.3443958],[27.2248119,39.3398704],[27.2289919,39.3437237],[27.2303867,39.342894],[27.2335624,39.3443875],[27.2382402,39.3513402],[27.2664044,39.3528616],[27.2739458,39.3561187],[27.2833845,39.3716426],[27.2936547,39.3765398],[27.3016691,39.3780658],[27.3098445,39.3769213],[27.3104453,39.3755612],[27.3141789,39.3748148],[27.3186421,39.37581],[27.3211098,39.3800893],[27.3288345,39.3831327],[27.3355078,39.3788868],[27.3372674,39.3804375],[27.3426103,39.3777174],[27.3448956,39.3784887],[27.3496485,39.375105],[27.3534786,39.3753373],[27.3552505,39.3797387],[27.3621583,39.384219],[27.3691749,39.383821],[27.3765324,39.3854872],[27.3892738,39.3726771],[27.4000021,39.3710163],[27.4164074,39.3896174],[27.4261639,39.3970001],[27.4405057,39.4027963],[27.4714405,39.407116],[27.4850437,39.4037252],[27.4804483,39.4159825],[27.481633,39.4236093],[27.5045377,39.4345905],[27.523822,39.4559192],[27.534298,39.4594716],[27.5396451,39.464092],[27.5497632,39.4881169],[27.5801378,39.5065468],[27.5980846,39.5203568],[27.617907,39.5261088],[27.636077,39.543824],[27.6354564,39.5575272],[27.631653,39.5603707],[27.6308057,39.5648623],[27.637531,39.5666792],[27.6458294,39.5727207],[27.6551863,39.5727784],[27.6386663,39.577702],[27.6308462,39.593684],[27.636871,39.600411],[27.6439853,39.603364],[27.6490286,39.6047155],[27.6560347,39.6038884],[27.6616848,39.612159],[27.6699904,39.607545],[27.6658093,39.6116367],[27.6659223,39.6134648],[27.6698209,39.6157717],[27.6743409,39.6134213],[27.6855846,39.6192971],[27.6936077,39.6173386],[27.6956983,39.6184267],[27.6951898,39.6227788],[27.7108405,39.626478],[27.7156431,39.6346153],[27.7181517,39.636089],[27.7194851,39.6385261],[27.7163486,39.6386936],[27.711885,39.6432745],[27.7005655,39.6406082],[27.6976966,39.6422304],[27.6923127,39.6420858],[27.6772741,39.6455551],[27.6638565,39.6407228],[27.662232,39.6433003],[27.6556,39.6435464],[27.6530031,39.646592],[27.6343055,39.6466843],[27.6315088,39.6456075],[27.6160873,39.6483147],[27.6145292,39.6471765],[27.6040617,39.6469304],[27.6009455,39.6448385],[27.5999067,39.6464074],[27.5914369,39.6480686],[27.5857953,39.6551145],[27.5801877,39.643064],[27.561903,39.6474696],[27.5138275,39.6470097],[27.5008481,39.6709733],[27.4958084,39.6845924],[27.4828126,39.6914186],[27.4645002,39.6946194],[27.4491533,39.6911766],[27.4196711,39.6896227],[27.4055358,39.6955273],[27.3879432,39.696637],[27.3908153,39.6654985],[27.3811868,39.64383],[27.3722925,39.6156743],[27.3829949,39.5758918],[27.3746856,39.5630814],[27.3482915,39.5457458],[27.3233637,39.5351917],[27.2603111,39.516718],[27.2363609,39.5008795],[27.2128994,39.4680597],[27.2080676,39.4549037]]]}},{"type":"Feature","properties":{"code":"10-14","provinceCode":"10","name":"Karesi"},"geometry":{"type":"Polygon","coordinates":[[[27.7181517,39.636089],[27.7212813,39.6349622],[27.7218606,39.6325776],[27.7269545,39.6320545],[27.7300049,39.6375685],[27.7445239,39.639689],[27.7467427,39.6369384],[27.7546297,39.6329561],[27.7580843,39.6367521],[27.7637973,39.6374517],[27.7635431,39.6357765],[27.7686282,39.6386918],[27.7823579,39.6390616],[27.7873017,39.6443044],[27.7946412,39.6464479],[27.7975871,39.6500297],[27.8083348,39.6554211],[27.8160885,39.6553084],[27.817832,39.6523903],[27.8276266,39.6493431],[27.8327135,39.6408284],[27.8462052,39.6469679],[27.852495,39.6461262],[27.85975,39.6475649],[27.868117,39.6443444],[27.8800795,39.6457372],[27.8839881,39.6443357],[27.8924788,39.6497188],[27.8980522,39.6496304],[27.8990326,39.6524102],[27.9045127,39.6554372],[27.9070028,39.6520583],[27.9089724,39.6523274],[27.9109366,39.6530798],[27.912092,39.6566089],[27.9225611,39.657904],[27.9198528,39.6637707],[27.9337703,39.6712834],[27.9441803,39.6743127],[27.9450974,39.677847],[27.939277,39.6815997],[27.9485462,39.6878768],[27.9499761,39.696149],[27.9563911,39.6995056],[27.9601582,39.7035502],[27.9589506,39.7070958],[27.956281,39.707708],[27.9551383,39.7125353],[27.9526118,39.7121335],[27.9537246,39.7087781],[27.951292,39.6978048],[27.9321361,39.6961232],[27.9297835,39.7041597],[27.9363827,39.7106446],[27.932847,39.7147014],[27.9374614,39.7167912],[27.941956,39.7165146],[27.9415965,39.7177746],[27.9466304,39.7143941],[27.9551203,39.7159615],[27.9568981,39.7190346],[27.9609533,39.7168681],[27.9595736,39.7110031],[27.9630002,39.7081322],[27.9625407,39.7047358],[27.9653374,39.7006169],[27.967355,39.7005862],[27.9675048,39.705907],[27.9733819,39.7158328],[27.9729324,39.7205962],[27.966828,39.7252776],[27.9730012,39.7312927],[27.9874052,39.7351001],[27.9937113,39.7334764],[27.9946302,39.7320017],[28.0031502,39.7320195],[28.0039977,39.7301945],[28.0082353,39.728413],[28.0115123,39.7303683],[28.0161454,39.7301511],[28.0196484,39.7321499],[28.0159194,39.7383632],[28.017631,39.7425503],[28.0231732,39.7453977],[28.0208002,39.7496767],[28.0237382,39.751436],[28.0308573,39.7524568],[28.0322981,39.7539554],[28.0454063,39.7543029],[28.0548241,39.7492998],[28.0597781,39.7547058],[28.0600179,39.7595432],[28.0547642,39.760572],[28.0492508,39.7585143],[28.0391429,39.7606028],[28.0436974,39.7692784],[28.0426786,39.7765866],[28.0493906,39.7832799],[28.0542248,39.7915229],[28.0572711,39.7917673],[28.0604843,39.795048],[28.0425791,39.8020886],[28.0444721,39.8105987],[28.0405458,39.8118374],[28.031291,39.808929],[28.0254717,39.814207],[28.0212649,39.8147456],[28.0095562,39.8110295],[28.0038771,39.8124298],[27.9992497,39.8100601],[27.9951131,39.8100062],[27.9944119,39.807421],[27.9923086,39.8079596],[27.99322,39.8137762],[27.9918879,39.8165228],[27.996305,39.8212617],[27.9951832,39.8227694],[27.9914672,39.8228771],[27.9877513,39.8261079],[27.9881719,39.829554],[27.9963751,39.8348304],[27.9954636,39.8386528],[27.9989692,39.8476967],[27.9991796,39.8568469],[27.9967958,39.8586768],[27.9904857,39.8593765],[27.9871203,39.8622289],[27.985087,39.8614754],[27.9851571,39.8638972],[27.98074,39.8675028],[27.9752012,39.8683638],[27.9860686,39.8785874],[27.9845261,39.8800939],[27.9881018,39.8844518],[27.9877513,39.8868728],[27.9906259,39.8870342],[27.9916776,39.8888095],[27.9902176,39.8918918],[27.9917951,39.8939897],[27.9950904,39.8947697],[27.9949151,39.8990998],[28.0005592,39.9036985],[27.9980001,39.905339],[27.9980001,39.9095339],[27.9931974,39.9124111],[27.9927066,39.9170628],[27.9951605,39.917251],[27.9949502,39.914858],[27.9965628,39.9141589],[28.0014706,39.9161217],[28.0031533,39.9192406],[28.0033987,39.9290534],[28.0056277,39.9311583],[27.9916875,39.9367617],[27.9809587,39.9490771],[27.971636,39.9507657],[27.9628254,39.9486059],[27.9561663,39.9551636],[27.954732,39.9538678],[27.9562688,39.9526113],[27.9541174,39.9526898],[27.9556541,39.9514333],[27.9517098,39.9484096],[27.9503268,39.9502159],[27.9422846,39.951394],[27.9388526,39.9482132],[27.935728,39.9403589],[27.9369573,39.9385915],[27.9338839,39.9374918],[27.9343449,39.9332106],[27.9322959,39.9328964],[27.9308105,39.935528],[27.9287103,39.9345068],[27.9309129,39.930736],[27.9345498,39.9302254],[27.934601,39.9287327],[27.9317837,39.9282614],[27.9339351,39.9264937],[27.9328082,39.9261402],[27.9251246,39.9318358],[27.9211803,39.9335248],[27.9186704,39.9327393],[27.9139578,39.9366277],[27.9038154,39.9377667],[27.8986418,39.9342318],[27.8971563,39.9377667],[27.8891141,39.9414585],[27.8834795,39.9365492],[27.8808159,39.9388272],[27.8663195,39.9363528],[27.862324,39.9389057],[27.8552551,39.9349388],[27.8521304,39.9358422],[27.8471105,39.9407123],[27.8440371,39.9411836],[27.8415271,39.9447574],[27.8335249,39.9426151],[27.8343736,39.9410453],[27.8316903,39.9389429],[27.8314171,39.9347355],[27.8311374,39.9264638],[27.8328154,39.9253301],[27.8303384,39.9195086],[27.8343735,39.9167202],[27.8335745,39.9137784],[27.8290599,39.909243],[27.8290998,39.9071897],[27.8224278,39.9037878],[27.8220683,39.9019489],[27.8192716,39.9021941],[27.8200707,39.8967997],[27.8102025,39.891037],[27.8154762,39.884722],[27.8113402,39.882824],[27.8050687,39.8832142],[27.7998141,39.8875497],[27.8010006,39.8806995],[27.7939945,39.8747592],[27.7917345,39.8689486],[27.7932035,39.8680379],[27.7897004,39.8636578],[27.7816208,39.8644384],[27.7807733,39.8656527],[27.7701511,39.858757],[27.7650096,39.8612291],[27.759868,39.8549402],[27.7532574,39.8387598],[27.7534834,39.835072],[27.7553479,39.8303428],[27.76032,39.8264376],[27.758286,39.8247887],[27.7612805,39.8214473],[27.7611675,39.8131584],[27.7660831,39.8088616],[27.7695861,39.8078199],[27.7724112,39.8034794],[27.7661961,39.8039569],[27.763145,39.8002672],[27.7481723,39.799182],[27.7417312,39.797272],[27.7395842,39.7983138],[27.7378892,39.7970984],[27.7209389,39.7962301],[27.7203174,39.792323],[27.7175488,39.7925401],[27.7137068,39.7953619],[27.7146108,39.7974022],[27.7078307,39.7997029],[27.7045537,39.8056497],[27.7027456,39.8044343],[27.694101,39.8059535],[27.6816708,39.802047],[27.6805973,39.7996595],[27.6778853,39.7992688],[27.6726307,39.8019167],[27.6725177,39.7998332],[27.6695796,39.7977495],[27.6782808,39.7907167],[27.6799758,39.787721],[27.6789588,39.7814254],[27.6823488,39.7765621],[27.6814448,39.7693969],[27.6757947,39.7598855],[27.6778288,39.7546298],[27.6818968,39.7525448],[27.6829703,39.7489393],[27.6873774,39.7479401],[27.6878294,39.7511113],[27.690937,39.754456],[27.6902589,39.7560198],[27.693197,39.7574097],[27.6948355,39.7568885],[27.692745,39.7522841],[27.6955135,39.7525013],[27.6949485,39.7512416],[27.6975476,39.749504],[27.696022,39.7478532],[27.6900329,39.7465934],[27.693197,39.7455508],[27.6933612,39.7348397],[27.6963177,39.7337336],[27.6957583,39.7305382],[27.692722,39.7277729],[27.6947196,39.7264209],[27.693521,39.7242085],[27.6969569,39.7242699],[27.7067052,39.7194147],[27.7090224,39.7160957],[27.708543,39.709027],[27.7056665,39.705769],[27.7100612,39.7073673],[27.7162937,39.7026953],[27.7222866,39.7030641],[27.7231655,39.7009739],[27.7206885,39.692551],[27.7164535,39.6939037],[27.713577,39.6892307],[27.714376,39.684373],[27.7161339,39.6833891],[27.7153349,39.679761],[27.7072646,39.6757636],[27.7061459,39.6737341],[27.7078239,39.672996],[27.7055866,39.6687522],[27.7071047,39.6683832],[27.706066,39.6648772],[27.70271,39.6648157],[27.6996737,39.6617402],[27.6963976,39.6629704],[27.6892861,39.6574957],[27.6719469,39.6638316],[27.672666,39.6668455],[27.6682713,39.6679527],[27.6696297,39.6696748],[27.6641962,39.6750871],[27.6535689,39.6719505],[27.6462976,39.67152],[27.6469368,39.673242],[27.6436608,39.6757021],[27.6404646,39.6756406],[27.6370287,39.678039],[27.6364694,39.6834506],[27.6257622,39.6867712],[27.6266412,39.6908294],[27.621767,39.6991296],[27.6218469,39.7018961],[27.6110598,39.7068755],[27.6101809,39.7093344],[27.6123383,39.7106252],[27.6124182,39.7134527],[27.6026699,39.7131454],[27.5972364,39.7117931],[27.5870886,39.7023879],[27.5836527,39.7031256],[27.5834929,39.6967933],[27.5795776,39.692797],[27.5810957,39.6910139],[27.5767809,39.679761],[27.5772603,39.6747796],[27.5735048,39.6673991],[27.5748632,39.6646927],[27.5700689,39.6614326],[27.5704685,39.6594027],[27.5758221,39.6551581],[27.5857953,39.6551145],[27.5914369,39.6480686],[27.5999067,39.6464074],[27.6009455,39.6448385],[27.6040617,39.6469304],[27.6145292,39.6471765],[27.6160873,39.6483147],[27.6315088,39.6456075],[27.6343055,39.6466843],[27.6530031,39.646592],[27.6556,39.6435464],[27.662232,39.6433003],[27.6638565,39.6407228],[27.6772741,39.6455551],[27.6923127,39.6420858],[27.6976966,39.6422304],[27.7005655,39.6406082],[27.711885,39.6432745],[27.7163486,39.6386936],[27.7194851,39.6385261],[27.7181517,39.636089]]]}},{"type":"Feature","properties":{"code":"10-15","provinceCode":"10","name":"Kepsut"},"geometry":{"type":"Polygon","coordinates":[[[28.3164375,39.5089241],[28.3146406,39.5435755],[28.3015377,39.5694373],[28.2949488,39.5756704],[28.2979438,39.5839803],[28.31202,39.5936739],[28.3416699,39.6059045],[28.3562702,39.6146578],[28.364656,39.6241164],[28.388915,39.6347271],[28.3978998,39.6427993],[28.4089811,39.6670103],[28.4305446,39.6939782],[28.4497122,39.703426],[28.4787631,39.7101079],[28.4994282,39.7257731],[28.5275806,39.7375196],[28.5428547,39.7418953],[28.5628863,39.7523824],[28.527387,39.7538622],[28.5133285,39.7599943],[28.4880486,39.7774884],[28.4920055,39.7944958],[28.4834818,39.8095332],[28.4511106,39.8133313],[28.4026607,39.8125874],[28.378103,39.8241144],[28.3690984,39.8337536],[28.3538181,39.8260004],[28.3175272,39.8153122],[28.2886036,39.7922534],[28.2569514,39.7754785],[28.2435811,39.7601678],[28.2307564,39.74884],[28.2225705,39.745693],[28.2094731,39.7440146],[28.1846425,39.7442244],[28.1527174,39.7530357],[28.1212713,39.7811583],[28.1217553,39.7736323],[28.1133964,39.7694508],[28.1098499,39.7577384],[28.1035126,39.7511605],[28.0959265,39.7475389],[28.0593058,39.7523623],[28.0713434,39.7087271],[28.0656207,39.6947586],[28.0587429,39.6875354],[28.0495954,39.661575],[28.0525055,39.6574912],[28.0686659,39.6557086],[28.0794327,39.6520463],[28.0773952,39.6485951],[28.0785362,39.642759],[28.0737659,39.6407774],[28.069649,39.6289135],[28.0719184,39.6256484],[28.0676652,39.6157937],[28.0685956,39.6089842],[28.0704836,39.6059104],[28.0800561,39.6055977],[28.0846581,39.6037496],[28.0881365,39.5994522],[28.0869247,39.5970725],[28.0939927,39.5914098],[28.097368,39.5859442],[28.1021285,39.5834901],[28.0989598,39.5762955],[28.1080187,39.56054],[28.1051159,39.5551016],[28.1097503,39.5516699],[28.1095811,39.543614],[28.1140323,39.5398491],[28.1178004,39.5440758],[28.1201983,39.5432173],[28.1204552,39.5358864],[28.1151456,39.5347636],[28.1139163,39.5325161],[28.1282389,39.5304042],[28.1625392,39.5385067],[28.1739807,39.5473418],[28.2176382,39.5466562],[28.2528768,39.5355821],[28.3164375,39.5089241]]]}},{"type":"Feature","properties":{"code":"10-16","provinceCode":"10","name":"Manyas"},"geometry":{"type":"Polygon","coordinates":[[[28.0820348,40.1194878],[28.0728929,40.1240001],[28.0506075,40.1305305],[28.048554,40.1549856],[28.0209018,40.1819099],[27.9647054,40.2016703],[27.86243,40.1697855],[27.831939,40.1610939],[27.8198969,40.1525721],[27.8195044,40.1247085],[27.8242142,40.1150634],[27.806713,40.0973248],[27.7875705,40.0875393],[27.7827002,40.0801822],[27.7938324,40.0621615],[27.7939573,40.0522617],[27.7764918,40.0434257],[27.7733698,40.0342062],[27.7843431,40.0160887],[27.781221,40.0078903],[27.7707031,39.9923945],[27.7677136,39.9719207],[27.7610512,39.962655],[27.7574864,39.9619027],[27.7553849,39.9567161],[27.7525009,39.955428],[27.7450355,39.955923],[27.7442613,39.9524493],[27.7516393,39.9518668],[27.7525667,39.9491323],[27.7407457,39.9405165],[27.7423171,39.9362878],[27.7728904,39.9388402],[27.7884621,39.9494326],[27.7984246,39.9529168],[27.81528,39.9512665],[27.8306842,39.9454262],[27.8335249,39.9426151],[27.8415271,39.9447574],[27.8440371,39.9411836],[27.8471105,39.9407123],[27.8521304,39.9358422],[27.8552551,39.9349388],[27.862324,39.9389057],[27.8663195,39.9363528],[27.8808159,39.9388272],[27.8834795,39.9365492],[27.8891141,39.9414585],[27.8971563,39.9377667],[27.8986418,39.9342318],[27.9038154,39.9377667],[27.9139578,39.9366277],[27.9186704,39.9327393],[27.9211803,39.9335248],[27.9251246,39.9318358],[27.9328082,39.9261402],[27.9339351,39.9264937],[27.9317837,39.9282614],[27.934601,39.9287327],[27.9345498,39.9302254],[27.9309129,39.930736],[27.9287103,39.9345068],[27.9308105,39.935528],[27.9322959,39.9328964],[27.9343449,39.9332106],[27.9338839,39.9374918],[27.9369573,39.9385915],[27.935728,39.9403589],[27.9388526,39.9482132],[27.9422846,39.951394],[27.9503268,39.9502159],[27.9517098,39.9484096],[27.9556541,39.9514333],[27.9541174,39.9526898],[27.9562688,39.9526113],[27.954732,39.9538678],[27.9561663,39.9551636],[27.9628254,39.9486059],[27.971636,39.9507657],[27.9809587,39.9490771],[27.9916875,39.9367617],[28.0056277,39.9311583],[28.0272494,39.9416643],[28.0454464,39.9539735],[28.0575777,39.9698353],[28.0668546,39.9936211],[28.0686386,40.0130263],[28.0754036,40.0492311],[28.0710363,40.0695598],[28.0707794,40.091957],[28.0820348,40.1194878]]]}},{"type":"Feature","properties":{"code":"10-17","provinceCode":"10","name":"Marmara"},"geometry":{"type":"MultiPolygon","coordinates":[[[[27.4783181,40.4930813],[27.4811035,40.4912842],[27.4812953,40.4863027],[27.4840013,40.4861764],[27.4903002,40.4813658],[27.4868626,40.4693046],[27.4898065,40.4677135],[27.4942912,40.4688555],[27.497687,40.470793],[27.5037655,40.4796041],[27.5110243,40.4796806],[27.5192204,40.4839751],[27.5369243,40.4884151],[27.5384096,40.4926754],[27.5369833,40.4932506],[27.5363664,40.4912373],[27.5325255,40.4920859],[27.5239671,40.4993472],[27.5236587,40.5014414],[27.5249389,40.500884],[27.5263108,40.5024565],[27.5274038,40.4984987],[27.5267266,40.5025309],[27.5254056,40.503362],[27.52685,40.505897],[27.5318187,40.5096361],[27.5371148,40.5113368],[27.5391519,40.5143609],[27.5451158,40.5154019],[27.5462457,40.5172228],[27.5503153,40.5183912],[27.5530243,40.5215332],[27.5517254,40.5225338],[27.5469746,40.5201335],[27.5447718,40.5222708],[27.543143,40.5204169],[27.53975,40.5212009],[27.5357334,40.5243907],[27.5335555,40.5294529],[27.5277445,40.5277312],[27.5210529,40.5344577],[27.5188932,40.5345956],[27.5172986,40.5384051],[27.5140967,40.5366337],[27.5083977,40.5392806],[27.5130942,40.5365991],[27.5108546,40.5343883],[27.507809,40.5380759],[27.5088041,40.5349622],[27.5117894,40.5331244],[27.5070472,40.5304009],[27.5016935,40.5233101],[27.4971934,40.5210714],[27.4941565,40.5055483],[27.4879961,40.5023723],[27.4856485,40.4994532],[27.481703,40.4987394],[27.4783181,40.4930813]]],[[[27.4801259,40.6422262],[27.4824853,40.6392986],[27.4878077,40.6369699],[27.4855909,40.6414667],[27.4893824,40.6463573],[27.4846935,40.6469491],[27.4829833,40.6433842],[27.4801259,40.6422262]]],[[[27.5245029,40.6344271],[27.5283114,40.6322049],[27.5250844,40.6296029],[27.5309756,40.6264264],[27.5296018,40.6228316],[27.5343965,40.6209177],[27.5352124,40.6180837],[27.5348074,40.6139679],[27.5304687,40.6073716],[27.5326758,40.609192],[27.5330392,40.6074397],[27.5277926,40.6063659],[27.5308994,40.6016829],[27.5298464,40.5968685],[27.5341342,40.5952967],[27.5377766,40.5960093],[27.5445452,40.5920351],[27.5474765,40.5921846],[27.5508129,40.5888438],[27.5522678,40.5841051],[27.5575429,40.5857395],[27.5608541,40.5837677],[27.5587528,40.5850343],[27.5599099,40.5856656],[27.5660417,40.5819136],[27.5684809,40.5773306],[27.5746841,40.5753376],[27.5792245,40.578257],[27.5815755,40.5765357],[27.5825169,40.5797394],[27.5858887,40.5791513],[27.588104,40.5811519],[27.589858,40.579838],[27.5977418,40.5802749],[27.6026132,40.5768877],[27.6054271,40.5778604],[27.6082146,40.5747861],[27.6113427,40.5789017],[27.6146535,40.5791721],[27.6169157,40.5771377],[27.6198621,40.5771451],[27.6233007,40.5816769],[27.6323411,40.579771],[27.6360503,40.5849282],[27.6408713,40.5850009],[27.6483552,40.5882621],[27.6588378,40.5900307],[27.661,40.5924025],[27.6637192,40.5916964],[27.6632903,40.5931893],[27.6656633,40.5939229],[27.6620892,40.596415],[27.6622786,40.599634],[27.6649128,40.6041731],[27.6669783,40.6040894],[27.6654001,40.6016082],[27.6704435,40.6054615],[27.6787642,40.6059834],[27.6827149,40.6036282],[27.6888402,40.6079454],[27.6916453,40.6071105],[27.6962887,40.6103751],[27.6999159,40.6099332],[27.7044359,40.6158805],[27.7082514,40.6160149],[27.7054587,40.6148108],[27.7092247,40.6154868],[27.7129739,40.6138864],[27.7218923,40.6197076],[27.7266063,40.6197237],[27.7272897,40.6228235],[27.7328655,40.6235997],[27.7327483,40.6252799],[27.735137,40.6266387],[27.7385877,40.626504],[27.7384699,40.6291432],[27.7438687,40.6330057],[27.7355935,40.6321958],[27.7343396,40.6350145],[27.7376106,40.6364084],[27.7356995,40.6370437],[27.7345378,40.6416034],[27.7305022,40.6397759],[27.7266081,40.6418767],[27.7230601,40.6415069],[27.7195971,40.6445172],[27.715327,40.6443188],[27.7104572,40.6465273],[27.7110663,40.6493111],[27.7073898,40.6515892],[27.7044314,40.6518442],[27.7016982,40.6497124],[27.7003236,40.6514796],[27.6976923,40.6509265],[27.6925533,40.6536671],[27.6881636,40.6511987],[27.6893811,40.6492364],[27.6835941,40.6488497],[27.6743623,40.6532905],[27.6732279,40.6556598],[27.6756601,40.6573428],[27.6733139,40.6617891],[27.6686034,40.6601836],[27.6716634,40.6581172],[27.6697809,40.6552779],[27.6653174,40.6565265],[27.6590428,40.6530439],[27.6588389,40.6564542],[27.6627756,40.6574629],[27.6587772,40.6585529],[27.6602908,40.6601542],[27.6585694,40.6633405],[27.6513835,40.6586563],[27.6491588,40.6580758],[27.6471241,40.6595068],[27.6461843,40.6578943],[27.6418627,40.65701],[27.6440637,40.6598521],[27.642769,40.6621347],[27.6440088,40.6633902],[27.6402101,40.6623195],[27.6391988,40.6664938],[27.6367486,40.6663813],[27.6345534,40.6684285],[27.6331753,40.6656501],[27.6252553,40.6646851],[27.6222507,40.6588455],[27.6170644,40.6602607],[27.6145806,40.6581102],[27.6155588,40.6571461],[27.6120498,40.6555438],[27.6068712,40.6562414],[27.6073891,40.6582803],[27.604708,40.6581416],[27.6053335,40.6605236],[27.60374,40.6611022],[27.5993123,40.6596007],[27.5987198,40.6574721],[27.572211,40.6531097],[27.5746057,40.6520093],[27.570972,40.6505895],[27.5709256,40.6455797],[27.5583589,40.642098],[27.549013,40.6448519],[27.5574732,40.6501507],[27.5526841,40.6489069],[27.5515026,40.6498716],[27.5535638,40.6538427],[27.5510393,40.6537524],[27.5488131,40.6564644],[27.5473478,40.655352],[27.5487069,40.6541237],[27.5434138,40.6482712],[27.5339657,40.6474044],[27.5263603,40.6416968],[27.5308262,40.640288],[27.5278363,40.6386819],[27.5301143,40.6375533],[27.5245029,40.6344271]]],[[[27.6763003,40.6604793],[27.677079,40.6586314],[27.680614,40.663168],[27.677588,40.663956],[27.6763003,40.6604793]]]]}},{"type":"Feature","properties":{"code":"10-18","provinceCode":"10","name":"Savaştepe"},"geometry":{"type":"Polygon","coordinates":[[[27.4850437,39.4037252],[27.5086691,39.3912458],[27.5307403,39.3748501],[27.5524391,39.3532027],[27.5655593,39.3457591],[27.5893043,39.3484668],[27.603003,39.3408366],[27.649019,39.3290389],[27.6604931,39.3335479],[27.6848119,39.3394557],[27.6872408,39.3460452],[27.721029,39.3619086],[27.7357881,39.3647848],[27.7473248,39.3622203],[27.7692402,39.3208671],[27.8021751,39.307181],[27.8262338,39.3235473],[27.8441651,39.3328838],[27.8586548,39.3287203],[27.855079,39.3308871],[27.8552021,39.3369779],[27.8476966,39.3483015],[27.8346542,39.3529636],[27.8326855,39.3572448],[27.8234575,39.356008],[27.8141119,39.3575274],[27.8150907,39.3640943],[27.8059856,39.3634284],[27.8057396,39.371704],[27.7972497,39.3786472],[27.7968806,39.3834975],[27.7909746,39.3906297],[27.7904988,39.3987663],[27.7788702,39.405748],[27.7731747,39.4070654],[27.7596903,39.4158413],[27.7460646,39.4339776],[27.7357292,39.4356881],[27.7362214,39.4460455],[27.7427425,39.4476608],[27.7566462,39.4578264],[27.7646798,39.4600443],[27.7658743,39.4663758],[27.756277,39.4784382],[27.7538288,39.4852638],[27.753078,39.4975247],[27.7550466,39.5013224],[27.7418916,39.5049858],[27.7333914,39.5158467],[27.721909,39.5203497],[27.7132127,39.5186942],[27.7102597,39.5196433],[27.7160447,39.5247645],[27.7167809,39.5285648],[27.7137048,39.5323607],[27.708291,39.532171],[27.7025081,39.5297036],[27.6830676,39.5372952],[27.6767925,39.5350178],[27.6726091,39.5372952],[27.6681796,39.5338791],[27.6651036,39.533974],[27.6643654,39.5355872],[27.6561216,39.5317914],[27.6534147,39.5390032],[27.6492313,39.5437475],[27.6411106,39.5455502],[27.636077,39.543824],[27.617907,39.5261088],[27.5980846,39.5203568],[27.5801378,39.5065468],[27.5497632,39.4881169],[27.5396451,39.464092],[27.534298,39.4594716],[27.523822,39.4559192],[27.5045377,39.4345905],[27.481633,39.4236093],[27.4804483,39.4159825],[27.4850437,39.4037252]]]}},{"type":"Feature","properties":{"code":"10-19","provinceCode":"10","name":"Sındırgı"},"geometry":{"type":"Polygon","coordinates":[[[27.9607384,39.3836659],[27.9494651,39.3841535],[27.9516799,39.379113],[27.9437857,39.3702031],[27.940114,39.3709334],[27.9350693,39.3676993],[27.9332833,39.3623133],[27.9171026,39.359579],[27.9343616,39.3365884],[27.9326315,39.3171505],[27.941961,39.3029064],[27.9418689,39.2946893],[27.935043,39.2825153],[27.9345142,39.2676208],[27.9438333,39.2529201],[27.9557435,39.2447828],[27.9741595,39.2449873],[27.9827766,39.2424924],[27.9880485,39.2374873],[28.006553,39.2292271],[28.014516,39.2204077],[28.0190569,39.2122246],[28.028282,39.2076706],[28.053218,39.205365],[28.0705122,39.1976257],[28.0723698,39.1789617],[28.0844819,39.1558832],[28.0829091,39.1427169],[28.0920314,39.1271133],[28.1254567,39.1116773],[28.1434402,39.1056479],[28.1504876,39.0934864],[28.1541643,39.0824464],[28.1938834,39.0719739],[28.2240929,39.0768949],[28.2666988,39.076387],[28.2925296,39.0804939],[28.3135768,39.085468],[28.3443458,39.1055475],[28.3467713,39.1151218],[28.362142,39.1256556],[28.3801117,39.1274888],[28.4020417,39.1268413],[28.436034,39.1388063],[28.4500856,39.1398445],[28.4942355,39.1370039],[28.4975191,39.1386358],[28.5091054,39.1351076],[28.525014,39.1359328],[28.5329541,39.1347709],[28.5351005,39.131462],[28.5579153,39.137423],[28.5684821,39.1385406],[28.5728049,39.1344426],[28.5797694,39.139472],[28.5843324,39.1392857],[28.585293,39.1433835],[28.588415,39.1465498],[28.5843324,39.1502746],[28.5856118,39.1591029],[28.5925951,39.1650606],[28.5922165,39.1727674],[28.5986035,39.1759013],[28.6170972,39.1689826],[28.6324636,39.1681686],[28.6397871,39.1796036],[28.6539827,39.1943767],[28.6461189,39.2129892],[28.6186219,39.2463178],[28.6190468,39.266982],[28.6283433,39.2791243],[28.6644451,39.2889604],[28.6558257,39.3099644],[28.6172828,39.3265115],[28.5859017,39.3307393],[28.5205263,39.3296986],[28.5021059,39.3257007],[28.4849058,39.3349934],[28.4799246,39.3313008],[28.4738743,39.3293886],[28.4567963,39.3380876],[28.4298992,39.3250302],[28.3753125,39.3230063],[28.3391363,39.33418],[28.3150698,39.3393506],[28.2845121,39.3507004],[28.2577784,39.3701867],[28.2277173,39.3724328],[28.2011949,39.3704337],[28.1844868,39.3624408],[28.1562935,39.3415002],[28.1279574,39.3315434],[28.1015573,39.3334123],[28.0744199,39.3452993],[28.0549377,39.3587717],[28.0417029,39.3647701],[28.0300655,39.3668871],[28.0079314,39.3637116],[27.9848156,39.363897],[27.9733351,39.3673188],[27.9607384,39.3836659]]]}},{"type":"Feature","properties":{"code":"10-20","provinceCode":"10","name":"Susurluk"},"geometry":{"type":"Polygon","coordinates":[[[28.4511106,39.8133313],[28.4498703,39.8485107],[28.4357304,39.8595496],[28.4285376,39.8615635],[28.4063314,39.8566275],[28.3764589,39.8550762],[28.3624603,39.8576955],[28.3506995,39.8627445],[28.3264703,39.8898316],[28.3159539,39.8979599],[28.2983993,39.9042779],[28.2875376,39.9112132],[28.2660353,39.92889],[28.2527736,39.9683223],[28.2379672,39.9787007],[28.2267905,39.9779148],[28.21867,39.9820167],[28.2115372,39.9868412],[28.2055595,39.9935653],[28.1942743,40.0256278],[28.1983295,40.0347134],[28.1886066,40.0410994],[28.1969131,40.059918],[28.1919228,40.0742828],[28.1448379,40.1108163],[28.1336072,40.1269441],[28.1128601,40.1473324],[28.1067989,40.1356088],[28.088896,40.1276474],[28.0820348,40.1194878],[28.0707794,40.091957],[28.0710363,40.0695598],[28.0754036,40.0492311],[28.0686386,40.0130263],[28.0668546,39.9936211],[28.0575777,39.9698353],[28.0454464,39.9539735],[28.0272494,39.9416643],[28.0056277,39.9311583],[28.0033987,39.9290534],[28.0031533,39.9192406],[28.0014706,39.9161217],[27.9965628,39.9141589],[27.9949502,39.914858],[27.9951605,39.917251],[27.9927066,39.9170628],[27.9931974,39.9124111],[27.9980001,39.9095339],[27.9980001,39.905339],[28.0005592,39.9036985],[27.9949151,39.8990998],[27.9950904,39.8947697],[27.9917951,39.8939897],[27.9902176,39.8918918],[27.9916776,39.8888095],[27.9906259,39.8870342],[27.9877513,39.8868728],[27.9881018,39.8844518],[27.9845261,39.8800939],[27.9860686,39.8785874],[27.9752012,39.8683638],[27.98074,39.8675028],[27.9851571,39.8638972],[27.985087,39.8614754],[27.9871203,39.8622289],[27.9904857,39.8593765],[27.9967958,39.8586768],[27.9991796,39.8568469],[27.9989692,39.8476967],[27.9954636,39.8386528],[27.9963751,39.8348304],[27.9881719,39.829554],[27.9877513,39.8261079],[27.9914672,39.8228771],[27.9951832,39.8227694],[27.996305,39.8212617],[27.9918879,39.8165228],[27.99322,39.8137762],[27.9923086,39.8079596],[27.9944119,39.807421],[27.9951131,39.8100062],[27.9992497,39.8100601],[28.0038771,39.8124298],[28.0095562,39.8110295],[28.0212649,39.8147456],[28.0254717,39.814207],[28.031291,39.808929],[28.0405458,39.8118374],[28.0444721,39.8105987],[28.0425791,39.8020886],[28.0604843,39.795048],[28.0572711,39.7917673],[28.0779036,39.7881698],[28.0805048,39.7913957],[28.0830125,39.7911816],[28.0848107,39.7884919],[28.0899957,39.785962],[28.0977917,39.7867775],[28.106894,39.7843509],[28.1112593,39.7846364],[28.1132181,39.790444],[28.1212713,39.7811583],[28.1527174,39.7530357],[28.1846425,39.7442244],[28.2094731,39.7440146],[28.2225705,39.745693],[28.2307564,39.74884],[28.2435811,39.7601678],[28.2569514,39.7754785],[28.2886036,39.7922534],[28.3175272,39.8153122],[28.3538181,39.8260004],[28.3690984,39.8337536],[28.378103,39.8241144],[28.4026607,39.8125874],[28.4511106,39.8133313]]]}}]}