{"type":"FeatureCollection","features":[{"type":"Feature","properties":{"code":"49-01","provinceCode":"49","name":"Bulanık"},"geometry":{"type":"Polygon","coordinates":[[[41.868699,39.0433813],[41.8632472,39.0381287],[41.8643354,39.029488],[41.876992,39.0133721],[41.8795078,39.0025624],[41.8790242,38.9918499],[41.8822888,38.9882787],[41.8819261,38.9841434],[41.869714,38.9507702],[41.8646357,38.9434354],[41.8582274,38.9377927],[41.8579856,38.9241544],[41.8555674,38.9203917],[41.8548419,38.9128656],[41.8594365,38.9128656],[41.8647057,38.9166344],[41.867003,38.9148469],[41.8715001,38.9047168],[41.8990857,38.9027491],[41.9388434,38.8872148],[41.9472939,38.8799476],[41.953169,38.8773161],[41.9735308,38.8752485],[41.9765536,38.872922],[41.991845,38.8701023],[41.998364,38.8674705],[42.009068,38.869601],[42.0148627,38.8723581],[42.0318529,38.8751784],[42.0531368,38.8820895],[42.0608763,38.8805833],[42.071689,38.8806719],[42.0796562,38.8827983],[42.0781766,38.8703047],[42.0801115,38.8559477],[42.1038994,38.8543523],[42.1086797,38.8517818],[42.1180128,38.8504523],[42.131873,38.846065],[42.1657248,38.8442569],[42.1745648,38.8567614],[42.1701005,38.8712358],[42.1702989,38.8763348],[42.1808178,38.8760258],[42.206619,38.8859137],[42.239565,38.8914751],[42.2413513,38.8894669],[42.2621906,38.8862227],[42.2756866,38.8941012],[42.2731065,38.9007431],[42.2735034,38.9050678],[42.2844193,38.9061489],[42.2953352,38.9129441],[42.2887857,38.9220549],[42.2917627,38.9294662],[42.2951367,38.9295434],[42.2960298,38.9320137],[42.3047625,38.9372627],[42.3105181,38.9377258],[42.3092281,38.9416623],[42.3164723,38.945367],[42.3202432,38.9445952],[42.3276858,38.9485313],[42.3331438,38.9482998],[42.3490214,38.9371083],[42.3599372,38.9359504],[42.3674791,38.9279222],[42.3777996,38.9263783],[42.3945703,38.9363364],[42.4005244,38.9364136],[42.4108448,38.9493031],[42.4166005,38.9503835],[42.4219592,38.957406],[42.4294018,38.957869],[42.4335697,38.9543964],[42.4444856,38.951927],[42.4474626,38.9552453],[42.4555999,38.9547823],[42.4658671,38.9512422],[42.4737567,38.9505481],[42.4823024,38.9613471],[42.48361,38.9697938],[42.5004082,38.9839474],[42.5023193,38.993564],[42.5056387,38.9958311],[42.5058399,38.9987236],[42.4942723,39.0140438],[42.4948758,39.0179515],[42.4977929,39.0195926],[42.4998046,39.0249847],[42.4981952,39.0283448],[42.4928641,39.0306109],[42.4882371,39.0353771],[42.4954794,39.0408461],[42.4987988,39.0455335],[42.4991005,39.0524079],[42.5064434,39.0652173],[42.5067452,39.0739639],[42.5012129,39.0788833],[42.4977929,39.0787272],[42.48361,39.0684974],[42.462386,39.0684974],[42.4571555,39.0659983],[42.4500137,39.0595158],[42.4401561,39.0546731],[42.4343221,39.054595],[42.4265768,39.0563134],[42.4223521,39.059672],[42.4168198,39.0613122],[42.4127963,39.0695126],[42.4095775,39.0707621],[42.4090745,39.0762284],[42.4003234,39.0770093],[42.3958976,39.0801327],[42.3938858,39.0891116],[42.3971046,39.0962939],[42.3964005,39.0990261],[42.3724606,39.0997287],[42.3675318,39.0985578],[42.3658218,39.1026169],[42.3668277,39.105583],[42.3599878,39.1139344],[42.359183,39.1197875],[42.3524437,39.1298538],[42.3527454,39.1456916],[42.3574731,39.1467838],[42.3581715,39.1501243],[42.3557506,39.1559881],[42.3601256,39.158842],[42.3628861,39.1667782],[42.3665846,39.1668885],[42.3842951,39.1829338],[42.3818056,39.1887225],[42.3868556,39.1916442],[42.3850774,39.1955028],[42.3811655,39.1963848],[42.3750486,39.1934082],[42.3618903,39.1929672],[42.3561291,39.1904865],[42.3541375,39.1875648],[42.3462425,39.1881161],[42.3432552,39.1897148],[42.3352891,39.1894391],[42.3323018,39.1944555],[42.3264694,39.194676],[42.322842,39.2094474],[42.3187878,39.2142971],[42.3224152,39.2176035],[42.3216328,39.2203036],[42.3191434,39.2220117],[42.316085,39.2209097],[42.3090435,39.2227831],[42.3169385,39.2336372],[42.307621,39.2406336],[42.3082611,39.2459217],[42.3061984,39.2504384],[42.2979478,39.2533575],[42.2958851,39.2564969],[42.2956718,39.261123],[42.2989436,39.265143],[42.3012907,39.2751096],[42.2985168,39.2788535],[42.2938936,39.2793491],[42.2909063,39.2779726],[42.2798106,39.2642069],[42.2712755,39.2593607],[42.2675058,39.2591404],[42.2635938,39.2547895],[42.2499376,39.2533575],[42.2278885,39.2378792],[42.2224117,39.2383199],[42.2149912,39.2464537],[42.211186,39.2453796],[42.2091071,39.2472633],[42.2130012,39.2498796],[42.2130635,39.2524339],[42.2086625,39.2549192],[42.2127523,39.2577418],[42.2137658,39.2630424],[42.2206331,39.2611545],[42.2220414,39.2638511],[42.2196021,39.2659635],[42.2196021,39.269098],[42.2291202,39.2699351],[42.228479,39.2727871],[42.2251219,39.2744807],[42.231576,39.2833037],[42.2341536,39.2828268],[42.2340781,39.2802477],[42.2365928,39.2790992],[42.2420874,39.2819411],[42.2493549,39.2804618],[42.2540196,39.2853085],[42.2495812,39.2869142],[42.2492794,39.2886367],[42.2626702,39.2931714],[42.2594639,39.2998269],[42.259155,39.3050772],[42.2532071,39.3086143],[42.2427591,39.3217451],[42.2388485,39.3368535],[42.2320204,39.339604],[42.2338697,39.3422444],[42.2325219,39.3454444],[42.2203557,39.3403741],[42.2131008,39.3256303],[42.2106825,39.3164963],[42.1984488,39.3092323],[42.1901981,39.3125342],[42.1751971,39.3249038],[42.1713063,39.320819],[42.1751971,39.3153365],[42.1736686,39.3114663],[42.175336,39.3079183],[42.1713063,39.3058755],[42.1596515,39.3057665],[42.1607459,39.3011445],[42.1557275,39.2991293],[42.154354,39.2898533],[42.1457388,39.283508],[42.1386522,39.2820022],[42.1228483,39.2847563],[42.1144679,39.2797704],[42.1010806,39.2802398],[42.0647445,39.2728175],[42.0587537,39.2633926],[42.0574051,39.2573388],[42.0522344,39.2535806],[42.0504123,39.2485734],[42.0327538,39.2502414],[42.0254509,39.2526023],[42.0213776,39.2476725],[41.9997055,39.2378585],[41.9894008,39.2376117],[41.9729581,39.2201527],[41.960045,39.2111532],[41.9240842,39.2174589],[41.9158638,39.2172446],[41.8829514,39.2091241],[41.8573258,39.2023033],[41.8297785,39.2088138],[41.8186218,39.2089206],[41.8149004,39.1991434],[41.8005295,39.1820027],[41.8012056,39.1731037],[41.7922315,39.1680127],[41.8025769,39.1528744],[41.8173521,39.1411029],[41.8227238,39.1325562],[41.8406296,39.115994],[41.8502711,39.110223],[41.8597749,39.1103299],[41.8648712,39.1088336],[41.8736863,39.0954728],[41.8794713,39.0620061],[41.8847741,39.0551077],[41.8752014,39.0455878],[41.868699,39.0433813]]]}},{"type":"Feature","properties":{"code":"49-02","provinceCode":"49","name":"Hasköy"},"geometry":{"type":"Polygon","coordinates":[[[41.9541085,38.5696236],[41.9542912,38.5772579],[41.9482924,38.5810657],[41.9495742,38.5859553],[41.9474721,38.5881595],[41.9388585,38.5906042],[41.936705,38.5932891],[41.9419347,38.6044287],[41.9417546,38.6211984],[41.9360268,38.6293915],[41.9311381,38.6324729],[41.9320692,38.6348976],[41.9341875,38.6515359],[41.9252944,38.6559983],[41.9162,38.6544585],[41.9129002,38.6525729],[41.9021963,38.6558726],[41.8935445,38.6559983],[41.8890376,38.65361],[41.885094,38.6484246],[41.8813114,38.6473561],[41.87439,38.6510016],[41.8741486,38.6539871],[41.8695611,38.6582608],[41.8618349,38.6620315],[41.856,38.6622514],[41.8537868,38.6641367],[41.8537466,38.6652678],[41.8584145,38.6669331],[41.8566223,38.6756929],[41.8550823,38.6760796],[41.8534055,38.6734087],[41.8513576,38.6732803],[41.8512143,38.6744974],[41.8501389,38.6732851],[41.8455615,38.6744263],[41.8447369,38.6734194],[41.8356209,38.6793304],[41.8341136,38.6783665],[41.8356277,38.6776753],[41.8320107,38.6755561],[41.8260866,38.676669],[41.8268109,38.6784911],[41.8104732,38.6820094],[41.8070125,38.685025],[41.7930088,38.6909301],[41.7868118,38.6876635],[41.7770735,38.6891084],[41.7524463,38.6888571],[41.7489051,38.6931287],[41.7581605,38.7007918],[41.760253,38.7048743],[41.7594482,38.7078261],[41.7452835,38.7131014],[41.7374969,38.713689],[41.7189783,38.7286881],[41.7129437,38.7362723],[41.7113604,38.7416969],[41.7076902,38.7415845],[41.7062156,38.7359191],[41.7049916,38.7369105],[41.7030837,38.7351457],[41.7020278,38.7360375],[41.7025884,38.7347308],[41.7002728,38.7341107],[41.7013643,38.732991],[41.6972022,38.7323772],[41.6993814,38.7293609],[41.6987447,38.7273994],[41.6923401,38.727627],[41.6876061,38.7260971],[41.6859216,38.7209729],[41.6841808,38.7227203],[41.6853666,38.7260947],[41.6770508,38.7266223],[41.6765951,38.7314639],[41.6630336,38.7280559],[41.6607815,38.7257442],[41.6614334,38.7212129],[41.657183,38.716772],[41.6564849,38.7044557],[41.6607279,38.6943908],[41.6485014,38.6873958],[41.6439019,38.6791171],[41.6355355,38.6753907],[41.6281378,38.6686507],[41.6241963,38.659642],[41.6238117,38.6519845],[41.6205431,38.6498072],[41.620447,38.6452272],[41.6118909,38.6434251],[41.6071882,38.6372859],[41.6069879,38.6320861],[41.6102566,38.6277303],[41.6083338,38.6238999],[41.609872,38.6194684],[41.6083266,38.614742],[41.6165479,38.6095935],[41.6207009,38.6096736],[41.6243925,38.6078707],[41.6398252,38.6094332],[41.6583343,38.6189279],[41.6985313,38.6170451],[41.7047351,38.618327],[41.709042,38.6158032],[41.7182196,38.6166845],[41.7257565,38.6142007],[41.7296019,38.6112761],[41.7651331,38.6045852],[41.7704141,38.6021411],[41.7749773,38.5966915],[41.7861545,38.5996167],[41.79323,38.6033832],[41.8054327,38.5990557],[41.8171226,38.5995366],[41.8239747,38.5956264],[41.8374976,38.5979499],[41.8487728,38.5931895],[41.8569938,38.5792281],[41.8638936,38.5748257],[41.8705077,38.574986],[41.8753785,38.5657261],[41.8874273,38.5563446],[41.8922469,38.5545003],[41.9017321,38.5430321],[41.9089614,38.5406661],[41.9146526,38.5442352],[41.9178827,38.5494882],[41.9462165,38.5617055],[41.9541085,38.5696236]]]}},{"type":"Feature","properties":{"code":"49-03","provinceCode":"49","name":"Korkut"},"geometry":{"type":"Polygon","coordinates":[[[41.8715001,38.9047168],[41.8706324,38.8852377],[41.8612983,38.8779717],[41.8526079,38.875278],[41.8513205,38.8730854],[41.8532517,38.8706422],[41.8528493,38.8669459],[41.8478604,38.861307],[41.8438371,38.861307],[41.8368365,38.8527225],[41.8336179,38.8556677],[41.8291922,38.8570462],[41.8145474,38.856357],[41.8162372,38.8608684],[41.8139841,38.8639385],[41.8054547,38.8517826],[41.8028798,38.8509679],[41.7965229,38.8434477],[41.7917754,38.8423196],[41.7739924,38.8455158],[41.7686816,38.8452025],[41.7642559,38.8508426],[41.7638036,38.8573138],[41.7611009,38.8614564],[41.7533212,38.8665457],[41.7609462,38.8775276],[41.7559044,38.880616],[41.7423056,38.8800522],[41.7217062,38.8702797],[41.7212234,38.8643905],[41.7164759,38.8575242],[41.7211985,38.8541347],[41.7229339,38.8503018],[41.7312695,38.8502575],[41.7361615,38.8468532],[41.7243764,38.8350371],[41.7195045,38.8329207],[41.7081657,38.8188627],[41.6937623,38.8140665],[41.7042631,38.8062288],[41.702694,38.7990487],[41.7335126,38.7959758],[41.7412776,38.7930909],[41.7481977,38.7860349],[41.7498875,38.7793233],[41.7337743,38.7698545],[41.7343393,38.7681682],[41.7315532,38.7644098],[41.7317509,38.7592882],[41.7272742,38.7539384],[41.726841,38.7499938],[41.7174525,38.7468965],[41.7113604,38.7416969],[41.7129437,38.7362723],[41.7189783,38.7286881],[41.7374969,38.713689],[41.7452835,38.7131014],[41.7594482,38.7078261],[41.760253,38.7048743],[41.7581605,38.7007918],[41.7489051,38.6931287],[41.7524463,38.6888571],[41.7770735,38.6891084],[41.7868118,38.6876635],[41.7930088,38.6909301],[41.8070125,38.685025],[41.8104732,38.6820094],[41.8268109,38.6784911],[41.8260866,38.676669],[41.8320107,38.6755561],[41.8356277,38.6776753],[41.8341136,38.6783665],[41.8356209,38.6793304],[41.8447369,38.6734194],[41.8455615,38.6744263],[41.8501389,38.6732851],[41.8512143,38.6744974],[41.8513576,38.6732803],[41.8534055,38.6734087],[41.8550823,38.6760796],[41.8566223,38.6756929],[41.8584145,38.6669331],[41.8537466,38.6652678],[41.8537868,38.6641367],[41.856,38.6622514],[41.8618349,38.6620315],[41.8695611,38.6582608],[41.8741486,38.6539871],[41.87439,38.6510016],[41.8813114,38.6473561],[41.885094,38.6484246],[41.8890376,38.65361],[41.8935445,38.6559983],[41.9021963,38.6558726],[41.9129002,38.6525729],[41.9162,38.6544585],[41.9252944,38.6559983],[41.9341875,38.6515359],[41.9320692,38.6348976],[41.9366448,38.6372473],[41.9376441,38.6352431],[41.9395308,38.6362581],[41.9407973,38.6353016],[41.9416095,38.6373054],[41.9451157,38.6351931],[41.9483523,38.6382351],[41.9546253,38.638123],[41.955891,38.639891],[41.9583939,38.6387726],[41.9607879,38.6424112],[41.9662181,38.6414735],[41.9707105,38.6451708],[41.9705434,38.6439037],[41.9732424,38.6437221],[41.9738488,38.6465137],[41.9778873,38.6478578],[41.9790719,38.6500802],[41.9802875,38.6492063],[41.9829191,38.6503359],[41.9822085,38.6514919],[41.9842632,38.6532241],[41.9881747,38.6536492],[41.9987158,38.649856],[42.0069943,38.6528344],[42.0089456,38.6561734],[42.0112282,38.6552436],[42.0122931,38.6573005],[42.0202729,38.6594612],[42.0233712,38.6618624],[42.0262182,38.6594822],[42.0389342,38.6610219],[42.0409865,38.6638184],[42.0420327,38.6713276],[42.0351114,38.6727727],[42.034548,38.6745007],[42.0391354,38.6796841],[42.0304837,38.6887622],[42.0305642,38.6926883],[42.0369624,38.6992209],[42.0434009,38.702173],[42.0556743,38.703806],[42.0788529,38.7100235],[42.0871827,38.7196629],[42.0984098,38.7262872],[42.1059348,38.7288928],[42.115834,38.7369915],[42.1142244,38.7414486],[42.1161559,38.7433946],[42.1167104,38.7511271],[42.1155207,38.7580936],[42.1167727,38.7631524],[42.1107404,38.7631524],[42.095375,38.7566735],[42.0990172,38.7670572],[42.0917329,38.7689208],[42.0882045,38.7727366],[42.0883183,38.7784155],[42.0926434,38.7844488],[42.0997001,38.7899494],[42.1089193,38.7919898],[42.1121062,38.7908365],[42.1140411,38.803344],[42.1099437,38.8080449],[42.1093746,38.8112377],[42.1170004,38.8165588],[42.1190491,38.8361548],[42.131873,38.846065],[42.1180128,38.8504523],[42.1086797,38.8517818],[42.1038994,38.8543523],[42.0801115,38.8559477],[42.0781766,38.8703047],[42.0796562,38.8827983],[42.071689,38.8806719],[42.0608763,38.8805833],[42.0531368,38.8820895],[42.0318529,38.8751784],[42.0148627,38.8723581],[42.009068,38.869601],[41.998364,38.8674705],[41.991845,38.8701023],[41.9765536,38.872922],[41.9735308,38.8752485],[41.953169,38.8773161],[41.9472939,38.8799476],[41.9388434,38.8872148],[41.8990857,38.9027491],[41.8715001,38.9047168]]]}},{"type":"Feature","properties":{"code":"49-04","provinceCode":"49","name":"Malazgirt"},"geometry":{"type":"Polygon","coordinates":[[[42.2394944,39.4344087],[42.2288427,39.4330342],[42.2242012,39.4292478],[42.2124686,39.4276919],[42.2055549,39.4199987],[42.2039733,39.4069428],[42.1923774,39.3997312],[42.1889036,39.3995163],[42.1793158,39.3943622],[42.181678,39.3883485],[42.1889036,39.382549],[42.1988715,39.35807],[42.2090057,39.3598965],[42.2162544,39.3515874],[42.2229241,39.3544884],[42.2297329,39.3550257],[42.2329288,39.3487937],[42.2325219,39.3454444],[42.2338697,39.3422444],[42.2320204,39.339604],[42.2388485,39.3368535],[42.2427591,39.3217451],[42.2532071,39.3086143],[42.259155,39.3050772],[42.2594639,39.2998269],[42.2626702,39.2931714],[42.2492794,39.2886367],[42.2495812,39.2869142],[42.2540196,39.2853085],[42.2493549,39.2804618],[42.2420874,39.2819411],[42.2365928,39.2790992],[42.2340781,39.2802477],[42.2341536,39.2828268],[42.231576,39.2833037],[42.2251219,39.2744807],[42.228479,39.2727871],[42.2291202,39.2699351],[42.2196021,39.269098],[42.2196021,39.2659635],[42.2220414,39.2638511],[42.2206331,39.2611545],[42.2137658,39.2630424],[42.2127523,39.2577418],[42.2086625,39.2549192],[42.2130635,39.2524339],[42.2130012,39.2498796],[42.2091071,39.2472633],[42.211186,39.2453796],[42.2149912,39.2464537],[42.2224117,39.2383199],[42.2278885,39.2378792],[42.2499376,39.2533575],[42.2635938,39.2547895],[42.2675058,39.2591404],[42.2712755,39.2593607],[42.2798106,39.2642069],[42.2909063,39.2779726],[42.2938936,39.2793491],[42.2985168,39.2788535],[42.3012907,39.2751096],[42.2989436,39.265143],[42.2956718,39.261123],[42.2958851,39.2564969],[42.2979478,39.2533575],[42.3061984,39.2504384],[42.3082611,39.2459217],[42.307621,39.2406336],[42.3169385,39.2336372],[42.3090435,39.2227831],[42.316085,39.2209097],[42.3191434,39.2220117],[42.3216328,39.2203036],[42.3224152,39.2176035],[42.3187878,39.2142971],[42.322842,39.2094474],[42.3264694,39.194676],[42.3323018,39.1944555],[42.3352891,39.1894391],[42.3432552,39.1897148],[42.3462425,39.1881161],[42.3541375,39.1875648],[42.3561291,39.1904865],[42.3618903,39.1929672],[42.3750486,39.1934082],[42.3811655,39.1963848],[42.3850774,39.1955028],[42.3868556,39.1916442],[42.3818056,39.1887225],[42.3842951,39.1829338],[42.3665846,39.1668885],[42.3628861,39.1667782],[42.3601256,39.158842],[42.3557506,39.1559881],[42.3581715,39.1501243],[42.3574731,39.1467838],[42.3527454,39.1456916],[42.3524437,39.1298538],[42.359183,39.1197875],[42.3599878,39.1139344],[42.3668277,39.105583],[42.3658218,39.1026169],[42.3675318,39.0985578],[42.3724606,39.0997287],[42.3964005,39.0990261],[42.3971046,39.0962939],[42.3938858,39.0891116],[42.3958976,39.0801327],[42.4003234,39.0770093],[42.4090745,39.0762284],[42.4095775,39.0707621],[42.4127963,39.0695126],[42.4168198,39.0613122],[42.4223521,39.059672],[42.4265768,39.0563134],[42.4343221,39.054595],[42.4401561,39.0546731],[42.4500137,39.0595158],[42.4571555,39.0659983],[42.462386,39.0684974],[42.48361,39.0684974],[42.4977929,39.0787272],[42.5012129,39.0788833],[42.5067452,39.0739639],[42.5064434,39.0652173],[42.4991005,39.0524079],[42.4987988,39.0455335],[42.4954794,39.0408461],[42.4882371,39.0353771],[42.4928641,39.0306109],[42.4981952,39.0283448],[42.4998046,39.0249847],[42.4977929,39.0195926],[42.4948758,39.0179515],[42.4942723,39.0140438],[42.5058399,38.9987236],[42.5056387,38.9958311],[42.5023193,38.993564],[42.5004082,38.9839474],[42.48361,38.9697938],[42.4823024,38.9613471],[42.4737567,38.9505481],[42.4726082,38.9465743],[42.4830129,38.9349564],[42.4904478,38.9318877],[42.4978827,38.9317696],[42.5033451,38.9230347],[42.5386988,38.9263399],[42.5628243,38.9328319],[42.5632795,38.9297631],[42.5682866,38.9277564],[42.5667693,38.9230347],[42.5707144,38.9203196],[42.5707144,38.9138265],[42.5770871,38.9104026],[42.5798183,38.9138265],[42.584522,38.911111],[42.5847889,38.9083015],[42.5872532,38.9107568],[42.5876119,38.9192097],[42.5917963,38.9197105],[42.5929765,38.9243015],[42.6015598,38.925637],[42.6048858,38.9206287],[42.6099285,38.9218809],[42.6141128,38.9202948],[42.6164732,38.9222147],[42.6169024,38.9253032],[42.6213014,38.9260544],[42.6258076,38.9296434],[42.6298846,38.9299773],[42.6325669,38.9353187],[42.6349273,38.9364036],[42.6415794,38.9364036],[42.6470512,38.9387404],[42.6523085,38.9370713],[42.6581022,38.930478],[42.6591751,38.9259709],[42.6611064,38.9275568],[42.6607845,38.9318134],[42.6650762,38.9333157],[42.6689386,38.9387404],[42.6737667,38.940326],[42.6751615,38.9425791],[42.673874,38.9493381],[42.6806334,38.9538438],[42.6885729,38.9546781],[42.6946398,38.9576246],[42.700375,38.9601011],[42.7071343,38.9598509],[42.712177,38.9654403],[42.7108895,38.9695279],[42.7064906,38.9742825],[42.7043447,38.9819559],[42.7102457,38.9857923],[42.7067051,38.9911295],[42.6986583,38.9942149],[42.7000531,39.0072222],[42.6881438,39.0124745],[42.6843886,39.0114741],[42.6846032,39.0166427],[42.6944739,39.0236447],[42.698551,39.03848],[42.6967271,39.0434799],[42.6994093,39.0558116],[42.7099239,39.0776368],[42.7013406,39.0810516],[42.695225,39.0812182],[42.6907188,39.0839665],[42.69265,39.0912949],[42.6962979,39.0944593],[42.699302,39.1016201],[42.6964052,39.1042011],[42.6932937,39.1126929],[42.6929719,39.1250125],[42.7043447,39.1361649],[42.7126062,39.1506438],[42.701877,39.1546374],[42.6902896,39.1553862],[42.6804188,39.1541382],[42.694003,39.1659154],[42.6924042,39.1687704],[42.6904689,39.167357],[42.6896986,39.1698537],[42.6877354,39.1696328],[42.6822807,39.1783366],[42.6782421,39.1788364],[42.6814269,39.1822316],[42.6852898,39.1932395],[42.6806425,39.1950832],[42.6852898,39.2031007],[42.6861102,39.2203478],[42.6774795,39.2370618],[42.6638696,39.2395471],[42.6553496,39.2649095],[42.6525833,39.2681648],[42.6016843,39.2765594],[42.6013524,39.2804137],[42.5967051,39.2869227],[42.6009098,39.2906909],[42.6105363,39.2936025],[42.6255714,39.3030451],[42.6249208,39.3113263],[42.6059997,39.3256219],[42.5809392,39.3368241],[42.5831272,39.3398855],[42.5800593,39.3418435],[42.5845404,39.3433916],[42.5816367,39.3455941],[42.5824566,39.3469341],[42.5858611,39.3472334],[42.5844086,39.3503626],[42.5877836,39.3527824],[42.5833382,39.3574091],[42.5813465,39.3623283],[42.578027,39.3629272],[42.5752607,39.3615156],[42.5698389,39.3653225],[42.5685111,39.3692147],[42.5643617,39.3690436],[42.5563396,39.3718236],[42.5509177,39.3714387],[42.5475429,39.3690864],[42.5446107,39.3616011],[42.5411252,39.3581791],[42.5344911,39.358969],[42.534628,39.3610712],[42.5245229,39.3601697],[42.5195584,39.3683235],[42.5218614,39.3711048],[42.5218614,39.3768293],[42.5172307,39.3845758],[42.5185452,39.3889488],[42.5156683,39.3965808],[42.5161939,39.4001078],[42.5135383,39.3986329],[42.5074525,39.4031645],[42.5015327,39.4142357],[42.5005922,39.4218863],[42.510772,39.4304334],[42.5125977,39.4352193],[42.5106614,39.450344],[42.5156959,39.4529676],[42.5133723,39.4629631],[42.5184622,39.4682593],[42.5185728,39.4761174],[42.5112699,39.4858534],[42.4901358,39.4820104],[42.4803986,39.4773131],[42.4661248,39.4780818],[42.4582686,39.4897816],[42.4421137,39.503187],[42.4372452,39.511468],[42.4304955,39.5134314],[42.4308275,39.5216258],[42.4250737,39.5250399],[42.4195897,39.5346642],[42.4059798,39.5344082],[42.3905994,39.5382483],[42.3839604,39.537907],[42.3798664,39.5181921],[42.3730061,39.5060703],[42.3633796,39.4997524],[42.3545276,39.4988132],[42.3488844,39.4936901],[42.3406963,39.4969348],[42.3347212,39.4904453],[42.3292994,39.4784894],[42.3258692,39.4751585],[42.30728,39.470717],[42.2948873,39.462004],[42.2837116,39.4616623],[42.2784004,39.4555967],[42.2740427,39.4566588],[42.2665609,39.4535462],[42.2541842,39.4543083],[42.2536367,39.450151],[42.248036,39.4514397],[42.2436751,39.4494294],[42.24546,39.4442711],[42.2416627,39.440356],[42.2394944,39.4344087]]]}},{"type":"Feature","properties":{"code":"49-05","provinceCode":"49","name":"Muş merkez"},"geometry":{"type":"Polygon","coordinates":[[[41.2641215,39.0352805],[41.25874,39.0349521],[41.2491477,39.0287712],[41.2275035,39.030111],[41.1888024,39.0038379],[41.1767518,38.9860745],[41.1774931,38.9694068],[41.1521163,38.9567939],[41.1500467,38.9522676],[41.1332332,38.9446391],[41.1299891,38.937931],[41.1200986,38.9284524],[41.1203359,38.9249438],[41.1167753,38.9171872],[41.1151929,38.901179],[41.1094168,38.888493],[41.1182787,38.8635455],[41.1156676,38.8591095],[41.1154302,38.8544884],[41.1182787,38.8486345],[41.1167753,38.8419789],[41.1109201,38.8358158],[41.1201777,38.827803],[41.1185952,38.8250291],[41.1193864,38.8156588],[41.1155093,38.8113431],[41.1238965,38.8012926],[41.1247669,38.7960511],[41.1283275,38.7929676],[41.1328376,38.7929676],[41.1400379,38.7868619],[41.138851,38.7821127],[41.151455,38.7772413],[41.155819,38.7718762],[41.1644352,38.7712219],[41.1717086,38.7667288],[41.1769177,38.7659946],[41.1764627,38.7614446],[41.1732779,38.7572181],[41.1660776,38.7545495],[41.1597081,38.7547192],[41.1588377,38.7531611],[41.1595955,38.7387385],[41.1578971,38.7279305],[41.1526437,38.7220297],[41.1404204,38.7179325],[41.1391815,38.7145841],[41.1387913,38.7114168],[41.1293166,38.7033091],[41.1118309,38.7014153],[41.1044966,38.6824864],[41.1163652,38.6725316],[41.1192728,38.6632384],[41.1395461,38.6620034],[41.1620157,38.6564101],[41.1930892,38.653269],[41.2029747,38.6577322],[41.2071244,38.6565413],[41.2103504,38.6584306],[41.2133125,38.6560489],[41.2209522,38.6558771],[41.2234095,38.6572126],[41.2280054,38.6544228],[41.2329479,38.6547796],[41.2426134,38.6511628],[41.2459529,38.6520868],[41.2573166,38.6487687],[41.2603345,38.6504947],[41.2626235,38.6498243],[41.2596134,38.6399829],[41.2644359,38.6381178],[41.2740663,38.6298945],[41.2720462,38.6187796],[41.2695456,38.6163179],[41.2735465,38.6091276],[41.2734965,38.5958002],[41.2873495,38.5782481],[41.2828474,38.5681797],[41.2861477,38.5616965],[41.2853991,38.5540825],[41.2905002,38.5461819],[41.2893499,38.5442653],[41.2928507,38.5396496],[41.3023027,38.5350336],[41.3109546,38.536481],[41.3048533,38.5277178],[41.3073038,38.5184057],[41.2973517,38.5151579],[41.2959514,38.5122231],[41.3215569,38.5094055],[41.3323093,38.5036526],[41.3361601,38.4958248],[41.3553143,38.4919888],[41.3665813,38.4832901],[41.3703176,38.4836117],[41.3761688,38.4886224],[41.3850708,38.4923803],[41.399974,38.4928108],[41.4155054,38.488567],[41.4471191,38.5038374],[41.4637437,38.5083208],[41.4750681,38.5223442],[41.4792002,38.5241222],[41.4806464,38.5402838],[41.4936623,38.5509485],[41.4936623,38.5588652],[41.5019264,38.5591883],[41.5093641,38.5682349],[41.5054387,38.5727577],[41.5077113,38.5767958],[41.5070915,38.5818026],[41.5174216,38.587778],[41.5340737,38.584326],[41.5360158,38.5851941],[41.5382884,38.5919767],[41.5513044,38.5945603],[41.5519242,38.5973054],[41.5570893,38.5998889],[41.5736174,38.6006962],[41.5791957,38.6032795],[41.5909249,38.6032068],[41.5940711,38.6057013],[41.5971701,38.6026337],[41.6006823,38.6021493],[41.6015088,38.6069929],[41.6083266,38.614742],[41.609872,38.6194684],[41.6083338,38.6238999],[41.6102566,38.6277303],[41.6069879,38.6320861],[41.6071882,38.6372859],[41.6118909,38.6434251],[41.620447,38.6452272],[41.6205431,38.6498072],[41.6238117,38.6519845],[41.6241963,38.659642],[41.6281378,38.6686507],[41.6355355,38.6753907],[41.6439019,38.6791171],[41.6485014,38.6873958],[41.6607279,38.6943908],[41.6564849,38.7044557],[41.657183,38.716772],[41.6614334,38.7212129],[41.6607815,38.7257442],[41.6630336,38.7280559],[41.6765951,38.7314639],[41.6770508,38.7266223],[41.6853666,38.7260947],[41.6841808,38.7227203],[41.6859216,38.7209729],[41.6876061,38.7260971],[41.6923401,38.727627],[41.6987447,38.7273994],[41.6993814,38.7293609],[41.6972022,38.7323772],[41.7013643,38.732991],[41.7002728,38.7341107],[41.7025884,38.7347308],[41.7020278,38.7360375],[41.7030837,38.7351457],[41.7049916,38.7369105],[41.7062156,38.7359191],[41.7076902,38.7415845],[41.7113604,38.7416969],[41.7174525,38.7468965],[41.726841,38.7499938],[41.7272742,38.7539384],[41.7317509,38.7592882],[41.7315532,38.7644098],[41.7343393,38.7681682],[41.7337743,38.7698545],[41.7498875,38.7793233],[41.7481977,38.7860349],[41.7412776,38.7930909],[41.7335126,38.7959758],[41.702694,38.7990487],[41.7042631,38.8062288],[41.6937623,38.8140665],[41.7081657,38.8188627],[41.7195045,38.8329207],[41.7243764,38.8350371],[41.7361615,38.8468532],[41.7312695,38.8502575],[41.7229339,38.8503018],[41.7211985,38.8541347],[41.7164759,38.8575242],[41.7212234,38.8643905],[41.7217062,38.8702797],[41.7423056,38.8800522],[41.7559044,38.880616],[41.7609462,38.8775276],[41.7533212,38.8665457],[41.7611009,38.8614564],[41.7638036,38.8573138],[41.7642559,38.8508426],[41.7686816,38.8452025],[41.7739924,38.8455158],[41.7917754,38.8423196],[41.7965229,38.8434477],[41.8028798,38.8509679],[41.8054547,38.8517826],[41.8139841,38.8639385],[41.8162372,38.8608684],[41.8145474,38.856357],[41.8291922,38.8570462],[41.8336179,38.8556677],[41.8368365,38.8527225],[41.8438371,38.861307],[41.8478604,38.861307],[41.8528493,38.8669459],[41.8532517,38.8706422],[41.8513205,38.8730854],[41.8526079,38.875278],[41.8612983,38.8779717],[41.8706324,38.8852377],[41.8715001,38.9047168],[41.867003,38.9148469],[41.8647057,38.9166344],[41.8594365,38.9128656],[41.8548419,38.9128656],[41.8555674,38.9203917],[41.8579856,38.9241544],[41.8582274,38.9377927],[41.8646357,38.9434354],[41.869714,38.9507702],[41.8819261,38.9841434],[41.8822888,38.9882787],[41.8790242,38.9918499],[41.8795078,39.0025624],[41.876992,39.0133721],[41.8643354,39.029488],[41.8632472,39.0381287],[41.868699,39.0433813],[41.8463196,39.0531066],[41.8226548,39.0480691],[41.8055788,39.0491201],[41.7995826,39.0433063],[41.7932537,39.0500824],[41.7783175,39.0475885],[41.778897,39.0521353],[41.7754315,39.0529644],[41.7683057,39.0464982],[41.7642102,39.0396279],[41.764447,39.0353075],[41.7598386,39.0352794],[41.7499371,39.0302267],[41.746741,39.0321389],[41.7395807,39.0261704],[41.7369659,39.026414],[41.7365689,39.0290252],[41.7338106,39.0307664],[41.7262904,39.026599],[41.723139,39.0297583],[41.7080513,39.031527],[41.6915215,39.0375699],[41.68172,39.0343623],[41.6728625,39.0366213],[41.6633175,39.0312398],[41.6568772,39.0345156],[41.6521899,39.0334519],[41.6514316,39.0354589],[41.6406561,39.0427895],[41.6248455,39.0467523],[41.6226989,39.0505833],[41.6257338,39.0535251],[41.6264692,39.0574991],[41.6239266,39.0600223],[41.6140406,39.0552512],[41.6081998,39.0545942],[41.6046389,39.0517124],[41.5936664,39.0504549],[41.5921786,39.0555231],[41.5879312,39.0552354],[41.5815971,39.0572317],[41.5793249,39.0564748],[41.5769453,39.0594363],[41.5640419,39.0613171],[41.5601625,39.0633354],[41.5573685,39.0679551],[41.5513349,39.0678508],[41.5487381,39.0693268],[41.5460465,39.0692454],[41.5420909,39.0662877],[41.5348548,39.066119],[41.5357729,39.0625862],[41.5285244,39.0618561],[41.5034804,39.0622491],[41.4973534,39.066893],[41.4933417,39.0674593],[41.4929041,39.0624756],[41.4877253,39.0525072],[41.4801396,39.0436137],[41.4780243,39.0519974],[41.4743773,39.0536966],[41.4532977,39.0544896],[41.4476813,39.058681],[41.446879,39.0645144],[41.4411896,39.0654206],[41.437712,39.0686006],[41.4254709,39.0612852],[41.4175654,39.0612299],[41.4140038,39.0595401],[41.4064179,39.0595893],[41.4018092,39.0580489],[41.398437,39.0592297],[41.3922461,39.0555863],[41.3873828,39.054902],[41.3868261,39.0508277],[41.3834709,39.0479105],[41.3774168,39.0472307],[41.3600936,39.0409992],[41.3560454,39.0425288],[41.3447762,39.041934],[41.3385034,39.0442283],[41.3317564,39.0385915],[41.3280365,39.0389314],[41.3221283,39.0333225],[41.309218,39.0311127],[41.2907642,39.0361553],[41.2785832,39.037685],[41.2641215,39.0352805]]]}},{"type":"Feature","properties":{"code":"49-06","provinceCode":"49","name":"Varto"},"geometry":{"type":"Polygon","coordinates":[[[41.1675568,39.3724904],[41.14805,39.3623625],[41.1519286,39.3542544],[41.1398619,39.3435903],[41.1454643,39.3380354],[41.1431659,39.3325911],[41.1440278,39.3291466],[41.1391437,39.3231461],[41.139,39.3205901],[41.1425913,39.3187009],[41.1387127,39.3106989],[41.1412984,39.3066975],[41.1391437,39.2980271],[41.1354088,39.294692],[41.1348342,39.2919127],[41.1387127,39.2767912],[41.1369889,39.2697853],[41.1433096,39.2662264],[41.1434532,39.2568836],[41.142304,39.2529904],[41.1333977,39.2494307],[41.1305246,39.2452034],[41.1326794,39.2368592],[41.1652881,39.2287365],[41.1772111,39.224174],[41.1849683,39.211264],[41.1822389,39.2050307],[41.1816643,39.1928965],[41.1901397,39.1707378],[41.2026373,39.1608254],[41.2098199,39.1587091],[41.2185826,39.1509116],[41.2155659,39.1392137],[41.2197318,39.1310797],[41.2264834,39.124505],[41.2555008,39.113583],[41.250904,39.1050002],[41.2543516,39.0915108],[41.2588048,39.0888349],[41.2636889,39.0902844],[41.2659873,39.0848209],[41.253777,39.0761231],[41.2526278,39.0680934],[41.2487492,39.0656397],[41.2503294,39.0537045],[41.2615342,39.0419905],[41.2641215,39.0352805],[41.2785832,39.037685],[41.2907642,39.0361553],[41.309218,39.0311127],[41.3221283,39.0333225],[41.3280365,39.0389314],[41.3317564,39.0385915],[41.3385034,39.0442283],[41.3447762,39.041934],[41.3560454,39.0425288],[41.3600936,39.0409992],[41.3774168,39.0472307],[41.3834709,39.0479105],[41.3868261,39.0508277],[41.3873828,39.054902],[41.3922461,39.0555863],[41.398437,39.0592297],[41.4018092,39.0580489],[41.4064179,39.0595893],[41.4140038,39.0595401],[41.4175654,39.0612299],[41.4254709,39.0612852],[41.437712,39.0686006],[41.4411896,39.0654206],[41.446879,39.0645144],[41.4476813,39.058681],[41.4532977,39.0544896],[41.4743773,39.0536966],[41.4780243,39.0519974],[41.4801396,39.0436137],[41.4877253,39.0525072],[41.4929041,39.0624756],[41.4933417,39.0674593],[41.4973534,39.066893],[41.5034804,39.0622491],[41.5285244,39.0618561],[41.5357729,39.0625862],[41.5348548,39.066119],[41.5420909,39.0662877],[41.5460465,39.0692454],[41.5487381,39.0693268],[41.5513349,39.0678508],[41.5573685,39.0679551],[41.5601625,39.0633354],[41.5640419,39.0613171],[41.5769453,39.0594363],[41.5793249,39.0564748],[41.5815971,39.0572317],[41.5879312,39.0552354],[41.5921786,39.0555231],[41.5936664,39.0504549],[41.6046389,39.0517124],[41.6081998,39.0545942],[41.6140406,39.0552512],[41.6239266,39.0600223],[41.6264692,39.0574991],[41.6257338,39.0535251],[41.6226989,39.0505833],[41.6248455,39.0467523],[41.6406561,39.0427895],[41.6514316,39.0354589],[41.6521899,39.0334519],[41.6568772,39.0345156],[41.6633175,39.0312398],[41.6728625,39.0366213],[41.68172,39.0343623],[41.6915215,39.0375699],[41.7080513,39.031527],[41.723139,39.0297583],[41.7262904,39.026599],[41.7338106,39.0307664],[41.7365689,39.0290252],[41.7369659,39.026414],[41.7395807,39.0261704],[41.746741,39.0321389],[41.7499371,39.0302267],[41.7598386,39.0352794],[41.764447,39.0353075],[41.7642102,39.0396279],[41.7683057,39.0464982],[41.7754315,39.0529644],[41.778897,39.0521353],[41.7783175,39.0475885],[41.7932537,39.0500824],[41.7995826,39.0433063],[41.8055788,39.0491201],[41.8226548,39.0480691],[41.8463196,39.0531066],[41.868699,39.0433813],[41.8752014,39.0455878],[41.8847741,39.0551077],[41.8794713,39.0620061],[41.8736863,39.0954728],[41.8648712,39.1088336],[41.8597749,39.1103299],[41.8502711,39.110223],[41.8406296,39.115994],[41.8227238,39.1325562],[41.8173521,39.1411029],[41.8025769,39.1528744],[41.7922315,39.1680127],[41.7737591,39.1627778],[41.7702063,39.1651021],[41.7623234,39.1640691],[41.7601029,39.1623474],[41.7488095,39.1613197],[41.7324574,39.1521025],[41.7294596,39.156149],[41.7231311,39.1587317],[41.7204665,39.158043],[41.7189121,39.1606257],[41.7227981,39.1645856],[41.7217988,39.1670819],[41.7114734,39.1663072],[41.7086977,39.1676845],[41.701481,39.1677706],[41.688256,39.1603261],[41.6649572,39.1579243],[41.6465068,39.1571933],[41.6355981,39.1585509],[41.6280563,39.156149],[41.618225,39.1565667],[41.6151275,39.1671134],[41.6187637,39.1708722],[41.618225,39.1740044],[41.6113566,39.1771364],[41.6087978,39.1816255],[41.6040842,39.1834001],[41.6059696,39.1894545],[41.612434,39.1948821],[41.6187637,39.2140842],[41.6102792,39.2242049],[41.6128381,39.2321335],[41.6108179,39.2390181],[41.6183597,39.2445462],[41.6166982,39.2532621],[41.6104137,39.2577755],[41.596008,39.2595438],[41.5820554,39.265557],[41.5609235,39.2696871],[41.5566189,39.2735798],[41.5393461,39.2792727],[41.5308685,39.2837893],[41.5106365,39.3003542],[41.5004618,39.3035932],[41.4954713,39.3103475],[41.4741647,39.3130498],[41.4598398,39.3207405],[41.4326513,39.3419065],[41.4194423,39.3481972],[41.4150111,39.3534035],[41.3919795,39.3531638],[41.3823556,39.3603535],[41.3693164,39.352659],[41.3323171,39.3593992],[41.2909075,39.3647952],[41.2554603,39.3646019],[41.2323713,39.3600854],[41.2001023,39.3615909],[41.1675568,39.3724904]]]}}]}