{"type":"FeatureCollection","features":[{"type":"Feature","properties":{"code":"76-01","provinceCode":"76","name":"Aralık"},"geometry":{"type":"Polygon","coordinates":[[[44.4671974,39.6841019],[44.4855258,39.6946937],[44.4933296,39.7018495],[44.5768476,39.7575],[44.5850062,39.7655254],[44.591394,39.7670915],[44.614695,39.7824624],[44.6195401,39.7745115],[44.6216702,39.7661607],[44.6266701,39.7619865],[44.6272229,39.7587151],[44.630849,39.7585192],[44.629639,39.7562287],[44.6324344,39.7558674],[44.6291262,39.7468868],[44.6304987,39.7442788],[44.6394338,39.7407073],[44.6430215,39.7355136],[44.6419289,39.7340875],[44.6465632,39.7309677],[44.6462444,39.7288011],[44.6478404,39.7273554],[44.6544556,39.7266155],[44.6613297,39.7207583],[44.6617489,39.71814],[44.6711324,39.7143264],[44.6847723,39.7151673],[44.6907214,39.7173589],[44.6882851,39.7133275],[44.6933423,39.7135069],[44.7022622,39.7100961],[44.7046045,39.7128344],[44.7150829,39.7142776],[44.7170449,39.7090962],[44.7256387,39.7050265],[44.728335,39.702456],[44.7273882,39.6996802],[44.7342854,39.6938319],[44.741841,39.6937338],[44.7439447,39.6899503],[44.7498632,39.686988],[44.7541529,39.6784015],[44.7587451,39.6753964],[44.7578944,39.6716591],[44.7540827,39.6727111],[44.7548046,39.6707841],[44.7615364,39.6705152],[44.7606275,39.6678905],[44.7625019,39.6661279],[44.7678816,39.6653928],[44.770116,39.6610875],[44.7750854,39.6609508],[44.7842272,39.6548134],[44.786471,39.6550697],[44.7876,39.651141],[44.79853,39.648869],[44.8033121,39.642378],[44.8030875,39.6328746],[44.8046981,39.6295888],[44.8093804,39.627336],[44.8072867,39.6377279],[44.8149591,39.6426718],[44.8176638,39.6516661],[44.8156415,39.6562747],[44.8120064,39.6567357],[44.8059744,39.65503],[44.7990979,39.6578956],[44.7988005,39.6603333],[44.8048666,39.6678768],[44.8058468,39.6725999],[44.7961487,39.6684259],[44.7939527,39.6702698],[44.7980618,39.6746875],[44.8023465,39.6833796],[44.8012677,39.6844139],[44.7936062,39.6837074],[44.7844607,39.6857417],[44.7880822,39.6913749],[44.78008,39.6950374],[44.7802859,39.7009164],[44.7752685,39.7028301],[44.7635589,39.7030201],[44.7633701,39.7048253],[44.7697787,39.7130157],[44.7663645,39.7143574],[44.7530209,39.7138788],[44.7475578,39.7164325],[44.7488025,39.7236135],[44.7425605,39.7335998],[44.7443519,39.7436689],[44.7371554,39.7461305],[44.7296566,39.7411931],[44.7227183,39.7420096],[44.7166111,39.7517683],[44.7107641,39.7699858],[44.6992139,39.7721039],[44.6930183,39.7696191],[44.6873476,39.7720251],[44.6858,39.7744135],[44.6863325,39.7823361],[44.6959071,39.7880369],[44.6963401,39.7913161],[44.6944365,39.7930832],[44.6861294,39.7967102],[44.6815542,39.7958315],[44.6789253,39.7882478],[44.6774044,39.7878065],[44.6694291,39.7925111],[44.6609901,39.7911893],[44.6563957,39.7923225],[44.6520895,39.7952884],[44.6499294,39.8002741],[44.6421474,39.8050536],[44.6328447,39.8065684],[44.6290159,39.8132678],[44.6229003,39.8150141],[44.615997,39.8131046],[44.6118525,39.8145852],[44.6126794,39.8174946],[44.6198416,39.8213899],[44.6192435,39.826282],[44.6171957,39.8281936],[44.6124411,39.8290919],[44.6033746,39.8217095],[44.5945362,39.8244407],[44.5882157,39.8332502],[44.5957143,39.8439645],[44.5928428,39.8502979],[44.5919514,39.859107],[44.5832374,39.8641186],[44.577386,39.8619688],[44.5749482,39.8658092],[44.5650831,39.8697827],[44.5628681,39.8751142],[44.5520164,39.8827353],[44.5499694,39.8871423],[44.5542126,39.9006833],[44.5517034,39.9041221],[44.5421047,39.9098934],[44.5364466,39.9208608],[44.5314976,39.9224796],[44.5209252,39.9203306],[44.5157438,39.9296609],[44.5095596,39.9307409],[44.5023813,39.9354997],[44.5005822,39.9453265],[44.4937409,39.949579],[44.4910599,39.9577997],[44.4813505,39.9662875],[44.4657656,39.9726967],[44.4562735,39.9701664],[44.4511331,39.9730681],[44.451641,39.9774323],[44.4495348,39.9808252],[44.4256462,39.9916537],[44.3991565,39.9894605],[44.3753422,39.9966824],[44.3523961,40.0007681],[44.3406129,40.0047586],[44.3268453,40.0041885],[44.3190312,40.0027634],[44.3099768,39.9981077],[44.2871547,39.9788164],[44.284426,39.9677904],[44.2862865,39.9445919],[44.2891392,39.9363184],[44.2944726,39.9265221],[44.3140699,39.9104454],[44.3316826,39.8834205],[44.3311864,39.8736166],[44.325729,39.8660961],[44.3210157,39.8484817],[44.311395,39.8254205],[44.3095345,39.8129169],[44.3057279,39.8004981],[44.3032472,39.7673762],[44.3106892,39.7446106],[44.3244879,39.7219567],[44.332395,39.6984603],[44.3336353,39.6870073],[44.336426,39.6791324],[44.3424998,39.6705679],[44.3572771,39.6688897],[44.3827136,39.6629223],[44.426319,39.6608709],[44.4413386,39.6625493],[44.4490906,39.6649736],[44.4592652,39.6709408],[44.4671974,39.6841019]]]}},{"type":"Feature","properties":{"code":"76-02","provinceCode":"76","name":"Iğdır (merkez)"},"geometry":{"type":"Polygon","coordinates":[[[44.3424998,39.6705679],[44.336426,39.6791324],[44.3336353,39.6870073],[44.332395,39.6984603],[44.3244879,39.7219567],[44.3106892,39.7446106],[44.3032472,39.7673762],[44.3057279,39.8004981],[44.3095345,39.8129169],[44.3047282,39.813155],[44.2842628,39.808153],[44.2585259,39.7981477],[44.251394,39.7981477],[44.240231,39.8008874],[44.2262773,39.8133932],[44.2183702,39.8160132],[44.2141841,39.8261349],[44.2129438,39.8517303],[44.2113933,39.855182],[44.2006955,39.8632749],[44.1915481,39.8675589],[44.1816254,39.8818373],[44.1642608,39.9165688],[44.1616251,39.9253679],[44.1605398,39.9402285],[44.1513924,39.9611469],[44.1437953,39.9737423],[44.1284463,39.9903743],[44.1217795,39.9951256],[44.1149294,40.0045325],[44.1211593,40.0246324],[44.1214762,40.0341281],[44.1159565,40.0347837],[44.1139055,40.0320731],[44.1070671,40.0299268],[44.0858298,40.034378],[44.0779791,40.0316716],[44.0689963,40.0322698],[44.0564716,40.0274629],[44.0502127,40.0270851],[44.0428242,40.0291245],[44.0374255,40.0274712],[44.0262197,40.0270508],[44.0225783,40.0286783],[44.0090803,40.0241972],[44.0036143,40.0249608],[43.9940875,40.0318344],[43.9868252,40.0310684],[43.9870525,40.0281183],[43.9793517,40.0249124],[43.9769753,40.0222227],[43.9667071,40.0173362],[43.9655055,40.0182564],[43.9594973,40.0162844],[43.9531459,40.0174677],[43.9461077,40.0214115],[43.9289416,40.0246979],[43.9234484,40.0224632],[43.915552,40.0225947],[43.9117755,40.0243036],[43.9061106,40.0237778],[43.8994158,40.0210172],[43.8849963,40.0286414],[43.8779582,40.030613],[43.8758982,40.0349505],[43.8639486,40.0360008],[43.8586747,40.0427479],[43.8540399,40.0439307],[43.8468119,40.0434067],[43.8324194,40.0483949],[43.825289,40.0477285],[43.823729,40.0523826],[43.824998,40.0584468],[43.8234983,40.0599787],[43.8084593,40.0618027],[43.8045365,40.0561758],[43.7981311,40.0395045],[43.7992521,40.0277341],[43.8021345,40.019886],[43.8022946,40.0072536],[43.80886,39.9953549],[43.8086999,39.9894661],[43.8018142,39.9720422],[43.8018142,39.9609966],[43.7992521,39.9547366],[43.797971,39.9384088],[43.7994122,39.9277262],[43.7982913,39.9197438],[43.8029351,39.9011965],[43.8018142,39.8965282],[43.7898042,39.8828899],[43.7773138,39.8733047],[43.7728301,39.8559741],[43.7697876,39.850811],[43.7562012,39.8376081],[43.7525798,39.8305234],[43.7553756,39.8252354],[43.7395224,39.8099838],[43.727705,39.786857],[43.7188786,39.7737634],[43.7455302,39.7667766],[43.760671,39.7661947],[43.7709273,39.7634508],[43.7903141,39.7784967],[43.8054086,39.7814614],[43.8257911,39.7803022],[43.838024,39.777437],[43.8632496,39.7632851],[43.8810399,39.7577566],[43.953337,39.7481533],[43.9764267,39.7475712],[43.9988204,39.7278452],[44.0329847,39.7348116],[44.0450143,39.7400855],[44.0728733,39.7337517],[44.0939492,39.7326339],[44.1116336,39.7372912],[44.1242307,39.7439973],[44.1290757,39.7439973],[44.1450644,39.7400855],[44.1777684,39.7128832],[44.1952105,39.7059878],[44.2308216,39.7061741],[44.2545623,39.6985325],[44.2950184,39.675043],[44.3199703,39.6672114],[44.3424998,39.6705679]]]}},{"type":"Feature","properties":{"code":"76-03","provinceCode":"76","name":"Karakoyunlu"},"geometry":{"type":"Polygon","coordinates":[[[44.3095345,39.8129169],[44.311395,39.8254205],[44.3210157,39.8484817],[44.325729,39.8660961],[44.3311864,39.8736166],[44.3316826,39.8834205],[44.3140699,39.9104454],[44.2944726,39.9265221],[44.2891392,39.9363184],[44.2862865,39.9445919],[44.284426,39.9677904],[44.2871547,39.9788164],[44.3099768,39.9981077],[44.3190312,40.0027634],[44.3268453,40.0041885],[44.3406129,40.0047586],[44.3523961,40.0007681],[44.3753422,39.9966824],[44.3991565,39.9894605],[44.4256462,39.9916537],[44.4195555,39.9999607],[44.4156862,40.0014417],[44.4090251,40.002987],[44.4009106,40.0022286],[44.3919553,40.0051141],[44.3820574,40.0034402],[44.3788254,40.0041575],[44.3599119,40.017309],[44.3518267,40.0272172],[44.3396391,40.0279202],[44.3356255,40.0326889],[44.3266643,40.030862],[44.3205878,40.0343043],[44.3187169,40.0376152],[44.314038,40.0393001],[44.301569,40.0359658],[44.2966423,40.0363743],[44.2938676,40.0440843],[44.2850707,40.0434819],[44.280612,40.0475546],[44.2743686,40.049423],[44.2639631,40.0466216],[44.2483806,40.049075],[44.2419285,40.0461265],[44.2356016,40.0474993],[44.2307368,40.0426021],[44.2206512,40.0426737],[44.217437,40.036087],[44.213662,40.0335806],[44.2093734,40.0350984],[44.2063658,40.0390722],[44.1901406,40.0390648],[44.1884059,40.0369704],[44.189647,40.0327748],[44.1880004,40.0305916],[44.1777434,40.0297352],[44.1730506,40.0272854],[44.1701313,40.0274637],[44.1651919,40.0323381],[44.1565436,40.0304296],[44.1468167,40.0332451],[44.1389163,40.0327781],[44.1354858,40.0282006],[44.1333329,40.0278572],[44.1214762,40.0341281],[44.1211593,40.0246324],[44.1149294,40.0045325],[44.1217795,39.9951256],[44.1284463,39.9903743],[44.1437953,39.9737423],[44.1513924,39.9611469],[44.1605398,39.9402285],[44.1616251,39.9253679],[44.1642608,39.9165688],[44.1816254,39.8818373],[44.1915481,39.8675589],[44.2006955,39.8632749],[44.2113933,39.855182],[44.2129438,39.8517303],[44.2141841,39.8261349],[44.2183702,39.8160132],[44.2262773,39.8133932],[44.240231,39.8008874],[44.251394,39.7981477],[44.2585259,39.7981477],[44.2842628,39.808153],[44.3047282,39.813155],[44.3095345,39.8129169]]]}},{"type":"Feature","properties":{"code":"76-04","provinceCode":"76","name":"Tuzluca"},"geometry":{"type":"Polygon","coordinates":[[[43.2842723,40.0023008],[43.2857942,39.9968295],[43.3242992,39.9961238],[43.3576457,39.9920306],[43.3679628,39.9892076],[43.3784641,39.981726],[43.3793853,39.9708551],[43.3685497,39.9487795],[43.3662786,39.9249807],[43.3704423,39.9139491],[43.3858859,39.892113],[43.3928506,39.8876985],[43.4046604,39.8709672],[43.4031464,39.8409801],[43.4158646,39.8140037],[43.4180134,39.798883],[43.4273324,39.7847725],[43.4337307,39.7788721],[43.4434208,39.7739848],[43.4537165,39.7709592],[43.4649206,39.7711919],[43.4761248,39.7753812],[43.4924768,39.7884129],[43.5015612,39.8205162],[43.5076175,39.8281909],[43.5160964,39.8349346],[43.5300259,39.8412126],[43.5492122,39.840915],[43.5594837,39.8386828],[43.5682048,39.8349625],[43.6088849,39.8008094],[43.6172124,39.7973196],[43.629325,39.7938297],[43.6698265,39.7891761],[43.7188786,39.7737634],[43.727705,39.786857],[43.7395224,39.8099838],[43.7553756,39.8252354],[43.7525798,39.8305234],[43.7562012,39.8376081],[43.7697876,39.850811],[43.7728301,39.8559741],[43.7773138,39.8733047],[43.7898042,39.8828899],[43.8018142,39.8965282],[43.8029351,39.9011965],[43.7982913,39.9197438],[43.7994122,39.9277262],[43.797971,39.9384088],[43.7992521,39.9547366],[43.8018142,39.9609966],[43.8018142,39.9720422],[43.8086999,39.9894661],[43.80886,39.9953549],[43.8022946,40.0072536],[43.8021345,40.019886],[43.7992521,40.0277341],[43.7981311,40.0395045],[43.8045365,40.0561758],[43.8084593,40.0618027],[43.7981729,40.0690636],[43.7912625,40.070203],[43.7875449,40.069119],[43.7805049,40.0723032],[43.7692457,40.0793505],[43.7671118,40.0836433],[43.7608058,40.0837717],[43.7518424,40.0785911],[43.7427031,40.0833315],[43.7382419,40.0796676],[43.7277497,40.0780902],[43.7220827,40.0817354],[43.713842,40.0808004],[43.7051917,40.0865051],[43.7008646,40.0870834],[43.6957408,40.0955717],[43.6782543,40.0960637],[43.6758435,40.1070377],[43.669977,40.1092467],[43.6627808,40.1094039],[43.6564983,40.1125141],[43.6542082,40.1237396],[43.6507899,40.1305187],[43.6487368,40.1312363],[43.6378217,40.1315491],[43.6332475,40.1257919],[43.6268878,40.1253125],[43.6124682,40.1196681],[43.5956454,40.1167145],[43.5831142,40.1184867],[43.5593391,40.1156643],[43.5268092,40.1180273],[43.5124284,40.1162101],[43.5088706,40.1138264],[43.4899507,40.1083556],[43.4831112,40.106098],[43.4705479,40.1061953],[43.4571435,40.1106555],[43.4446949,40.1101948],[43.4427467,40.1131838],[43.4352555,40.109531],[43.4308018,40.1126365],[43.4226844,40.1132518],[43.4119887,40.1223728],[43.4021037,40.1228339],[43.398948,40.1248381],[43.3933392,40.1240019],[43.3899409,40.1249733],[43.3847721,40.1228108],[43.3755235,40.1306268],[43.3672484,40.1268306],[43.3616993,40.1216197],[43.3597522,40.1231086],[43.3464148,40.1176741],[43.3467363,40.1024029],[43.3437318,40.0990334],[43.3425199,40.0930287],[43.3603631,40.0802944],[43.3661802,40.0660031],[43.357981,40.0438592],[43.3481472,40.0437983],[43.3316163,40.0461472],[43.321296,40.0430236],[43.3036095,40.0280376],[43.2842723,40.0023008]]]}}]}