{"type":"FeatureCollection","features":[{"type":"Feature","properties":{"code":"22-01","provinceCode":"22","name":"Edirne merkez"},"geometry":{"type":"Polygon","coordinates":[[[26.6652959,41.4440739],[26.6684841,41.4841432],[26.6764392,41.5013986],[26.6926809,41.5234888],[26.7049387,41.5329782],[26.7303461,41.6041604],[26.7319678,41.6138609],[26.7300758,41.6690053],[26.7333193,41.6829354],[26.7465636,41.6912112],[26.7592673,41.6952479],[26.78954,41.7002933],[26.815488,41.7004951],[26.7979989,41.7414004],[26.7630263,41.7809348],[26.7318656,41.7699494],[26.7106197,41.768893],[26.6947561,41.7771324],[26.6766262,41.7805123],[26.6698275,41.7872717],[26.6366839,41.8022665],[26.6219534,41.8195802],[26.6126052,41.814091],[26.6103389,41.8248578],[26.6018406,41.82528],[26.5871101,41.8288685],[26.5800281,41.8368891],[26.5630314,41.8465969],[26.563724,41.8541178],[26.5524843,41.8482266],[26.5386729,41.8235294],[26.387391,41.8227818],[26.3689366,41.8207514],[26.3631374,41.8090451],[26.3539337,41.7990212],[26.3498222,41.7905008],[26.3461638,41.7868653],[26.3373068,41.7694186],[26.3367029,41.7647658],[26.3319258,41.7584162],[26.3295112,41.7519036],[26.331003,41.7428374],[26.3291048,41.7360559],[26.3574429,41.714517],[26.3580724,41.7081095],[26.3683422,41.7093701],[26.3713832,41.7077676],[26.3750421,41.7041011],[26.3763593,41.6968404],[26.3862005,41.6909709],[26.4003483,41.686757],[26.4058936,41.6877286],[26.4089346,41.6860041],[26.4096663,41.6832958],[26.4231767,41.6830789],[26.4284821,41.6808714],[26.4342168,41.6812724],[26.4372372,41.6859146],[26.4413649,41.6863912],[26.4505456,41.6820438],[26.4560898,41.6745404],[26.4705013,41.6695301],[26.4866683,41.67309],[26.4918052,41.6728877],[26.4941548,41.6704834],[26.49288,41.6624428],[26.4948964,41.6609728],[26.4938232,41.6598307],[26.4863088,41.6598113],[26.4884409,41.6540762],[26.5294976,41.6216127],[26.5681448,41.6103053],[26.5951733,41.6101905],[26.5936452,41.60724],[26.5951397,41.5967176],[26.5997071,41.5823627],[26.5871803,41.5705548],[26.5939643,41.5657808],[26.5906227,41.5556915],[26.5985086,41.5453573],[26.5910838,41.5265753],[26.6031412,41.5036465],[26.604767,41.4908281],[26.5973898,41.4807968],[26.6130015,41.4629343],[26.6135634,41.4585721],[26.6115323,41.4539825],[26.6139185,41.4458307],[26.6118994,41.4419274],[26.6652959,41.4440739]]]}},{"type":"Feature","properties":{"code":"22-02","provinceCode":"22","name":"Enez"},"geometry":{"type":"Polygon","coordinates":[[[26.348382,40.7306418],[26.2969656,40.750173],[26.2583064,40.7669532],[26.2388355,40.7710359],[26.1671166,40.8112467],[26.1633819,40.8072603],[26.156352,40.808773],[26.153285,40.8034759],[26.1414377,40.7931152],[26.1414193,40.78641],[26.1367955,40.7839259],[26.1344802,40.779076],[26.1298574,40.7776991],[26.129514,40.7741967],[26.1268763,40.771221],[26.1284691,40.754886],[26.1247103,40.7425248],[26.1113975,40.7389279],[26.1047072,40.7387418],[26.0972327,40.7359247],[26.0882086,40.7354352],[26.085595,40.7313895],[26.0736331,40.7274653],[26.0621505,40.7292348],[26.0363531,40.7301492],[26.0467641,40.7195394],[26.0538411,40.7090072],[26.0545144,40.6988557],[26.0511097,40.6982011],[26.0530284,40.6972766],[26.0542591,40.6983818],[26.0548228,40.6956386],[26.0535528,40.6968059],[26.0528789,40.695483],[26.0504508,40.6952181],[26.0486379,40.6990276],[26.0499376,40.6953077],[26.0510979,40.6947854],[26.0529748,40.6949034],[26.0595515,40.6874335],[26.0650554,40.6730221],[26.0632342,40.661806],[26.0657313,40.6502849],[26.0608283,40.6396085],[26.0730404,40.6197714],[26.0925802,40.6060026],[26.1058171,40.5996054],[26.121774,40.5948765],[26.1227848,40.592007],[26.127288,40.5915085],[26.1226709,40.5923576],[26.1232453,40.5942015],[26.1262951,40.5938251],[26.1260327,40.592144],[26.127249,40.5936008],[26.1289635,40.5936244],[26.128998,40.5921787],[26.1292324,40.5935913],[26.1315853,40.5937803],[26.1524163,40.589712],[26.1587548,40.5895711],[26.173784,40.593656],[26.200581,40.596807],[26.2317997,40.5984664],[26.2799319,40.5919757],[26.304386,40.590804],[26.328604,40.594028],[26.3428264,40.5988406],[26.3498895,40.603885],[26.3644803,40.606376],[26.354692,40.6181014],[26.3505974,40.6325524],[26.3520305,40.6434274],[26.3483045,40.670063],[26.3444369,40.6770639],[26.3348331,40.6836496],[26.3352426,40.6911013],[26.348382,40.7306418]]]}},{"type":"Feature","properties":{"code":"22-03","provinceCode":"22","name":"Havsa"},"geometry":{"type":"Polygon","coordinates":[[[26.9036986,41.3960364],[26.9034807,41.4044911],[26.894272,41.4372469],[26.9155433,41.4724186],[26.9241887,41.4815043],[26.9351172,41.4904055],[26.9437817,41.4892933],[26.9796516,41.5204071],[26.9711302,41.534719],[26.9762853,41.545636],[26.9967582,41.5766035],[27.006664,41.5967261],[26.9989418,41.6182715],[27.0006402,41.6259403],[26.9999168,41.6313367],[26.9759576,41.6360407],[26.9561058,41.6346722],[26.9437487,41.6086295],[26.9353392,41.6043422],[26.9258415,41.6084365],[26.9208137,41.6083437],[26.9041978,41.6175172],[26.9076745,41.6366009],[26.9072819,41.6573088],[26.9299877,41.6611967],[26.9177935,41.6732452],[26.9038734,41.6924223],[26.8881965,41.7049348],[26.8725196,41.7065491],[26.815488,41.7004951],[26.78954,41.7002933],[26.7592673,41.6952479],[26.7465636,41.6912112],[26.7333193,41.6829354],[26.7300758,41.6690053],[26.7319678,41.6138609],[26.7303461,41.6041604],[26.7049387,41.5329782],[26.6926809,41.5234888],[26.6764392,41.5013986],[26.6684841,41.4841432],[26.6652959,41.4440739],[26.7295161,41.4423169],[26.7890487,41.4331801],[26.857019,41.4149025],[26.9036986,41.3960364]]]}},{"type":"Feature","properties":{"code":"22-04","provinceCode":"22","name":"İpsala"},"geometry":{"type":"Polygon","coordinates":[[[26.4688658,41.1058739],[26.4671422,41.1019776],[26.4635058,41.0998899],[26.438438,41.0947141],[26.4137246,41.0803541],[26.3975908,41.0793167],[26.3877674,41.0687395],[26.3838934,41.0683091],[26.3725964,41.07066],[26.3666412,41.069211],[26.3620548,41.0659232],[26.3557768,41.0608693],[26.3536253,41.0562774],[26.3553913,41.0383077],[26.3600924,41.0262408],[26.3650563,41.0230022],[26.3667306,41.0179669],[26.3579108,40.9996375],[26.3496333,40.9948318],[26.3450347,40.9896342],[26.3320407,40.9915922],[26.3282025,40.9909993],[26.3254612,40.9845786],[26.3271634,40.9773717],[26.3486781,40.9640015],[26.352876,40.9551785],[26.3592706,40.9490789],[26.3590086,40.9452656],[26.3523923,40.9423769],[26.3273344,40.9440049],[26.315009,40.937647],[26.303879,40.9274223],[26.2985305,40.9284636],[26.2925157,40.9331224],[26.2853617,40.9307247],[26.2851048,40.922686],[26.301881,40.9034194],[26.2980287,40.8976087],[26.2926399,40.894032],[26.2812235,40.8929614],[26.2759499,40.8940745],[26.2650304,40.9025663],[26.263181,40.9072204],[26.2636638,40.9133141],[26.2615824,40.9152405],[26.2564066,40.9107256],[26.2532824,40.9048932],[26.2498423,40.8814893],[26.2337923,40.8862046],[26.2268824,40.8825074],[26.2246037,40.8866616],[26.2260414,40.8877282],[26.2298233,40.8870388],[26.2292071,40.8917128],[26.2226255,40.8902921],[26.2207523,40.884739],[26.2242466,40.8743797],[26.222981,40.866562],[26.2181566,40.8653147],[26.2111668,40.8670898],[26.2069846,40.8666116],[26.2052611,40.864238],[26.2069893,40.8603922],[26.2097025,40.8587421],[26.2133522,40.8592539],[26.2147215,40.8534399],[26.2058364,40.855108],[26.2042215,40.8508331],[26.2060639,40.8458452],[26.2087485,40.8458955],[26.2103206,40.8478068],[26.2160812,40.8469445],[26.217529,40.8442322],[26.2164376,40.841151],[26.213155,40.8397357],[26.2191123,40.8365459],[26.2199813,40.8341188],[26.2146813,40.8340539],[26.2105861,40.8368703],[26.2086517,40.8323573],[26.2090487,40.8272023],[26.2059802,40.8270156],[26.2026114,40.8314887],[26.2004119,40.8301655],[26.1998326,40.8263012],[26.2046391,40.8222418],[26.2038344,40.8206099],[26.1999399,40.8200416],[26.1971826,40.8250104],[26.1935627,40.8255091],[26.1875111,40.8212461],[26.1809564,40.8202927],[26.1803136,40.8125143],[26.1783017,40.8129999],[26.1766583,40.8175895],[26.1744106,40.8175753],[26.1671166,40.8112467],[26.2388355,40.7710359],[26.2583064,40.7669532],[26.2969656,40.750173],[26.348382,40.7306418],[26.3557156,40.7527006],[26.3937955,40.7623155],[26.4302374,40.7764252],[26.4546004,40.7891368],[26.4591044,40.7948717],[26.4717977,40.821525],[26.471593,40.830975],[26.4638132,40.8470834],[26.4654511,40.8556007],[26.4720024,40.8608654],[26.4855146,40.8678327],[26.5735487,40.9487548],[26.5794858,40.9605058],[26.588494,40.989256],[26.5916141,41.0213926],[26.5912786,41.0438487],[26.5891275,41.0532189],[26.5500827,41.0677365],[26.4850106,41.0951598],[26.4688658,41.1058739]]]}},{"type":"Feature","properties":{"code":"22-05","provinceCode":"22","name":"Keşan"},"geometry":{"type":"Polygon","coordinates":[[[26.8049,40.7266],[26.807,40.7281],[26.8099,40.7385],[26.8111,40.7521],[26.8037,40.7535],[26.8041,40.7567],[26.8006,40.7594],[26.8001,40.766],[26.7915,40.7714],[26.7907,40.7746],[26.7867,40.7764],[26.7848,40.7824],[26.7814,40.7861],[26.7735,40.7885],[26.7749,40.7954],[26.7718,40.8032],[26.7644,40.8042],[26.7538,40.8135],[26.7496,40.821],[26.749,40.8349],[26.7462,40.8416],[26.7368,40.8472],[26.7420489,40.8608479],[26.715,40.8733],[26.7119,40.8778],[26.7117,40.88],[26.7141,40.8813],[26.7139,40.8877],[26.7153,40.8878],[26.7133,40.8892],[26.7177,40.8941],[26.7167,40.8955],[26.7186,40.8983],[26.7163,40.9044],[26.7201,40.9075],[26.7141,40.9168],[26.7148,40.9181],[26.7224,40.9169],[26.7371,40.9217],[26.7428,40.9282],[26.7503,40.9331],[26.7514,40.9388],[26.7641,40.9446],[26.7598,40.9498],[26.7551,40.9503],[26.7515,40.9496],[26.744,40.9435],[26.7369,40.9433],[26.7316,40.9498],[26.7265,40.9525],[26.7239,40.9585],[26.7196,40.9593],[26.7189,40.9623],[26.7304,40.9678],[26.7378,40.9741],[26.7337,40.9825],[26.7327,40.9912],[26.74,40.999],[26.7444,41.0184],[26.7379615,41.0201907],[26.7396,41.023],[26.7361,41.0259],[26.7283,41.0254],[26.723,41.0266],[26.7168,41.0304],[26.7139,41.0291],[26.703,41.035],[26.6981,41.0416],[26.6897654,41.0381633],[26.6768674,41.0369279],[26.6496382,41.0299784],[26.6383781,41.0364646],[26.6189287,41.0438766],[26.608078,41.0454207],[26.5912786,41.0438487],[26.5916141,41.0213926],[26.588494,40.989256],[26.5794858,40.9605058],[26.5735487,40.9487548],[26.4855146,40.8678327],[26.4720024,40.8608654],[26.4654511,40.8556007],[26.4638132,40.8470834],[26.471593,40.830975],[26.4717977,40.821525],[26.4591044,40.7948717],[26.4546004,40.7891368],[26.4302374,40.7764252],[26.3937955,40.7623155],[26.3557156,40.7527006],[26.348382,40.7306418],[26.3352426,40.6911013],[26.3348331,40.6836496],[26.3444369,40.6770639],[26.3483045,40.670063],[26.3520305,40.6434274],[26.3505974,40.6325524],[26.354692,40.6181014],[26.3644803,40.606376],[26.3778044,40.6045301],[26.3722225,40.6064274],[26.3739404,40.6081181],[26.3762252,40.6079836],[26.3762616,40.6057446],[26.3764844,40.6071983],[26.381018,40.6081476],[26.414696,40.5990623],[26.4163449,40.6004948],[26.4303346,40.6029881],[26.4407801,40.6134949],[26.459632,40.6164608],[26.47886,40.6123398],[26.5067756,40.5965437],[26.5139153,40.5955886],[26.5206681,40.597685],[26.5331009,40.5918759],[26.5386102,40.5955571],[26.5415074,40.6016774],[26.5438618,40.6013667],[26.5416617,40.6033375],[26.5449756,40.6016053],[26.547793,40.605493],[26.5595899,40.6117939],[26.5647352,40.6102371],[26.589618,40.6308324],[26.5974446,40.629519],[26.6015073,40.6342694],[26.6096114,40.6373961],[26.6157198,40.6371285],[26.6210997,40.6348929],[26.62995,40.6366179],[26.6323761,40.6355535],[26.6386067,40.6380926],[26.6427447,40.6366919],[26.644528,40.6384355],[26.6623106,40.6363124],[26.6676108,40.6386796],[26.6755765,40.6373705],[26.6858387,40.6397513],[26.696303,40.6375688],[26.7018457,40.6379824],[26.7121369,40.6432896],[26.7255428,40.6425322],[26.7268,40.6459],[26.7254,40.6466],[26.7252,40.6544],[26.7359,40.6594],[26.7351,40.6607],[26.7324,40.6607],[26.7322,40.6623],[26.728,40.6619],[26.7246,40.6681],[26.7196,40.672],[26.7205,40.6743],[26.7336,40.6789],[26.7357,40.6842],[26.7197,40.6887],[26.7079,40.6856],[26.708,40.6898],[26.7125,40.6961],[26.7127,40.7024],[26.7091,40.7062],[26.7176,40.7019],[26.7224,40.7011],[26.7286,40.7104],[26.7369,40.7071],[26.7533,40.712],[26.7623,40.7086],[26.7671,40.711],[26.7705,40.7089],[26.7797,40.7124],[26.7888,40.7106],[26.7924,40.7145],[26.7905,40.7168],[26.7936,40.7176],[26.7977,40.7241],[26.8049,40.7266]]]}},{"type":"Feature","properties":{"code":"22-06","provinceCode":"22","name":"Lalapaşa"},"geometry":{"type":"Polygon","coordinates":[[[26.7630263,41.7809348],[26.772941,41.792552],[26.787105,41.8309792],[26.8072178,41.8413211],[26.8227981,41.8434315],[26.838945,41.8432205],[26.8542421,41.8465969],[26.8593411,41.8525053],[26.8593411,41.8582022],[26.8647234,41.860101],[26.8763379,41.8588352],[26.9196795,41.8666411],[26.9668098,41.8719673],[26.9651101,41.8789586],[26.9650132,41.902894],[26.9701525,41.9317868],[26.9911,41.945],[26.9889,41.9454],[26.9871,41.9486],[26.9887339,41.9534338],[26.9895,41.963],[26.9869,41.9655],[26.9865,41.9728],[26.9813,41.9755],[26.9795,41.9792],[26.9742,41.9807],[26.9747,41.9839],[26.9712,41.9895],[26.9676,41.991],[26.9677,41.9959],[26.9655868,41.9964779],[26.9575507,41.9967831],[26.9460149,42.0011257],[26.9313745,42.0028017],[26.9237766,41.9994214],[26.9215376,41.9950266],[26.919452,41.9971066],[26.9133308,41.995456],[26.910839,41.9909871],[26.903162,41.9884557],[26.9020098,41.9859852],[26.8986276,41.9882087],[26.892217,41.9888995],[26.885746,41.9871317],[26.8796502,41.9899224],[26.8710308,41.9910748],[26.8646006,41.9887335],[26.8647154,41.9868757],[26.8584823,41.9846392],[26.856536,41.9821056],[26.8520114,41.9839296],[26.8513871,41.9818342],[26.8478253,41.9802858],[26.8472433,41.9698183],[26.842275,41.9689662],[26.836148,41.9701434],[26.8329396,41.9691757],[26.8287617,41.9737707],[26.8242723,41.9724226],[26.8103686,41.9755933],[26.8038488,41.980265],[26.7994612,41.980911],[26.7941514,41.9840001],[26.792622,41.9902406],[26.7872347,41.9896576],[26.7789431,41.9789238],[26.7732665,41.9794339],[26.7632231,41.9693822],[26.7592003,41.9702743],[26.7550708,41.9600923],[26.7509259,41.9583235],[26.7430683,41.9609603],[26.7291238,41.9608241],[26.7132873,41.968561],[26.7037364,41.965203],[26.6993907,41.9666632],[26.6928151,41.9659974],[26.6901634,41.9688064],[26.6871612,41.9690612],[26.6843856,41.9674279],[26.6739218,41.9693115],[26.6681391,41.9645509],[26.6579175,41.9701698],[26.6463152,41.9728633],[26.6408742,41.9718616],[26.6365472,41.9730152],[26.6335156,41.9765216],[26.6231985,41.979441],[26.6213252,41.9783566],[26.6228298,41.9764406],[26.6185979,41.9657061],[26.5866084,41.9477863],[26.5613052,41.9257452],[26.5703494,41.9153721],[26.5705743,41.9126111],[26.5771053,41.9068235],[26.5843395,41.9033968],[26.5814443,41.8994818],[26.5776504,41.8981604],[26.5765364,41.8925635],[26.5673224,41.8868134],[26.568663,41.8820066],[26.5794124,41.8780687],[26.5810907,41.8740839],[26.5803835,41.871769],[26.5774904,41.8693891],[26.5758752,41.8700482],[26.574879,41.8681119],[26.5718386,41.8676954],[26.5685954,41.8691824],[26.565551,41.8666002],[26.5632892,41.8628141],[26.563724,41.8541178],[26.5630314,41.8465969],[26.5800281,41.8368891],[26.5871101,41.8288685],[26.6018406,41.82528],[26.6103389,41.8248578],[26.6126052,41.814091],[26.6219534,41.8195802],[26.6366839,41.8022665],[26.6698275,41.7872717],[26.6766262,41.7805123],[26.6947561,41.7771324],[26.7106197,41.768893],[26.7318656,41.7699494],[26.7630263,41.7809348]]]}},{"type":"Feature","properties":{"code":"22-07","provinceCode":"22","name":"Meriç"},"geometry":{"type":"Polygon","coordinates":[[[26.5091162,41.3276424],[26.4979464,41.3282615],[26.4911178,41.318855],[26.4900939,41.3085623],[26.4862216,41.3040284],[26.4650901,41.300657],[26.4638271,41.296527],[26.4649578,41.2897577],[26.4615295,41.2822283],[26.4552985,41.2809628],[26.4463663,41.2818136],[26.4414632,41.2791772],[26.4353786,41.278513],[26.4285221,41.2716694],[26.4117336,41.2621222],[26.4074099,41.2541536],[26.3981724,41.2524275],[26.3927436,41.2497576],[26.3795402,41.2523101],[26.3639267,41.2515686],[26.3572025,41.2494523],[26.3488544,41.2580254],[26.3409273,41.2595355],[26.336246,41.255402],[26.3252823,41.2551882],[26.3173386,41.2424294],[26.3172679,41.2373458],[26.3229011,41.2264896],[26.3306747,41.2206931],[26.3310246,41.2188258],[26.3240969,41.2126235],[26.3192099,41.2007882],[26.3231462,41.1887547],[26.3215628,41.1840838],[26.3111757,41.1828698],[26.3076881,41.1787322],[26.3069294,41.1731537],[26.3126039,41.1661317],[26.3147565,41.1593234],[26.331756,41.1523429],[26.3367846,41.1434189],[26.3335744,41.1383345],[26.3211311,41.1347175],[26.3225235,41.1240862],[26.3072602,41.1193895],[26.303597,41.1162894],[26.3029776,41.1134885],[26.3067435,41.1085916],[26.3142467,41.1082811],[26.3260371,41.1113995],[26.332322,41.1106599],[26.3353707,41.1083962],[26.3360919,41.106339],[26.3311686,41.0960216],[26.3177708,41.0891469],[26.3125377,41.0843036],[26.3104849,41.0803117],[26.312072,41.0726133],[26.3157089,41.0655696],[26.3249494,41.0578417],[26.3298362,41.0508466],[26.3304219,41.0466459],[26.3269089,41.0433707],[26.3271914,41.0414135],[26.3400252,41.0399089],[26.3461509,41.0300685],[26.3600924,41.0262408],[26.3553913,41.0383077],[26.3536253,41.0562774],[26.3557768,41.0608693],[26.3620548,41.0659232],[26.3666412,41.069211],[26.3725964,41.07066],[26.3838934,41.0683091],[26.3877674,41.0687395],[26.3975908,41.0793167],[26.4137246,41.0803541],[26.438438,41.0947141],[26.4635058,41.0998899],[26.4671422,41.1019776],[26.4688658,41.1058739],[26.4843037,41.1359887],[26.5050714,41.148266],[26.5104026,41.157971],[26.5284156,41.1776012],[26.5577712,41.1971092],[26.5730553,41.2148093],[26.5793214,41.2189609],[26.5688301,41.2313309],[26.5559448,41.2564989],[26.5473547,41.2878896],[26.5316554,41.3099208],[26.5148453,41.3178747],[26.5091162,41.3276424]]]}},{"type":"Feature","properties":{"code":"22-08","provinceCode":"22","name":"Süloğlu"},"geometry":{"type":"Polygon","coordinates":[[[26.815488,41.7004951],[26.8725196,41.7065491],[26.8881965,41.7049348],[26.9038734,41.6924223],[26.9177935,41.6732452],[26.9299877,41.6611967],[26.9414679,41.6694954],[26.9601855,41.6794709],[26.9678305,41.6960274],[26.9850318,41.7037333],[26.9975987,41.7197089],[27.0102603,41.7496641],[27.0125538,41.7664876],[27.0263148,41.7910021],[27.0206594,41.8161676],[26.996117,41.8422813],[26.9820192,41.8516783],[26.9668098,41.8719673],[26.9196795,41.8666411],[26.8763379,41.8588352],[26.8647234,41.860101],[26.8593411,41.8582022],[26.8593411,41.8525053],[26.8542421,41.8465969],[26.838945,41.8432205],[26.8227981,41.8434315],[26.8072178,41.8413211],[26.787105,41.8309792],[26.772941,41.792552],[26.7630263,41.7809348],[26.7979989,41.7414004],[26.815488,41.7004951]]]}},{"type":"Feature","properties":{"code":"22-09","provinceCode":"22","name":"Uzunköprü"},"geometry":{"type":"Polygon","coordinates":[[[26.4688658,41.1058739],[26.4850106,41.0951598],[26.5500827,41.0677365],[26.5891275,41.0532189],[26.5912786,41.0438487],[26.608078,41.0454207],[26.6189287,41.0438766],[26.6383781,41.0364646],[26.6496382,41.0299784],[26.6768674,41.0369279],[26.6897654,41.0381633],[26.6981,41.0416],[26.6976191,41.0443418],[26.6932929,41.0475675],[26.6995991,41.0595819],[26.6995991,41.0652278],[26.705856,41.0691928],[26.707836,41.0746366],[26.7207369,41.0676058],[26.7239672,41.0696353],[26.72406,41.0718141],[26.7320472,41.0712496],[26.739036,41.0755774],[26.7455256,41.0750129],[26.7492697,41.0721904],[26.7572569,41.0697442],[26.7575065,41.0656042],[26.7644953,41.0584526],[26.7694873,41.0599583],[26.7714841,41.0650396],[26.7762265,41.0659806],[26.7844633,41.0580762],[26.7867097,41.0618403],[26.7974426,41.0618403],[26.7944474,41.0659806],[26.797193,41.0718141],[26.8064282,41.0815982],[26.8061786,41.0870542],[26.8126682,41.0947669],[26.8139162,41.1011622],[26.8106714,41.1071807],[26.823401,41.1116942],[26.8376283,41.1084971],[26.8580955,41.1205322],[26.8665819,41.127113],[26.8897948,41.135949],[26.896534,41.1492947],[26.906518,41.1530535],[26.9132572,41.159631],[26.9357213,41.1678989],[26.9516957,41.1776688],[26.9462045,41.1870615],[26.9444573,41.1990821],[26.9302301,41.2065939],[26.9352221,41.2118517],[26.9299805,41.2199253],[26.9412125,41.2253697],[26.9598546,41.2299906],[26.962179,41.237571],[26.957187,41.2445154],[26.9541958,41.2563311],[26.9341199,41.2664719],[26.9304797,41.2735986],[26.9311645,41.275675],[26.9231035,41.2789485],[26.9265082,41.2851942],[26.9236352,41.2864653],[26.9243552,41.288505],[26.9221522,41.2890693],[26.9275286,41.29563],[26.9239046,41.3009939],[26.9286057,41.307243],[26.9337032,41.3093915],[26.9193962,41.3148684],[26.9174509,41.3175185],[26.9173911,41.3358489],[26.9064995,41.3379602],[26.903324,41.3404448],[26.9008848,41.3398369],[26.8901428,41.3447952],[26.8845687,41.3433953],[26.8842075,41.345332],[26.886426,41.3471136],[26.8840527,41.3500185],[26.8843623,41.3526133],[26.8922043,41.3523422],[26.898088,41.3557945],[26.8970996,41.3628157],[26.9080754,41.3826239],[26.9036986,41.3960364],[26.857019,41.4149025],[26.7890487,41.4331801],[26.7295161,41.4423169],[26.6652959,41.4440739],[26.6118994,41.4419274],[26.6110948,41.4346175],[26.6131557,41.4241543],[26.616777,41.4218473],[26.6254917,41.4210194],[26.6290247,41.4188337],[26.6301434,41.4008598],[26.6355754,41.3850899],[26.6333084,41.3789267],[26.6322552,41.364253],[26.6251427,41.3437539],[26.6159636,41.335564],[26.6089211,41.3344769],[26.5983617,41.3271813],[26.5855488,41.3223883],[26.5692209,41.3246941],[26.5601944,41.3352916],[26.5432937,41.3422549],[26.5280302,41.3364456],[26.5183336,41.3395004],[26.5160842,41.3301432],[26.5137867,41.3282734],[26.5091162,41.3276424],[26.5148453,41.3178747],[26.5316554,41.3099208],[26.5473547,41.2878896],[26.5559448,41.2564989],[26.5688301,41.2313309],[26.5793214,41.2189609],[26.5730553,41.2148093],[26.5577712,41.1971092],[26.5284156,41.1776012],[26.5104026,41.157971],[26.5050714,41.148266],[26.4843037,41.1359887],[26.4688658,41.1058739]]]}}]}