{"type":"FeatureCollection","features":[{"type":"Feature","properties":{"code":"58-01","provinceCode":"58","name":"Akıncılar"},"geometry":{"type":"Polygon","coordinates":[[[38.4581408,39.9857334],[38.4588608,39.9967992],[38.4744758,40.0235856],[38.4792506,40.0270444],[38.5022215,40.035147],[38.5186108,40.0443355],[38.5195142,40.0464101],[38.5147393,40.0623135],[38.5135779,40.0892717],[38.5098153,40.0962277],[38.5088921,40.1112312],[38.5043954,40.1232164],[38.5095073,40.1312791],[38.5048701,40.147598],[38.50513,40.154307],[38.4930926,40.1542497],[38.4876019,40.1563472],[38.48645,40.1603822],[38.4820193,40.1638644],[38.4639667,40.1665864],[38.4612824,40.1649],[38.4521239,40.1648828],[38.4468021,40.1630186],[38.4432528,40.1549065],[38.4471702,40.1477825],[38.4394454,40.137022],[38.4410953,40.1301325],[38.4319531,40.1264299],[38.4151553,40.1232408],[38.4108638,40.1277692],[38.4100021,40.1367806],[38.4056281,40.1403028],[38.4035682,40.1472576],[38.4005515,40.1501555],[38.3980303,40.14918],[38.395509,40.1449512],[38.3757395,40.1473216],[38.3367698,40.169376],[38.3306608,40.1674471],[38.3248231,40.1690304],[38.3205109,40.1607973],[38.326299,40.1529063],[38.3242653,40.1466885],[38.313002,40.1372412],[38.3036159,40.1311416],[38.2751448,40.1262376],[38.2694408,40.1228048],[38.2630845,40.1146121],[38.2438583,40.1080183],[38.2354499,40.1000913],[38.2340811,40.0956039],[38.2356455,40.0837857],[38.2381875,40.080943],[38.2520711,40.0752573],[38.2504373,40.0651665],[38.2471207,40.0603737],[38.2475736,40.0504142],[38.2532444,40.0430793],[38.2641254,40.0364656],[38.2643556,40.0245547],[38.2612617,40.0177752],[38.2526577,40.0105866],[38.2478628,40.001737],[38.2380498,39.9924618],[38.2334435,39.9824769],[38.2358398,39.9686969],[38.2503314,39.9645348],[38.270163,39.9550753],[38.2958758,39.9524312],[38.3435792,39.9419956],[38.3704804,39.9337274],[38.3825083,39.925923],[38.3889442,39.9179738],[38.3975377,39.9330074],[38.4271401,39.9544391],[38.4581408,39.9857334]]]}},{"type":"Feature","properties":{"code":"58-02","provinceCode":"58","name":"Altınyayla"},"geometry":{"type":"Polygon","coordinates":[[[36.8158755,39.359787],[36.7841859,39.3595537],[36.7675866,39.3625872],[36.71929,39.3627262],[36.7093001,39.3603178],[36.6709134,39.3413283],[36.6519952,39.3366816],[36.634486,39.3363915],[36.623516,39.3274774],[36.6141284,39.3082557],[36.6004179,39.262648],[36.6057216,39.2441043],[36.6133603,39.2313038],[36.6347252,39.2092666],[36.6487093,39.199974],[36.6763119,39.1863477],[36.6876895,39.1751348],[36.689775,39.1738089],[36.6901133,39.1695586],[36.6942178,39.1684983],[36.6956333,39.1708825],[36.6977533,39.1706806],[36.7006083,39.1634075],[36.7033769,39.1621711],[36.7050667,39.1652122],[36.7129403,39.1680203],[36.7216569,39.1682092],[36.7247675,39.1714925],[36.7360606,39.1713314],[36.7416844,39.1618803],[36.7459614,39.1501983],[36.7448292,39.1486608],[36.7468036,39.1492997],[36.747255,39.1384097],[36.7495714,39.1390056],[36.7563156,39.1324697],[36.7616522,39.1314008],[36.7609953,39.1327269],[36.7679764,39.1353244],[36.7698189,39.1284844],[36.7699528,39.118555],[36.7682286,39.118165],[36.7702842,39.1158467],[36.7698692,39.1075683],[36.7719319,39.1066292],[36.7698539,39.1053589],[36.7705583,39.1023047],[36.8244277,39.1358853],[36.878701,39.1594938],[36.9133716,39.1775025],[36.9189484,39.1989174],[36.9167439,39.2176581],[36.9107371,39.2370786],[36.9175354,39.2491338],[36.917746,39.2592969],[36.9097017,39.2797049],[36.9311016,39.3134728],[36.9343063,39.3350966],[36.9330809,39.3490416],[36.907834,39.3628159],[36.8668639,39.3629866],[36.8158755,39.359787]]]}},{"type":"Feature","properties":{"code":"58-03","provinceCode":"58","name":"Divriği"},"geometry":{"type":"Polygon","coordinates":[[[38.3921476,39.4048511],[38.3946817,39.4095225],[38.3952021,39.4186126],[38.3787472,39.4447919],[38.3573101,39.4606345],[38.3278542,39.4763814],[38.3220128,39.4814317],[38.3000848,39.4912283],[38.2935435,39.5096253],[38.2772508,39.5347747],[38.278643,39.5429318],[38.2965893,39.5511113],[38.3159086,39.5576441],[38.3242121,39.5668659],[38.3307127,39.5670507],[38.3348047,39.5706091],[38.3288169,39.5693013],[38.3276793,39.5715226],[38.3174455,39.5745203],[38.3119816,39.5719903],[38.3088724,39.5674599],[38.30464,39.5658573],[38.2919432,39.5654603],[38.2796345,39.5667847],[38.2677329,39.5714115],[38.2590236,39.5698035],[38.247986,39.5731852],[38.2391511,39.5928411],[38.2250512,39.5998836],[38.2335575,39.6067871],[38.2331338,39.6245468],[38.2290012,39.6446221],[38.222011,39.6430043],[38.2137813,39.6494303],[38.186442,39.6524659],[38.1761609,39.6593208],[38.1031326,39.6582034],[38.0890529,39.6714851],[38.0719967,39.6728784],[38.0728588,39.6684081],[38.0690441,39.6619477],[38.0517505,39.6488292],[38.0418322,39.6357083],[38.0329311,39.5965266],[38.0265732,39.5849638],[38.0064822,39.5606559],[37.9891887,39.5514402],[37.974947,39.5481066],[37.8981434,39.5508519],[37.8877164,39.5543815],[37.8803413,39.5592834],[37.8668625,39.5728109],[37.8371075,39.5880996],[37.8264262,39.5900595],[37.8193053,39.5888836],[37.8132017,39.5857477],[37.8081154,39.5806517],[37.8078611,39.5753592],[37.8111672,39.5637929],[37.808624,39.5410466],[37.7809035,39.5194699],[37.7595409,39.4786521],[37.7521658,39.4707998],[37.7419931,39.464321],[37.7310575,39.4609831],[37.6951989,39.4605904],[37.6791769,39.4647136],[37.6669697,39.4741371],[37.6601032,39.4774743],[37.652728,39.4761002],[37.6456072,39.4692292],[37.6420467,39.4570561],[37.6299824,39.439997],[37.6245664,39.4219656],[37.6310947,39.416664],[37.64345,39.4149275],[37.6488671,39.411313],[37.6505907,39.4004685],[37.6550228,39.3968533],[37.6587163,39.387529],[37.6665957,39.384484],[37.6833393,39.381439],[37.6949122,39.3761098],[37.7237211,39.3776324],[37.7330779,39.372874],[37.7350468,39.3588701],[37.729844,39.3556714],[37.7207664,39.3462207],[37.704258,39.3390341],[37.7008217,39.309651],[37.7022991,39.2968852],[37.7008217,39.2831642],[37.7057463,39.2690592],[37.7116558,39.2623869],[37.7261834,39.2576206],[37.7547462,39.25457],[37.7737755,39.2619766],[37.7951004,39.2626268],[37.8121492,39.2482723],[37.8532932,39.2299481],[37.9086826,39.1696511],[37.909111,39.1574605],[37.9122046,39.1457915],[37.9209518,39.1358751],[37.9266151,39.1240327],[37.9245957,39.1075337],[37.9292548,39.090933],[37.9249337,39.0850485],[37.9341363,39.0683176],[37.9480053,39.0717871],[37.962456,39.0828301],[37.9801547,39.0779902],[37.9921381,39.0790761],[37.9998376,39.0880138],[38.0117618,39.0871238],[38.0372287,39.0931634],[38.0557523,39.0877218],[38.0609283,39.0964367],[38.0805651,39.0893768],[38.1102702,39.0848074],[38.1617377,39.0832318],[38.1736229,39.0877413],[38.222283,39.1229617],[38.2517918,39.1378325],[38.2988182,39.1426241],[38.3242273,39.1527896],[38.3372193,39.1728377],[38.3445352,39.1889403],[38.3492429,39.1905272],[38.3616876,39.2182432],[38.367868,39.2514933],[38.3645401,39.2796915],[38.3664413,39.289735],[38.3658151,39.3036467],[38.3620643,39.3109659],[38.3522926,39.3156716],[38.3424575,39.3229407],[38.3299137,39.3391043],[38.3280907,39.3485436],[38.3306448,39.3587373],[38.3328615,39.361608],[38.3371063,39.3634593],[38.3364808,39.3685588],[38.3396917,39.3716779],[38.346549,39.370599],[38.3510809,39.3726656],[38.3583461,39.3714087],[38.3601641,39.3749382],[38.3621543,39.3748558],[38.3649264,39.3712568],[38.3718081,39.3669303],[38.3736365,39.3679737],[38.3738571,39.3716889],[38.3806063,39.3716909],[38.3801799,39.3745261],[38.3760881,39.3769582],[38.3778631,39.3826297],[38.3670161,39.3918645],[38.3663583,39.3943098],[38.3719615,39.3957034],[38.3786909,39.4011174],[38.3874271,39.4021247],[38.3921476,39.4048511]]]}},{"type":"Feature","properties":{"code":"58-04","provinceCode":"58","name":"Doğanşar"},"geometry":{"type":"Polygon","coordinates":[[[37.5587775,40.2990064],[37.543413,40.2876302],[37.5245417,40.2630942],[37.5175875,40.2568707],[37.5073318,40.254277],[37.4927277,40.247441],[37.4777402,40.2501451],[37.4542153,40.2407238],[37.4442331,40.2303873],[37.4327826,40.2232998],[37.4491795,40.2039421],[37.4603898,40.1967598],[37.452334,40.1785773],[37.4455616,40.1687115],[37.4165044,40.1281582],[37.4211512,40.1144186],[37.4350917,40.0997284],[37.4453147,40.0928561],[37.4685488,40.0876422],[37.5450664,40.0513705],[37.574806,40.0478135],[37.5920344,40.048201],[37.6036527,40.0733248],[37.6041863,40.0800981],[37.6222538,40.0980184],[37.654378,40.117854],[37.6610097,40.124913],[37.6639063,40.1334447],[37.6507318,40.1430287],[37.6468335,40.1479649],[37.6531853,40.1586903],[37.6514811,40.1650087],[37.6549172,40.1739307],[37.658694,40.1770668],[37.656936,40.1789906],[37.6576858,40.1826572],[37.6483419,40.1907432],[37.6475142,40.195438],[37.64124,40.2038532],[37.638709,40.2109002],[37.638585,40.220301],[37.6207509,40.2402374],[37.6139739,40.2578683],[37.5900212,40.2799637],[37.5587775,40.2990064]]]}},{"type":"Feature","properties":{"code":"58-05","provinceCode":"58","name":"Gemerek"},"geometry":{"type":"Polygon","coordinates":[[[36.3346192,39.0535297],[36.3414597,39.0617681],[36.3423792,39.0652647],[36.3443917,39.0663753],[36.3472625,39.0646222],[36.3476131,39.0667386],[36.3489414,39.0658839],[36.3521603,39.0704989],[36.3542083,39.0703533],[36.3566042,39.0750433],[36.3584267,39.0733164],[36.3610919,39.0801533],[36.3652253,39.0842981],[36.3638981,39.0861003],[36.3673422,39.0875192],[36.3697264,39.0844022],[36.3724031,39.0901356],[36.3753928,39.0896953],[36.3753136,39.0885461],[36.3787981,39.08946],[36.3806806,39.0878478],[36.382225,39.0907575],[36.3939844,39.0901906],[36.3946764,39.0913631],[36.3809352,39.1547509],[36.3728034,39.1711457],[36.3593365,39.1807406],[36.3412888,39.1883919],[36.3347656,39.2076016],[36.3230576,39.228715],[36.3186821,39.2413167],[36.3080355,39.2478404],[36.290693,39.2515798],[36.2544194,39.2347685],[36.2430449,39.2350986],[36.2319519,39.2396794],[36.2051864,39.2581035],[36.2006465,39.2631251],[36.1964697,39.2715025],[36.1951415,39.2946349],[36.1898285,39.3094099],[36.1757157,39.3177597],[36.1679122,39.3255947],[36.1670821,39.3397211],[36.1742214,39.3695058],[36.1747195,39.3806717],[36.1501468,39.4217266],[36.1469922,39.4339101],[36.1464941,39.4504506],[36.1423433,39.459168],[36.1338756,39.4666026],[36.0827377,39.4680126],[36.0653044,39.4714732],[36.0541802,39.4772404],[36.0466036,39.5079182],[36.019733,39.5073136],[35.9651953,39.5359259],[35.9418947,39.5434224],[35.9061777,39.5413584],[35.8825317,39.5298478],[35.867993,39.5129539],[35.8608782,39.4800824],[35.8676181,39.4664271],[35.8596142,39.4592331],[35.8697,39.4118123],[35.8863685,39.3931428],[35.8750315,39.3846716],[35.8730365,39.365758],[35.856485,39.3223264],[35.8544328,39.3185169],[35.8568175,39.3072592],[35.8626661,39.3017144],[35.8576486,39.2944953],[35.8538028,39.2928875],[35.8600472,39.2901781],[35.8690744,39.2922019],[35.8754914,39.2911142],[35.8805703,39.2866272],[35.8763522,39.2836058],[35.8775203,39.2816864],[35.8815544,39.2813447],[35.8856342,39.2828814],[35.88592,39.2811767],[35.8938292,39.2752708],[35.8978719,39.2745836],[35.8986056,39.2774183],[35.9100411,39.2674817],[35.91508,39.2663258],[35.9159056,39.2610611],[35.913495,39.2625231],[35.9110589,39.2603586],[35.9140397,39.2572522],[35.9161694,39.2581575],[35.9145614,39.2561025],[35.9183981,39.2540022],[35.9157858,39.2532158],[35.91724,39.2516514],[35.9115264,39.2471633],[35.9133486,39.2436739],[35.9212539,39.2401267],[35.9222258,39.2376975],[35.9366953,39.2416556],[35.9378236,39.2358964],[35.9451139,39.2297106],[35.9455953,39.2235747],[35.9435367,39.2203469],[35.9460194,39.2096317],[35.9431222,39.2091164],[35.9435067,39.2070869],[35.9444989,39.2080475],[35.9465336,39.2051814],[35.9486639,39.2055642],[35.9486156,39.2011864],[35.9494964,39.2047892],[35.9521069,39.2038944],[35.9556083,39.2093583],[35.9579772,39.2086467],[35.9628028,39.1992567],[35.9603044,39.1944972],[35.9566714,39.1926069],[35.9593342,39.1901564],[35.9648511,39.1940883],[35.9738828,39.1897917],[35.9776386,39.1899089],[35.9785128,39.1883747],[35.9761175,39.1856186],[35.9790847,39.1848214],[35.9796739,39.1822969],[35.9721119,39.1773094],[35.9670364,39.1686094],[35.9700794,39.1582622],[35.9605594,39.1575825],[35.9640128,39.1550592],[35.9693742,39.1551444],[35.9720275,39.1531861],[35.9713,39.1511486],[35.9755064,39.1512775],[35.9755906,39.1482028],[35.9794092,39.1478461],[35.9779411,39.1437164],[35.9817278,39.1420375],[35.9933356,39.1467153],[35.9876486,39.1400544],[35.9897111,39.139995],[35.9997092,39.1462486],[36.0099506,39.1482967],[36.0105894,39.1469014],[36.0168253,39.1467917],[36.0174447,39.1415856],[36.0150911,39.1385403],[36.0216508,39.1372164],[36.0245164,39.1348622],[36.0333769,39.1384878],[36.0418822,39.1373689],[36.0435153,39.1309794],[36.0488658,39.1287364],[36.0497011,39.1263244],[36.0580475,39.1284736],[36.058635,39.1259767],[36.0622775,39.1240997],[36.06063,39.1214589],[36.0631978,39.1221578],[36.0663792,39.1193589],[36.0708808,39.119155],[36.0742242,39.1076908],[36.0767653,39.1094708],[36.076825,39.1073656],[36.0782331,39.1102353],[36.0798075,39.1099303],[36.0823703,39.1082697],[36.0842578,39.1024544],[36.0862742,39.1044411],[36.0917567,39.1058828],[36.0888397,39.0975714],[36.0923358,39.0953475],[36.0935778,39.0911097],[36.0973653,39.0891356],[36.0963044,39.0875628],[36.0984733,39.0863694],[36.0972058,39.0826528],[36.0997628,39.0815522],[36.108185,39.0805928],[36.1077575,39.0854647],[36.1109961,39.0861417],[36.1118025,39.0836586],[36.1143678,39.0860772],[36.1209525,39.0859153],[36.1196875,39.0887131],[36.1223411,39.0885097],[36.1250539,39.0909053],[36.1342536,39.0879236],[36.1343311,39.0867444],[36.1383058,39.0869344],[36.1390292,39.0851608],[36.1398825,39.0884789],[36.1424525,39.0861919],[36.1432831,39.0894528],[36.1482542,39.0880217],[36.1512239,39.0937814],[36.1529417,39.0917436],[36.1567553,39.0940811],[36.1567142,39.0994844],[36.1589864,39.1006592],[36.1619644,39.0997547],[36.1655406,39.0923086],[36.169245,39.0937808],[36.1711161,39.0923486],[36.1727497,39.0941539],[36.1738067,39.0921431],[36.1724375,39.0905139],[36.1757233,39.0902947],[36.1794536,39.0876281],[36.1917856,39.0890328],[36.1922806,39.0864725],[36.1945017,39.0857058],[36.1969381,39.0873128],[36.1968844,39.0858131],[36.1985894,39.0857467],[36.1998994,39.0888475],[36.201235,39.086505],[36.2043036,39.0853997],[36.2082533,39.0770392],[36.2150578,39.0766469],[36.2197867,39.0740181],[36.2190383,39.0774183],[36.2239697,39.078095],[36.2203731,39.0771347],[36.2206383,39.0758328],[36.2242011,39.0706564],[36.2290231,39.0705606],[36.2287503,39.0668542],[36.2410906,39.0668911],[36.2449247,39.07077],[36.2477567,39.0668292],[36.2515719,39.0667606],[36.25418,39.0644833],[36.2596944,39.0685267],[36.2630394,39.0954369],[36.2660561,39.0955803],[36.2654125,39.0969164],[36.2735775,39.09983],[36.2829514,39.1006842],[36.2872264,39.0989506],[36.2875739,39.1017081],[36.2983928,39.1051242],[36.2916014,39.0964058],[36.2965694,39.0926297],[36.2986711,39.0937486],[36.3066225,39.0930847],[36.3160981,39.0848706],[36.3200864,39.0775719],[36.3266606,39.0736056],[36.3297769,39.0728539],[36.3310258,39.0744111],[36.3346192,39.0535297]]]}},{"type":"Feature","properties":{"code":"58-06","provinceCode":"58","name":"Gölova"},"geometry":{"type":"Polygon","coordinates":[[[38.7722399,40.067079],[38.770239,40.0692579],[38.7670052,40.0685043],[38.7634479,40.0709201],[38.7662637,40.0732301],[38.7692345,40.0732393],[38.765124,40.0797728],[38.7585951,40.079232],[38.7561607,40.0818149],[38.7518691,40.0827343],[38.7500999,40.0851973],[38.740551,40.0850924],[38.726453,40.0897921],[38.7161827,40.0867658],[38.6995753,40.086541],[38.69462,40.088119],[38.6706481,40.0816914],[38.6577129,40.0832596],[38.6552238,40.0889727],[38.6602019,40.1074218],[38.6546406,40.1081172],[38.6408058,40.1057587],[38.629732,40.1056494],[38.6232537,40.10385],[38.6069011,40.1034829],[38.6012363,40.1062402],[38.5938167,40.0993105],[38.5806242,40.0993687],[38.5614966,40.0946196],[38.5620116,40.0986246],[38.5578918,40.0994781],[38.5582837,40.1048818],[38.5615825,40.1071593],[38.556776,40.1135267],[38.5099982,40.1198935],[38.5115432,40.125341],[38.517723,40.1286224],[38.5185417,40.1313484],[38.5223579,40.1341347],[38.5223579,40.137875],[38.5257911,40.1425993],[38.5303442,40.1434604],[38.5345457,40.1532934],[38.5233577,40.1537556],[38.5122429,40.1543317],[38.50897,40.1516374],[38.50513,40.154307],[38.5048701,40.147598],[38.5095073,40.1312791],[38.5043954,40.1232164],[38.5088921,40.1112312],[38.5098153,40.0962277],[38.5135779,40.0892717],[38.5147393,40.0623135],[38.5195142,40.0464101],[38.5186108,40.0443355],[38.5022215,40.035147],[38.4792506,40.0270444],[38.4744758,40.0235856],[38.4588608,39.9967992],[38.4581408,39.9857334],[38.4696699,39.9872623],[38.4831638,39.983949],[38.4995173,39.9759053],[38.510076,39.9671116],[38.5191796,39.9619933],[38.5386154,39.9570256],[38.5499283,39.9567773],[38.5783645,39.9736724],[38.6007319,39.9811703],[38.6201557,39.9937668],[38.6434033,40.0030303],[38.6866533,40.0098727],[38.6941009,40.0057554],[38.708736,39.9876731],[38.7161432,39.9878307],[38.7301374,39.9934548],[38.7420593,40.0040125],[38.7603201,40.0130512],[38.7603792,40.0147315],[38.7629604,40.0149431],[38.7602558,40.0230582],[38.7657953,40.0272121],[38.7642179,40.0326432],[38.7670246,40.0466593],[38.7659655,40.0542583],[38.7689111,40.0566309],[38.7672836,40.0605668],[38.7680211,40.0665349],[38.7722399,40.067079]]]}},{"type":"Feature","properties":{"code":"58-07","provinceCode":"58","name":"Gürün"},"geometry":{"type":"Polygon","coordinates":[[[37.3001507,38.5655675],[37.3133362,38.5822195],[37.3195406,38.5970616],[37.3644948,38.5929695],[37.4025031,38.608937],[37.4076596,38.6197073],[37.4027972,38.6496842],[37.4066504,38.657236],[37.4108275,38.6816634],[37.4186095,38.6897124],[37.4294355,38.7052694],[37.4355545,38.7097164],[37.4486005,38.7124943],[37.4769436,38.7155453],[37.4886016,38.7194364],[37.5149916,38.7458264],[37.5374906,38.7602764],[37.5399855,38.7633284],[37.5397993,38.7792692],[37.5558713,38.7888147],[37.5576972,38.7926114],[37.5582508,38.8034883],[37.5352127,38.8471588],[37.5502438,38.9052614],[37.5428669,38.9168863],[37.5451215,38.9297049],[37.5361475,38.9339214],[37.5086795,38.9632939],[37.5046595,38.9730343],[37.4805906,39.005062],[37.4777863,39.0007267],[37.4712073,38.9980878],[37.4576248,38.997428],[37.4368265,38.9929746],[37.4177617,38.9917942],[37.4103492,38.998196],[37.4052255,38.9982349],[37.4036896,38.995595],[37.4003942,38.9961732],[37.3926987,39.0012141],[37.3875749,39.0013736],[37.3845153,39.0046756],[37.3850101,39.0063648],[37.380633,39.0086576],[37.3778356,39.006198],[37.3748312,39.0060283],[37.3729143,39.0083657],[37.368196,39.0100312],[37.3671307,39.0123984],[37.3695802,39.0132551],[37.3668694,39.0149603],[37.3523098,39.0144929],[37.3467135,39.0100799],[37.3416475,39.0092786],[37.3394096,39.0102467],[37.3337247,39.01952],[37.3323951,39.0202431],[37.3292985,39.0188821],[37.3267576,39.0207837],[37.325362,39.0284506],[37.3266393,39.0323264],[37.324846,39.0338057],[37.3283785,39.0411347],[37.3265516,39.0408634],[37.3241683,39.0430519],[37.3194836,39.0418838],[37.3163114,39.0426539],[37.3143412,39.0459126],[37.3054644,39.0473585],[37.3056724,39.0530622],[37.3084573,39.0546462],[37.307277,39.0563146],[37.3012308,39.0547526],[37.29247,39.0580253],[37.27848,39.0603456],[37.26449,39.058869],[37.2465611,39.0506421],[37.2378683,39.0400932],[37.217902,39.0052709],[37.1984535,38.9810369],[37.176017,38.9590838],[37.1580269,38.9545635],[37.1445659,38.9449385],[37.1167022,38.9448881],[37.0711175,38.9585967],[37.0532905,38.960082],[37.0490459,38.9561213],[37.0492581,38.9491895],[37.0583839,38.9363145],[37.0592328,38.9267392],[37.0518049,38.9173278],[37.0384346,38.9130345],[37.0288844,38.9131996],[37.0159385,38.9191441],[36.9925936,38.9363145],[36.9620091,38.9438632],[36.9587414,38.943315],[36.9537656,38.9357944],[36.91478,38.9422283],[36.9072772,38.9310825],[36.9072233,38.9251283],[36.8987469,38.9147772],[36.8885325,38.9129681],[36.8766486,38.914305],[36.8494206,38.8978078],[36.8522697,38.8940822],[36.8515686,38.8894531],[36.8534703,38.8783619],[36.8549953,38.8779167],[36.852805,38.8760344],[36.8604011,38.854075],[36.8506994,38.8516542],[36.8292986,38.836195],[36.8214869,38.8323542],[36.8240764,38.8279664],[36.8150386,38.8234228],[36.8068008,38.8093128],[36.7924317,38.8002811],[36.7905489,38.7975181],[36.7876847,38.7977344],[36.7926428,38.7920811],[36.7925825,38.775375],[36.8139325,38.7874028],[36.8209111,38.7862778],[36.8136769,38.7619319],[36.8005733,38.7550544],[36.7576867,38.7517872],[36.7356681,38.7414167],[36.7316856,38.7316625],[36.7244458,38.7249219],[36.7327208,38.7142028],[36.7641678,38.7057944],[36.7609767,38.6927742],[36.7582928,38.6877819],[36.7530708,38.6849386],[36.7486053,38.6759244],[36.7485928,38.6708917],[36.7622039,38.6645306],[36.7757814,38.6636272],[36.7789689,38.6608856],[36.7805622,38.6565547],[36.7891464,38.6550506],[36.7898606,38.6478917],[36.7941614,38.641035],[36.79683,38.6311033],[36.7853283,38.6111036],[36.7823161,38.61089],[36.7799517,38.6014403],[36.7308689,38.5845542],[36.7500578,38.5649039],[36.757765,38.5525492],[36.760475,38.5525653],[36.7618181,38.548935],[36.7804256,38.5370853],[36.8401536,38.5546506],[36.8806079,38.5684144],[36.9111092,38.5704941],[36.9315323,38.5662929],[36.9519274,38.5664301],[37.021465,38.5822177],[37.0528071,38.5854461],[37.0638104,38.5861136],[37.1444557,38.5743188],[37.1718199,38.5726362],[37.199184,38.5726362],[37.2271631,38.5752803],[37.2425362,38.5747996],[37.268363,38.5683092],[37.3001507,38.5655675]]]}},{"type":"Feature","properties":{"code":"58-08","provinceCode":"58","name":"Hafik"},"geometry":{"type":"Polygon","coordinates":[[[37.493171,39.5060541],[37.498742,39.5325032],[37.499297,39.5465715],[37.5026953,39.5585374],[37.5076863,39.5660881],[37.5307137,39.5677115],[37.5859065,39.5777769],[37.6436841,39.6176992],[37.652509,39.6276526],[37.6567639,39.6400318],[37.6531394,39.6550779],[37.6458903,39.6649047],[37.6310771,39.6769132],[37.614688,39.6835838],[37.5960927,39.6976504],[37.5844312,39.7135326],[37.579546,39.7239571],[37.579546,39.7298959],[37.589474,39.7469823],[37.6011355,39.7613995],[37.6016083,39.7684252],[37.5987717,39.7748447],[37.5871102,39.7839278],[37.574976,39.7887716],[37.5585869,39.7909512],[37.547083,39.7940995],[37.5327425,39.80318],[37.5272269,39.8097173],[37.5243904,39.819401],[37.5262814,39.8400953],[37.5314818,39.8573963],[37.5329001,39.8878742],[37.5311666,39.8965797],[37.5212386,39.9149543],[37.513832,39.9277652],[37.5061102,39.9367073],[37.5054799,39.9539839],[37.5552775,40.0033734],[37.5663086,40.0193057],[37.5748574,40.0269043],[37.5920344,40.048201],[37.574806,40.0478135],[37.5450664,40.0513705],[37.4685488,40.0876422],[37.4453147,40.0928561],[37.4350917,40.0997284],[37.4211512,40.1144186],[37.4165044,40.1281582],[37.4455616,40.1687115],[37.4216583,40.1730154],[37.4034154,40.1675203],[37.3805478,40.1703027],[37.3648355,40.1742246],[37.3569532,40.1958399],[37.3483438,40.2036418],[37.3097362,40.2051156],[37.2946105,40.2091818],[37.2226922,40.2195989],[37.1933645,40.2347709],[37.1724771,40.2319148],[37.1405964,40.2332245],[37.125556,40.2358216],[37.0947184,40.2464769],[37.0805525,40.2356591],[37.0818327,40.2227201],[37.0760474,40.1962835],[37.0805251,40.1649804],[37.0939641,40.1446762],[37.0958394,40.1296233],[37.1011525,40.1262777],[37.1074032,40.1286674],[37.1352189,40.1513653],[37.1567839,40.1602474],[37.1623856,40.1520234],[37.163158,40.1441866],[37.1435653,40.1115944],[37.1443855,40.102532],[37.1499153,40.0957692],[37.1599093,40.0909005],[37.1617845,40.0839663],[37.1720982,40.0736832],[37.174911,40.0547871],[37.183037,40.044739],[37.1914754,40.0301426],[37.1914754,40.0215268],[37.1845996,40.007883],[37.16616,39.9877714],[37.1649099,39.9791503],[37.1692854,39.9700491],[37.1914754,39.9539992],[37.2058521,39.9381853],[37.217416,39.9166149],[37.2227291,39.8995934],[37.2230416,39.8871244],[37.2146031,39.8727341],[37.2061646,39.8664974],[37.1733445,39.8540223],[37.1666072,39.8499314],[37.1637183,39.8397589],[37.1672443,39.8322905],[37.2033518,39.8004976],[37.2342929,39.7769623],[37.248357,39.7745603],[37.2886742,39.7752809],[37.3068013,39.7678342],[37.3764969,39.7180889],[37.3877482,39.6906776],[37.4065004,39.6608495],[37.4306996,39.6327483],[37.434317,39.6206237],[37.4422147,39.6135426],[37.4435547,39.5991719],[37.4321552,39.584301],[37.4326703,39.5757245],[37.4466048,39.5543446],[37.4330682,39.5259911],[37.4751366,39.5263861],[37.493171,39.5060541]]]}},{"type":"Feature","properties":{"code":"58-09","provinceCode":"58","name":"İmranlı"},"geometry":{"type":"Polygon","coordinates":[[[38.3889442,39.9179738],[38.3825083,39.925923],[38.3704804,39.9337274],[38.3435792,39.9419956],[38.2958758,39.9524312],[38.270163,39.9550753],[38.2503314,39.9645348],[38.2358398,39.9686969],[38.207605,39.9709325],[38.1903602,39.9675085],[38.152518,39.9661271],[38.1294189,39.9594654],[38.1138823,39.9573299],[38.0997191,39.9652045],[38.0797684,39.9828283],[38.0560921,39.9891762],[38.0371518,39.9906574],[38.0135724,39.9853586],[37.9971728,39.9704951],[37.9805726,39.9496688],[37.9556178,39.9276837],[37.9500582,39.9163714],[37.9492194,39.9099524],[37.9573021,39.9005042],[37.9772576,39.8687587],[37.9826115,39.8568036],[37.9817978,39.8437851],[37.9890356,39.8354961],[37.9972574,39.82116],[37.9986543,39.814054],[37.9891821,39.8046627],[37.9702002,39.7923225],[37.9658197,39.7861516],[37.9672799,39.7818503],[37.9760408,39.7753044],[38.0045292,39.7636294],[38.0059095,39.7612301],[38.0045501,39.7569054],[38.0093325,39.7455154],[38.0022777,39.7339821],[38.0027181,39.7116781],[38.018917,39.7150532],[38.0395659,39.7045712],[38.0558859,39.7125705],[38.0645262,39.7121493],[38.0681224,39.7050073],[38.0719967,39.6728784],[38.0890529,39.6714851],[38.1031326,39.6582034],[38.1761609,39.6593208],[38.186442,39.6524659],[38.2137813,39.6494303],[38.222011,39.6430043],[38.2290012,39.6446221],[38.2331338,39.6245468],[38.2335575,39.6067871],[38.2250512,39.5998836],[38.2391511,39.5928411],[38.247986,39.5731852],[38.2590236,39.5698035],[38.2677329,39.5714115],[38.2796345,39.5667847],[38.2919432,39.5654603],[38.30464,39.5658573],[38.3088724,39.5674599],[38.3119816,39.5719903],[38.3174455,39.5745203],[38.3276793,39.5715226],[38.3288169,39.5693013],[38.3348047,39.5706091],[38.3402145,39.5805118],[38.3437403,39.5807684],[38.3479056,39.5878372],[38.3454446,39.5895408],[38.3466601,39.5965513],[38.3381429,39.6012731],[38.3390403,39.6074671],[38.3373507,39.6101035],[38.3318964,39.6130329],[38.3310287,39.6161993],[38.3326528,39.6190089],[38.3265717,39.6233545],[38.3274464,39.6258468],[38.3247075,39.6311082],[38.3159959,39.6349197],[38.317583,39.6417187],[38.3152998,39.6421762],[38.3156225,39.6455064],[38.3114865,39.6453587],[38.3104793,39.6467319],[38.3177996,39.6486363],[38.3286215,39.6660605],[38.3273214,39.6714849],[38.3235779,39.6743205],[38.3276554,39.6791987],[38.3341268,39.6805415],[38.3356739,39.6826244],[38.3396561,39.683723],[38.3430071,39.6871174],[38.3453347,39.696745],[38.3520401,39.7024711],[38.3508086,39.7048801],[38.3550531,39.712185],[38.3528794,39.7178844],[38.3630287,39.7315259],[38.3620723,39.735686],[38.3636289,39.7413204],[38.3566005,39.7638384],[38.3683024,39.7726597],[38.3834314,39.7748456],[38.3982882,39.7810102],[38.4029307,39.7804951],[38.4190491,39.7965949],[38.4314087,39.8059401],[38.4333231,39.8118252],[38.437238,39.8133082],[38.4514507,39.8266596],[38.4453534,39.8385748],[38.4375146,39.8440761],[38.4315644,39.8587824],[38.4067309,39.8708404],[38.3896762,39.8987208],[38.3889442,39.9179738]]]}},{"type":"Feature","properties":{"code":"58-10","provinceCode":"58","name":"Kangal"},"geometry":{"type":"Polygon","coordinates":[[[36.9167439,39.2176581],[36.9189484,39.1989174],[36.9133716,39.1775025],[36.878701,39.1594938],[36.8244277,39.1358853],[36.7705583,39.1023047],[36.7809908,39.1073439],[36.7965558,39.1123056],[36.8407969,39.1190061],[36.84622,39.1170483],[36.8416128,39.1117311],[36.8413144,39.1070586],[36.8418992,39.1056761],[36.8438619,39.1058633],[36.8467644,39.0988886],[36.8664119,39.0907928],[36.8661653,39.0878086],[36.8639347,39.0868372],[36.8716006,39.0841536],[36.8720203,39.0854419],[36.8752642,39.0851033],[36.8879706,39.0775914],[36.8741586,39.0660442],[36.8817211,39.0640692],[36.8792058,39.0597169],[36.8825736,39.0577536],[36.8748636,39.0521006],[36.8795864,39.0424728],[36.90142,39.0279339],[36.9045728,39.0246717],[36.9091922,39.0129828],[36.9212114,39.0133847],[36.92427,39.0055275],[36.9277725,39.0054467],[36.93279,38.9986008],[36.9315644,38.9971756],[36.9357464,38.9951553],[36.9300158,38.992245],[36.9250428,38.9786953],[36.9310783,38.9750447],[36.9383661,38.9735442],[36.9370975,38.9720697],[36.9442211,38.9687472],[36.9390956,38.965695],[36.9467869,38.9631097],[36.9506464,38.9593867],[36.9597697,38.9577492],[36.9570736,38.9511697],[36.9587414,38.943315],[36.9620091,38.9438632],[36.9925936,38.9363145],[37.0159385,38.9191441],[37.0288844,38.9131996],[37.0384346,38.9130345],[37.0518049,38.9173278],[37.0592328,38.9267392],[37.0583839,38.9363145],[37.0492581,38.9491895],[37.0490459,38.9561213],[37.0532905,38.960082],[37.0711175,38.9585967],[37.1167022,38.9448881],[37.1445659,38.9449385],[37.1580269,38.9545635],[37.176017,38.9590838],[37.1984535,38.9810369],[37.217902,39.0052709],[37.2378683,39.0400932],[37.2465611,39.0506421],[37.26449,39.058869],[37.27848,39.0603456],[37.29247,39.0580253],[37.3012308,39.0547526],[37.307277,39.0563146],[37.3084573,39.0546462],[37.3056724,39.0530622],[37.3054644,39.0473585],[37.3143412,39.0459126],[37.3163114,39.0426539],[37.3194836,39.0418838],[37.3241683,39.0430519],[37.3265516,39.0408634],[37.3283785,39.0411347],[37.324846,39.0338057],[37.3266393,39.0323264],[37.325362,39.0284506],[37.3267576,39.0207837],[37.3292985,39.0188821],[37.3323951,39.0202431],[37.3337247,39.01952],[37.3394096,39.0102467],[37.3416475,39.0092786],[37.3467135,39.0100799],[37.3523098,39.0144929],[37.3668694,39.0149603],[37.3695802,39.0132551],[37.3671307,39.0123984],[37.368196,39.0100312],[37.3729143,39.0083657],[37.3748312,39.0060283],[37.3778356,39.006198],[37.380633,39.0086576],[37.3850101,39.0063648],[37.3845153,39.0046756],[37.3875749,39.0013736],[37.3926987,39.0012141],[37.4003942,38.9961732],[37.4036896,38.995595],[37.4052255,38.9982349],[37.4103492,38.998196],[37.4177617,38.9917942],[37.4368265,38.9929746],[37.4576248,38.997428],[37.4712073,38.9980878],[37.4777863,39.0007267],[37.4805906,39.005062],[37.4703158,39.0210862],[37.469492,39.0342682],[37.4807291,39.0414378],[37.4939728,39.0405027],[37.5108285,39.0348917],[37.5141008,39.0274971],[37.5294869,39.0067461],[37.5579782,39.0143307],[37.5697316,39.0105881],[37.5936211,39.013666],[37.6025843,39.0108094],[37.6130468,39.0147614],[37.6433256,39.0094374],[37.6888886,38.9874873],[37.7377776,38.9719314],[37.7527695,38.9727703],[37.7731857,38.9914859],[37.7779743,38.9973875],[37.7836371,39.0097262],[37.7716822,39.0216026],[37.7703318,39.0316246],[37.757543,39.0403385],[37.7593683,39.0581829],[37.76635,39.0714304],[37.7782577,39.0819999],[37.8048265,39.0877916],[37.8279408,39.0897352],[37.8519382,39.0852341],[37.8889577,39.0739266],[37.9064918,39.0727229],[37.9341363,39.0683176],[37.9249337,39.0850485],[37.9292548,39.090933],[37.9245957,39.1075337],[37.9266151,39.1240327],[37.9209518,39.1358751],[37.9122046,39.1457915],[37.909111,39.1574605],[37.9086826,39.1696511],[37.8532932,39.2299481],[37.8121492,39.2482723],[37.7951004,39.2626268],[37.7737755,39.2619766],[37.7547462,39.25457],[37.7261834,39.2576206],[37.7116558,39.2623869],[37.7057463,39.2690592],[37.7008217,39.2831642],[37.7022991,39.2968852],[37.7008217,39.309651],[37.704258,39.3390341],[37.7207664,39.3462207],[37.729844,39.3556714],[37.7350468,39.3588701],[37.7330779,39.372874],[37.7237211,39.3776324],[37.6949122,39.3761098],[37.6833393,39.381439],[37.6665957,39.384484],[37.6587163,39.387529],[37.6550228,39.3968533],[37.6505907,39.4004685],[37.6488671,39.411313],[37.64345,39.4149275],[37.6310947,39.416664],[37.6245664,39.4219656],[37.6299824,39.439997],[37.6020833,39.4504914],[37.5981436,39.4571457],[37.5714384,39.4687508],[37.5697508,39.4707896],[37.5407719,39.4733036],[37.5368322,39.4752042],[37.5223046,39.4936381],[37.5124554,39.4945882],[37.5094952,39.4845828],[37.4934155,39.479872],[37.4837062,39.4711637],[37.4745359,39.4554346],[37.4605007,39.4375611],[37.4430184,39.421395],[37.4176566,39.4023712],[37.4058376,39.3901932],[37.3962346,39.387529],[37.3501895,39.3879096],[37.3373855,39.3842937],[37.3302448,39.3772518],[37.3255664,39.364308],[37.3263051,39.348696],[37.3194107,39.345459],[37.3132549,39.3473632],[37.2974961,39.3622139],[37.2874007,39.3648791],[37.2605616,39.3648791],[37.1990039,39.3568832],[37.1834914,39.3593582],[37.1763507,39.3578351],[37.1572659,39.3443359],[37.142366,39.3283233],[37.1258685,39.2986043],[37.0913963,39.2589594],[37.0756375,39.2484726],[37.0512607,39.2383656],[37.0470748,39.2307368],[37.0090309,39.2203591],[36.9948739,39.2067005],[36.9562157,39.2074637],[36.9167439,39.2176581]]]}},{"type":"Feature","properties":{"code":"58-11","provinceCode":"58","name":"Koyulhisar"},"geometry":{"type":"Polygon","coordinates":[[[37.5587775,40.2990064],[37.5900212,40.2799637],[37.6139739,40.2578683],[37.6207509,40.2402374],[37.638585,40.220301],[37.638709,40.2109002],[37.64124,40.2038532],[37.6475142,40.195438],[37.6483419,40.1907432],[37.6576858,40.1826572],[37.6681828,40.2017808],[37.6809543,40.2129619],[37.6890533,40.2155785],[37.702915,40.2167678],[37.7983895,40.1969033],[37.8191042,40.1947619],[37.8217519,40.1930963],[37.8265802,40.1826258],[37.8300075,40.1638831],[37.8385302,40.1607032],[37.8735997,40.1589341],[37.8838822,40.155961],[37.8973338,40.1402271],[37.9552603,40.1604593],[37.9848246,40.1740631],[37.9899359,40.1828954],[37.9894265,40.1894696],[37.9956331,40.1983488],[38.0045342,40.2090318],[38.0194753,40.2199558],[38.0274227,40.2320915],[38.0271048,40.2464089],[38.023608,40.2539304],[38.0274227,40.2762472],[38.0251975,40.2898278],[38.0096205,40.3109208],[38.0105742,40.3211013],[38.0349378,40.3714283],[38.0518244,40.3935902],[38.0615902,40.3996331],[38.0868185,40.4053655],[38.1128605,40.4078443],[38.1594705,40.4080574],[38.1637142,40.4181573],[38.1689215,40.4218643],[38.1721477,40.4339134],[38.1700298,40.4461476],[38.1726835,40.453348],[38.170808,40.4624068],[38.1758895,40.4782472],[38.1739692,40.4885281],[38.1883047,40.4918708],[38.1922901,40.4978948],[38.1903647,40.5089704],[38.1831549,40.5102755],[38.1706236,40.5152348],[38.169422,40.5204547],[38.1596396,40.5248178],[38.128858,40.5042056],[38.1143978,40.5123918],[38.1076239,40.5124942],[38.1007874,40.5198862],[38.0856512,40.5190193],[38.0742105,40.5228075],[38.0741499,40.5289362],[38.0672036,40.5348891],[38.0664252,40.5427652],[38.0690001,40.5475917],[38.0675684,40.5526082],[38.0332074,40.5342663],[38.01215,40.5076348],[38.0057783,40.5022887],[38.0055057,40.4996766],[37.9888569,40.4850651],[37.9811747,40.4733096],[37.971563,40.4636808],[37.9617643,40.4648452],[37.9597929,40.4673417],[37.9601108,40.4740859],[37.9538934,40.481866],[37.9450979,40.4801703],[37.9425518,40.4733385],[37.9332509,40.4598776],[37.932345,40.4489515],[37.929047,40.4388985],[37.932055,40.4295367],[37.9210647,40.4242514],[37.9114397,40.4084022],[37.9029318,40.402317],[37.8993558,40.3899485],[37.8924525,40.3755082],[37.885316,40.3736882],[37.8648844,40.3605198],[37.8620788,40.3514051],[37.851169,40.3439446],[37.8432549,40.3410765],[37.8388654,40.3426995],[37.8278749,40.3510136],[37.8166502,40.3716797],[37.8063702,40.3799249],[37.7926048,40.3878062],[37.779741,40.3908662],[37.7766051,40.3928203],[37.771742,40.3911088],[37.769931,40.3929735],[37.7578223,40.391692],[37.7561592,40.392849],[37.7500339,40.3822916],[37.7499208,40.3756308],[37.75967,40.3632721],[37.7532318,40.3520561],[37.7584937,40.3334801],[37.7213221,40.3257705],[37.7035658,40.3348353],[37.6945147,40.3311928],[37.6771654,40.3466791],[37.6731473,40.3555665],[37.6787489,40.3658838],[37.6756167,40.3732942],[37.6555586,40.377818],[37.6440868,40.3861683],[37.6213147,40.3883027],[37.5941064,40.3441967],[37.5947343,40.3289],[37.5927281,40.3203424],[37.5587775,40.2990064]]]}},{"type":"Feature","properties":{"code":"58-12","provinceCode":"58","name":"Sivas merkez"},"geometry":{"type":"Polygon","coordinates":[[[37.4330682,39.5259911],[37.4466048,39.5543446],[37.4326703,39.5757245],[37.4321552,39.584301],[37.4435547,39.5991719],[37.4422147,39.6135426],[37.434317,39.6206237],[37.4306996,39.6327483],[37.4065004,39.6608495],[37.3877482,39.6906776],[37.3764969,39.7180889],[37.3068013,39.7678342],[37.2886742,39.7752809],[37.248357,39.7745603],[37.2342929,39.7769623],[37.2033518,39.8004976],[37.1672443,39.8322905],[37.1637183,39.8397589],[37.1666072,39.8499314],[37.1733445,39.8540223],[37.2061646,39.8664974],[37.2146031,39.8727341],[37.2230416,39.8871244],[37.2227291,39.8995934],[37.217416,39.9166149],[37.2058521,39.9381853],[37.1914754,39.9539992],[37.1692854,39.9700491],[37.1649099,39.9791503],[37.16616,39.9877714],[37.1845996,40.007883],[37.1914754,40.0215268],[37.1914754,40.0301426],[37.183037,40.044739],[37.174911,40.0547871],[37.1720982,40.0736832],[37.1617845,40.0839663],[37.1599093,40.0909005],[37.1499153,40.0957692],[37.1443855,40.102532],[37.1435653,40.1115944],[37.163158,40.1441866],[37.1623856,40.1520234],[37.1567839,40.1602474],[37.1352189,40.1513653],[37.1074032,40.1286674],[37.1011525,40.1262777],[37.0958394,40.1296233],[37.0939641,40.1446762],[37.0805251,40.1649804],[37.0760474,40.1962835],[37.0627994,40.1935747],[37.0527236,40.1998349],[37.038368,40.1781595],[37.0158751,40.1632271],[37.0168196,40.1551607],[37.0002449,40.1469455],[36.965521,40.1442121],[36.942783,40.1225673],[36.9407916,40.1041327],[36.9289096,40.0882948],[36.9188774,40.0799331],[36.9215454,40.0691133],[36.9402953,40.0574446],[36.9320307,40.040677],[36.925929,40.0340876],[36.9107615,40.0304014],[36.8956186,40.0243324],[36.8749652,40.0108948],[36.8762898,39.9890538],[36.8673576,39.9746258],[36.869031,39.9424509],[36.8514038,39.9292475],[36.8436824,39.9176927],[36.8462784,39.8869435],[36.8413979,39.8807283],[36.8377842,39.871806],[36.8381165,39.8657361],[36.8460915,39.8553802],[36.844862,39.8492801],[36.7885009,39.8008043],[36.7720893,39.7885718],[36.7723701,39.7853359],[36.7699537,39.7851356],[36.774255,39.7763593],[36.7689511,39.7730072],[36.7730667,39.7670509],[36.7690413,39.76332],[36.7648704,39.7635358],[36.7654043,39.7561096],[36.7618575,39.7505114],[36.7667578,39.7475146],[36.7680487,39.7441804],[36.7661187,39.7416652],[36.7610178,39.7420314],[36.7588872,39.7407786],[36.7670336,39.7345431],[36.7685375,39.7314589],[36.7723099,39.7303119],[36.7714828,39.7283649],[36.7678357,39.7286251],[36.7656174,39.7257624],[36.7727862,39.7208847],[36.771558,39.717771],[36.7676352,39.7165177],[36.76662,39.7146956],[36.7701167,39.7114466],[36.7779999,39.7140979],[36.7778508,39.7090737],[36.7806538,39.7024368],[36.7770949,39.6982246],[36.7719255,39.698616],[36.7667757,39.7011915],[36.7636858,39.7005971],[36.7563902,39.693927],[36.7505537,39.6965687],[36.7467772,39.703965],[36.7445456,39.7035027],[36.7405973,39.6972292],[36.7378508,39.6975594],[36.7371641,39.7018519],[36.7404257,39.7064742],[36.7383657,39.7085211],[36.7325293,39.7075306],[36.7286303,39.7029638],[36.7248045,39.7048895],[36.7207705,39.7049555],[36.7157064,39.7009934],[36.7113291,39.6930024],[36.7109858,39.6890396],[36.7174231,39.683161],[36.7133674,39.6804534],[36.701716,39.683095],[36.6900431,39.6826986],[36.6888414,39.6836895],[36.6903864,39.6873223],[36.6984545,39.6902945],[36.7008005,39.6939399],[36.6984545,39.6994085],[36.6912447,39.7016318],[36.6886317,39.7009714],[36.6746794,39.6892378],[36.6773401,39.6824344],[36.675366,39.6767535],[36.6724478,39.6744413],[36.6658388,39.6761589],[36.6585432,39.6832271],[36.6511252,39.6874061],[36.6440752,39.6875664],[36.6345371,39.6821417],[36.637858,39.6677026],[36.6331373,39.6640026],[36.627215,39.6636723],[36.6156279,39.6686276],[36.6020666,39.6680329],[36.5974552,39.6662395],[36.5983759,39.6569325],[36.5948633,39.6448745],[36.5758883,39.6327432],[36.5709646,39.6319015],[36.5706526,39.6224966],[36.5663508,39.6210105],[36.5618978,39.6223644],[36.5560614,39.6211743],[36.5473066,39.6217032],[36.5383802,39.6130419],[36.5255915,39.614761],[36.5231882,39.6131741],[36.5213858,39.6082149],[36.5134312,39.6018976],[36.5269699,39.6001277],[36.5403826,39.5956342],[36.5503097,39.5884962],[36.5616743,39.5837828],[36.5783058,39.5639524],[36.5883054,39.5453575],[36.5921841,39.5292085],[36.5846528,39.4885164],[36.5833328,39.4670568],[36.5885362,39.4475768],[36.5988795,39.4318419],[36.6245523,39.4072459],[36.6226044,39.3964611],[36.6177161,39.3920224],[36.5808521,39.3731276],[36.5756099,39.3648814],[36.5817932,39.3567388],[36.5968345,39.3478893],[36.6167152,39.3400896],[36.634486,39.3363915],[36.6519952,39.3366816],[36.6709134,39.3413283],[36.7093001,39.3603178],[36.71929,39.3627262],[36.7675866,39.3625872],[36.7841859,39.3595537],[36.8158755,39.359787],[36.8113484,39.3833514],[36.8137629,39.4029434],[36.8170827,39.4132036],[36.8276459,39.4260269],[36.844547,39.4386146],[36.8822727,39.4609873],[36.9052099,39.4772962],[36.9166785,39.4896417],[36.9218092,39.4998893],[36.9679854,39.5194485],[36.9736637,39.5366648],[37.0157742,39.5537844],[37.0189905,39.5636693],[37.0173163,39.586895],[37.0610035,39.587805],[37.0685294,39.59632],[37.0723047,39.6175641],[37.0755485,39.6202456],[37.0790296,39.6197581],[37.0919723,39.5943586],[37.0862089,39.5796138],[37.0852896,39.5725814],[37.0907097,39.5673435],[37.1006143,39.5667568],[37.1101686,39.5687832],[37.1392192,39.5783118],[37.1472545,39.5790264],[37.1511176,39.5768826],[37.1485477,39.5226351],[37.1519152,39.5187852],[37.158767,39.5170578],[37.1905985,39.5260451],[37.2077614,39.5227212],[37.2190698,39.5185638],[37.2327743,39.5221306],[37.2504816,39.5187265],[37.2997348,39.497076],[37.3076595,39.4864595],[37.3233471,39.4870371],[37.3403817,39.4832963],[37.3658224,39.4927794],[37.3748829,39.5023862],[37.3851823,39.5091749],[37.4095771,39.5161453],[37.4330682,39.5259911]]]}},{"type":"Feature","properties":{"code":"58-13","provinceCode":"58","name":"Suşehri"},"geometry":{"type":"Polygon","coordinates":[[[37.8973338,40.1402271],[37.908387,40.1316147],[37.9122808,40.1237996],[37.9203116,40.0942056],[37.9509748,40.0189529],[37.9604658,40.0031094],[37.981638,39.9775658],[37.9971728,39.9704951],[38.0135724,39.9853586],[38.0371518,39.9906574],[38.0560921,39.9891762],[38.0797684,39.9828283],[38.0997191,39.9652045],[38.1138823,39.9573299],[38.1294189,39.9594654],[38.152518,39.9661271],[38.1903602,39.9675085],[38.207605,39.9709325],[38.2358398,39.9686969],[38.2334435,39.9824769],[38.2380498,39.9924618],[38.2478628,40.001737],[38.2526577,40.0105866],[38.2612617,40.0177752],[38.2643556,40.0245547],[38.2641254,40.0364656],[38.2532444,40.0430793],[38.2475736,40.0504142],[38.2471207,40.0603737],[38.2504373,40.0651665],[38.2520711,40.0752573],[38.2381875,40.080943],[38.2356455,40.0837857],[38.2340811,40.0956039],[38.2354499,40.1000913],[38.2438583,40.1080183],[38.2630845,40.1146121],[38.2694408,40.1228048],[38.2751448,40.1262376],[38.3036159,40.1311416],[38.313002,40.1372412],[38.3242653,40.1466885],[38.326299,40.1529063],[38.3205109,40.1607973],[38.3248231,40.1690304],[38.3215872,40.1758424],[38.3263697,40.1778759],[38.3267859,40.1798618],[38.323362,40.1861781],[38.3155917,40.1872012],[38.3102702,40.1854308],[38.301517,40.1854887],[38.2990775,40.1917511],[38.2897547,40.1927865],[38.2798862,40.1978226],[38.2581217,40.1990882],[38.2402128,40.2077854],[38.215764,40.205514],[38.2195749,40.2118509],[38.2075309,40.2164389],[38.1766076,40.2180146],[38.1650294,40.2215021],[38.1692659,40.2373738],[38.1750757,40.2444552],[38.1809233,40.2440262],[38.190092,40.2397801],[38.1937259,40.2422458],[38.2021167,40.2610555],[38.1996344,40.2670834],[38.1911705,40.2673544],[38.1834673,40.2693744],[38.177061,40.2653805],[38.1744002,40.273043],[38.177576,40.2859425],[38.1861047,40.2919656],[38.1838864,40.2971326],[38.1780949,40.298637],[38.1713103,40.3055164],[38.1661498,40.3232182],[38.1535664,40.342978],[38.1473619,40.3495457],[38.1585916,40.3604147],[38.1548308,40.3672776],[38.1524556,40.3773438],[38.1532859,40.3995751],[38.1594705,40.4080574],[38.1128605,40.4078443],[38.0868185,40.4053655],[38.0615902,40.3996331],[38.0518244,40.3935902],[38.0349378,40.3714283],[38.0105742,40.3211013],[38.0096205,40.3109208],[38.0251975,40.2898278],[38.0274227,40.2762472],[38.023608,40.2539304],[38.0271048,40.2464089],[38.0274227,40.2320915],[38.0194753,40.2199558],[38.0045342,40.2090318],[37.9956331,40.1983488],[37.9894265,40.1894696],[37.9899359,40.1828954],[37.9848246,40.1740631],[37.9552603,40.1604593],[37.8973338,40.1402271]]]}},{"type":"Feature","properties":{"code":"58-14","provinceCode":"58","name":"Şarkışla"},"geometry":{"type":"Polygon","coordinates":[[[36.3946764,39.0913631],[36.3997806,39.0893081],[36.4058844,39.0891836],[36.4052383,39.0899614],[36.4094436,39.0907517],[36.4108608,39.0928069],[36.4089553,39.0943389],[36.4129683,39.0955967],[36.4098606,39.1055761],[36.4062669,39.1063472],[36.4054836,39.1079569],[36.4086369,39.1115739],[36.4052833,39.1153511],[36.4004758,39.1152178],[36.4009092,39.11887],[36.4043425,39.1182122],[36.4042478,39.1233472],[36.4050214,39.1221472],[36.40726,39.1243094],[36.4059114,39.1250528],[36.4096547,39.1244814],[36.4088853,39.129375],[36.4119886,39.1363064],[36.4108347,39.1383889],[36.4195508,39.1373833],[36.4335147,39.1304917],[36.4325764,39.1298919],[36.4423203,39.1286694],[36.4465844,39.1301464],[36.4465431,39.1272022],[36.4485306,39.1276328],[36.4510044,39.1249869],[36.4560861,39.1136181],[36.4555539,39.1116694],[36.4581442,39.1112186],[36.4574967,39.1094122],[36.4597911,39.1099922],[36.4582103,39.1052378],[36.46144,39.103255],[36.4617178,39.0976833],[36.4671728,39.0889228],[36.4778131,39.0794883],[36.4862919,39.0742806],[36.4985194,39.0769958],[36.4953692,39.0875125],[36.4968642,39.0964564],[36.4991222,39.0952056],[36.5028264,39.0958922],[36.5017361,39.1025817],[36.504615,39.1020964],[36.5090597,39.1073847],[36.5083456,39.1088514],[36.5137161,39.1094569],[36.5180286,39.1127086],[36.5258006,39.11205],[36.5362989,39.1046103],[36.5420192,39.1029561],[36.5475886,39.1041575],[36.5514022,39.1071944],[36.5528219,39.1109181],[36.5599658,39.1119789],[36.5623514,39.1161889],[36.5655267,39.1154906],[36.5667958,39.1113678],[36.5786031,39.1081017],[36.5829256,39.1041603],[36.5881236,39.1025006],[36.59031,39.0991828],[36.5908597,39.1006508],[36.5952108,39.101855],[36.5991664,39.1010303],[36.6007542,39.1025775],[36.6006611,39.1084592],[36.6194828,39.1167836],[36.6226014,39.1290506],[36.6248119,39.1292661],[36.6292039,39.1336167],[36.6327964,39.1328878],[36.6379325,39.1410722],[36.6341089,39.1482425],[36.6357597,39.1526575],[36.6401206,39.1531106],[36.6424172,39.1521642],[36.6423875,39.1505897],[36.6458789,39.1515219],[36.6503778,39.1499247],[36.6527086,39.1512517],[36.6497828,39.1551731],[36.6519881,39.1547828],[36.6526322,39.157545],[36.6511175,39.1702122],[36.6571706,39.1736764],[36.6582078,39.1762547],[36.6568611,39.1760447],[36.6561275,39.1783478],[36.6620056,39.1784978],[36.6719031,39.1816731],[36.6709583,39.1721936],[36.6772183,39.1704342],[36.6795769,39.1707706],[36.6818517,39.1742758],[36.6876895,39.1751348],[36.6763119,39.1863477],[36.6487093,39.199974],[36.6347252,39.2092666],[36.6133603,39.2313038],[36.6057216,39.2441043],[36.6004179,39.262648],[36.6141284,39.3082557],[36.623516,39.3274774],[36.634486,39.3363915],[36.6167152,39.3400896],[36.5968345,39.3478893],[36.5817932,39.3567388],[36.5756099,39.3648814],[36.5808521,39.3731276],[36.6177161,39.3920224],[36.6226044,39.3964611],[36.6245523,39.4072459],[36.5988795,39.4318419],[36.5885362,39.4475768],[36.5833328,39.4670568],[36.5846528,39.4885164],[36.5921841,39.5292085],[36.5883054,39.5453575],[36.5783058,39.5639524],[36.5616743,39.5837828],[36.5503097,39.5884962],[36.5403826,39.5956342],[36.5269699,39.6001277],[36.5134312,39.6018976],[36.50996,39.6013613],[36.5026189,39.6040074],[36.4986548,39.6023827],[36.4857912,39.5895644],[36.4788805,39.5881949],[36.4690004,39.589881],[36.4592408,39.5722413],[36.4597689,39.5693235],[36.454584,39.5667651],[36.4491727,39.5703533],[36.447914,39.5763338],[36.4369159,39.5811697],[36.4270599,39.5809794],[36.4218768,39.5825012],[36.4173519,39.5875102],[36.4168699,39.5941968],[36.4215297,39.6041017],[36.4287606,39.6137576],[36.4302067,39.6237835],[36.4216904,39.6303428],[36.4024368,39.6288865],[36.3819848,39.6332348],[36.3652133,39.6308395],[36.3510293,39.6411242],[36.313264,39.6415511],[36.3113686,39.654789],[36.3262162,39.6677735],[36.2843031,39.7031359],[36.270559,39.7076676],[36.2507337,39.699529],[36.2360393,39.6813331],[36.2116554,39.6812286],[36.1682786,39.69561],[36.1431685,39.6545508],[36.1512366,39.6261367],[36.1548258,39.6029702],[36.1391597,39.5823222],[36.1468376,39.5675532],[36.1435365,39.5550009],[36.1293634,39.5387843],[36.1044759,39.5221044],[36.0851682,39.5142346],[36.0610616,39.5083328],[36.0466036,39.5079182],[36.0541802,39.4772404],[36.0653044,39.4714732],[36.0827377,39.4680126],[36.1338756,39.4666026],[36.1423433,39.459168],[36.1464941,39.4504506],[36.1469922,39.4339101],[36.1501468,39.4217266],[36.1747195,39.3806717],[36.1742214,39.3695058],[36.1670821,39.3397211],[36.1679122,39.3255947],[36.1757157,39.3177597],[36.1898285,39.3094099],[36.1951415,39.2946349],[36.1964697,39.2715025],[36.2006465,39.2631251],[36.2051864,39.2581035],[36.2319519,39.2396794],[36.2430449,39.2350986],[36.2544194,39.2347685],[36.290693,39.2515798],[36.3080355,39.2478404],[36.3186821,39.2413167],[36.3230576,39.228715],[36.3347656,39.2076016],[36.3412888,39.1883919],[36.3593365,39.1807406],[36.3728034,39.1711457],[36.3809352,39.1547509],[36.3946764,39.0913631]]]}},{"type":"Feature","properties":{"code":"58-15","provinceCode":"58","name":"Ulaş"},"geometry":{"type":"Polygon","coordinates":[[[37.4330682,39.5259911],[37.4095771,39.5161453],[37.3851823,39.5091749],[37.3748829,39.5023862],[37.3658224,39.4927794],[37.3403817,39.4832963],[37.3233471,39.4870371],[37.3076595,39.4864595],[37.2997348,39.497076],[37.2504816,39.5187265],[37.2327743,39.5221306],[37.2190698,39.5185638],[37.2077614,39.5227212],[37.1905985,39.5260451],[37.158767,39.5170578],[37.1519152,39.5187852],[37.1485477,39.5226351],[37.1511176,39.5768826],[37.1472545,39.5790264],[37.1392192,39.5783118],[37.1101686,39.5687832],[37.1006143,39.5667568],[37.0907097,39.5673435],[37.0852896,39.5725814],[37.0862089,39.5796138],[37.0919723,39.5943586],[37.0790296,39.6197581],[37.0755485,39.6202456],[37.0723047,39.6175641],[37.0685294,39.59632],[37.0610035,39.587805],[37.0173163,39.586895],[37.0189905,39.5636693],[37.0157742,39.5537844],[36.9736637,39.5366648],[36.9679854,39.5194485],[36.9218092,39.4998893],[36.9166785,39.4896417],[36.9052099,39.4772962],[36.8822727,39.4609873],[36.844547,39.4386146],[36.8276459,39.4260269],[36.8170827,39.4132036],[36.8137629,39.4029434],[36.8113484,39.3833514],[36.8158755,39.359787],[36.8668639,39.3629866],[36.907834,39.3628159],[36.9330809,39.3490416],[36.9343063,39.3350966],[36.9311016,39.3134728],[36.9097017,39.2797049],[36.917746,39.2592969],[36.9175354,39.2491338],[36.9107371,39.2370786],[36.9167439,39.2176581],[36.9562157,39.2074637],[36.9948739,39.2067005],[37.0090309,39.2203591],[37.0470748,39.2307368],[37.0512607,39.2383656],[37.0756375,39.2484726],[37.0913963,39.2589594],[37.1258685,39.2986043],[37.142366,39.3283233],[37.1572659,39.3443359],[37.1763507,39.3578351],[37.1834914,39.3593582],[37.1990039,39.3568832],[37.2605616,39.3648791],[37.2874007,39.3648791],[37.2974961,39.3622139],[37.3132549,39.3473632],[37.3194107,39.345459],[37.3263051,39.348696],[37.3255664,39.364308],[37.3302448,39.3772518],[37.3373855,39.3842937],[37.3501895,39.3879096],[37.3962346,39.387529],[37.4058376,39.3901932],[37.4176566,39.4023712],[37.4430184,39.421395],[37.4605007,39.4375611],[37.4745359,39.4554346],[37.4837062,39.4711637],[37.4934155,39.479872],[37.5094952,39.4845828],[37.5124554,39.4945882],[37.493171,39.5060541],[37.4751366,39.5263861],[37.4330682,39.5259911]]]}},{"type":"Feature","properties":{"code":"58-16","provinceCode":"58","name":"Yıldızeli"},"geometry":{"type":"Polygon","coordinates":[[[36.7869798,40.2275142],[36.7695531,40.2214591],[36.7622988,40.2049622],[36.7528035,40.1677666],[36.7424225,40.1460403],[36.7249309,40.1346343],[36.7151848,40.1314778],[36.7012281,40.1229744],[36.6822551,40.0953568],[36.6560539,40.0844396],[36.6478693,40.0780203],[36.6392143,40.0599704],[36.660117,40.0418212],[36.6611582,40.0271273],[36.6584126,40.0022799],[36.6464116,39.9944898],[36.6481977,39.9775765],[36.6248346,39.9894222],[36.5923397,39.9817946],[36.5765687,39.9743328],[36.5544204,39.966924],[36.5121913,39.9572156],[36.481356,39.960368],[36.4400156,39.9667178],[36.4120712,39.9754374],[36.3928852,39.9789572],[36.3607683,39.979091],[36.3136099,39.9745896],[36.2986079,39.9718067],[36.2565918,39.9583213],[36.2259531,39.9520845],[36.21808,39.9350212],[36.1889054,39.9366836],[36.1782918,39.9334344],[36.1548292,39.9370059],[36.1345075,39.9301803],[36.1522457,39.9100608],[36.1499996,39.9028427],[36.150843,39.8949755],[36.1239694,39.8932047],[36.1011514,39.8940367],[36.0807593,39.9007437],[36.079553,39.9202989],[36.066895,39.931737],[36.0283245,39.9239324],[36.0086885,39.9267841],[35.9925295,39.9404195],[35.9917874,39.9437132],[35.9838327,39.9464834],[35.9780086,39.9517475],[35.9753981,39.9478418],[35.9778823,39.94555],[35.9791529,39.9406615],[35.9835007,39.9363801],[35.9828886,39.9298591],[35.9862565,39.9131024],[36.000682,39.8914544],[36.030469,39.8792778],[36.0732355,39.865712],[36.0766682,39.8584653],[36.0739004,39.852947],[36.0751956,39.8359494],[36.0719061,39.8284467],[36.061312,39.8203834],[36.0495466,39.7937756],[36.0462529,39.7821484],[36.0499174,39.774221],[36.0496282,39.7670607],[36.0625774,39.7609395],[36.0934983,39.7290135],[36.1034355,39.7226217],[36.118756,39.7152269],[36.1546386,39.7114302],[36.1682786,39.69561],[36.2116554,39.6812286],[36.2360393,39.6813331],[36.2507337,39.699529],[36.270559,39.7076676],[36.2843031,39.7031359],[36.3262162,39.6677735],[36.3113686,39.654789],[36.313264,39.6415511],[36.3510293,39.6411242],[36.3652133,39.6308395],[36.3819848,39.6332348],[36.4024368,39.6288865],[36.4216904,39.6303428],[36.4302067,39.6237835],[36.4287606,39.6137576],[36.4215297,39.6041017],[36.4168699,39.5941968],[36.4173519,39.5875102],[36.4218768,39.5825012],[36.4270599,39.5809794],[36.4369159,39.5811697],[36.447914,39.5763338],[36.4491727,39.5703533],[36.454584,39.5667651],[36.4597689,39.5693235],[36.4592408,39.5722413],[36.4690004,39.589881],[36.4788805,39.5881949],[36.4857912,39.5895644],[36.4986548,39.6023827],[36.5026189,39.6040074],[36.50996,39.6013613],[36.5134312,39.6018976],[36.5213858,39.6082149],[36.5231882,39.6131741],[36.5255915,39.614761],[36.5383802,39.6130419],[36.5473066,39.6217032],[36.5560614,39.6211743],[36.5618978,39.6223644],[36.5663508,39.6210105],[36.5706526,39.6224966],[36.5709646,39.6319015],[36.5758883,39.6327432],[36.5948633,39.6448745],[36.5983759,39.6569325],[36.5974552,39.6662395],[36.6020666,39.6680329],[36.6156279,39.6686276],[36.627215,39.6636723],[36.6331373,39.6640026],[36.637858,39.6677026],[36.6345371,39.6821417],[36.6440752,39.6875664],[36.6511252,39.6874061],[36.6585432,39.6832271],[36.6658388,39.6761589],[36.6724478,39.6744413],[36.675366,39.6767535],[36.6773401,39.6824344],[36.6746794,39.6892378],[36.6886317,39.7009714],[36.6912447,39.7016318],[36.6984545,39.6994085],[36.7008005,39.6939399],[36.6984545,39.6902945],[36.6903864,39.6873223],[36.6888414,39.6836895],[36.6900431,39.6826986],[36.701716,39.683095],[36.7133674,39.6804534],[36.7174231,39.683161],[36.7109858,39.6890396],[36.7113291,39.6930024],[36.7157064,39.7009934],[36.7207705,39.7049555],[36.7248045,39.7048895],[36.7286303,39.7029638],[36.7325293,39.7075306],[36.7383657,39.7085211],[36.7404257,39.7064742],[36.7371641,39.7018519],[36.7378508,39.6975594],[36.7405973,39.6972292],[36.7445456,39.7035027],[36.7467772,39.703965],[36.7505537,39.6965687],[36.7563902,39.693927],[36.7636858,39.7005971],[36.7667757,39.7011915],[36.7719255,39.698616],[36.7770949,39.6982246],[36.7806538,39.7024368],[36.7778508,39.7090737],[36.7779999,39.7140979],[36.7701167,39.7114466],[36.76662,39.7146956],[36.7676352,39.7165177],[36.771558,39.717771],[36.7727862,39.7208847],[36.7656174,39.7257624],[36.7678357,39.7286251],[36.7714828,39.7283649],[36.7723099,39.7303119],[36.7685375,39.7314589],[36.7670336,39.7345431],[36.7588872,39.7407786],[36.7610178,39.7420314],[36.7661187,39.7416652],[36.7680487,39.7441804],[36.7667578,39.7475146],[36.7618575,39.7505114],[36.7654043,39.7561096],[36.7648704,39.7635358],[36.7690413,39.76332],[36.7730667,39.7670509],[36.7689511,39.7730072],[36.774255,39.7763593],[36.7699537,39.7851356],[36.7723701,39.7853359],[36.7720893,39.7885718],[36.7885009,39.8008043],[36.844862,39.8492801],[36.8460915,39.8553802],[36.8381165,39.8657361],[36.8377842,39.871806],[36.8413979,39.8807283],[36.8462784,39.8869435],[36.8436824,39.9176927],[36.8514038,39.9292475],[36.869031,39.9424509],[36.8673576,39.9746258],[36.8762898,39.9890538],[36.8749652,40.0108948],[36.8956186,40.0243324],[36.9107615,40.0304014],[36.925929,40.0340876],[36.9320307,40.040677],[36.9402953,40.0574446],[36.9215454,40.0691133],[36.9188774,40.0799331],[36.9289096,40.0882948],[36.9407916,40.1041327],[36.942783,40.1225673],[36.965521,40.1442121],[37.0002449,40.1469455],[37.0168196,40.1551607],[37.0158751,40.1632271],[37.038368,40.1781595],[37.0527236,40.1998349],[37.0457459,40.2076501],[37.0353494,40.2094967],[37.0199056,40.2151341],[37.0047559,40.2258202],[36.9689393,40.2142681],[36.9439775,40.2092394],[36.9279327,40.2140766],[36.9193501,40.2043258],[36.9042053,40.2068102],[36.8932886,40.2271336],[36.8692756,40.2359102],[36.8247515,40.2260713],[36.8097771,40.2254173],[36.7869798,40.2275142]]]}},{"type":"Feature","properties":{"code":"58-17","provinceCode":"58","name":"Zara"},"geometry":{"type":"Polygon","coordinates":[[[37.6576858,40.1826572],[37.656936,40.1789906],[37.658694,40.1770668],[37.6549172,40.1739307],[37.6514811,40.1650087],[37.6531853,40.1586903],[37.6468335,40.1479649],[37.6507318,40.1430287],[37.6639063,40.1334447],[37.6610097,40.124913],[37.654378,40.117854],[37.6222538,40.0980184],[37.6041863,40.0800981],[37.6036527,40.0733248],[37.5920344,40.048201],[37.5748574,40.0269043],[37.5663086,40.0193057],[37.5552775,40.0033734],[37.5054799,39.9539839],[37.5061102,39.9367073],[37.513832,39.9277652],[37.5212386,39.9149543],[37.5311666,39.8965797],[37.5329001,39.8878742],[37.5314818,39.8573963],[37.5262814,39.8400953],[37.5243904,39.819401],[37.5272269,39.8097173],[37.5327425,39.80318],[37.547083,39.7940995],[37.5585869,39.7909512],[37.574976,39.7887716],[37.5871102,39.7839278],[37.5987717,39.7748447],[37.6016083,39.7684252],[37.6011355,39.7613995],[37.589474,39.7469823],[37.579546,39.7298959],[37.579546,39.7239571],[37.5844312,39.7135326],[37.5960927,39.6976504],[37.614688,39.6835838],[37.6310771,39.6769132],[37.6458903,39.6649047],[37.6531394,39.6550779],[37.6567639,39.6400318],[37.652509,39.6276526],[37.6436841,39.6176992],[37.5859065,39.5777769],[37.5307137,39.5677115],[37.5076863,39.5660881],[37.5026953,39.5585374],[37.499297,39.5465715],[37.498742,39.5325032],[37.493171,39.5060541],[37.5124554,39.4945882],[37.5223046,39.4936381],[37.5368322,39.4752042],[37.5407719,39.4733036],[37.5697508,39.4707896],[37.5714384,39.4687508],[37.5981436,39.4571457],[37.6020833,39.4504914],[37.6299824,39.439997],[37.6420467,39.4570561],[37.6456072,39.4692292],[37.652728,39.4761002],[37.6601032,39.4774743],[37.6669697,39.4741371],[37.6791769,39.4647136],[37.6951989,39.4605904],[37.7310575,39.4609831],[37.7419931,39.464321],[37.7521658,39.4707998],[37.7595409,39.4786521],[37.7809035,39.5194699],[37.808624,39.5410466],[37.8111672,39.5637929],[37.8078611,39.5753592],[37.8081154,39.5806517],[37.8132017,39.5857477],[37.8193053,39.5888836],[37.8264262,39.5900595],[37.8371075,39.5880996],[37.8668625,39.5728109],[37.8803413,39.5592834],[37.8877164,39.5543815],[37.8981434,39.5508519],[37.974947,39.5481066],[37.9891887,39.5514402],[38.0064822,39.5606559],[38.0265732,39.5849638],[38.0329311,39.5965266],[38.0418322,39.6357083],[38.0517505,39.6488292],[38.0690441,39.6619477],[38.0728588,39.6684081],[38.0719967,39.6728784],[38.0681224,39.7050073],[38.0645262,39.7121493],[38.0558859,39.7125705],[38.0395659,39.7045712],[38.018917,39.7150532],[38.0027181,39.7116781],[38.0022777,39.7339821],[38.0093325,39.7455154],[38.0045501,39.7569054],[38.0059095,39.7612301],[38.0045292,39.7636294],[37.9760408,39.7753044],[37.9672799,39.7818503],[37.9658197,39.7861516],[37.9702002,39.7923225],[37.9891821,39.8046627],[37.9986543,39.814054],[37.9972574,39.82116],[37.9890356,39.8354961],[37.9817978,39.8437851],[37.9826115,39.8568036],[37.9772576,39.8687587],[37.9573021,39.9005042],[37.9492194,39.9099524],[37.9500582,39.9163714],[37.9556178,39.9276837],[37.9805726,39.9496688],[37.9971728,39.9704951],[37.981638,39.9775658],[37.9604658,40.0031094],[37.9509748,40.0189529],[37.9203116,40.0942056],[37.9122808,40.1237996],[37.908387,40.1316147],[37.8973338,40.1402271],[37.8838822,40.155961],[37.8735997,40.1589341],[37.8385302,40.1607032],[37.8300075,40.1638831],[37.8265802,40.1826258],[37.8217519,40.1930963],[37.8191042,40.1947619],[37.7983895,40.1969033],[37.702915,40.2167678],[37.6890533,40.2155785],[37.6809543,40.2129619],[37.6681828,40.2017808],[37.6576858,40.1826572]]]}}]}