{"type":"FeatureCollection","features":[{"type":"Feature","properties":{"code":"36-01","provinceCode":"36","name":"Akyaka"},"geometry":{"type":"Polygon","coordinates":[[[43.7001022,40.6132678],[43.7155605,40.6378444],[43.7192765,40.6465074],[43.7202875,40.6549604],[43.7264215,40.6647494],[43.7393345,40.6651113],[43.7466845,40.6758043],[43.7476956,40.6840283],[43.7433055,40.6925243],[43.7467311,40.7032077],[43.7450279,40.7059567],[43.744024,40.7045361],[43.741637,40.7053584],[43.7433418,40.7066926],[43.7424631,40.7095715],[43.7401219,40.7096981],[43.7408857,40.711544],[43.7369146,40.7112477],[43.7353107,40.7126749],[43.7392268,40.7147622],[43.737837,40.7171623],[43.7393819,40.7201067],[43.7473807,40.7261247],[43.7483121,40.7308892],[43.7360676,40.7590035],[43.7302724,40.7659084],[43.7297192,40.772381],[43.7239994,40.7819056],[43.7255056,40.7851085],[43.723186,40.7877254],[43.7232378,40.7918182],[43.7197343,40.7944252],[43.7168302,40.803819],[43.7118066,40.80774],[43.7066042,40.8209072],[43.7005656,40.8275284],[43.6954876,40.8293422],[43.6931101,40.833182],[43.6846601,40.8386092],[43.6770061,40.8475169],[43.680651,40.857475],[43.680594,40.865701],[43.675701,40.871454],[43.673852,40.886669],[43.676542,40.898274],[43.681211,40.903583],[43.676949,40.908505],[43.670763,40.910943],[43.669498,40.913643],[43.673626,40.920405],[43.672276,40.924557],[43.676128,40.930283],[43.671597,40.936657],[43.660323,40.944226],[43.592067,40.986089],[43.5931464,40.9780321],[43.6037545,40.9491631],[43.5899777,40.9537414],[43.5861202,40.952909],[43.5824693,40.9460934],[43.5846047,40.943752],[43.6127641,40.9395893],[43.6172071,40.9378461],[43.6209958,40.9324341],[43.618206,40.9277502],[43.6106979,40.9270034],[43.6087009,40.9250529],[43.6115684,40.9202858],[43.606402,40.9178394],[43.6044044,40.8952448],[43.5971715,40.8755594],[43.5885408,40.8604439],[43.5653268,40.8515867],[43.5644658,40.8493461],[43.5604705,40.8490856],[43.5561997,40.84351],[43.5593685,40.8427647],[43.5597823,40.8395703],[43.5634869,40.8352752],[43.5625928,40.82863],[43.5576133,40.8290503],[43.5584363,40.8277098],[43.5559328,40.8255985],[43.5583146,40.8224296],[43.5588257,40.8147645],[43.5546408,40.8156661],[43.545581,40.8124221],[43.5391491,40.8055998],[43.5244078,40.7981172],[43.5197581,40.7999423],[43.5177605,40.7982215],[43.5150051,40.7991601],[43.5099814,40.7959019],[43.5113994,40.7917535],[43.509653,40.7906154],[43.5080457,40.7914029],[43.5044202,40.7897799],[43.4934884,40.7927633],[43.4872072,40.788078],[43.4843464,40.7897779],[43.4840791,40.7945563],[43.4795894,40.7932978],[43.475416,40.7951156],[43.4754348,40.7924897],[43.470169,40.7882886],[43.4732331,40.7806751],[43.4780921,40.7783685],[43.4741429,40.7580819],[43.4901543,40.7567967],[43.4333515,40.7080236],[43.4602933,40.7027633],[43.5035046,40.7073215],[43.5166595,40.7014755],[43.5348042,40.7121354],[43.5461446,40.7135108],[43.5565778,40.7093846],[43.5756297,40.7093846],[43.594228,40.6956291],[43.6084135,40.6892206],[43.6251973,40.6890486],[43.6652857,40.6663434],[43.6675538,40.660838],[43.680232,40.6512985],[43.6888924,40.6399208],[43.7001022,40.6132678]]]}},{"type":"Feature","properties":{"code":"36-02","provinceCode":"36","name":"Arpaçay"},"geometry":{"type":"Polygon","coordinates":[[[43.2716721,40.7252668],[43.2867581,40.7004185],[43.3005506,40.6948253],[43.3140224,40.6979867],[43.3578936,40.6990682],[43.3715021,40.6976926],[43.3928221,40.6853105],[43.4100596,40.6811826],[43.427297,40.6842786],[43.4333515,40.7080236],[43.4901543,40.7567967],[43.4741429,40.7580819],[43.4780921,40.7783685],[43.4732331,40.7806751],[43.470169,40.7882886],[43.4754348,40.7924897],[43.475416,40.7951156],[43.4795894,40.7932978],[43.4840791,40.7945563],[43.4843464,40.7897779],[43.4872072,40.788078],[43.4934884,40.7927633],[43.5044202,40.7897799],[43.5080457,40.7914029],[43.509653,40.7906154],[43.5113994,40.7917535],[43.5099814,40.7959019],[43.5150051,40.7991601],[43.5177605,40.7982215],[43.5197581,40.7999423],[43.5244078,40.7981172],[43.5391491,40.8055998],[43.545581,40.8124221],[43.5546408,40.8156661],[43.5588257,40.8147645],[43.5583146,40.8224296],[43.5559328,40.8255985],[43.5584363,40.8277098],[43.5576133,40.8290503],[43.5625928,40.82863],[43.5634869,40.8352752],[43.5597823,40.8395703],[43.5593685,40.8427647],[43.5561997,40.84351],[43.5604705,40.8490856],[43.5644658,40.8493461],[43.5653268,40.8515867],[43.5885408,40.8604439],[43.5971715,40.8755594],[43.6044044,40.8952448],[43.606402,40.9178394],[43.6115684,40.9202858],[43.6087009,40.9250529],[43.6106979,40.9270034],[43.618206,40.9277502],[43.6209958,40.9324341],[43.6172071,40.9378461],[43.6127641,40.9395893],[43.5846047,40.943752],[43.5824693,40.9460934],[43.5861202,40.952909],[43.5899777,40.9537414],[43.6037545,40.9491631],[43.5931464,40.9780321],[43.592067,40.986089],[43.585046,40.987073],[43.577764,40.993311],[43.564625,40.992509],[43.553685,40.99585],[43.545207,40.999323],[43.539386,41.004127],[43.519853,41.014141],[43.517073,41.014774],[43.5071142,41.0119329],[43.4928318,41.0163967],[43.4840989,41.0161629],[43.468408,41.0306149],[43.4682566,41.0332775],[43.4620706,41.0331609],[43.4506255,41.0417937],[43.4246991,41.0697983],[43.3616774,41.0964801],[43.3435739,41.0951827],[43.3141835,41.0795029],[43.2306865,41.0021978],[43.2055322,40.984555],[43.1740034,40.9717269],[43.1500589,40.9684638],[43.1048806,40.975699],[43.0783397,40.9750708],[43.0528134,40.9628208],[43.03662,40.9571713],[43.0543762,40.9404181],[43.070655,40.9310558],[43.1117483,40.9226139],[43.1189444,40.9148101],[43.1532652,40.9058411],[43.1721898,40.8978406],[43.1923974,40.8963859],[43.2058691,40.8893543],[43.2177371,40.8854744],[43.2302466,40.8757738],[43.2350579,40.8672846],[43.2331334,40.8422958],[43.2459636,40.825065],[43.2555862,40.8189968],[43.2783599,40.8090437],[43.2815674,40.8010315],[43.2790014,40.7925328],[43.2668713,40.7752741],[43.2636637,40.7621561],[43.2626051,40.7456348],[43.2658699,40.7333451],[43.2716721,40.7252668]]]}},{"type":"Feature","properties":{"code":"36-03","provinceCode":"36","name":"Digor"},"geometry":{"type":"Polygon","coordinates":[[[43.2395952,40.3170137],[43.2476868,40.3130459],[43.264836,40.297369],[43.2746632,40.3065137],[43.2977644,40.3033525],[43.3224488,40.2797543],[43.3641898,40.2518741],[43.4084885,40.2342448],[43.4425644,40.222682],[43.4516513,40.2067801],[43.461874,40.1960803],[43.4645244,40.1680215],[43.4770189,40.1584731],[43.4864844,40.1483445],[43.4891347,40.1364777],[43.4878096,40.1238851],[43.4911225,40.1181669],[43.4899507,40.1083556],[43.5088706,40.1138264],[43.5124284,40.1162101],[43.5268092,40.1180273],[43.5593391,40.1156643],[43.5831142,40.1184867],[43.5956454,40.1167145],[43.6124682,40.1196681],[43.6268878,40.1253125],[43.6332475,40.1257919],[43.6378217,40.1315491],[43.6487368,40.1312363],[43.6531557,40.1401397],[43.650799,40.1456994],[43.6547386,40.1474257],[43.661198,40.1538931],[43.6648304,40.1530373],[43.6701265,40.1569212],[43.6821067,40.1595416],[43.6913849,40.1593675],[43.709066,40.1622537],[43.7140442,40.1613354],[43.7156749,40.1621881],[43.7133575,40.1647462],[43.7128425,40.1718953],[43.7075051,40.1761152],[43.7010575,40.1778128],[43.6986467,40.1843575],[43.6949028,40.1879799],[43.6963872,40.1910792],[43.6944476,40.1930417],[43.6901529,40.1951345],[43.6873089,40.199057],[43.6728907,40.2059064],[43.6653788,40.2141228],[43.6617666,40.2136104],[43.6633822,40.2177786],[43.6531003,40.2248851],[43.6577286,40.2283086],[43.6666067,40.2281701],[43.6760979,40.2249534],[43.6837106,40.2266454],[43.6788536,40.2287331],[43.6769532,40.2327381],[43.6825978,40.2362184],[43.6793005,40.2402814],[43.6843116,40.2402013],[43.6797141,40.2427124],[43.676895,40.24813],[43.6819352,40.2506763],[43.6784237,40.2536455],[43.6819683,40.2550958],[43.6828082,40.2573388],[43.6773941,40.2576865],[43.67232,40.2652708],[43.6640621,40.2699288],[43.6587097,40.2706358],[43.6531219,40.2689517],[43.6489414,40.2719465],[43.6441339,40.2706191],[43.6409417,40.2724221],[43.6396126,40.2792895],[43.6316264,40.2829425],[43.6360256,40.2901509],[43.6355912,40.2937817],[43.6261302,40.2995709],[43.6273866,40.3037406],[43.6224168,40.3066895],[43.6199793,40.3119753],[43.6142491,40.3141324],[43.6107805,40.3216504],[43.6018904,40.3293289],[43.6003687,40.3343211],[43.590814,40.3451289],[43.5969388,40.3546999],[43.5949971,40.3617347],[43.6001192,40.3691605],[43.5991917,40.3716788],[43.6065884,40.3743188],[43.6050863,40.3812278],[43.6078026,40.384853],[43.6118109,40.386618],[43.6116961,40.3896394],[43.617821,40.390096],[43.6200149,40.3978481],[43.6169787,40.4010599],[43.617749,40.4045044],[43.6137604,40.4089184],[43.6134768,40.4149962],[43.6187141,40.4157011],[43.6197206,40.4215067],[43.6125923,40.4266038],[43.6117119,40.4313285],[43.6064469,40.4372668],[43.5971078,40.4402973],[43.5924845,40.4463313],[43.5852157,40.4454342],[43.5845455,40.4491717],[43.5760447,40.4542184],[43.5718162,40.459358],[43.5680568,40.460408],[43.5638501,40.4588418],[43.5583906,40.4601138],[43.5547734,40.4650608],[43.5505287,40.4671823],[43.5470097,40.4671823],[43.5489408,40.4723243],[43.5469775,40.4760704],[43.5421709,40.4763969],[43.5222581,40.4747566],[43.5265789,40.463386],[43.5212847,40.4593579],[43.5162551,40.4617748],[43.5001075,40.4561352],[43.4818422,40.4621776],[43.4815775,40.4686222],[43.4682735,40.4688544],[43.4585474,40.4726498],[43.448753,40.4736566],[43.4341937,40.4933879],[43.4400174,40.500836],[43.4029574,40.508887],[43.3693387,40.508887],[43.3415443,40.4990008],[43.2980935,40.4775731],[43.2834038,40.4732136],[43.2623256,40.4592626],[43.2287626,40.4430867],[43.2204198,40.4357512],[43.2108752,40.4234751],[43.1987698,40.4144156],[43.2030983,40.4077766],[43.1980181,40.3967203],[43.2025688,40.3898348],[43.2019888,40.3831238],[43.1948921,40.3737032],[43.1986975,40.3643183],[43.1915046,40.3532205],[43.2165755,40.3515132],[43.2377805,40.3476458],[43.2395952,40.3170137]]]}},{"type":"Feature","properties":{"code":"36-04","provinceCode":"36","name":"Kağızman"},"geometry":{"type":"Polygon","coordinates":[[[43.0159739,40.3446714],[43.01374,40.3423914],[43.0045747,40.3440591],[42.9928425,40.349126],[42.987563,40.3480828],[42.9903249,40.3251115],[42.9637075,40.3272163],[42.9660539,40.3221477],[42.9539306,40.3179733],[42.9390698,40.3203587],[42.9329268,40.3176574],[42.9425895,40.2994836],[42.9312483,40.2857621],[42.9202982,40.290386],[42.9134544,40.2893419],[42.8917413,40.30258],[42.8864703,40.301124],[42.8774756,40.3014223],[42.8733447,40.3038059],[42.8671173,40.2999089],[42.8492214,40.2821464],[42.8300708,40.2706822],[42.8062042,40.2594646],[42.7865838,40.25321],[42.789244,40.2375947],[42.8041196,40.2379785],[42.801539,40.230098],[42.8098545,40.2180565],[42.8135594,40.1801735],[42.8250641,40.174407],[42.8268684,40.1615123],[42.8432436,40.1536563],[42.8492209,40.1490875],[42.8531062,40.1376643],[42.8414504,40.134694],[42.8417493,40.1303525],[42.8505194,40.1204234],[42.8503699,40.0890114],[42.8479394,40.0848899],[42.7908256,40.0644401],[42.7872683,40.0744678],[42.7605734,40.0764117],[42.7471192,40.0734629],[42.7395366,40.0650821],[42.7201132,40.0589632],[42.7081555,40.0583343],[42.7061545,40.0439334],[42.7112936,40.0304211],[42.7066787,40.0229593],[42.7148313,39.9951211],[42.7286429,39.9906265],[42.7467429,39.9600238],[42.754595,39.9611443],[42.792925,39.9725456],[42.8126832,39.9695176],[42.8643301,39.9731069],[42.883893,39.9808928],[42.9041924,39.9808534],[42.9149466,39.9825564],[43.0529675,39.9883763],[43.0933412,39.9839103],[43.1128796,39.9870331],[43.1472112,39.9885122],[43.1603541,39.986269],[43.1921824,39.9881752],[43.2352165,39.9937682],[43.2707978,39.9944458],[43.2842723,40.0023008],[43.3036095,40.0280376],[43.321296,40.0430236],[43.3316163,40.0461472],[43.3481472,40.0437983],[43.357981,40.0438592],[43.3661802,40.0660031],[43.3603631,40.0802944],[43.3425199,40.0930287],[43.3437318,40.0990334],[43.3467363,40.1024029],[43.3464148,40.1176741],[43.3597522,40.1231086],[43.3616993,40.1216197],[43.3672484,40.1268306],[43.3755235,40.1306268],[43.3847721,40.1228108],[43.3899409,40.1249733],[43.3933392,40.1240019],[43.398948,40.1248381],[43.4021037,40.1228339],[43.4119887,40.1223728],[43.4226844,40.1132518],[43.4308018,40.1126365],[43.4352555,40.109531],[43.4427467,40.1131838],[43.4446949,40.1101948],[43.4571435,40.1106555],[43.4705479,40.1061953],[43.4831112,40.106098],[43.4899507,40.1083556],[43.4911225,40.1181669],[43.4878096,40.1238851],[43.4891347,40.1364777],[43.4864844,40.1483445],[43.4770189,40.1584731],[43.4645244,40.1680215],[43.461874,40.1960803],[43.4516513,40.2067801],[43.4425644,40.222682],[43.4084885,40.2342448],[43.3641898,40.2518741],[43.3224488,40.2797543],[43.2977644,40.3033525],[43.2746632,40.3065137],[43.264836,40.297369],[43.2476868,40.3130459],[43.2395952,40.3170137],[43.2212877,40.3204291],[43.2160318,40.3172508],[43.2122386,40.3200167],[43.2059196,40.3194054],[43.2057012,40.3175272],[43.1895709,40.3115848],[43.1833041,40.3121695],[43.1427552,40.3302583],[43.0878607,40.3361428],[43.0728857,40.3442185],[43.0690648,40.349951],[43.0420829,40.3528162],[43.0398562,40.3461296],[43.0320669,40.3418497],[43.0159739,40.3446714]]]}},{"type":"Feature","properties":{"code":"36-05","provinceCode":"36","name":"Kars merkez"},"geometry":{"type":"Polygon","coordinates":[[[42.8937926,40.8180681],[42.8614301,40.809982],[42.8577784,40.7907771],[42.8514048,40.7313047],[42.8001659,40.7089163],[42.8039807,40.7014485],[42.8528533,40.6654462],[42.8500606,40.6631512],[42.8512243,40.6560894],[42.8416825,40.6486737],[42.8456388,40.6299542],[42.8554133,40.6071659],[42.8554133,40.5903788],[42.8426134,40.576239],[42.8409843,40.5638643],[42.8479661,40.5483042],[42.8665842,40.5325637],[42.8845042,40.5247805],[42.8993987,40.5145194],[42.9168533,40.5088574],[42.9266278,40.4959393],[42.9652605,40.4638987],[42.9771295,40.4488771],[42.9780519,40.435634],[42.9738629,40.4143742],[42.9598992,40.3916897],[42.9528671,40.3845731],[42.9638946,40.3664571],[42.9705513,40.3658143],[42.9709424,40.3583647],[42.982479,40.3556826],[42.992647,40.3650694],[43.0223686,40.3522554],[43.0159739,40.3446714],[43.0320669,40.3418497],[43.0398562,40.3461296],[43.0420829,40.3528162],[43.0690648,40.349951],[43.0728857,40.3442185],[43.0878607,40.3361428],[43.1427552,40.3302583],[43.1833041,40.3121695],[43.1895709,40.3115848],[43.2057012,40.3175272],[43.2059196,40.3194054],[43.2122386,40.3200167],[43.2160318,40.3172508],[43.2212877,40.3204291],[43.2395952,40.3170137],[43.2377805,40.3476458],[43.2165755,40.3515132],[43.1915046,40.3532205],[43.1986975,40.3643183],[43.1948921,40.3737032],[43.2019888,40.3831238],[43.2025688,40.3898348],[43.1980181,40.3967203],[43.2030983,40.4077766],[43.1987698,40.4144156],[43.2108752,40.4234751],[43.2204198,40.4357512],[43.2287626,40.4430867],[43.2623256,40.4592626],[43.2834038,40.4732136],[43.2980935,40.4775731],[43.3415443,40.4990008],[43.3693387,40.508887],[43.4029574,40.508887],[43.4400174,40.500836],[43.4341937,40.4933879],[43.448753,40.4736566],[43.4585474,40.4726498],[43.4682735,40.4688544],[43.4815775,40.4686222],[43.4818422,40.4621776],[43.5001075,40.4561352],[43.5162551,40.4617748],[43.5212847,40.4593579],[43.5265789,40.463386],[43.5222581,40.4747566],[43.5421709,40.4763969],[43.5452716,40.4786085],[43.5492091,40.4788615],[43.5512797,40.4806079],[43.5541014,40.4794572],[43.5579638,40.4817504],[43.5589938,40.4853735],[43.5569177,40.4880073],[43.5596881,40.4902153],[43.5572175,40.4939732],[43.5636312,40.4961009],[43.5701527,40.4948748],[43.5681625,40.4981607],[43.5713447,40.5010018],[43.5712828,40.5040062],[43.5777442,40.5036497],[43.584597,40.5076557],[43.5886171,40.5065826],[43.5982476,40.5107183],[43.6048953,40.5164505],[43.6108883,40.5138283],[43.6145449,40.5198313],[43.6175739,40.5210224],[43.6191699,40.5251387],[43.6275487,40.5233718],[43.6238708,40.5205138],[43.6253836,40.519038],[43.6343707,40.519285],[43.6384989,40.5225532],[43.6387508,40.5250341],[43.6324988,40.5290427],[43.6276775,40.5374891],[43.634655,40.5399324],[43.6366283,40.5345856],[43.6392735,40.5373724],[43.6420284,40.5373366],[43.6443488,40.53153],[43.6473971,40.5304701],[43.6499291,40.5312524],[43.6510594,40.537809],[43.6455102,40.5439723],[43.6427998,40.5520946],[43.6419358,40.55757],[43.6433979,40.5617375],[43.6509645,40.5651861],[43.6567662,40.566489],[43.6635911,40.5656287],[43.6670115,40.5677166],[43.6662263,40.5743523],[43.6864896,40.5929984],[43.7001022,40.6132678],[43.6888924,40.6399208],[43.680232,40.6512985],[43.6675538,40.660838],[43.6652857,40.6663434],[43.6251973,40.6890486],[43.6084135,40.6892206],[43.594228,40.6956291],[43.5756297,40.7093846],[43.5565778,40.7093846],[43.5461446,40.7135108],[43.5348042,40.7121354],[43.5166595,40.7014755],[43.5035046,40.7073215],[43.4602933,40.7027633],[43.4333515,40.7080236],[43.427297,40.6842786],[43.4100596,40.6811826],[43.3928221,40.6853105],[43.3715021,40.6976926],[43.3578936,40.6990682],[43.3140224,40.6979867],[43.3005506,40.6948253],[43.2867581,40.7004185],[43.2716721,40.7252668],[43.2607664,40.7126778],[43.2579955,40.7033503],[43.266272,40.6998157],[43.2699795,40.6958118],[43.2643373,40.6899203],[43.2219664,40.6725967],[43.2008634,40.6840021],[43.2113351,40.6931404],[43.1952405,40.7056289],[43.1949516,40.716232],[43.2003711,40.7171409],[43.2029264,40.7224759],[43.1955498,40.7218547],[43.1916927,40.7245221],[43.1916927,40.7290893],[43.1894549,40.7295277],[43.1864716,40.7270174],[43.1884624,40.7239375],[43.1839586,40.7188583],[43.1809694,40.7212701],[43.1700732,40.7228778],[43.1690806,40.7249605],[43.1657539,40.7256913],[43.164384,40.7228047],[43.1614912,40.7227317],[43.1459536,40.7156438],[43.1425596,40.7119146],[43.1448654,40.7087951],[43.1423747,40.6997978],[43.124696,40.7032042],[43.1230867,40.6997474],[43.1187431,40.6998306],[43.1160538,40.6933196],[43.1125595,40.6988693],[43.0979895,40.7027649],[43.0851523,40.7058609],[43.0733238,40.7064741],[43.0353103,40.7182338],[43.0211666,40.7197773],[42.9915552,40.7264191],[42.9943839,40.7306972],[42.9880898,40.7384243],[42.9464146,40.7652766],[42.9420434,40.764978],[42.9170874,40.7993169],[42.8937926,40.8180681]]]}},{"type":"Feature","properties":{"code":"36-06","provinceCode":"36","name":"Sarıkamış"},"geometry":{"type":"Polygon","coordinates":[[[42.5566822,39.9346359],[42.6306977,39.934833],[42.6821787,39.9438199],[42.7467429,39.9600238],[42.7286429,39.9906265],[42.7148313,39.9951211],[42.7066787,40.0229593],[42.7112936,40.0304211],[42.7061545,40.0439334],[42.7081555,40.0583343],[42.7201132,40.0589632],[42.7395366,40.0650821],[42.7471192,40.0734629],[42.7605734,40.0764117],[42.7872683,40.0744678],[42.7908256,40.0644401],[42.8479394,40.0848899],[42.8503699,40.0890114],[42.8505194,40.1204234],[42.8417493,40.1303525],[42.8414504,40.134694],[42.8531062,40.1376643],[42.8492209,40.1490875],[42.8432436,40.1536563],[42.8268684,40.1615123],[42.8250641,40.174407],[42.8135594,40.1801735],[42.8098545,40.2180565],[42.801539,40.230098],[42.8041196,40.2379785],[42.789244,40.2375947],[42.7865838,40.25321],[42.7919524,40.2877321],[42.7898596,40.2944536],[42.7797749,40.3031383],[42.7714309,40.3038325],[42.7468165,40.285175],[42.7439384,40.2924969],[42.739029,40.2970531],[42.7410362,40.3053632],[42.749065,40.3062379],[42.7547998,40.3217616],[42.7648358,40.3165146],[42.7878307,40.3229157],[42.7602213,40.3620058],[42.7490807,40.3839874],[42.7377083,40.4001918],[42.7086342,40.4355663],[42.6974045,40.4369087],[42.6919912,40.4406904],[42.7006054,40.443641],[42.6974512,40.447569],[42.689802,40.445548],[42.6871165,40.4472371],[42.6796612,40.4419998],[42.6780841,40.436653],[42.6468291,40.431524],[42.6482034,40.4531091],[42.6379401,40.452474],[42.6353539,40.4560177],[42.6250366,40.4530195],[42.6180408,40.4622027],[42.6016298,40.4622233],[42.5937334,40.4651657],[42.5404151,40.442626],[42.5186928,40.4363636],[42.481983,40.4300184],[42.4773377,40.4075805],[42.4865979,40.4029438],[42.4881863,40.3917752],[42.4662259,40.3826708],[42.4464143,40.3969106],[42.4413927,40.3914285],[42.43165,40.3868041],[42.4147062,40.385621],[42.4042497,40.3755941],[42.4051048,40.3656136],[42.4015748,40.3671197],[42.3958936,40.363123],[42.3917369,40.363959],[42.3871442,40.3673062],[42.3885722,40.3743963],[42.3820671,40.3759535],[42.3753092,40.3799481],[42.365992,40.3797372],[42.3518174,40.3759645],[42.337378,40.3768439],[42.3257686,40.3873107],[42.2981941,40.3745028],[42.2790954,40.3726183],[42.2742317,40.3640796],[42.2563729,40.3588062],[42.2433814,40.3519549],[42.2447032,40.3474002],[42.2262314,40.3504173],[42.2154706,40.3470856],[42.2109271,40.3487236],[42.199385,40.3464903],[42.1953169,40.3485831],[42.1857656,40.3483765],[42.1826063,40.3461071],[42.1742588,40.3470977],[42.1695591,40.3439281],[42.1621259,40.3486284],[42.1561615,40.348273],[42.1493021,40.3458136],[42.1434527,40.3512272],[42.1339574,40.3523501],[42.1203487,40.3368577],[42.1298231,40.3355446],[42.1355586,40.3289018],[42.1307344,40.3153597],[42.1222444,40.3020892],[42.1160269,40.3006011],[42.1178437,40.293408],[42.1086615,40.2951089],[42.1080617,40.2879208],[42.1152439,40.2842683],[42.1154616,40.2734756],[42.1204674,40.2674973],[42.1006618,40.260522],[42.1126266,40.2608605],[42.1104557,40.2557053],[42.1315672,40.2420838],[42.1361377,40.2329459],[42.1457141,40.2375981],[42.1550728,40.2487288],[42.1582376,40.2388045],[42.1696549,40.2414193],[42.1766195,40.2384288],[42.1893039,40.2421156],[42.1928671,40.2382108],[42.202458,40.2191989],[42.2164839,40.2060057],[42.2218485,40.2068275],[42.2253286,40.202891],[42.2291671,40.2039434],[42.2314309,40.2086039],[42.2397968,40.2074012],[42.2460959,40.2116104],[42.2579643,40.2110968],[42.2622373,40.2092804],[42.270308,40.2145417],[42.2733592,40.213715],[42.2780835,40.2147672],[42.2874429,40.2007146],[42.2949139,40.1999593],[42.2968823,40.1972529],[42.2941265,40.1929676],[42.2971776,40.1911632],[42.2956028,40.1814636],[42.2987524,40.1763501],[42.3129008,40.1823271],[42.316931,40.1791414],[42.3207992,40.1810876],[42.3338895,40.1741692],[42.3343816,40.1689048],[42.3389091,40.1666484],[42.3412712,40.1620603],[42.3498298,40.1707435],[42.363318,40.1752973],[42.3663497,40.1628928],[42.3730619,40.1511529],[42.3809358,40.1493474],[42.3907781,40.1349014],[42.3918608,40.1161622],[42.4031794,40.1234629],[42.4141499,40.1197128],[42.4285726,40.0996765],[42.4299307,40.0969166],[42.4273916,40.0947827],[42.430738,40.0824337],[42.4465337,40.0693583],[42.4437246,40.0569651],[42.4538093,40.0611329],[42.4531732,40.0501847],[42.4646887,40.0494313],[42.4775822,40.0522189],[42.4882043,40.0398356],[42.4935268,40.039184],[42.5011619,40.0266362],[42.5350133,40.0159632],[42.5364393,40.0062466],[42.5456911,40.0046634],[42.5490375,39.9993858],[42.5462816,39.9956159],[42.5554653,39.9914462],[42.5613404,39.9838522],[42.5587814,39.9752545],[42.5550413,39.9730671],[42.5555014,39.9647018],[42.5505191,39.9642524],[42.5487422,39.9690694],[42.5466805,39.9632717],[42.543531,39.9617629],[42.5425468,39.9474281],[42.5497248,39.9377897],[42.5566822,39.9346359]]]}},{"type":"Feature","properties":{"code":"36-07","provinceCode":"36","name":"Selim"},"geometry":{"type":"Polygon","coordinates":[[[42.8001659,40.7089163],[42.7478535,40.6933379],[42.6707411,40.6538197],[42.6182058,40.6447048],[42.6023765,40.6291667],[42.577638,40.6225415],[42.5766291,40.6128418],[42.5688948,40.6143734],[42.5539888,40.6106969],[42.544812,40.6042297],[42.5412762,40.5884948],[42.529051,40.5840614],[42.5169571,40.5726666],[42.5197789,40.5590431],[42.5095721,40.5430536],[42.4858123,40.522276],[42.46221,40.5131612],[42.4695395,40.4970013],[42.4792115,40.4914653],[42.4758691,40.4686422],[42.4810995,40.445597],[42.4770978,40.4331611],[42.481983,40.4300184],[42.5186928,40.4363636],[42.5404151,40.442626],[42.5937334,40.4651657],[42.6016298,40.4622233],[42.6180408,40.4622027],[42.6250366,40.4530195],[42.6353539,40.4560177],[42.6379401,40.452474],[42.6482034,40.4531091],[42.6468291,40.431524],[42.6780841,40.436653],[42.6796612,40.4419998],[42.6871165,40.4472371],[42.689802,40.445548],[42.6974512,40.447569],[42.7006054,40.443641],[42.6919912,40.4406904],[42.6974045,40.4369087],[42.7086342,40.4355663],[42.7377083,40.4001918],[42.7490807,40.3839874],[42.7602213,40.3620058],[42.7878307,40.3229157],[42.7648358,40.3165146],[42.7547998,40.3217616],[42.749065,40.3062379],[42.7410362,40.3053632],[42.739029,40.2970531],[42.7439384,40.2924969],[42.7468165,40.285175],[42.7714309,40.3038325],[42.7797749,40.3031383],[42.7898596,40.2944536],[42.7919524,40.2877321],[42.7865838,40.25321],[42.8062042,40.2594646],[42.8300708,40.2706822],[42.8492214,40.2821464],[42.8671173,40.2999089],[42.8733447,40.3038059],[42.8774756,40.3014223],[42.8864703,40.301124],[42.8917413,40.30258],[42.9134544,40.2893419],[42.9202982,40.290386],[42.9312483,40.2857621],[42.9425895,40.2994836],[42.9329268,40.3176574],[42.9390698,40.3203587],[42.9539306,40.3179733],[42.9660539,40.3221477],[42.9637075,40.3272163],[42.9903249,40.3251115],[42.987563,40.3480828],[42.9928425,40.349126],[43.0045747,40.3440591],[43.01374,40.3423914],[43.0159739,40.3446714],[43.0223686,40.3522554],[42.992647,40.3650694],[42.982479,40.3556826],[42.9709424,40.3583647],[42.9705513,40.3658143],[42.9638946,40.3664571],[42.9528671,40.3845731],[42.9598992,40.3916897],[42.9738629,40.4143742],[42.9780519,40.435634],[42.9771295,40.4488771],[42.9652605,40.4638987],[42.9266278,40.4959393],[42.9168533,40.5088574],[42.8993987,40.5145194],[42.8845042,40.5247805],[42.8665842,40.5325637],[42.8479661,40.5483042],[42.8409843,40.5638643],[42.8426134,40.576239],[42.8554133,40.5903788],[42.8554133,40.6071659],[42.8456388,40.6299542],[42.8416825,40.6486737],[42.8512243,40.6560894],[42.8500606,40.6631512],[42.8528533,40.6654462],[42.8039807,40.7014485],[42.8001659,40.7089163]]]}},{"type":"Feature","properties":{"code":"36-08","provinceCode":"36","name":"Susuz"},"geometry":{"type":"Polygon","coordinates":[[[42.8937926,40.8180681],[42.9170874,40.7993169],[42.9420434,40.764978],[42.9464146,40.7652766],[42.9880898,40.7384243],[42.9943839,40.7306972],[42.9915552,40.7264191],[43.0211666,40.7197773],[43.0353103,40.7182338],[43.0733238,40.7064741],[43.0851523,40.7058609],[43.0979895,40.7027649],[43.1125595,40.6988693],[43.1160538,40.6933196],[43.1187431,40.6998306],[43.1230867,40.6997474],[43.124696,40.7032042],[43.1423747,40.6997978],[43.1448654,40.7087951],[43.1425596,40.7119146],[43.1459536,40.7156438],[43.1614912,40.7227317],[43.164384,40.7228047],[43.1657539,40.7256913],[43.1690806,40.7249605],[43.1700732,40.7228778],[43.1809694,40.7212701],[43.1839586,40.7188583],[43.1884624,40.7239375],[43.1864716,40.7270174],[43.1894549,40.7295277],[43.1916927,40.7290893],[43.1916927,40.7245221],[43.1955498,40.7218547],[43.2029264,40.7224759],[43.2003711,40.7171409],[43.1949516,40.716232],[43.1952405,40.7056289],[43.2113351,40.6931404],[43.2008634,40.6840021],[43.2219664,40.6725967],[43.2643373,40.6899203],[43.2699795,40.6958118],[43.266272,40.6998157],[43.2579955,40.7033503],[43.2607664,40.7126778],[43.2716721,40.7252668],[43.2658699,40.7333451],[43.2626051,40.7456348],[43.2636637,40.7621561],[43.2668713,40.7752741],[43.2790014,40.7925328],[43.2815674,40.8010315],[43.2783599,40.8090437],[43.2555862,40.8189968],[43.2459636,40.825065],[43.2331334,40.8422958],[43.2350579,40.8672846],[43.2302466,40.8757738],[43.2177371,40.8854744],[43.2058691,40.8893543],[43.1923974,40.8963859],[43.1721898,40.8978406],[43.1532652,40.9058411],[43.1189444,40.9148101],[43.1117483,40.9226139],[43.070655,40.9310558],[43.0543762,40.9404181],[43.03662,40.9571713],[43.0144118,40.9476252],[43.002117,40.9337017],[42.9725773,40.9132992],[42.9503745,40.8772707],[42.9064207,40.8832757],[42.8937926,40.8180681]]]}}]}