{"type":"FeatureCollection","features":[{"type":"Feature","properties":{"code":"34-01","provinceCode":"34","name":"Arnavutköy"},"geometry":{"type":"Polygon","coordinates":[[[28.5624499,41.1155572],[28.5662555,41.1147159],[28.5801933,41.1276729],[28.5850096,41.128096],[28.586536,41.1269775],[28.5869944,41.1283425],[28.5898054,41.1261201],[28.5916722,41.1296274],[28.5939542,41.1273443],[28.5946387,41.1225116],[28.5974389,41.1202324],[28.6007488,41.1207456],[28.603404,41.1189771],[28.6038011,41.1126426],[28.6077601,41.1112118],[28.6084896,41.1158829],[28.6127436,41.1193918],[28.6340208,41.088634],[28.635948,41.094939],[28.6392616,41.0960169],[28.6395951,41.0981109],[28.6430789,41.1035755],[28.6456678,41.1014765],[28.6589939,41.0993008],[28.6682482,41.106832],[28.6780636,41.1102436],[28.673716,41.1118055],[28.6738748,41.1134699],[28.6817965,41.1222822],[28.6893294,41.1253774],[28.7167452,41.1117477],[28.7217194,41.1118349],[28.7271563,41.1143623],[28.7335186,41.1253426],[28.7358488,41.1363656],[28.7397578,41.1323062],[28.7458582,41.1337337],[28.7495303,41.131414],[28.7577037,41.1315478],[28.7651071,41.1374361],[28.7710891,41.1391757],[28.7808023,41.1486759],[28.7904145,41.1482713],[28.8074604,41.1378615],[28.8151956,41.1363045],[28.8151483,41.1411764],[28.81725,41.1429454],[28.8163474,41.1529024],[28.8147315,41.1543169],[28.8162581,41.1597111],[28.8137721,41.1638961],[28.8137165,41.1745391],[28.8142348,41.1755728],[28.8198151,41.1753677],[28.8214361,41.1825197],[28.8178816,41.1867962],[28.8191492,41.1966376],[28.8160451,41.2010509],[28.8192382,41.2029988],[28.8207791,41.2071926],[28.8179675,41.2107369],[28.8151941,41.2113276],[28.8088621,41.2200181],[28.7965333,41.2231037],[28.7974552,41.229087],[28.7941909,41.2336038],[28.788779,41.2369346],[28.786703,41.2434252],[28.7876244,41.2475805],[28.7790801,41.2577939],[28.7748204,41.2583853],[28.770023,41.2693818],[28.7769526,41.2710734],[28.7774856,41.2761034],[28.7812762,41.2796197],[28.7858367,41.3022265],[28.7887221,41.3059947],[28.7901117,41.308262],[28.7903579,41.3116265],[28.7888333,41.3141542],[28.7892221,41.3072114],[28.7861692,41.3067867],[28.7817872,41.3083276],[28.7806861,41.3119733],[28.7816399,41.3131064],[28.7852863,41.3126192],[28.7742725,41.317475],[28.7695797,41.3244876],[28.7627832,41.323086],[28.7519045,41.3288534],[28.7478664,41.3266515],[28.742029,41.3259712],[28.7361757,41.3273878],[28.7275525,41.3262187],[28.6862673,41.3414002],[28.6838539,41.3446378],[28.6862216,41.3449593],[28.6868436,41.3431207],[28.6878857,41.3451427],[28.6850996,41.3458933],[28.6834163,41.3483364],[28.679532,41.34764],[28.67755,41.343433],[28.6736498,41.3428418],[28.660461,41.3464799],[28.656326,41.3492546],[28.6455028,41.349124],[28.6363739,41.3510463],[28.5787489,41.3737577],[28.55763,41.385551],[28.53847,41.3898834],[28.4932054,41.4076459],[28.491152,41.4049443],[28.4913939,41.390082],[28.4955893,41.3876916],[28.5196667,41.3831754],[28.5342134,41.3711307],[28.5653133,41.3660487],[28.5730883,41.3536243],[28.5572727,41.3093727],[28.5567164,41.2950744],[28.551869,41.2869604],[28.5521922,41.2788656],[28.5445171,41.2757084],[28.5445979,41.2703448],[28.5465369,41.2641508],[28.5505764,41.2596771],[28.5610521,41.2612358],[28.5755944,41.2579968],[28.5752443,41.2486026],[28.5778296,41.2463551],[28.5761868,41.2412321],[28.5781797,41.2384781],[28.5752443,41.2337595],[28.5792248,41.2293888],[28.5824573,41.231693],[28.5837967,41.2204634],[28.582405,41.2172611],[28.5857705,41.2052742],[28.5947441,41.190719],[28.5953663,41.185269],[28.594276,41.171612],[28.591738,41.1666201],[28.5859253,41.1640316],[28.5803582,41.1520736],[28.5679142,41.1408534],[28.5743818,41.1287679],[28.5632476,41.120134],[28.5624499,41.1155572]]]}},{"type":"Feature","properties":{"code":"34-02","provinceCode":"34","name":"Ataşehir"},"geometry":{"type":"Polygon","coordinates":[[[29.198035,40.9813017],[29.2035055,40.9831703],[29.1926187,40.9889727],[29.1773534,40.9908607],[29.165479,40.9941083],[29.1373802,40.9969011],[29.1153289,40.9960828],[29.1092378,40.998475],[29.0957316,41.007958],[29.0894421,41.0094753],[29.0725899,41.0055781],[29.0732826,40.9924444],[29.086569,40.9874224],[29.0926035,40.9835982],[29.1038393,40.9667737],[29.1112349,40.9590646],[29.1165948,40.9613755],[29.1262307,40.9727992],[29.1374444,40.9741048],[29.1496003,40.9724462],[29.1538801,40.9741862],[29.157476,40.9791139],[29.1623025,40.9807639],[29.1716205,40.9782221],[29.1734453,40.976102],[29.1778557,40.9771897],[29.17959,40.9745058],[29.198035,40.9813017]]]}},{"type":"Feature","properties":{"code":"34-03","provinceCode":"34","name":"Avcılar"},"geometry":{"type":"Polygon","coordinates":[[[28.6915751,41.0577969],[28.6823155,41.0550028],[28.6897495,41.0474064],[28.6906455,41.043073],[28.6971527,41.0416045],[28.6906028,41.0363283],[28.691017,41.0317593],[28.6952678,41.031618],[28.6972203,41.0292482],[28.7018894,41.02876],[28.7002285,41.0155129],[28.6967452,41.0124465],[28.7018986,41.0094053],[28.6991765,41.0057395],[28.698349,41.0000752],[28.6921102,40.9998282],[28.6878592,41.0022492],[28.6843052,41.0011837],[28.6876118,40.9904405],[28.6947119,40.9858267],[28.6997764,40.9796236],[28.6995422,40.9737437],[28.7121725,40.9726918],[28.7179875,40.9693057],[28.7149727,40.9716873],[28.7195003,40.9706991],[28.7198326,40.9693117],[28.7254792,40.9690352],[28.7246611,40.9704952],[28.7282443,40.9715577],[28.7353038,40.9714443],[28.7380251,40.9698537],[28.7416499,40.9705038],[28.7444539,40.9747205],[28.752456,40.9797339],[28.7559765,40.9801868],[28.7397863,41.044572],[28.7407052,41.0528023],[28.7452733,41.0591214],[28.7443371,41.062082],[28.742852,41.0636251],[28.7359321,41.0621875],[28.7319571,41.0641208],[28.7328798,41.065132],[28.7291354,41.0667619],[28.7261152,41.0715261],[28.7058055,41.0879637],[28.706193,41.0903167],[28.6977928,41.1011469],[28.6893034,41.1060842],[28.6924803,41.1004235],[28.6909783,41.0922816],[28.6938643,41.0821736],[28.7000597,41.0717772],[28.6993195,41.0645083],[28.7010686,41.0599517],[28.6915751,41.0577969]]]}},{"type":"Feature","properties":{"code":"34-04","provinceCode":"34","name":"Bağcılar"},"geometry":{"type":"Polygon","coordinates":[[[28.8109991,41.027182],[28.8228604,41.0197781],[28.8271045,41.0203317],[28.8281856,41.0221209],[28.8379871,41.0236683],[28.8393177,41.0220604],[28.8443264,41.0214024],[28.8475377,41.0242509],[28.8484567,41.0214301],[28.8545948,41.0211241],[28.8584705,41.0191368],[28.858435,41.0202588],[28.8601491,41.0175556],[28.8631331,41.0190518],[28.8590939,41.0287282],[28.8673364,41.0294879],[28.872314,41.0276721],[28.8712219,41.0384458],[28.8611078,41.040265],[28.8593461,41.0427262],[28.8598474,41.048597],[28.8566528,41.0540765],[28.8547557,41.0543062],[28.8563007,41.0669774],[28.8602661,41.0714138],[28.8537226,41.0721677],[28.8472559,41.0662364],[28.8435746,41.0650259],[28.8337771,41.0688498],[28.8153931,41.0722211],[28.8116116,41.061291],[28.8079843,41.0465023],[28.8107326,41.0375949],[28.8109991,41.027182]]]}},{"type":"Feature","properties":{"code":"34-05","provinceCode":"34","name":"Bahçelievler"},"geometry":{"type":"Polygon","coordinates":[[[28.8213057,40.9931186],[28.85392,40.9921525],[28.8848379,41.001414],[28.8814773,41.0062398],[28.8808028,41.0165304],[28.8746724,41.0081175],[28.8706019,41.0062437],[28.8601491,41.0175556],[28.858435,41.0202588],[28.8584705,41.0191368],[28.8545948,41.0211241],[28.8484567,41.0214301],[28.8475377,41.0242509],[28.8443264,41.0214024],[28.8393177,41.0220604],[28.8379871,41.0236683],[28.8281856,41.0221209],[28.8271045,41.0203317],[28.8228604,41.0197781],[28.8109991,41.027182],[28.8083935,41.027953],[28.8061208,41.015537],[28.8082437,41.0150551],[28.8117338,41.0005848],[28.8162176,40.9955354],[28.8201583,40.9950138],[28.8213057,40.9931186]]]}},{"type":"Feature","properties":{"code":"34-06","provinceCode":"34","name":"Bakırköy"},"geometry":{"type":"Polygon","coordinates":[[[28.77519,40.9773627],[28.8052054,40.9612862],[28.8107024,40.9560035],[28.8117968,40.9570568],[28.8141893,40.9553715],[28.8235782,40.9545213],[28.825327,40.9552424],[28.8221513,40.9552424],[28.8226555,40.9569845],[28.8245588,40.9559661],[28.8255309,40.9571789],[28.8300143,40.9546665],[28.8356915,40.9561542],[28.8356806,40.9576083],[28.8388671,40.9570331],[28.8462502,40.9668623],[28.845071,40.9678004],[28.8467292,40.9707034],[28.8487543,40.9716188],[28.851407,40.969551],[28.8491003,40.9719671],[28.8519273,40.9700999],[28.8492666,40.9721332],[28.851804,40.9743891],[28.8657074,40.9736455],[28.8658679,40.968232],[28.8663055,40.9675607],[28.8670238,40.9672726],[28.8754237,40.967409],[28.8670857,40.9674479],[28.866253,40.9679242],[28.8662014,40.969507],[28.8753294,40.9688394],[28.8796786,40.972385],[28.8743754,40.9691816],[28.8730365,40.9701712],[28.8762532,40.9725688],[28.8784905,40.9723512],[28.8768248,40.9742093],[28.8893064,40.9797162],[28.8906689,40.9799187],[28.8909251,40.9778954],[28.8909222,40.9798782],[28.8897959,40.9819484],[28.8897763,40.9825975],[28.891837,40.9892161],[28.8941944,40.9956265],[28.8918508,40.9998184],[28.8959518,41.0066949],[28.8848379,41.001414],[28.85392,40.9921525],[28.8213057,40.9931186],[28.8159633,40.9945503],[28.8095612,40.9998896],[28.8011239,40.9999604],[28.7972508,40.9975087],[28.798331,40.9890014],[28.7945759,40.9881025],[28.7923865,40.9891783],[28.7834439,40.9854688],[28.7734523,40.9865507],[28.7752893,40.9840442],[28.7757386,40.9824936],[28.77519,40.9773627]]]}},{"type":"Feature","properties":{"code":"34-07","provinceCode":"34","name":"Başakşehir"},"geometry":{"type":"Polygon","coordinates":[[[28.7443371,41.062082],[28.755918,41.061021],[28.7909668,41.0641088],[28.8116116,41.061291],[28.8153931,41.0722211],[28.8337771,41.0688498],[28.8373502,41.0722349],[28.8431423,41.0833435],[28.8505888,41.1016721],[28.8499877,41.1077297],[28.8450761,41.1128866],[28.8452476,41.1190494],[28.8281592,41.1298603],[28.8245247,41.1334533],[28.8249326,41.1354711],[28.8151956,41.1363045],[28.8074604,41.1378615],[28.7904145,41.1482713],[28.7808023,41.1486759],[28.7710891,41.1391757],[28.7651071,41.1374361],[28.7577037,41.1315478],[28.7495303,41.131414],[28.7458582,41.1337337],[28.7397578,41.1323062],[28.7358488,41.1363656],[28.7335186,41.1253426],[28.7271563,41.1143623],[28.7217194,41.1118349],[28.7167452,41.1117477],[28.6893294,41.1253774],[28.6817965,41.1222822],[28.6738748,41.1134699],[28.673716,41.1118055],[28.6780636,41.1102436],[28.6682482,41.106832],[28.6589939,41.0993008],[28.6456678,41.1014765],[28.6430789,41.1035755],[28.6395951,41.0981109],[28.6444854,41.0951793],[28.6515214,41.0861906],[28.655159,41.0761728],[28.6726049,41.0645578],[28.6859752,41.0613954],[28.6915751,41.0577969],[28.7010686,41.0599517],[28.6993195,41.0645083],[28.7000597,41.0717772],[28.6938643,41.0821736],[28.6909783,41.0922816],[28.6924803,41.1004235],[28.6893034,41.1060842],[28.6977928,41.1011469],[28.706193,41.0903167],[28.7058055,41.0879637],[28.7261152,41.0715261],[28.7291354,41.0667619],[28.7328798,41.065132],[28.7319571,41.0641208],[28.7359321,41.0621875],[28.742852,41.0636251],[28.7443371,41.062082]]]}},{"type":"Feature","properties":{"code":"34-08","provinceCode":"34","name":"Bayrampaşa"},"geometry":{"type":"Polygon","coordinates":[[[28.9109414,41.0516259],[28.909442,41.0554936],[28.9031032,41.0600168],[28.9003725,41.0650805],[28.8787208,41.0772926],[28.878437,41.0710557],[28.8857371,41.0594624],[28.8848997,41.0436587],[28.8888866,41.0378265],[28.8951166,41.0353931],[28.8990696,41.0277257],[28.9119683,41.0325102],[28.9199497,41.0258371],[28.9241806,41.0285575],[28.9165062,41.0391004],[28.9156154,41.0430248],[28.918513,41.04237],[28.9109414,41.0516259]]]}},{"type":"Feature","properties":{"code":"34-09","provinceCode":"34","name":"Beşiktaş"},"geometry":{"type":"Polygon","coordinates":[[[29.0058428,41.0901712],[29.0083175,41.0846791],[29.0147426,41.0760932],[29.0159318,41.0718582],[29.0117277,41.0629144],[29.007221,41.06632],[29.0031939,41.0667548],[29.0011464,41.0578043],[28.9987099,41.0555261],[29.0022066,41.0504979],[29.0007773,41.0491593],[28.9982304,41.0497948],[28.9960968,41.0459122],[28.9970517,41.0441141],[28.9953529,41.0435618],[28.9967002,41.0406679],[28.9931034,41.0418166],[28.993129,41.0392014],[28.9957917,41.0367648],[29.032807,41.0497099],[29.036575,41.0593926],[29.0407865,41.0628895],[29.0422893,41.0665331],[29.0464561,41.067989],[29.0444285,41.0777378],[29.0547757,41.0810946],[29.0545611,41.0841081],[29.0418732,41.0847707],[29.0419917,41.0906867],[29.0233028,41.0941902],[29.028317,41.0953461],[29.0330532,41.0991837],[29.0231261,41.0990947],[29.018467,41.1014915],[29.0144507,41.1066585],[29.0058762,41.0955845],[29.0058428,41.0901712]]]}},{"type":"Feature","properties":{"code":"34-10","provinceCode":"34","name":"Beykoz"},"geometry":{"type":"Polygon","coordinates":[[[29.0836032,41.0637433],[29.0925996,41.0654058],[29.0979706,41.0642397],[29.0956627,41.063783],[29.0964418,41.0611991],[29.1081923,41.061108],[29.1135602,41.0589836],[29.119824,41.0521752],[29.1253001,41.0499098],[29.1338215,41.0531464],[29.1343192,41.0487526],[29.1382718,41.0449547],[29.1382718,41.0413845],[29.141238,41.0431674],[29.1420125,41.047478],[29.147852,41.0473845],[29.148487,41.0491718],[29.1545743,41.0494404],[29.1674364,41.0540235],[29.168382,41.0561436],[29.1708694,41.0541401],[29.1913457,41.0549237],[29.1969474,41.0535599],[29.2019023,41.0561523],[29.207888,41.0564781],[29.2099046,41.0587953],[29.2048151,41.0649135],[29.2020143,41.073372],[29.2082562,41.0881022],[29.207744,41.0905027],[29.2092965,41.0897186],[29.2105448,41.0916486],[29.2131755,41.0908374],[29.2133739,41.0925324],[29.2163506,41.0925698],[29.2224033,41.0967698],[29.2219568,41.1043715],[29.229845,41.1069135],[29.2322099,41.1099662],[29.2338801,41.1102154],[29.2342936,41.105007],[29.2380641,41.1023029],[29.2424464,41.1042842],[29.2445632,41.10244],[29.2492102,41.105493],[29.2489621,41.1110129],[29.2529311,41.1119224],[29.2516742,41.114506],[29.252849,41.116029],[29.2567439,41.1159253],[29.2597285,41.1187639],[29.2627555,41.1162124],[29.2739532,41.1199519],[29.2756996,41.1217618],[29.2809386,41.1206217],[29.2820658,41.1256923],[29.2850954,41.128393],[29.2852012,41.1325384],[29.2919881,41.1294592],[29.298603,41.128662],[29.3029689,41.1259714],[29.312071,41.1256724],[29.3141084,41.1279246],[29.3197178,41.129818],[29.3278277,41.1258717],[29.3464159,41.1296081],[29.3508012,41.12889],[29.3499016,41.1265662],[29.3526347,41.1249979],[29.3591084,41.1253552],[29.3647893,41.1324697],[29.3654018,41.1356198],[29.3636697,41.1413468],[29.3571426,41.1432557],[29.3537418,41.1427944],[29.3568258,41.1497455],[29.3507846,41.1534673],[29.3454193,41.1517337],[29.3462853,41.1541671],[29.3435604,41.155853],[29.3407933,41.1613715],[29.3388077,41.1593677],[29.3292811,41.1578409],[29.3289009,41.1630412],[29.326007,41.1642021],[29.3260493,41.1694178],[29.3240214,41.1681457],[29.3227118,41.1764138],[29.3242115,41.1800069],[29.3210642,41.183425],[29.3233032,41.1894816],[29.321888,41.19034],[29.3233455,41.1954105],[29.3324496,41.2036116],[29.3297247,41.2112078],[29.3324799,41.2166263],[29.3311002,41.2153119],[29.3273129,41.217047],[29.3189659,41.2166314],[29.3155863,41.2193148],[29.309846,41.220814],[29.2899337,41.2225992],[29.277793,41.22787],[29.2720559,41.2279109],[29.2707237,41.2296151],[29.2676521,41.2280226],[29.2654311,41.2312144],[29.257508,41.2306136],[29.2563501,41.2353335],[29.245632,41.231968],[29.2413709,41.2278775],[29.2378392,41.2293418],[29.2357427,41.2285303],[29.2341072,41.2301233],[29.2289027,41.2281535],[29.2239472,41.230581],[29.2228959,41.229143],[29.2194959,41.2289465],[29.2186259,41.231344],[29.2150599,41.2313093],[29.2138824,41.2299832],[29.2168493,41.2260131],[29.2141563,41.2234775],[29.2041751,41.2214633],[29.2000788,41.2240472],[29.2007128,41.2219137],[29.1975679,41.220317],[29.1823201,41.221049],[29.1769865,41.2225641],[29.175782,41.221546],[29.1723463,41.2244282],[29.1654468,41.224459],[29.1613671,41.2171618],[29.1540356,41.2196045],[29.1507315,41.2180763],[29.1519628,41.2143325],[29.1477018,41.2119026],[29.1416323,41.2129846],[29.1350582,41.2089591],[29.1300433,41.2084203],[29.1253889,41.2048244],[29.1277152,41.2045418],[29.126993,41.2055165],[29.1297348,41.207401],[29.131594,41.205758],[29.131043,41.2031409],[29.1283696,41.2021826],[29.1264591,41.2030607],[29.1177987,41.2000056],[29.1201455,41.1967124],[29.1181381,41.186977],[29.1126681,41.1846153],[29.1125844,41.1829603],[29.1082013,41.1838481],[29.1066779,41.180741],[29.1017526,41.1816548],[29.0871223,41.1786616],[29.0883944,41.1731014],[29.0866851,41.1700517],[29.0813717,41.1673459],[29.0757768,41.1667079],[29.0734935,41.1645956],[29.0724157,41.1611886],[29.0779089,41.1544962],[29.0711649,41.1431569],[29.078978,41.139605],[29.0834657,41.1404397],[29.0781771,41.1389197],[29.0803528,41.1368472],[29.0854602,41.1369102],[29.0913667,41.1344033],[29.0929073,41.1301426],[29.0973008,41.1261726],[29.0977997,41.1229641],[29.0961273,41.1177349],[29.087773,41.115046],[29.0816962,41.1072331],[29.0732839,41.1070073],[29.066174,41.1027446],[29.0644024,41.0976938],[29.0674665,41.0944014],[29.0655869,41.0930172],[29.0669161,41.0851068],[29.0642506,41.0778919],[29.0717139,41.0735978],[29.077698,41.0661455],[29.0836032,41.0637433]]]}},{"type":"Feature","properties":{"code":"34-11","provinceCode":"34","name":"Beylikdüzü"},"geometry":{"type":"Polygon","coordinates":[[[28.6878592,41.0022492],[28.681824,41.0055512],[28.6640744,41.0068807],[28.6332014,41.0185252],[28.6317723,41.0164075],[28.626442,41.01661],[28.6258687,41.009802],[28.620007,41.0039172],[28.6126212,40.9916741],[28.6048177,40.9975549],[28.6026424,40.9963666],[28.6017144,40.9980185],[28.5969977,40.9970265],[28.596178,40.988144],[28.599046,40.980659],[28.5948521,40.9735744],[28.5991382,40.9688347],[28.5987963,40.9677967],[28.5974002,40.9697303],[28.5982252,40.9677482],[28.5959456,40.9641644],[28.6002579,40.9620733],[28.6019964,40.9631571],[28.6004286,40.9623866],[28.5963766,40.9642065],[28.5971182,40.9653477],[28.600309,40.9641053],[28.5972481,40.9655105],[28.5981499,40.9666225],[28.6019233,40.9641514],[28.6064579,40.9653331],[28.620747,40.960717],[28.6521354,40.9628109],[28.6575415,40.96057],[28.6540697,40.9630832],[28.6579755,40.9636321],[28.664881,40.9626618],[28.6648026,40.9612128],[28.6635184,40.9610324],[28.6575901,40.9617625],[28.663313,40.9608463],[28.6668036,40.9607815],[28.6669044,40.9579003],[28.6718844,40.9571644],[28.6691674,40.9595555],[28.6690516,40.9632077],[28.6705508,40.9636551],[28.6708809,40.9612765],[28.670832,40.9637867],[28.67239,40.9640085],[28.6726392,40.9613278],[28.6745822,40.9613981],[28.6743696,40.9645398],[28.6758802,40.9648256],[28.6766082,40.9613096],[28.6761383,40.965947],[28.6778126,40.9659101],[28.6784136,40.9628016],[28.6785826,40.9679023],[28.6798761,40.9633137],[28.6799975,40.9664911],[28.6815021,40.9665907],[28.6819245,40.962927],[28.6819192,40.9667223],[28.6837407,40.966814],[28.6845484,40.9628532],[28.6847543,40.9687607],[28.6868523,40.9685819],[28.687025,40.970163],[28.6917853,40.972237],[28.6950254,40.9722775],[28.6952292,40.9709004],[28.6952507,40.9724557],[28.6995422,40.9737437],[28.6997764,40.9796236],[28.6947119,40.9858267],[28.6876118,40.9904405],[28.6843052,41.0011837],[28.6878592,41.0022492]]]}},{"type":"Feature","properties":{"code":"34-12","provinceCode":"34","name":"Beyoğlu"},"geometry":{"type":"Polygon","coordinates":[[[28.9480788,41.0647209],[28.9477059,41.0555208],[28.9402724,41.0525362],[28.9390119,41.0493344],[28.9415351,41.045489],[28.9490976,41.0413772],[28.9535579,41.0356999],[28.9524144,41.0348895],[28.960882,41.0338777],[28.9656802,41.0311348],[28.9671736,41.024888],[28.9699042,41.0223576],[28.9768677,41.0218483],[28.9884679,41.0281607],[28.9921295,41.0326094],[28.9943929,41.0326079],[28.993808,41.0350113],[28.9957917,41.0367648],[28.993129,41.0392014],[28.9828861,41.0421673],[28.9817483,41.041281],[28.9757899,41.045737],[28.9681265,41.0455491],[28.967977,41.0476909],[28.9624095,41.051326],[28.9618462,41.0534978],[28.9555373,41.0536726],[28.9548437,41.0589316],[28.9495803,41.0625692],[28.9513427,41.0651811],[28.9480788,41.0647209]]]}},{"type":"Feature","properties":{"code":"34-13","provinceCode":"34","name":"Büyükçekmece"},"geometry":{"type":"Polygon","coordinates":[[[28.3909885,41.0480917],[28.397379,41.047846],[28.4292414,41.0386136],[28.46577,41.0246338],[28.4802701,41.0162266],[28.4825701,41.0129886],[28.5070881,41.0031716],[28.5091465,41.0009056],[28.5076439,41.0002007],[28.5073864,40.9998363],[28.5074943,40.9993266],[28.5083628,40.9981521],[28.5101008,40.9969375],[28.5103803,40.9970861],[28.5085698,40.9982383],[28.5075581,40.9997776],[28.5079374,41.0000173],[28.5091229,40.9985983],[28.5090371,41.0005359],[28.5102489,40.9979091],[28.5181171,40.9964806],[28.5376517,40.9877045],[28.5414947,40.984499],[28.5441673,40.9860872],[28.5469891,40.999487],[28.551111,41.0034005],[28.5519892,41.0071836],[28.5653656,41.0139892],[28.5662006,41.0152677],[28.5629224,41.0137166],[28.5642662,41.015366],[28.563166,41.016501],[28.565448,41.0154685],[28.567502,41.0181592],[28.5726832,41.0183082],[28.5744757,41.0165403],[28.5788357,41.0157267],[28.5749807,41.0167036],[28.5748251,41.0183081],[28.5776388,41.0180364],[28.577561,41.016798],[28.5777755,41.0179827],[28.5858952,41.017248],[28.59627,41.0134903],[28.5998576,41.0084417],[28.5969977,40.9970265],[28.6017144,40.9980185],[28.6026424,40.9963666],[28.6048177,40.9975549],[28.6126212,40.9916741],[28.620007,41.0039172],[28.6258687,41.009802],[28.626442,41.01661],[28.6317723,41.0164075],[28.6332014,41.0185252],[28.6287623,41.0209632],[28.6282843,41.0254265],[28.6234566,41.0336625],[28.6276988,41.0437759],[28.6280891,41.0525846],[28.6204845,41.0682139],[28.6293341,41.0840167],[28.628515,41.0855094],[28.6309146,41.0857384],[28.6340208,41.088634],[28.6127436,41.1193918],[28.6084896,41.1158829],[28.6077601,41.1112118],[28.6038011,41.1126426],[28.603404,41.1189771],[28.6007488,41.1207456],[28.5974389,41.1202324],[28.5946387,41.1225116],[28.5939542,41.1273443],[28.5916722,41.1296274],[28.5898054,41.1261201],[28.5869944,41.1283425],[28.586536,41.1269775],[28.5850096,41.128096],[28.5801933,41.1276729],[28.5662555,41.1147159],[28.5624499,41.1155572],[28.5593318,41.1040858],[28.5535132,41.093384],[28.5465481,41.093082],[28.5374628,41.1015737],[28.5229862,41.1082249],[28.5081171,41.10268],[28.5160339,41.0847614],[28.5257443,41.0719073],[28.5209906,41.0689904],[28.5166413,41.0706314],[28.5151595,41.0675668],[28.5106645,41.0670619],[28.502537,41.0594693],[28.4970916,41.057715],[28.4816909,41.0563142],[28.4717989,41.068232],[28.4572023,41.0685334],[28.4439951,41.076379],[28.4367156,41.0784292],[28.4323329,41.078963],[28.4222324,41.0756545],[28.4166366,41.0778428],[28.4122017,41.0824798],[28.402019,41.0857275],[28.3960211,41.0827882],[28.3933792,41.0777245],[28.3921979,41.0709885],[28.3924408,41.066425],[28.3943858,41.0662524],[28.3926498,41.0592594],[28.3937073,41.0565056],[28.3909885,41.0480917]]]}},{"type":"Feature","properties":{"code":"34-14","provinceCode":"34","name":"Çatalca"},"geometry":{"type":"Polygon","coordinates":[[[28.0811,41.2987607],[28.0864448,41.2976346],[28.0886146,41.2957178],[28.0935227,41.2971476],[28.0943794,41.2995968],[28.1032574,41.2970725],[28.10613,41.2989037],[28.1086108,41.2980208],[28.1083932,41.2967128],[28.1159229,41.2983151],[28.1178815,41.301683],[28.1325491,41.3140741],[28.134116,41.3177681],[28.1388166,41.3183238],[28.1376415,41.3204159],[28.1338984,41.3204812],[28.1302859,41.3238153],[28.1273698,41.3335878],[28.125063,41.3359408],[28.1352265,41.3478972],[28.1355523,41.3543044],[28.1318092,41.3634843],[28.1350735,41.3606749],[28.1423856,41.3582248],[28.1597953,41.3583228],[28.204364,41.3451232],[28.2111973,41.3355486],[28.2132865,41.3407772],[28.2186399,41.3457767],[28.22778,41.3422804],[28.2331335,41.342019],[28.2417948,41.345352],[28.2480623,41.3440449],[28.250195,41.3456134],[28.2635134,41.3471491],[28.2680834,41.3545658],[28.2726534,41.3551212],[28.2814018,41.3463649],[28.2797044,41.3416595],[28.276353,41.3396335],[28.2746556,41.3351238],[28.2758307,41.3340453],[28.2654442,41.3244814],[28.267341,41.3180226],[28.2779519,41.3109419],[28.2817742,41.3117239],[28.2894043,41.3046532],[28.2996625,41.308468],[28.3048436,41.3080913],[28.3102476,41.3102883],[28.3234353,41.3074635],[28.3182978,41.3045132],[28.3131167,41.2907847],[28.3096905,41.2892778],[28.3095234,41.2863475],[28.2951941,41.2752248],[28.3026709,41.2750436],[28.3022531,41.2687838],[28.3056793,41.2673392],[28.3076292,41.2589218],[28.3111947,41.2576864],[28.3181585,41.2506919],[28.3169051,41.2443879],[28.3237296,41.242419],[28.3289665,41.2387326],[28.3321977,41.2402407],[28.3347047,41.2389839],[28.3440641,41.2409319],[28.3441198,41.2389839],[28.3472954,41.2378109],[28.346404,41.2343965],[28.3522536,41.2213656],[28.3662989,41.2123327],[28.3677318,41.2082396],[28.3699439,41.2093456],[28.3743191,41.2085646],[28.3738138,41.205503],[28.3784378,41.2013953],[28.3733124,41.1968891],[28.3748166,41.195338],[28.3735352,41.1939966],[28.3695797,41.1938079],[28.3674349,41.192152],[28.3683328,41.1887563],[28.3714182,41.1885675],[28.3744266,41.1843958],[28.3720589,41.1836411],[28.3691619,41.1770371],[28.3652621,41.173284],[28.3697469,41.1717743],[28.3708054,41.1620235],[28.3763208,41.1618138],[28.3779364,41.1631979],[28.3838417,41.1600103],[28.3812512,41.1542848],[28.3850952,41.1485797],[28.3818083,41.1438182],[28.3885772,41.1292796],[28.3803041,41.1281256],[28.3871565,41.1239501],[28.3875465,41.1122824],[28.3912792,41.0983666],[28.3954575,41.0942101],[28.3906942,41.0866943],[28.3897193,41.0806264],[28.3933792,41.0777245],[28.3960211,41.0827882],[28.402019,41.0857275],[28.4122017,41.0824798],[28.4166366,41.0778428],[28.4222324,41.0756545],[28.4323329,41.078963],[28.4367156,41.0784292],[28.4439951,41.076379],[28.4572023,41.0685334],[28.4717989,41.068232],[28.4816909,41.0563142],[28.4970916,41.057715],[28.502537,41.0594693],[28.5106645,41.0670619],[28.5151595,41.0675668],[28.5166413,41.0706314],[28.5209906,41.0689904],[28.5257443,41.0719073],[28.5160339,41.0847614],[28.5081171,41.10268],[28.5229862,41.1082249],[28.5374628,41.1015737],[28.5465481,41.093082],[28.5535132,41.093384],[28.5593318,41.1040858],[28.5624499,41.1155572],[28.5632476,41.120134],[28.5743818,41.1287679],[28.5679142,41.1408534],[28.5803582,41.1520736],[28.5859253,41.1640316],[28.591738,41.1666201],[28.594276,41.171612],[28.5953663,41.185269],[28.5947441,41.190719],[28.5857705,41.2052742],[28.582405,41.2172611],[28.5837967,41.2204634],[28.5824573,41.231693],[28.5792248,41.2293888],[28.5752443,41.2337595],[28.5781797,41.2384781],[28.5761868,41.2412321],[28.5778296,41.2463551],[28.5752443,41.2486026],[28.5755944,41.2579968],[28.5610521,41.2612358],[28.5505764,41.2596771],[28.5465369,41.2641508],[28.5445979,41.2703448],[28.5445171,41.2757084],[28.5521922,41.2788656],[28.551869,41.2869604],[28.5567164,41.2950744],[28.5572727,41.3093727],[28.5730883,41.3536243],[28.5653133,41.3660487],[28.5342134,41.3711307],[28.5196667,41.3831754],[28.4955893,41.3876916],[28.4913939,41.390082],[28.491152,41.4049443],[28.4932054,41.4076459],[28.471433,41.41749],[28.432854,41.431069],[28.3811567,41.4516725],[28.2848404,41.4915591],[28.2783139,41.495524],[28.2722594,41.4962483],[28.2684892,41.499989],[28.2619335,41.5023343],[28.2599641,41.5072705],[28.2561406,41.5077421],[28.2503567,41.5115486],[28.2494252,41.5105256],[28.2467994,41.5113427],[28.247101,41.5143784],[28.2373783,41.5170088],[28.2325524,41.5201904],[28.2322508,41.5236242],[28.2288354,41.5249526],[28.224226,41.5231208],[28.2204801,41.5246505],[28.219097,41.528001],[28.2218805,41.5292694],[28.2140295,41.5330348],[28.2077754,41.5386525],[28.2060456,41.5384533],[28.1990551,41.5453919],[28.200004,41.548482],[28.1925174,41.5481903],[28.1930134,41.5524765],[28.186432,41.553756],[28.185814,41.557357],[28.188211,41.557589],[28.188063,41.558874],[28.183146,41.560978],[28.181317,41.56382],[28.181521,41.565615],[28.186671,41.566846],[28.182598,41.568428],[28.182654,41.571508],[28.178569,41.572448],[28.176158,41.571446],[28.177214,41.573104],[28.167997,41.573839],[28.165963,41.574759],[28.167209,41.57757],[28.165353,41.578872],[28.152729,41.580283],[28.1453576,41.5860397],[28.1443132,41.5905908],[28.1419558,41.5897459],[28.1431756,41.586131],[28.1411625,41.5830051],[28.1368031,41.581617],[28.1322661,41.5748209],[28.1281749,41.5737464],[28.1231071,41.5670807],[28.1240508,41.5663215],[28.1179902,41.5633913],[28.117642,41.5608837],[28.1222991,41.5599718],[28.1247365,41.5569104],[28.1231261,41.552774],[28.1204711,41.5529695],[28.1186866,41.5512106],[28.122038,41.5488654],[28.120297,41.5449891],[28.1154658,41.5445004],[28.1211675,41.5403633],[28.1195136,41.5342384],[28.10502,41.5230298],[28.0976209,41.5227365],[28.0920933,41.5176203],[28.077034,41.5167078],[28.0757282,41.5128947],[28.0702877,41.5088859],[28.0734215,41.5003785],[28.0708971,41.4940543],[28.0786008,41.4931414],[28.0853471,41.4900769],[28.0927897,41.4805236],[28.0991443,41.4778823],[28.0994924,41.4763497],[28.1046718,41.4762192],[28.1061952,41.4692404],[28.1112004,41.4658485],[28.111331,41.4539104],[28.1136378,41.4447433],[28.1102429,41.428559],[28.1152482,41.4180175],[28.1221685,41.4099226],[28.1129849,41.4075396],[28.1087631,41.4041772],[28.1007546,41.4038833],[28.0980561,41.3931746],[28.0985784,41.388244],[28.0962607,41.3802792],[28.0892932,41.3697686],[28.0876529,41.3524829],[28.0890466,41.3478713],[28.0850459,41.3381136],[28.0778702,41.321122],[28.0764326,41.3021638],[28.0783645,41.3010962],[28.0770884,41.2998688],[28.0788167,41.2970434],[28.0811,41.2987607]]]}},{"type":"Feature","properties":{"code":"34-15","provinceCode":"34","name":"Çekmeköy"},"geometry":{"type":"Polygon","coordinates":[[[29.1907382,41.0140145],[29.2052588,41.01296],[29.2135825,41.0159165],[29.2352744,41.0169014],[29.2386893,41.0218908],[29.2460075,41.0217891],[29.246127,41.0246278],[29.246335,41.0234435],[29.2491031,41.0235487],[29.2514741,41.0253537],[29.2501587,41.0280106],[29.2592322,41.0277521],[29.2655345,41.0297942],[29.2727873,41.0371592],[29.2744952,41.0423455],[29.2814968,41.0448877],[29.2848177,41.0505088],[29.2902669,41.0527344],[29.300071,41.0478353],[29.3025299,41.0495171],[29.3120848,41.0486392],[29.3220762,41.0508521],[29.3298123,41.0485112],[29.3465712,41.0479526],[29.3474246,41.0411344],[29.3505613,41.041871],[29.359871,41.0392308],[29.3646376,41.0442864],[29.3638928,41.0468141],[29.3599455,41.0492855],[29.3597068,41.0556514],[29.363769,41.0598179],[29.370116,41.0570582],[29.3743594,41.0576933],[29.3800604,41.0615768],[29.3850755,41.0690872],[29.3899602,41.0710778],[29.3878479,41.0735411],[29.3944819,41.0774225],[29.3944793,41.0813926],[29.3996307,41.0824481],[29.3994327,41.085906],[29.3934588,41.0869259],[29.3901583,41.0896374],[29.3934588,41.0931696],[29.4003898,41.0942641],[29.4019873,41.0985253],[29.4013733,41.0999943],[29.3915946,41.1029344],[29.3891866,41.1061814],[29.3824694,41.1089508],[29.3801036,41.1210614],[29.3783081,41.122939],[29.3728161,41.125835],[29.3669016,41.1226844],[29.3591084,41.1253552],[29.3526347,41.1249979],[29.3499016,41.1265662],[29.3508012,41.12889],[29.3464159,41.1296081],[29.3278277,41.1258717],[29.3197178,41.129818],[29.3141084,41.1279246],[29.312071,41.1256724],[29.3029689,41.1259714],[29.298603,41.128662],[29.2919881,41.1294592],[29.2852012,41.1325384],[29.2850954,41.128393],[29.2820658,41.1256923],[29.2809386,41.1206217],[29.2756996,41.1217618],[29.2739532,41.1199519],[29.2627555,41.1162124],[29.2597285,41.1187639],[29.2567439,41.1159253],[29.252849,41.116029],[29.2516742,41.114506],[29.2529311,41.1119224],[29.2489621,41.1110129],[29.2492102,41.105493],[29.2445632,41.10244],[29.2424464,41.1042842],[29.2380641,41.1023029],[29.2342936,41.105007],[29.2338801,41.1102154],[29.2322099,41.1099662],[29.229845,41.1069135],[29.2219568,41.1043715],[29.2224033,41.0967698],[29.2163506,41.0925698],[29.2133739,41.0925324],[29.2131755,41.0908374],[29.2105448,41.0916486],[29.2092965,41.0897186],[29.207744,41.0905027],[29.2082562,41.0881022],[29.2020143,41.073372],[29.2048151,41.0649135],[29.2099046,41.0587953],[29.207888,41.0564781],[29.2019023,41.0561523],[29.1969474,41.0535599],[29.1913457,41.0549237],[29.1708694,41.0541401],[29.168382,41.0561436],[29.1674364,41.0540235],[29.1545743,41.0494404],[29.148487,41.0491718],[29.147852,41.0473845],[29.1420125,41.047478],[29.141238,41.0431674],[29.1382718,41.0413845],[29.1403828,41.034246],[29.147802,41.0368948],[29.162128,41.034642],[29.1709218,41.0302291],[29.1797745,41.0213176],[29.183448,41.0151473],[29.1907382,41.0140145]]]}},{"type":"Feature","properties":{"code":"34-16","provinceCode":"34","name":"Esenler"},"geometry":{"type":"Polygon","coordinates":[[[28.8337771,41.0688498],[28.8435746,41.0650259],[28.8472559,41.0662364],[28.8537226,41.0721677],[28.8602661,41.0714138],[28.8563007,41.0669774],[28.8547557,41.0543062],[28.8566528,41.0540765],[28.8598474,41.048597],[28.8593461,41.0427262],[28.8611078,41.040265],[28.8712219,41.0384458],[28.8744317,41.0367972],[28.8764859,41.0318455],[28.8854573,41.0339974],[28.8905214,41.0298816],[28.8854227,41.0226141],[28.887326,41.0207747],[28.8867534,41.0174142],[28.8985146,41.0190267],[28.9005899,41.0209397],[28.8990696,41.0277257],[28.8951166,41.0353931],[28.8888866,41.0378265],[28.8848997,41.0436587],[28.8857371,41.0594624],[28.878437,41.0710557],[28.8787208,41.0772926],[28.8743359,41.0816349],[28.8631231,41.0908415],[28.8499877,41.1077297],[28.8505888,41.1016721],[28.8431423,41.0833435],[28.8373502,41.0722349],[28.8337771,41.0688498]]]}},{"type":"Feature","properties":{"code":"34-17","provinceCode":"34","name":"Esenyurt"},"geometry":{"type":"Polygon","coordinates":[[[28.6915751,41.0577969],[28.6859752,41.0613954],[28.6726049,41.0645578],[28.655159,41.0761728],[28.6515214,41.0861906],[28.6444854,41.0951793],[28.6395951,41.0981109],[28.6392616,41.0960169],[28.635948,41.094939],[28.6340208,41.088634],[28.6309146,41.0857384],[28.628515,41.0855094],[28.6293341,41.0840167],[28.6204845,41.0682139],[28.6280891,41.0525846],[28.6276988,41.0437759],[28.6234566,41.0336625],[28.6282843,41.0254265],[28.6287623,41.0209632],[28.6332014,41.0185252],[28.6640744,41.0068807],[28.681824,41.0055512],[28.6878592,41.0022492],[28.6921102,40.9998282],[28.698349,41.0000752],[28.6991765,41.0057395],[28.7018986,41.0094053],[28.6967452,41.0124465],[28.7002285,41.0155129],[28.7018894,41.02876],[28.6972203,41.0292482],[28.6952678,41.031618],[28.691017,41.0317593],[28.6906028,41.0363283],[28.6971527,41.0416045],[28.6906455,41.043073],[28.6897495,41.0474064],[28.6823155,41.0550028],[28.6915751,41.0577969]]]}},{"type":"Feature","properties":{"code":"34-18","provinceCode":"34","name":"Eyüpsultan"},"geometry":{"type":"Polygon","coordinates":[[[28.7887221,41.3059947],[28.7858367,41.3022265],[28.7812762,41.2796197],[28.7774856,41.2761034],[28.7769526,41.2710734],[28.770023,41.2693818],[28.7748204,41.2583853],[28.7790801,41.2577939],[28.7876244,41.2475805],[28.786703,41.2434252],[28.788779,41.2369346],[28.7941909,41.2336038],[28.7974552,41.229087],[28.7965333,41.2231037],[28.8088621,41.2200181],[28.8151941,41.2113276],[28.8179675,41.2107369],[28.8207791,41.2071926],[28.8192382,41.2029988],[28.8160451,41.2010509],[28.8191492,41.1966376],[28.8178816,41.1867962],[28.8214361,41.1825197],[28.8198151,41.1753677],[28.8142348,41.1755728],[28.8137165,41.1745391],[28.8137721,41.1638961],[28.8162581,41.1597111],[28.8147315,41.1543169],[28.8163474,41.1529024],[28.81725,41.1429454],[28.8151483,41.1411764],[28.8151956,41.1363045],[28.8249326,41.1354711],[28.8284204,41.135669],[28.8332728,41.1336351],[28.8329425,41.141954],[28.8409589,41.1476502],[28.8426855,41.1510862],[28.8614726,41.1597839],[28.8669401,41.1571531],[28.8665702,41.1518291],[28.8724899,41.1526959],[28.8757787,41.1503433],[28.8737232,41.1432543],[28.8761487,41.1422945],[28.88056,41.1454637],[28.8851157,41.1451388],[28.888199,41.1390438],[28.8992472,41.1331901],[28.901259,41.1284812],[28.9065442,41.1246916],[28.9016221,41.1211919],[28.9068249,41.122266],[28.907278,41.1197328],[28.9105073,41.1171794],[28.9105401,41.1140743],[28.918085,41.1140073],[28.9207532,41.1090938],[28.9170676,41.1046122],[28.9195878,41.1026692],[28.9170104,41.097254],[28.9211242,41.0943741],[28.9226925,41.0930735],[28.9152172,41.0788112],[28.9173204,41.0745758],[28.9136917,41.0719796],[28.9211362,41.0667071],[28.9271924,41.069928],[28.9321193,41.0691951],[28.9338636,41.065805],[28.9359438,41.065812],[28.9364248,41.0641406],[28.9349817,41.0645278],[28.9342945,41.0629376],[28.9366281,41.0593281],[28.9391967,41.0595277],[28.9354583,41.0566406],[28.9330812,41.0578424],[28.9300674,41.0557436],[28.9270869,41.0561786],[28.927159,41.0542754],[28.9257889,41.0557798],[28.9243224,41.0545494],[28.9238392,41.0558913],[28.9221353,41.0534235],[28.9164713,41.055436],[28.9147319,41.0526622],[28.9109414,41.0516259],[28.918513,41.04237],[28.9156154,41.0430248],[28.9165062,41.0391004],[28.9241806,41.0285575],[28.9293956,41.0245506],[28.9400293,41.033317],[28.9393804,41.0378873],[28.944566,41.0407646],[28.9399725,41.0422722],[28.9350919,41.0500462],[28.9387232,41.0550792],[28.9466348,41.0569381],[28.943802,41.0647797],[28.9466952,41.0633813],[28.9480788,41.0647209],[28.9513427,41.0651811],[28.9553767,41.0681037],[28.9568664,41.0739921],[28.9636248,41.0803378],[28.963995,41.085469],[28.9679281,41.0865251],[28.967278,41.0919178],[28.9572787,41.0998091],[28.9540976,41.1006095],[28.9538742,41.1048578],[28.960205,41.1056604],[28.965497,41.108233],[28.9585316,41.1133472],[28.9624177,41.1174234],[28.9590099,41.1241116],[28.9596675,41.127219],[28.9650482,41.1319248],[28.9632547,41.1341988],[28.9669315,41.1362476],[28.9688745,41.140435],[28.9761385,41.1473009],[28.9757767,41.1534329],[28.9713979,41.1574772],[28.9593123,41.1566859],[28.9570353,41.1580046],[28.9578527,41.1604223],[28.9520143,41.1604662],[28.9540577,41.1936445],[28.9506714,41.1950064],[28.9477696,41.2034057],[28.9534025,41.2146467],[28.9538488,41.2192808],[28.9532614,41.2208004],[28.9417368,41.2214779],[28.9382823,41.2234425],[28.9371027,41.2223018],[28.9370184,41.2253436],[28.9349121,41.2249634],[28.9351648,41.2295893],[28.9325702,41.2319768],[28.9407257,41.2484065],[28.9403044,41.2511937],[28.9432534,41.2563245],[28.9484772,41.2587948],[28.9494334,41.2621955],[28.937306,41.264926],[28.9218496,41.2719151],[28.9098219,41.2720214],[28.9021654,41.2752905],[28.8875598,41.2743758],[28.8590475,41.2809608],[28.8454995,41.2872734],[28.8355966,41.2878327],[28.8274024,41.291143],[28.8199482,41.2923052],[28.8201918,41.2944146],[28.8140923,41.2965157],[28.8039297,41.3034165],[28.7977055,41.3019957],[28.7887221,41.3059947]]]}},{"type":"Feature","properties":{"code":"34-19","provinceCode":"34","name":"Fatih"},"geometry":{"type":"Polygon","coordinates":[[[28.9293956,41.0245506],[28.9244098,41.0206888],[28.9217816,41.0160879],[28.9191301,40.9878682],[28.9238398,40.9877495],[28.9278438,40.9913796],[28.929591,40.9909443],[28.9301473,40.9927495],[28.9294442,40.9910792],[28.927898,40.9917655],[28.9350211,40.9998484],[28.9387601,41.0017218],[28.9381589,40.9997165],[28.9402707,40.9977416],[28.9480318,40.9963078],[28.9534297,40.9983668],[28.9610048,40.998198],[28.9537328,40.9992127],[28.9537443,41.0021298],[28.9783348,41.0010699],[28.9863188,41.0067466],[28.9881084,41.0124523],[28.9866872,41.0173559],[28.9768812,41.0166785],[28.9696293,41.0196342],[28.9662921,41.0194711],[28.9573103,41.0285015],[28.9531078,41.0292469],[28.9501349,41.0319849],[28.944566,41.0407646],[28.9393804,41.0378873],[28.9400293,41.033317],[28.9293956,41.0245506]]]}},{"type":"Feature","properties":{"code":"34-20","provinceCode":"34","name":"Gaziosmanpaşa"},"geometry":{"type":"Polygon","coordinates":[[[28.9211242,41.0943741],[28.9089919,41.0909744],[28.8890518,41.0902316],[28.8807045,41.087017],[28.8743359,41.0816349],[28.8787208,41.0772926],[28.9003725,41.0650805],[28.9031032,41.0600168],[28.909442,41.0554936],[28.9109414,41.0516259],[28.9147319,41.0526622],[28.9164713,41.055436],[28.9221353,41.0534235],[28.9238392,41.0558913],[28.9243224,41.0545494],[28.9257889,41.0557798],[28.927159,41.0542754],[28.9270869,41.0561786],[28.9300674,41.0557436],[28.9330812,41.0578424],[28.9354583,41.0566406],[28.9391967,41.0595277],[28.9366281,41.0593281],[28.9342945,41.0629376],[28.9349817,41.0645278],[28.9364248,41.0641406],[28.9359438,41.065812],[28.9338636,41.065805],[28.9321193,41.0691951],[28.9271924,41.069928],[28.9211362,41.0667071],[28.9136917,41.0719796],[28.9173204,41.0745758],[28.9152172,41.0788112],[28.9226925,41.0930735],[28.9211242,41.0943741]]]}},{"type":"Feature","properties":{"code":"34-21","provinceCode":"34","name":"Güngören"},"geometry":{"type":"Polygon","coordinates":[[[28.8959518,41.0066949],[28.8998795,41.0134422],[28.9005899,41.0209397],[28.8985146,41.0190267],[28.8867534,41.0174142],[28.887326,41.0207747],[28.8854227,41.0226141],[28.8905214,41.0298816],[28.8854573,41.0339974],[28.8764859,41.0318455],[28.8744317,41.0367972],[28.8712219,41.0384458],[28.872314,41.0276721],[28.8673364,41.0294879],[28.8590939,41.0287282],[28.8631331,41.0190518],[28.8601491,41.0175556],[28.8706019,41.0062437],[28.8746724,41.0081175],[28.8808028,41.0165304],[28.8814773,41.0062398],[28.8848379,41.001414],[28.8959518,41.0066949]]]}},{"type":"Feature","properties":{"code":"34-22","provinceCode":"34","name":"Kadıköy"},"geometry":{"type":"Polygon","coordinates":[[[29.1112349,40.9590646],[29.1038393,40.9667737],[29.0926035,40.9835982],[29.086569,40.9874224],[29.0732826,40.9924444],[29.0471844,41.0015473],[29.0471574,41.0101508],[29.0431699,41.0097094],[29.0371437,41.0123133],[29.0218033,40.9985299],[29.0176451,41.0012922],[29.0157612,41.0002356],[29.0190656,40.9970247],[29.0175343,40.9961371],[29.0225463,40.9960088],[29.02408,40.9942329],[29.0203633,40.9911],[29.0148423,40.9925657],[29.020198,40.9852743],[29.0213613,40.9788905],[29.0294809,40.9796896],[29.033681,40.9822174],[29.0382057,40.978535],[29.0361235,40.9768791],[29.0387687,40.9777421],[29.0380103,40.9758051],[29.0397263,40.9759438],[29.0361726,40.97421],[29.0347125,40.9765114],[29.0352416,40.973844],[29.0370588,40.9742997],[29.038295,40.9709443],[29.0366041,40.969582],[29.03394,40.9710125],[29.0337097,40.9738673],[29.0322368,40.9667588],[29.034466,40.9664457],[29.0375274,40.9688528],[29.0418253,40.9656082],[29.0454261,40.9695669],[29.0487679,40.969206],[29.0534466,40.9673862],[29.0565208,40.9637108],[29.0583477,40.9640059],[29.057713,40.9631233],[29.0688242,40.9624402],[29.0704035,40.9587437],[29.0771871,40.9566244],[29.0810735,40.9534818],[29.0844242,40.95306],[29.083894,40.954404],[29.087152,40.954606],[29.0888455,40.9515854],[29.0944763,40.9499656],[29.0905122,40.9513392],[29.0948141,40.952004],[29.1011504,40.9562626],[29.1112349,40.9590646]]]}},{"type":"Feature","properties":{"code":"34-23","provinceCode":"34","name":"Kağıthane"},"geometry":{"type":"Polygon","coordinates":[[[28.9513427,41.0651811],[28.9495803,41.0625692],[28.9548437,41.0589316],[28.9555373,41.0536726],[28.9618462,41.0534978],[28.9697541,41.0642073],[28.9749625,41.0663968],[28.9796805,41.070786],[28.9827183,41.0691363],[28.9887862,41.0725414],[28.9892802,41.0781815],[29.0008966,41.0747681],[29.0070471,41.0758876],[29.0076484,41.0791552],[29.0048664,41.0842005],[29.0083175,41.0846791],[29.0058428,41.0901712],[29.004212,41.0985963],[29.0018249,41.1005933],[28.985531,41.0988636],[28.98474,41.1028438],[28.982176,41.1049091],[28.9779009,41.1030651],[28.9760443,41.1049296],[28.9749199,41.1031279],[28.9662909,41.103237],[28.9682022,41.1071766],[28.965497,41.108233],[28.960205,41.1056604],[28.9538742,41.1048578],[28.9540976,41.1006095],[28.9572787,41.0998091],[28.967278,41.0919178],[28.9679281,41.0865251],[28.963995,41.085469],[28.9636248,41.0803378],[28.9568664,41.0739921],[28.9553767,41.0681037],[28.9513427,41.0651811]]]}},{"type":"Feature","properties":{"code":"34-24","provinceCode":"34","name":"Kartal"},"geometry":{"type":"Polygon","coordinates":[[[29.138277,40.906671],[29.1441637,40.9016536],[29.1481306,40.9004413],[29.1475867,40.901431],[29.1517659,40.901531],[29.1636799,40.8963935],[29.1793876,40.8856849],[29.1845117,40.8853341],[29.1883241,40.8869955],[29.198073,40.8833874],[29.203694,40.883273],[29.2056813,40.881135],[29.2060614,40.8820323],[29.2154413,40.8781452],[29.2179029,40.8807444],[29.2187098,40.8900572],[29.2233184,40.8896141],[29.2245445,40.8973694],[29.2322463,40.8923154],[29.2370812,40.8962063],[29.2376929,40.8987584],[29.2429389,40.8982564],[29.24666,40.900784],[29.2458599,40.9115987],[29.2435189,40.9138857],[29.245137,40.9149492],[29.2429545,40.9195526],[29.2496447,40.9222886],[29.255294,40.9312889],[29.2523776,40.9340912],[29.249802,40.9458017],[29.2464201,40.950513],[29.2420408,40.9490185],[29.2300792,40.9484631],[29.2256421,40.9521897],[29.2210986,40.9509564],[29.2163078,40.9460384],[29.2093636,40.9371724],[29.2040848,40.922471],[29.1997536,40.9210258],[29.1991279,40.9236139],[29.1940156,40.9211862],[29.1832609,40.921444],[29.1776524,40.9194441],[29.1718313,40.9192657],[29.1569745,40.9136698],[29.1593539,40.9131961],[29.151072,40.9096912],[29.1474681,40.9141181],[29.1428545,40.9135508],[29.1393547,40.9114207],[29.1398642,40.907832],[29.138277,40.906671]]]}},{"type":"Feature","properties":{"code":"34-25","provinceCode":"34","name":"Küçükçekmece"},"geometry":{"type":"Polygon","coordinates":[[[28.7559765,40.9801868],[28.7664809,40.9815463],[28.7675753,40.9846402],[28.7672749,40.9829717],[28.7693672,40.9819705],[28.7670833,40.9820637],[28.7682876,40.9799345],[28.7747685,40.9770363],[28.7724195,40.981272],[28.7693569,40.981859],[28.7753451,40.9824219],[28.7728097,40.9856719],[28.7719021,40.987963],[28.7699962,40.9881067],[28.7714043,40.9885641],[28.7701733,40.9898045],[28.7717828,40.9891872],[28.7729421,40.9861361],[28.7752159,40.9838491],[28.7756661,40.9819856],[28.7728431,40.9806553],[28.77519,40.9773627],[28.7757386,40.9824936],[28.7752893,40.9840442],[28.7734523,40.9865507],[28.7834439,40.9854688],[28.7923865,40.9891783],[28.7945759,40.9881025],[28.798331,40.9890014],[28.7972508,40.9975087],[28.8011239,40.9999604],[28.8095612,40.9998896],[28.8159633,40.9945503],[28.8213057,40.9931186],[28.8201583,40.9950138],[28.8162176,40.9955354],[28.8117338,41.0005848],[28.8082437,41.0150551],[28.8061208,41.015537],[28.8083935,41.027953],[28.8109991,41.027182],[28.8107326,41.0375949],[28.8079843,41.0465023],[28.8116116,41.061291],[28.7909668,41.0641088],[28.755918,41.061021],[28.7443371,41.062082],[28.7452733,41.0591214],[28.7407052,41.0528023],[28.7397863,41.044572],[28.7559765,40.9801868]]]}},{"type":"Feature","properties":{"code":"34-26","provinceCode":"34","name":"Maltepe"},"geometry":{"type":"Polygon","coordinates":[[[29.0948141,40.952004],[29.1028249,40.9442668],[29.1019277,40.939234],[29.1031176,40.9439792],[29.1072369,40.9426079],[29.1066666,40.9390534],[29.1132407,40.9315643],[29.112425,40.9301087],[29.1163459,40.9333423],[29.1136835,40.9288022],[29.1192281,40.9225383],[29.1226858,40.9242771],[29.1192871,40.9224474],[29.121708,40.9195664],[29.12795,40.9190219],[29.1319914,40.912092],[29.138277,40.906671],[29.1398642,40.907832],[29.1393547,40.9114207],[29.1428545,40.9135508],[29.1474681,40.9141181],[29.151072,40.9096912],[29.1593539,40.9131961],[29.1569745,40.9136698],[29.1718313,40.9192657],[29.1776524,40.9194441],[29.1832609,40.921444],[29.1940156,40.9211862],[29.1991279,40.9236139],[29.1997536,40.9210258],[29.2040848,40.922471],[29.2093636,40.9371724],[29.2163078,40.9460384],[29.2145618,40.9531286],[29.2069683,40.9609341],[29.214046,40.9741909],[29.2122601,40.975893],[29.2052489,40.9736449],[29.2060965,40.9751677],[29.2025936,40.9761883],[29.199391,40.9743293],[29.198035,40.9813017],[29.17959,40.9745058],[29.1778557,40.9771897],[29.1734453,40.976102],[29.1716205,40.9782221],[29.1623025,40.9807639],[29.157476,40.9791139],[29.1538801,40.9741862],[29.1496003,40.9724462],[29.1374444,40.9741048],[29.1262307,40.9727992],[29.1165948,40.9613755],[29.1112349,40.9590646],[29.1011504,40.9562626],[29.0948141,40.952004]]]}},{"type":"Feature","properties":{"code":"34-27","provinceCode":"34","name":"Pendik"},"geometry":{"type":"Polygon","coordinates":[[[29.2154413,40.8781452],[29.2224112,40.8755295],[29.2271253,40.8710551],[29.2334607,40.8703065],[29.2395857,40.8676982],[29.2335452,40.8708387],[29.2357009,40.8720228],[29.2351912,40.8746925],[29.2438356,40.8729692],[29.2574097,40.8670417],[29.2563952,40.8661773],[29.2585419,40.8671392],[29.2546783,40.8625344],[29.2560516,40.8594834],[29.2566315,40.8644421],[29.2589082,40.8645065],[29.2650608,40.8599773],[29.2592703,40.8570556],[29.2524295,40.8592108],[29.2604118,40.8550431],[29.267389,40.8539272],[29.2677339,40.8558442],[29.2694641,40.8567396],[29.2700032,40.8558036],[29.2717328,40.8578036],[29.2749528,40.8556048],[29.287262,40.854434],[29.2876996,40.8573893],[29.2912096,40.8555485],[29.2947501,40.857493],[29.2981333,40.8638248],[29.3039069,40.8638361],[29.3060118,40.8611361],[29.3151799,40.863746],[29.312143,40.8685643],[29.312002,40.8743358],[29.3065501,40.8767795],[29.3145673,40.8788226],[29.3247064,40.8861673],[29.3279254,40.8903159],[29.3291482,40.8961337],[29.326598,40.8999699],[29.3293263,40.9016025],[29.3279394,40.9089799],[29.3348207,40.9117977],[29.3358211,40.9138595],[29.3385797,40.9263433],[29.3366223,40.9310924],[29.3556702,40.9351111],[29.3727896,40.9422114],[29.3761846,40.948218],[29.3822645,40.948062],[29.3845965,40.9513496],[29.3899074,40.9524948],[29.3900811,40.954592],[29.3910926,40.9531322],[29.3958813,40.9542212],[29.3999806,40.9645165],[29.4067032,40.9600886],[29.4133865,40.9695295],[29.4182377,40.9728727],[29.4463607,40.9754561],[29.4539863,40.9800405],[29.4563809,40.9707317],[29.4533954,40.9596743],[29.45658,40.9543506],[29.4632713,40.950964],[29.4699567,40.9516608],[29.474752,40.9587832],[29.4763138,40.9594639],[29.479224,40.9577011],[29.479224,40.9618447],[29.4825282,40.9620049],[29.4851959,40.9660795],[29.485014,40.9682769],[29.4819374,40.9699663],[29.4850433,40.9749603],[29.4897133,40.9767704],[29.5009289,40.9866774],[29.5064693,40.9880709],[29.505188,41.0001656],[29.5025604,41.0004288],[29.4929349,41.0083022],[29.4935886,41.0126664],[29.4997079,41.017212],[29.499759,41.0262007],[29.5017893,41.0315471],[29.4974868,41.035782],[29.4836391,41.0299788],[29.4836391,41.023778],[29.4813312,41.0204177],[29.4759055,41.0180349],[29.4758245,41.0163852],[29.4661879,41.009022],[29.4495465,40.9989995],[29.4414484,40.9964325],[29.4398181,40.999774],[29.434441,41.0025853],[29.4381013,41.0094297],[29.4357691,41.0101386],[29.4335988,41.0086965],[29.4347973,41.0120207],[29.4330481,41.0144404],[29.4283189,41.0153692],[29.4306835,41.020306],[29.4137748,41.026611],[29.4107624,41.0266843],[29.404705,41.0238741],[29.3994251,41.0243872],[29.3845629,41.0292562],[29.3763353,41.0351938],[29.3749748,41.0433053],[29.3765297,41.0492661],[29.370116,41.0570582],[29.363769,41.0598179],[29.3597068,41.0556514],[29.3599455,41.0492855],[29.3638928,41.0468141],[29.3646376,41.0442864],[29.359871,41.0392308],[29.3592043,41.0342545],[29.3637202,41.0275045],[29.3616295,41.0258011],[29.3537685,41.0247285],[29.3425625,41.0158953],[29.3025311,41.0146257],[29.2957515,41.0155346],[29.295218,41.0112114],[29.2887678,41.0064296],[29.2867837,41.002361],[29.2900364,40.9791249],[29.2889887,40.9757474],[29.2935757,40.9688849],[29.3001648,40.9641527],[29.3027668,40.9589668],[29.3108029,40.9600343],[29.3117751,40.9590355],[29.3099644,40.9492854],[29.2958505,40.9380985],[29.28027,40.9346357],[29.2735697,40.9317408],[29.2735908,40.9334474],[29.2710654,40.9335136],[29.255294,40.9312889],[29.2496447,40.9222886],[29.2429545,40.9195526],[29.245137,40.9149492],[29.2435189,40.9138857],[29.2458599,40.9115987],[29.24666,40.900784],[29.2429389,40.8982564],[29.2376929,40.8987584],[29.2370812,40.8962063],[29.2322463,40.8923154],[29.2245445,40.8973694],[29.2233184,40.8896141],[29.2187098,40.8900572],[29.2179029,40.8807444],[29.2154413,40.8781452]]]}},{"type":"Feature","properties":{"code":"34-28","provinceCode":"34","name":"Prince Islands"},"geometry":{"type":"MultiPolygon","coordinates":[[[[28.9692355,40.8751019],[28.9702487,40.8738946],[28.9742098,40.8746515],[28.9733009,40.8761792],[28.9747932,40.8756127],[28.9726622,40.8771404],[28.9692355,40.8751019]]],[[[28.9901862,40.8662562],[28.9935086,40.8631537],[28.9966398,40.8646924],[28.9938703,40.866558],[28.9901862,40.8662562]]],[[[29.0391703,40.9118411],[29.0419062,40.9076491],[29.0458437,40.9053463],[29.0455111,40.9025649],[29.0537401,40.9031488],[29.0569335,40.9054301],[29.055971,40.9107582],[29.0511921,40.9144667],[29.0433172,40.9138911],[29.0391703,40.9118411]]],[[[29.0522687,40.8782188],[29.0543301,40.8759776],[29.0630566,40.8738648],[29.0672282,40.8750318],[29.0724689,40.87927],[29.0697226,40.8803979],[29.0695375,40.8845879],[29.0563275,40.8867464],[29.0574236,40.8830419],[29.0522687,40.8782188]]],[[[29.0747119,40.8692218],[29.0833432,40.8674753],[29.0824741,40.8704337],[29.0852795,40.8716466],[29.0883712,40.8704138],[29.0871631,40.8680701],[29.0953857,40.8691345],[29.1039859,40.8734377],[29.1015312,40.873548],[29.1026384,40.8753328],[29.104149,40.8740088],[29.0992652,40.8801287],[29.098686,40.883821],[29.093137,40.88482],[29.0888287,40.8831549],[29.0902898,40.8804123],[29.085068,40.877355],[29.078307,40.875718],[29.0749491,40.8726605],[29.0761275,40.8705973],[29.0747119,40.8692218]]],[[[29.0760538,40.8847455],[29.0767776,40.881197],[29.0787213,40.8847683],[29.0772563,40.8857067],[29.0760538,40.8847455]]],[[[29.1072384,40.8609052],[29.1130359,40.8596926],[29.1103288,40.8533873],[29.1146815,40.8463786],[29.1099481,40.8418163],[29.112098,40.8416453],[29.1145943,40.8382154],[29.1240097,40.8376379],[29.1242938,40.8440371],[29.1265929,40.8462516],[29.1255205,40.8558753],[29.1369613,40.8669822],[29.1385917,40.8718198],[29.1353058,40.8746699],[29.1301976,40.8751125],[29.1179772,40.871789],[29.1149454,40.8704647],[29.114538,40.8622029],[29.1072384,40.8609052]]],[[[29.1110346,40.8202947],[29.1136622,40.8179982],[29.1135211,40.8204596],[29.1110346,40.8202947]]],[[[29.1405469,40.8504697],[29.147721,40.846849],[29.1482181,40.8491712],[29.1436583,40.8558095],[29.1405469,40.8504697]]]]}},{"type":"Feature","properties":{"code":"34-29","provinceCode":"34","name":"Sancaktepe"},"geometry":{"type":"Polygon","coordinates":[[[29.2163078,40.9460384],[29.2210986,40.9509564],[29.2256421,40.9521897],[29.2300792,40.9484631],[29.2420408,40.9490185],[29.2464201,40.950513],[29.2492429,40.9521269],[29.2497706,40.9558527],[29.2449499,40.9691547],[29.2519743,40.9763681],[29.2543963,40.9898895],[29.257812,40.9945373],[29.2597273,41.0031925],[29.2630308,41.0048748],[29.2867837,41.002361],[29.2887678,41.0064296],[29.295218,41.0112114],[29.2957515,41.0155346],[29.3025311,41.0146257],[29.3425625,41.0158953],[29.3537685,41.0247285],[29.3616295,41.0258011],[29.3637202,41.0275045],[29.3592043,41.0342545],[29.359871,41.0392308],[29.3505613,41.041871],[29.3474246,41.0411344],[29.3465712,41.0479526],[29.3298123,41.0485112],[29.3220762,41.0508521],[29.3120848,41.0486392],[29.3025299,41.0495171],[29.300071,41.0478353],[29.2902669,41.0527344],[29.2848177,41.0505088],[29.2814968,41.0448877],[29.2744952,41.0423455],[29.2727873,41.0371592],[29.2655345,41.0297942],[29.2592322,41.0277521],[29.2501587,41.0280106],[29.2514741,41.0253537],[29.2491031,41.0235487],[29.246335,41.0234435],[29.246127,41.0246278],[29.2460075,41.0217891],[29.2386893,41.0218908],[29.2352744,41.0169014],[29.2135825,41.0159165],[29.2052588,41.01296],[29.1907382,41.0140145],[29.1939505,41.0132983],[29.1947035,41.0114265],[29.1853685,41.0088438],[29.1893226,41.0060389],[29.1929421,40.9967049],[29.1912269,40.9926562],[29.1927683,40.9924676],[29.1926187,40.9889727],[29.2035055,40.9831703],[29.198035,40.9813017],[29.199391,40.9743293],[29.2025936,40.9761883],[29.2060965,40.9751677],[29.2052489,40.9736449],[29.2122601,40.975893],[29.214046,40.9741909],[29.2069683,40.9609341],[29.2145618,40.9531286],[29.2163078,40.9460384]]]}},{"type":"Feature","properties":{"code":"34-30","provinceCode":"34","name":"Sarıyer"},"geometry":{"type":"Polygon","coordinates":[[[28.965497,41.108233],[28.9682022,41.1071766],[28.9662909,41.103237],[28.9749199,41.1031279],[28.9760443,41.1049296],[28.9779009,41.1030651],[28.982176,41.1049091],[28.98474,41.1028438],[28.985531,41.0988636],[29.0018249,41.1005933],[29.004212,41.0985963],[29.0058428,41.0901712],[29.0058762,41.0955845],[29.0144507,41.1066585],[29.018467,41.1014915],[29.0231261,41.0990947],[29.0330532,41.0991837],[29.028317,41.0953461],[29.0233028,41.0941902],[29.0419917,41.0906867],[29.0418732,41.0847707],[29.0545611,41.0841081],[29.0547757,41.0810946],[29.0568053,41.083166],[29.0572087,41.0907802],[29.0540054,41.0948485],[29.0545118,41.0979339],[29.0528552,41.0976946],[29.0593579,41.1093226],[29.0576907,41.1134941],[29.0543508,41.1137722],[29.0571567,41.1149429],[29.0617587,41.1131254],[29.070327,41.1202092],[29.0716977,41.1245372],[29.0700643,41.1275058],[29.0642364,41.130512],[29.0610878,41.1357071],[29.0542289,41.1385837],[29.0579745,41.1396613],[29.0524003,41.1469566],[29.04449,41.1496525],[29.0413836,41.1529166],[29.0368106,41.1546466],[29.0363909,41.1567372],[29.051774,41.1647553],[29.0570347,41.1657578],[29.0604421,41.1706402],[29.0727073,41.1750224],[29.0738494,41.1808707],[29.0741686,41.1796944],[29.0771461,41.1856358],[29.0815523,41.1875721],[29.091431,41.2003617],[29.0978292,41.2028664],[29.1001675,41.2060705],[29.1033507,41.2051349],[29.1053432,41.2064101],[29.1108768,41.2129198],[29.1094649,41.2136178],[29.1117815,41.2141634],[29.106774,41.2168432],[29.106375,41.2211217],[29.1097166,41.22291],[29.1080843,41.2242561],[29.1139531,41.2296367],[29.1119855,41.2313904],[29.1133322,41.234073],[29.1152919,41.2334376],[29.1138802,41.231842],[29.1148414,41.2287642],[29.1162318,41.2339606],[29.1090465,41.2353499],[29.1121806,41.2377734],[29.109827,41.238516],[29.1061682,41.2371882],[29.1070209,41.2396657],[29.1050744,41.2387415],[29.1055376,41.2401245],[29.1029407,41.2413982],[29.1003634,41.242041],[29.0977209,41.2401907],[29.0973274,41.2436768],[29.0933204,41.2453917],[29.0916072,41.2436662],[29.0902025,41.2477958],[29.0846954,41.2455969],[29.0831387,41.249265],[29.0845326,41.2499212],[29.0796924,41.248828],[29.0802042,41.251711],[29.0779629,41.2545597],[29.0753716,41.2496861],[29.0723515,41.2478941],[29.0710278,41.2486963],[29.0721832,41.2516658],[29.0674511,41.2522522],[29.0674454,41.2535514],[29.0645631,41.2506727],[29.0621476,41.2516655],[29.060696,41.255065],[29.054225,41.254796],[29.0495152,41.2570239],[29.0442044,41.2536161],[29.0416831,41.2548421],[29.0418387,41.2564391],[29.0380783,41.2565238],[29.0385659,41.2519328],[29.033665,41.2494724],[29.0332957,41.2462685],[29.0198306,41.2451836],[29.0011303,41.2471418],[28.9786668,41.2530568],[28.974221,41.252602],[28.9651668,41.2550278],[28.9628848,41.2584361],[28.9546304,41.2622894],[28.9494334,41.2621955],[28.9484772,41.2587948],[28.9432534,41.2563245],[28.9403044,41.2511937],[28.9407257,41.2484065],[28.9325702,41.2319768],[28.9351648,41.2295893],[28.9349121,41.2249634],[28.9370184,41.2253436],[28.9371027,41.2223018],[28.9382823,41.2234425],[28.9417368,41.2214779],[28.9532614,41.2208004],[28.9538488,41.2192808],[28.9534025,41.2146467],[28.9477696,41.2034057],[28.9506714,41.1950064],[28.9540577,41.1936445],[28.9520143,41.1604662],[28.9578527,41.1604223],[28.9570353,41.1580046],[28.9593123,41.1566859],[28.9713979,41.1574772],[28.9757767,41.1534329],[28.9761385,41.1473009],[28.9688745,41.140435],[28.9669315,41.1362476],[28.9632547,41.1341988],[28.9650482,41.1319248],[28.9596675,41.127219],[28.9590099,41.1241116],[28.9624177,41.1174234],[28.9585316,41.1133472],[28.965497,41.108233]]]}},{"type":"Feature","properties":{"code":"34-31","provinceCode":"34","name":"Silivri"},"geometry":{"type":"Polygon","coordinates":[[[27.9757529,41.0661404],[27.9787474,41.0582346],[27.9771603,41.0522032],[27.9785725,41.0522824],[27.9790307,41.0492227],[27.9742494,41.0425888],[27.9768929,41.0420891],[27.9765689,41.0438713],[27.9803968,41.0436561],[27.9816423,41.0401277],[27.9859367,41.0440022],[27.9922982,41.042841],[27.9953149,41.0381139],[28.0048617,41.0401329],[28.0057192,41.0335015],[28.0075828,41.0320583],[28.0133454,41.0352477],[28.0134334,41.0342521],[28.0306559,41.0412113],[28.0449956,41.0427353],[28.073668,41.056452],[28.113769,41.061206],[28.1228512,41.05965],[28.1255259,41.0635366],[28.1306271,41.0660845],[28.1429747,41.0690315],[28.1557769,41.0696276],[28.1680341,41.0728861],[28.184875,41.073332],[28.2114892,41.0704116],[28.219203,41.076825],[28.2232919,41.0777863],[28.236213,41.0774505],[28.2413578,41.0754122],[28.2424136,41.0748287],[28.2399412,41.0734851],[28.2422011,41.0742423],[28.2430434,41.0727666],[28.2406576,41.0720577],[28.2430234,41.0723072],[28.2402434,41.0709016],[28.2387546,41.0722948],[28.240387,41.0701096],[28.2412517,41.0713],[28.250256,41.068406],[28.259981,41.062523],[28.283739,41.063288],[28.306398,41.059953],[28.313134,41.057566],[28.334825,41.056803],[28.34062,41.058276],[28.351771,41.056221],[28.352407,41.054159],[28.359861,41.053815],[28.365249,41.051954],[28.372053,41.053028],[28.3909885,41.0480917],[28.3937073,41.0565056],[28.3926498,41.0592594],[28.3943858,41.0662524],[28.3924408,41.066425],[28.3921979,41.0709885],[28.3933792,41.0777245],[28.3897193,41.0806264],[28.3906942,41.0866943],[28.3954575,41.0942101],[28.3912792,41.0983666],[28.3875465,41.1122824],[28.3871565,41.1239501],[28.3803041,41.1281256],[28.3885772,41.1292796],[28.3818083,41.1438182],[28.3850952,41.1485797],[28.3812512,41.1542848],[28.3838417,41.1600103],[28.3779364,41.1631979],[28.3763208,41.1618138],[28.3708054,41.1620235],[28.3697469,41.1717743],[28.3652621,41.173284],[28.3691619,41.1770371],[28.3720589,41.1836411],[28.3744266,41.1843958],[28.3714182,41.1885675],[28.3683328,41.1887563],[28.3674349,41.192152],[28.3695797,41.1938079],[28.3735352,41.1939966],[28.3748166,41.195338],[28.3733124,41.1968891],[28.3784378,41.2013953],[28.3738138,41.205503],[28.3743191,41.2085646],[28.3699439,41.2093456],[28.3677318,41.2082396],[28.3662989,41.2123327],[28.3522536,41.2213656],[28.346404,41.2343965],[28.3472954,41.2378109],[28.3441198,41.2389839],[28.3440641,41.2409319],[28.3347047,41.2389839],[28.3321977,41.2402407],[28.3289665,41.2387326],[28.3237296,41.242419],[28.3169051,41.2443879],[28.3181585,41.2506919],[28.3111947,41.2576864],[28.3076292,41.2589218],[28.3056793,41.2673392],[28.3022531,41.2687838],[28.3026709,41.2750436],[28.2951941,41.2752248],[28.3095234,41.2863475],[28.3096905,41.2892778],[28.3131167,41.2907847],[28.3182978,41.3045132],[28.3234353,41.3074635],[28.3102476,41.3102883],[28.3048436,41.3080913],[28.2996625,41.308468],[28.2894043,41.3046532],[28.2817742,41.3117239],[28.2779519,41.3109419],[28.267341,41.3180226],[28.2654442,41.3244814],[28.2758307,41.3340453],[28.2746556,41.3351238],[28.276353,41.3396335],[28.2797044,41.3416595],[28.2814018,41.3463649],[28.2726534,41.3551212],[28.2680834,41.3545658],[28.2635134,41.3471491],[28.250195,41.3456134],[28.2480623,41.3440449],[28.2417948,41.345352],[28.2331335,41.342019],[28.22778,41.3422804],[28.2186399,41.3457767],[28.2132865,41.3407772],[28.2111973,41.3355486],[28.204364,41.3451232],[28.1597953,41.3583228],[28.1423856,41.3582248],[28.1350735,41.3606749],[28.1318092,41.3634843],[28.1355523,41.3543044],[28.1352265,41.3478972],[28.125063,41.3359408],[28.1273698,41.3335878],[28.1302859,41.3238153],[28.1338984,41.3204812],[28.1376415,41.3204159],[28.1388166,41.3183238],[28.134116,41.3177681],[28.1325491,41.3140741],[28.1178815,41.301683],[28.1159229,41.2983151],[28.1083932,41.2967128],[28.1086108,41.2980208],[28.10613,41.2989037],[28.1032574,41.2970725],[28.0943794,41.2995968],[28.0935227,41.2971476],[28.0886146,41.2957178],[28.0864448,41.2976346],[28.0811,41.2987607],[28.0802787,41.2968555],[28.0758984,41.2948375],[28.0767309,41.2879246],[28.0721357,41.2849863],[28.0718148,41.2825662],[28.0675243,41.2790025],[28.063118,41.277723],[28.0578519,41.2680061],[28.0458562,41.2653249],[28.0301426,41.2561208],[28.0155317,41.2522807],[28.0039147,41.2440889],[27.9988287,41.236309],[27.9982633,41.2226434],[28.0183983,41.1970466],[28.0231833,41.1790739],[28.0203509,41.1722904],[28.0169606,41.171499],[28.0167889,41.1670086],[28.0129557,41.1669367],[28.0136239,41.1623401],[27.9850101,41.1621463],[27.9799676,41.1557407],[27.978605,41.1513704],[27.9807079,41.1437923],[27.9733564,41.1229912],[27.9758237,41.1233733],[27.9756439,41.1195252],[27.9724038,41.1117251],[27.9773618,41.1114299],[27.972873,41.1088861],[27.9756868,41.1065596],[27.9708481,41.0998253],[27.9779506,41.0989925],[27.9747685,41.0876566],[27.9789505,41.0835969],[27.9750011,41.0796342],[27.9753971,41.0756632],[27.9810104,41.076032],[27.9810834,41.072064],[27.9839896,41.0716475],[27.9799765,41.0676367],[27.9757529,41.0661404]]]}},{"type":"Feature","properties":{"code":"34-32","provinceCode":"34","name":"Sultanbeyli"},"geometry":{"type":"Polygon","coordinates":[[[29.255294,40.9312889],[29.2710654,40.9335136],[29.2735908,40.9334474],[29.2735697,40.9317408],[29.28027,40.9346357],[29.2958505,40.9380985],[29.3099644,40.9492854],[29.3117751,40.9590355],[29.3108029,40.9600343],[29.3027668,40.9589668],[29.3001648,40.9641527],[29.2935757,40.9688849],[29.2889887,40.9757474],[29.2900364,40.9791249],[29.2867837,41.002361],[29.2630308,41.0048748],[29.2597273,41.0031925],[29.257812,40.9945373],[29.2543963,40.9898895],[29.2519743,40.9763681],[29.2449499,40.9691547],[29.2497706,40.9558527],[29.2492429,40.9521269],[29.2464201,40.950513],[29.249802,40.9458017],[29.2523776,40.9340912],[29.255294,40.9312889]]]}},{"type":"Feature","properties":{"code":"34-33","provinceCode":"34","name":"Sultangazi"},"geometry":{"type":"Polygon","coordinates":[[[28.8249326,41.1354711],[28.8245247,41.1334533],[28.8281592,41.1298603],[28.8452476,41.1190494],[28.8450761,41.1128866],[28.8499877,41.1077297],[28.8631231,41.0908415],[28.8743359,41.0816349],[28.8807045,41.087017],[28.8890518,41.0902316],[28.9089919,41.0909744],[28.9211242,41.0943741],[28.9170104,41.097254],[28.9195878,41.1026692],[28.9170676,41.1046122],[28.9207532,41.1090938],[28.918085,41.1140073],[28.9105401,41.1140743],[28.9105073,41.1171794],[28.907278,41.1197328],[28.9068249,41.122266],[28.9016221,41.1211919],[28.9065442,41.1246916],[28.901259,41.1284812],[28.8992472,41.1331901],[28.888199,41.1390438],[28.8851157,41.1451388],[28.88056,41.1454637],[28.8761487,41.1422945],[28.8737232,41.1432543],[28.8757787,41.1503433],[28.8724899,41.1526959],[28.8665702,41.1518291],[28.8669401,41.1571531],[28.8614726,41.1597839],[28.8426855,41.1510862],[28.8409589,41.1476502],[28.8329425,41.141954],[28.8332728,41.1336351],[28.8284204,41.135669],[28.8249326,41.1354711]]]}},{"type":"Feature","properties":{"code":"34-34","provinceCode":"34","name":"Şile"},"geometry":{"type":"MultiPolygon","coordinates":[[[[29.5017893,41.0315471],[29.5079255,41.0362312],[29.5086371,41.041655],[29.5115335,41.0400558],[29.5127049,41.0422962],[29.5175406,41.0440465],[29.5208967,41.0415777],[29.5224649,41.042129],[29.5272179,41.0362283],[29.5257421,41.0342647],[29.5281986,41.0316644],[29.530487,41.0319213],[29.5319957,41.0341101],[29.5373054,41.0331447],[29.5367735,41.0354627],[29.5386128,41.0368198],[29.5424802,41.0370316],[29.5444479,41.0354441],[29.5467789,41.0370303],[29.5507902,41.0353979],[29.5534896,41.0388933],[29.5567856,41.0382356],[29.5580567,41.0392344],[29.5665838,41.034576],[29.5735003,41.0327495],[29.5743732,41.0350792],[29.5779985,41.0325632],[29.5978181,41.0284731],[29.6002632,41.026565],[29.5971894,41.0205133],[29.6018565,41.0124748],[29.5989275,41.0033666],[29.6034227,41.0070053],[29.605375,41.0054929],[29.6090915,41.0074019],[29.610175,41.0063767],[29.6103859,40.9924675],[29.6068668,40.9907831],[29.6048713,40.9861507],[29.6069312,40.9812588],[29.6109223,40.9799791],[29.6136477,40.9812279],[29.6210235,40.9762167],[29.633646,40.9709717],[29.6419716,40.9708745],[29.6494978,40.9685617],[29.6517777,40.9694042],[29.6553022,40.9672655],[29.6556294,40.9640614],[29.6601248,40.9626679],[29.6623349,40.9633566],[29.6633166,40.9617484],[29.6716958,40.966427],[29.6731979,40.9644948],[29.6766905,40.9644098],[29.6791363,40.966022],[29.6834981,40.9699632],[29.6838077,40.9770912],[29.6860134,40.9795984],[29.6896344,40.9796308],[29.6910721,40.9813398],[29.6883792,40.9839073],[29.6910154,40.9845285],[29.6920094,40.9887823],[29.7008315,40.990049],[29.7031255,40.9946586],[29.7116573,41.0004562],[29.7116905,41.002111],[29.7180605,41.002897],[29.7189464,41.0084263],[29.7134762,41.0127571],[29.7100138,41.0116086],[29.7070741,41.0126125],[29.6964097,41.0226179],[29.6961522,41.0244148],[29.6998891,41.0283644],[29.7058285,41.0286119],[29.7044201,41.0344787],[29.7181463,41.0275067],[29.7180304,41.0317493],[29.7230435,41.0315198],[29.7298193,41.0411028],[29.7324291,41.0421757],[29.7365355,41.0404878],[29.7364282,41.0348392],[29.7406554,41.035956],[29.7426057,41.0341602],[29.746397,41.0343493],[29.7563504,41.026561],[29.7611368,41.0271748],[29.7645592,41.0268349],[29.7649673,41.0254778],[29.7712369,41.0252479],[29.7783629,41.0273877],[29.7849979,41.023886],[29.785734,41.0215493],[29.7942568,41.0190777],[29.8002756,41.0207076],[29.8042774,41.01955],[29.8086226,41.0201895],[29.8138047,41.0146239],[29.8192679,41.0149915],[29.8227533,41.0132347],[29.8347909,41.0158392],[29.8350048,41.0173887],[29.8394794,41.0184287],[29.8409454,41.0208051],[29.8464203,41.0208047],[29.8545742,41.0283808],[29.8622285,41.0308556],[29.8637715,41.0355016],[29.8678136,41.0375584],[29.8684617,41.0402864],[29.877963,41.0405202],[29.8804294,41.0419671],[29.8810408,41.054389],[29.8869974,41.0581555],[29.8871367,41.0631993],[29.8914465,41.0625703],[29.8928225,41.0639267],[29.8927045,41.0707537],[29.8869006,41.0804381],[29.8909982,41.0827078],[29.8925543,41.0856752],[29.8915028,41.0929597],[29.9003367,41.0908989],[29.9038088,41.0917641],[29.9107692,41.0879805],[29.9115443,41.0896375],[29.9151599,41.0887723],[29.9146664,41.0898801],[29.9278371,41.0864483],[29.9289909,41.0877125],[29.9361086,41.0868776],[29.94109,41.0840125],[29.9439347,41.0850202],[29.9454582,41.0826831],[29.9545133,41.0800952],[29.9550497,41.0837101],[29.9576783,41.0840012],[29.9561217,41.0894418],[29.9588048,41.0944648],[29.9549532,41.0987095],[29.9489605,41.0998582],[29.9435943,41.0974652],[29.9358378,41.0984051],[29.9285222,41.0969988],[29.9265754,41.0985802],[29.9183638,41.0992309],[29.9150097,41.1010461],[29.914999,41.1040373],[29.9166942,41.10487],[29.9141782,41.1049266],[29.9130249,41.1077197],[29.9157017,41.1099912],[29.9114513,41.1183865],[29.9144608,41.1200708],[29.9096302,41.1194186],[29.9095273,41.1210487],[29.9145913,41.1259019],[29.9140978,41.1403423],[29.9181844,41.1415455],[29.90951,41.143301],[29.9076442,41.1406601],[29.905078,41.1429],[29.895253,41.143404],[29.893496,41.142037],[29.884338,41.142267],[29.8757039,41.1388151],[29.8733149,41.1405608],[29.8743451,41.1420189],[29.8644192,41.1413582],[29.8613244,41.1436207],[29.852181,41.1419106],[29.8553413,41.1393114],[29.8514073,41.1409496],[29.8504705,41.139174],[29.8459815,41.1386417],[29.8195434,41.1434023],[29.812249,41.147772],[29.7961644,41.153657],[29.793269,41.1538823],[29.7893527,41.1517287],[29.7894583,41.1553865],[29.7834035,41.1575334],[29.7811329,41.1569901],[29.7799272,41.1584345],[29.7766622,41.1560293],[29.7753421,41.1571557],[29.7765919,41.1586798],[29.7671387,41.1605486],[29.7586274,41.1590311],[29.7559956,41.157202],[29.7533639,41.158481],[29.7524221,41.1614498],[29.750961,41.1589648],[29.7419501,41.1599437],[29.7408485,41.1582005],[29.7375329,41.158205],[29.7332976,41.1552224],[29.7061267,41.1596767],[29.702781,41.161304],[29.703225,41.163861],[29.697456,41.163996],[29.6970684,41.1627229],[29.694397,41.163939],[29.691625,41.162592],[29.691338,41.163882],[29.689928,41.162632],[29.685558,41.163761],[29.679027,41.16186],[29.672308,41.163684],[29.668351,41.166599],[29.6662682,41.1667056],[29.6654432,41.1651008],[29.6600519,41.1650923],[29.6486,41.1680229],[29.6452894,41.1695494],[29.6449479,41.1720272],[29.6418072,41.1695551],[29.6358632,41.1707224],[29.6327027,41.1726279],[29.6332644,41.1742966],[29.6248821,41.1753131],[29.6243445,41.1796632],[29.6227717,41.1786936],[29.6199632,41.1794772],[29.6182182,41.1775718],[29.6166529,41.1792517],[29.6143386,41.1785414],[29.614099,41.1809653],[29.6101296,41.1797365],[29.6073666,41.1821487],[29.5997669,41.1786711],[29.6062951,41.1810738],[29.6088958,41.1800105],[29.6091688,41.1780773],[29.6040082,41.1761756],[29.6038734,41.1775605],[29.6017797,41.1778726],[29.6036968,41.1753933],[29.5987861,41.1717332],[29.5910158,41.1707327],[29.574138,41.17221],[29.51853,41.183836],[29.509364,41.184036],[29.489819,41.188311],[29.4593799,41.1970134],[29.4427523,41.1992626],[29.408695,41.20929],[29.3924028,41.2121954],[29.389526,41.214952],[29.3785821,41.211458],[29.3748971,41.2129471],[29.368653,41.211147],[29.357277,41.2107767],[29.353074,41.21275],[29.346634,41.2129156],[29.34566,41.214571],[29.3364711,41.2146087],[29.3324799,41.2166263],[29.3297247,41.2112078],[29.3324496,41.2036116],[29.3233455,41.1954105],[29.321888,41.19034],[29.3233032,41.1894816],[29.3210642,41.183425],[29.3242115,41.1800069],[29.3227118,41.1764138],[29.3240214,41.1681457],[29.3260493,41.1694178],[29.326007,41.1642021],[29.3289009,41.1630412],[29.3292811,41.1578409],[29.3388077,41.1593677],[29.3407933,41.1613715],[29.3435604,41.155853],[29.3462853,41.1541671],[29.3454193,41.1517337],[29.3507846,41.1534673],[29.3568258,41.1497455],[29.3537418,41.1427944],[29.3571426,41.1432557],[29.3636697,41.1413468],[29.3654018,41.1356198],[29.3647893,41.1324697],[29.3591084,41.1253552],[29.3669016,41.1226844],[29.3728161,41.125835],[29.3783081,41.122939],[29.3801036,41.1210614],[29.3824694,41.1089508],[29.3891866,41.1061814],[29.3915946,41.1029344],[29.4013733,41.0999943],[29.4019873,41.0985253],[29.4003898,41.0942641],[29.3934588,41.0931696],[29.3901583,41.0896374],[29.3934588,41.0869259],[29.3994327,41.085906],[29.3996307,41.0824481],[29.3944793,41.0813926],[29.3944819,41.0774225],[29.3878479,41.0735411],[29.3899602,41.0710778],[29.3850755,41.0690872],[29.3800604,41.0615768],[29.3743594,41.0576933],[29.370116,41.0570582],[29.3765297,41.0492661],[29.3749748,41.0433053],[29.3763353,41.0351938],[29.3845629,41.0292562],[29.3994251,41.0243872],[29.404705,41.0238741],[29.4107624,41.0266843],[29.4137748,41.026611],[29.4306835,41.020306],[29.4283189,41.0153692],[29.4330481,41.0144404],[29.4347973,41.0120207],[29.4335988,41.0086965],[29.4357691,41.0101386],[29.4381013,41.0094297],[29.434441,41.0025853],[29.4398181,40.999774],[29.4414484,40.9964325],[29.4495465,40.9989995],[29.4661879,41.009022],[29.4758245,41.0163852],[29.4759055,41.0180349],[29.4813312,41.0204177],[29.4836391,41.023778],[29.4836391,41.0299788],[29.4974868,41.035782],[29.5017893,41.0315471]]],[[[29.6084735,41.1811976],[29.6098508,41.1811045],[29.6091413,41.1825481],[29.6084735,41.1811976]]]]}},{"type":"Feature","properties":{"code":"34-35","provinceCode":"34","name":"Şişli"},"geometry":{"type":"Polygon","coordinates":[[[28.993129,41.0392014],[28.9931034,41.0418166],[28.9967002,41.0406679],[28.9953529,41.0435618],[28.9970517,41.0441141],[28.9960968,41.0459122],[28.9982304,41.0497948],[29.0007773,41.0491593],[29.0022066,41.0504979],[28.9987099,41.0555261],[29.0011464,41.0578043],[29.0031939,41.0667548],[29.007221,41.06632],[29.0117277,41.0629144],[29.0159318,41.0718582],[29.0147426,41.0760932],[29.0083175,41.0846791],[29.0048664,41.0842005],[29.0076484,41.0791552],[29.0070471,41.0758876],[29.0008966,41.0747681],[28.9892802,41.0781815],[28.9887862,41.0725414],[28.9827183,41.0691363],[28.9796805,41.070786],[28.9749625,41.0663968],[28.9697541,41.0642073],[28.9618462,41.0534978],[28.9624095,41.051326],[28.967977,41.0476909],[28.9681265,41.0455491],[28.9757899,41.045737],[28.9817483,41.041281],[28.9828861,41.0421673],[28.993129,41.0392014]]]}},{"type":"Feature","properties":{"code":"34-36","provinceCode":"34","name":"Ümraniye"},"geometry":{"type":"Polygon","coordinates":[[[29.0894421,41.0094753],[29.0957316,41.007958],[29.1092378,40.998475],[29.1153289,40.9960828],[29.1373802,40.9969011],[29.165479,40.9941083],[29.1773534,40.9908607],[29.1926187,40.9889727],[29.1927683,40.9924676],[29.1912269,40.9926562],[29.1929421,40.9967049],[29.1893226,41.0060389],[29.1853685,41.0088438],[29.1947035,41.0114265],[29.1939505,41.0132983],[29.1907382,41.0140145],[29.183448,41.0151473],[29.1797745,41.0213176],[29.1709218,41.0302291],[29.162128,41.034642],[29.147802,41.0368948],[29.1403828,41.034246],[29.1382718,41.0413845],[29.1382718,41.0449547],[29.1343192,41.0487526],[29.1338215,41.0531464],[29.1253001,41.0499098],[29.119824,41.0521752],[29.1135602,41.0589836],[29.1081923,41.061108],[29.0964418,41.0611991],[29.0956627,41.063783],[29.0979706,41.0642397],[29.0925996,41.0654058],[29.0836032,41.0637433],[29.0854978,41.0602807],[29.0832313,41.0562768],[29.0868437,41.0550053],[29.0887062,41.0524611],[29.0917005,41.0403981],[29.0869393,41.0317482],[29.0803543,41.02943],[29.0845963,41.0247094],[29.0831151,41.0241037],[29.083213,41.0211179],[29.0894421,41.0094753]]]}},{"type":"Feature","properties":{"code":"34-37","provinceCode":"34","name":"Üsküdar"},"geometry":{"type":"Polygon","coordinates":[[[29.0642506,41.0778919],[29.0636545,41.0763791],[29.0554577,41.0735386],[29.0570112,41.0667895],[29.0524193,41.0615024],[29.0519987,41.0481435],[29.0314279,41.0382731],[29.013168,41.0261531],[29.0095189,41.0259551],[29.0063094,41.0223412],[29.0111505,41.0129903],[29.0094428,41.0138767],[29.0110146,41.0123251],[29.008896,41.0109117],[29.009829,41.0092283],[29.0068601,41.0109525],[29.0103569,41.0072237],[29.0066612,41.0073035],[29.0083587,41.0048587],[29.01244,41.0044517],[29.0133872,41.0025344],[29.0103433,41.0026696],[29.0115514,41.0008972],[29.0157612,41.0002356],[29.0176451,41.0012922],[29.0218033,40.9985299],[29.0371437,41.0123133],[29.0431699,41.0097094],[29.0471574,41.0101508],[29.0471844,41.0015473],[29.0732826,40.9924444],[29.0725899,41.0055781],[29.0894421,41.0094753],[29.083213,41.0211179],[29.0831151,41.0241037],[29.0845963,41.0247094],[29.0803543,41.02943],[29.0869393,41.0317482],[29.0917005,41.0403981],[29.0887062,41.0524611],[29.0868437,41.0550053],[29.0832313,41.0562768],[29.0854978,41.0602807],[29.0836032,41.0637433],[29.077698,41.0661455],[29.0717139,41.0735978],[29.0642506,41.0778919]]]}},{"type":"Feature","properties":{"code":"34-38","provinceCode":"34","name":"Zeytinburnu"},"geometry":{"type":"Polygon","coordinates":[[[28.891837,40.9892161],[28.8911194,40.9836281],[28.8899451,40.9821418],[28.8913864,40.9798043],[28.8916917,40.9778498],[28.8916094,40.9798492],[28.8931152,40.9801484],[28.8913287,40.9810222],[28.8941317,40.9808156],[28.8932814,40.9791836],[28.8944294,40.9805767],[28.895829,40.9791194],[28.8964191,40.9800509],[28.8964513,40.9790222],[28.9024246,40.9791862],[28.9085489,40.9816592],[28.911879,40.9857133],[28.9191301,40.9878682],[28.9217816,41.0160879],[28.9244098,41.0206888],[28.9293956,41.0245506],[28.9241806,41.0285575],[28.9199497,41.0258371],[28.9119683,41.0325102],[28.8990696,41.0277257],[28.9005899,41.0209397],[28.8998795,41.0134422],[28.8959518,41.0066949],[28.8918508,40.9998184],[28.8941944,40.9956265],[28.891837,40.9892161]]]}}]}