{"type":"FeatureCollection","features":[{"type":"Feature","properties":{"code":"04-01","provinceCode":"04","name":"Ağrı merkez"},"geometry":{"type":"Polygon","coordinates":[[[43.2476178,39.5636168],[43.2710652,39.5582503],[43.2802244,39.5622046],[43.2835217,39.593831],[43.2893835,39.6110501],[43.2996417,39.6288292],[43.3172273,39.6525276],[43.341041,39.6787556],[43.3472692,39.6979267],[43.3498338,39.716529],[43.3659539,39.7286459],[43.3872031,39.7503383],[43.4273324,39.7847725],[43.4180134,39.798883],[43.4158646,39.8140037],[43.4031464,39.8409801],[43.4046604,39.8709672],[43.3928506,39.8876985],[43.3858859,39.892113],[43.3704423,39.9139491],[43.3662786,39.9249807],[43.3685497,39.9487795],[43.3793853,39.9708551],[43.3784641,39.981726],[43.3679628,39.9892076],[43.3576457,39.9920306],[43.3242992,39.9961238],[43.2857942,39.9968295],[43.2842723,40.0023008],[43.2707978,39.9944458],[43.2352165,39.9937682],[43.1921824,39.9881752],[43.1603541,39.986269],[43.1472112,39.9885122],[43.1128796,39.9870331],[43.0933412,39.9839103],[43.0529675,39.9883763],[42.9149466,39.9825564],[42.9041924,39.9808534],[42.883893,39.9808928],[42.8791173,39.9650936],[42.8793937,39.949418],[42.8863025,39.9341627],[42.9108981,39.9021577],[42.9310719,39.8675926],[42.9432315,39.8552891],[42.9440606,39.8487122],[42.9429552,39.8385274],[42.9363227,39.825582],[42.9208468,39.8102991],[42.9241631,39.8020194],[42.9247158,39.7926771],[42.9222286,39.7841829],[42.9128325,39.7716521],[42.8987385,39.7648548],[42.8828253,39.7620248],[42.8736256,39.7585777],[42.87153,39.7524641],[42.8751363,39.7442354],[42.9131089,39.7402088],[42.914767,39.7359586],[42.9111744,39.7302205],[42.8976331,39.7259697],[42.8789935,39.7146769],[42.867785,39.7035329],[42.8559036,39.6879133],[42.8562459,39.6752398],[42.8827099,39.6685582],[42.9210073,39.6590506],[42.9564007,39.6542162],[43.0700018,39.6528977],[43.1082494,39.6379524],[43.1567592,39.6087921],[43.2476178,39.5636168]]]}},{"type":"Feature","properties":{"code":"04-02","provinceCode":"04","name":"Diyadin"},"geometry":{"type":"Polygon","coordinates":[[[43.7345317,39.2004619],[43.7411592,39.2155561],[43.7557435,39.225152],[43.7754235,39.2500385],[43.8527536,39.3198597],[43.8806071,39.3336033],[43.8662648,39.3578855],[43.8622688,39.3731117],[43.8465701,39.3949523],[43.8414324,39.4110526],[43.8331549,39.423401],[43.8237357,39.5055942],[43.8108914,39.5368594],[43.8014722,39.5516064],[43.7763544,39.5652501],[43.7746418,39.572731],[43.7760154,39.58224],[43.8034702,39.5960486],[43.8048974,39.6028664],[43.7863444,39.6257341],[43.7723583,39.6378246],[43.767506,39.6472756],[43.7558034,39.6558464],[43.728973,39.6567254],[43.7107055,39.66134],[43.6958631,39.6624386],[43.6424877,39.678477],[43.6216513,39.6786967],[43.5996732,39.684408],[43.5690978,39.684991],[43.5639687,39.6426866],[43.5397886,39.611647],[43.5151241,39.6025781],[43.503315,39.5946204],[43.4701791,39.5884992],[43.4525936,39.5772049],[43.4262153,39.5337044],[43.4135253,39.5051058],[43.4120598,39.4728733],[43.4025343,39.4547713],[43.4091289,39.4259115],[43.4076634,39.3959073],[43.418489,39.3578959],[43.4335322,39.3555325],[43.5127363,39.3198977],[43.5259049,39.3037156],[43.5772951,39.249237],[43.5911202,39.2409095],[43.6264539,39.2106811],[43.6440875,39.2003281],[43.660026,39.1994872],[43.6857573,39.2051929],[43.7108514,39.1984627],[43.7345317,39.2004619]]]}},{"type":"Feature","properties":{"code":"04-03","provinceCode":"04","name":"Doğubayazıt"},"geometry":{"type":"Polygon","coordinates":[[[44.0377009,39.3612643],[44.0367616,39.3671473],[44.0318908,39.3717259],[44.0342937,39.3775058],[44.0396191,39.3798763],[44.0427039,39.3841626],[44.0538417,39.388806],[44.0579604,39.3861475],[44.0514869,39.398249],[44.0513157,39.4040585],[44.0538207,39.4060362],[44.0595826,39.405398],[44.0704062,39.4122588],[44.0843952,39.4077966],[44.0896987,39.4111448],[44.0969923,39.4121726],[44.1016554,39.4079579],[44.1075039,39.4065032],[44.1125533,39.4027912],[44.1174275,39.4019447],[44.1301049,39.4054092],[44.1327798,39.3987149],[44.1246393,39.3906465],[44.1301405,39.3896441],[44.1413817,39.3976585],[44.1494387,39.3999788],[44.1546251,39.3995449],[44.1608676,39.401978],[44.1778777,39.4010144],[44.1908085,39.4024348],[44.1941947,39.4119248],[44.213936,39.4178513],[44.2233876,39.4179696],[44.2331536,39.4163292],[44.2333339,39.4130228],[44.2401844,39.4092887],[44.2433352,39.3997591],[44.2461664,39.3976305],[44.2649383,39.3991911],[44.270278,39.3955344],[44.2713523,39.3904176],[44.2769566,39.3834319],[44.2847201,39.3838238],[44.289396,39.3781431],[44.294908,39.3765039],[44.3022281,39.3818657],[44.311916,39.3860066],[44.3129446,39.3881708],[44.3187427,39.3916194],[44.3336473,39.3878721],[44.3438366,39.3949622],[44.3546928,39.3977678],[44.37429,39.4073724],[44.3770211,39.4116375],[44.3855811,39.4129925],[44.3905602,39.4115083],[44.3987934,39.4128841],[44.4219571,39.4116039],[44.4275955,39.4318253],[44.43272,39.4376181],[44.4328572,39.4427251],[44.4250838,39.4462016],[44.4251021,39.45097],[44.4229647,39.4535584],[44.4203218,39.4648206],[44.4084339,39.4711492],[44.4088515,39.4731494],[44.4126482,39.4755514],[44.4175827,39.4851502],[44.4329948,39.4925182],[44.4338735,39.4957628],[44.439737,39.501147],[44.437639,39.502128],[44.440367,39.505069],[44.438423,39.508394],[44.433358,39.509085],[44.43284,39.517041],[44.435906,39.52095],[44.430938,39.525056],[44.4294,39.529704],[44.425076,39.532328],[44.425322,39.537527],[44.427107,39.538129],[44.426242,39.544404],[44.423782,39.549108],[44.419672,39.553668],[44.416255,39.554808],[44.416204,39.55644],[44.424394,39.56547],[44.422106,39.567573],[44.441672,39.573276],[44.465403,39.600059],[44.480148,39.610424],[44.4871135,39.6437168],[44.4840141,39.6498267],[44.4822345,39.6707317],[44.4771168,39.6726956],[44.4735947,39.6794335],[44.4671974,39.6841019],[44.4592652,39.6709408],[44.4490906,39.6649736],[44.4413386,39.6625493],[44.426319,39.6608709],[44.3827136,39.6629223],[44.3572771,39.6688897],[44.3424998,39.6705679],[44.3199703,39.6672114],[44.2950184,39.675043],[44.2545623,39.6985325],[44.2308216,39.7061741],[44.1952105,39.7059878],[44.1777684,39.7128832],[44.1450644,39.7400855],[44.1290757,39.7439973],[44.1242307,39.7439973],[44.1116336,39.7372912],[44.0939492,39.7326339],[44.0728733,39.7337517],[44.0450143,39.7400855],[44.0329847,39.7348116],[43.9988204,39.7278452],[43.9764267,39.7475712],[43.953337,39.7481533],[43.8810399,39.7577566],[43.8632496,39.7632851],[43.838024,39.777437],[43.8257911,39.7803022],[43.8054086,39.7814614],[43.7903141,39.7784967],[43.7709273,39.7634508],[43.760671,39.7661947],[43.7455302,39.7667766],[43.7188786,39.7737634],[43.6698265,39.7891761],[43.629325,39.7938297],[43.6172124,39.7973196],[43.6088849,39.8008094],[43.5682048,39.8349625],[43.5594837,39.8386828],[43.5573741,39.8139999],[43.5632359,39.7689588],[43.5588396,39.735722],[43.5573741,39.6990867],[43.5690978,39.684991],[43.5996732,39.684408],[43.6216513,39.6786967],[43.6424877,39.678477],[43.6958631,39.6624386],[43.7107055,39.66134],[43.728973,39.6567254],[43.7558034,39.6558464],[43.767506,39.6472756],[43.7723583,39.6378246],[43.7863444,39.6257341],[43.8048974,39.6028664],[43.8034702,39.5960486],[43.7760154,39.58224],[43.7746418,39.572731],[43.7763544,39.5652501],[43.8014722,39.5516064],[43.8108914,39.5368594],[43.8237357,39.5055942],[43.8331549,39.423401],[43.8414324,39.4110526],[43.8465701,39.3949523],[43.8622688,39.3731117],[43.8662648,39.3578855],[43.8806071,39.3336033],[43.9033445,39.3438925],[43.9098386,39.3492469],[43.9629634,39.3689657],[43.9829634,39.3709684],[44.0377009,39.3612643]]]}},{"type":"Feature","properties":{"code":"04-04","provinceCode":"04","name":"Eleşkirt"},"geometry":{"type":"Polygon","coordinates":[[[42.4855403,39.6806254],[42.488474,39.6875526],[42.5137314,39.6905055],[42.5915539,39.690258],[42.6347399,39.6880616],[42.7186501,39.6873861],[42.7787999,39.6853178],[42.8562459,39.6752398],[42.8559036,39.6879133],[42.867785,39.7035329],[42.8789935,39.7146769],[42.8976331,39.7259697],[42.9111744,39.7302205],[42.914767,39.7359586],[42.9131089,39.7402088],[42.8751363,39.7442354],[42.87153,39.7524641],[42.8736256,39.7585777],[42.8828253,39.7620248],[42.8987385,39.7648548],[42.9128325,39.7716521],[42.9222286,39.7841829],[42.9247158,39.7926771],[42.9241631,39.8020194],[42.9208468,39.8102991],[42.9363227,39.825582],[42.9429552,39.8385274],[42.9440606,39.8487122],[42.9432315,39.8552891],[42.9310719,39.8675926],[42.9108981,39.9021577],[42.8863025,39.9341627],[42.8793937,39.949418],[42.8791173,39.9650936],[42.883893,39.9808928],[42.8643301,39.9731069],[42.8126832,39.9695176],[42.792925,39.9725456],[42.754595,39.9611443],[42.7467429,39.9600238],[42.6821787,39.9438199],[42.6306977,39.934833],[42.5566822,39.9346359],[42.5519621,39.9310838],[42.5533858,39.925547],[42.5364031,39.9220375],[42.5277219,39.9239193],[42.52481,39.9223495],[42.529571,39.9138338],[42.5219626,39.9092459],[42.5003818,39.9120382],[42.4947089,39.9040193],[42.487387,39.9095579],[42.4578516,39.9136185],[42.4514893,39.916734],[42.4498622,39.9200097],[42.4433538,39.9239872],[42.4357269,39.9242992],[42.4372523,39.9200097],[42.4347099,39.915876],[42.4405064,39.911664],[42.4315001,39.8982677],[42.4265954,39.9030436],[42.4068445,39.892284],[42.395506,39.8912268],[42.3864912,39.8819036],[42.3584667,39.8739327],[42.3566441,39.8641066],[42.3440507,39.8690741],[42.3396231,39.8741353],[42.3271646,39.8709482],[42.3186824,39.872227],[42.3176962,39.8769399],[42.3118623,39.8785637],[42.3055493,39.8754044],[42.3012568,39.8677458],[42.3163673,39.8573054],[42.2871314,39.8430221],[42.2801546,39.8310321],[42.2789918,39.8171262],[42.3021524,39.7712666],[42.3303543,39.7527548],[42.3574803,39.7594713],[42.3710065,39.7525835],[42.3815064,39.7439555],[42.4235275,39.7349421],[42.4351374,39.7249504],[42.4587749,39.718586],[42.4572739,39.7079482],[42.4691979,39.6965345],[42.4807184,39.690254],[42.4855403,39.6806254]]]}},{"type":"Feature","properties":{"code":"04-05","provinceCode":"04","name":"Hamur"},"geometry":{"type":"Polygon","coordinates":[[[42.8827099,39.6685582],[42.8831482,39.6608793],[42.8970701,39.6402873],[42.904031,39.6343624],[42.9120911,39.6239221],[42.9146556,39.6117868],[42.9256466,39.5942856],[42.9384694,39.5815804],[42.9608177,39.5736737],[42.9679572,39.5630613],[42.9685398,39.5507052],[42.9624751,39.5364545],[42.9528883,39.5288356],[42.9232106,39.5201437],[42.9345746,39.4978907],[42.9201511,39.4857927],[42.9194184,39.4716536],[42.9234484,39.4543999],[42.9234484,39.4442154],[42.9124574,39.4232759],[42.9117247,39.408841],[42.9085842,39.4004956],[42.9186802,39.376604],[42.9240192,39.3518693],[42.9658283,39.3464678],[42.9846514,39.3374532],[43.0090869,39.3218925],[43.0266432,39.3205904],[43.0576622,39.2985775],[43.0819083,39.2914723],[43.1138556,39.3000806],[43.115286,39.312838],[43.1540125,39.324132],[43.2162343,39.3311636],[43.2369149,39.3372609],[43.2467894,39.3459338],[43.2850244,39.3581884],[43.2754895,39.3985305],[43.2809826,39.4181601],[43.2794363,39.4334813],[43.2754895,39.4462686],[43.2587586,39.471981],[43.2394968,39.4825405],[43.233696,39.5164337],[43.2421224,39.5545782],[43.2476178,39.5636168],[43.1567592,39.6087921],[43.1082494,39.6379524],[43.0700018,39.6528977],[42.9564007,39.6542162],[42.9210073,39.6590506],[42.8827099,39.6685582]]]}},{"type":"Feature","properties":{"code":"04-06","provinceCode":"04","name":"Patnos"},"geometry":{"type":"Polygon","coordinates":[[[42.9085842,39.4004956],[42.8898051,39.4167014],[42.8776527,39.4204458],[42.8626317,39.4178986],[42.842206,39.3838594],[42.8266082,39.3679087],[42.8118637,39.3577229],[42.8199863,39.3400065],[42.8168478,39.328696],[42.8203049,39.3245944],[42.8178405,39.3168356],[42.8088732,39.3116489],[42.7918501,39.3099573],[42.7471268,39.3099782],[42.6816367,39.3118042],[42.6255714,39.3030451],[42.6105363,39.2936025],[42.6009098,39.2906909],[42.5967051,39.2869227],[42.6013524,39.2804137],[42.6016843,39.2765594],[42.6525833,39.2681648],[42.6553496,39.2649095],[42.6638696,39.2395471],[42.6774795,39.2370618],[42.6861102,39.2203478],[42.6852898,39.2031007],[42.6806425,39.1950832],[42.6852898,39.1932395],[42.6814269,39.1822316],[42.6782421,39.1788364],[42.6822807,39.1783366],[42.6877354,39.1696328],[42.6896986,39.1698537],[42.6904689,39.167357],[42.6924042,39.1687704],[42.694003,39.1659154],[42.6804188,39.1541382],[42.6902896,39.1553862],[42.701877,39.1546374],[42.7126062,39.1506438],[42.7043447,39.1361649],[42.6929719,39.1250125],[42.6932937,39.1126929],[42.6964052,39.1042011],[42.699302,39.1016201],[42.6962979,39.0944593],[42.69265,39.0912949],[42.6907188,39.0839665],[42.695225,39.0812182],[42.7013406,39.0810516],[42.7099239,39.0776368],[42.6994093,39.0558116],[42.6967271,39.0434799],[42.698551,39.03848],[42.6944739,39.0236447],[42.6846032,39.0166427],[42.6843886,39.0114741],[42.6881438,39.0124745],[42.7000531,39.0072222],[42.6986583,38.9942149],[42.7067051,38.9911295],[42.7102457,38.9857923],[42.7043447,38.9819559],[42.7064906,38.9742825],[42.7108895,38.9695279],[42.712177,38.9654403],[42.7071343,38.9598509],[42.700375,38.9601011],[42.6946398,38.9576246],[42.7146572,38.935095],[42.7445495,38.9372562],[42.7714972,38.9308058],[42.909638,38.9307798],[42.9253688,38.9469963],[42.9241002,38.9795444],[42.9358296,38.9973915],[42.9551522,39.0217444],[42.9649865,39.0240651],[43.0007683,39.0188218],[42.996643,39.0342128],[42.9876483,39.0484187],[42.9939824,39.0609611],[42.994673,39.0700752],[42.9988574,39.0774756],[43.0116986,39.092204],[43.0364528,39.1007724],[43.0434152,39.1129085],[43.0612283,39.1255839],[43.0818556,39.1337888],[43.0808181,39.1456949],[43.1044412,39.159099],[43.1383608,39.1712448],[43.1482304,39.180317],[43.1517561,39.1879119],[43.1528398,39.2111275],[43.1630682,39.2363765],[43.1863825,39.2838296],[43.2162343,39.3311636],[43.1540125,39.324132],[43.115286,39.312838],[43.1138556,39.3000806],[43.0819083,39.2914723],[43.0576622,39.2985775],[43.0266432,39.3205904],[43.0090869,39.3218925],[42.9846514,39.3374532],[42.9658283,39.3464678],[42.9240192,39.3518693],[42.9186802,39.376604],[42.9085842,39.4004956]]]}},{"type":"Feature","properties":{"code":"04-07","provinceCode":"04","name":"Taşlıçay"},"geometry":{"type":"Polygon","coordinates":[[[43.2850244,39.3581884],[43.3110194,39.3658379],[43.3264415,39.3665654],[43.3617158,39.3606209],[43.4031869,39.3602999],[43.418489,39.3578959],[43.4076634,39.3959073],[43.4091289,39.4259115],[43.4025343,39.4547713],[43.4120598,39.4728733],[43.4135253,39.5051058],[43.4262153,39.5337044],[43.4525936,39.5772049],[43.4701791,39.5884992],[43.503315,39.5946204],[43.5151241,39.6025781],[43.5397886,39.611647],[43.5639687,39.6426866],[43.5690978,39.684991],[43.5573741,39.6990867],[43.5588396,39.735722],[43.5632359,39.7689588],[43.5573741,39.8139999],[43.5594837,39.8386828],[43.5492122,39.840915],[43.5300259,39.8412126],[43.5160964,39.8349346],[43.5076175,39.8281909],[43.5015612,39.8205162],[43.4924768,39.7884129],[43.4761248,39.7753812],[43.4649206,39.7711919],[43.4537165,39.7709592],[43.4434208,39.7739848],[43.4337307,39.7788721],[43.4273324,39.7847725],[43.3872031,39.7503383],[43.3659539,39.7286459],[43.3498338,39.716529],[43.3472692,39.6979267],[43.341041,39.6787556],[43.3172273,39.6525276],[43.2996417,39.6288292],[43.2893835,39.6110501],[43.2835217,39.593831],[43.2802244,39.5622046],[43.2710652,39.5582503],[43.2476178,39.5636168],[43.2421224,39.5545782],[43.233696,39.5164337],[43.2394968,39.4825405],[43.2587586,39.471981],[43.2754895,39.4462686],[43.2794363,39.4334813],[43.2809826,39.4181601],[43.2754895,39.3985305],[43.2850244,39.3581884]]]}},{"type":"Feature","properties":{"code":"04-08","provinceCode":"04","name":"Tutak"},"geometry":{"type":"Polygon","coordinates":[[[42.8827099,39.6685582],[42.8562459,39.6752398],[42.7787999,39.6853178],[42.7186501,39.6873861],[42.6347399,39.6880616],[42.5915539,39.690258],[42.5137314,39.6905055],[42.488474,39.6875526],[42.4855403,39.6806254],[42.4979542,39.6610733],[42.5202956,39.6359314],[42.5078356,39.6330635],[42.5004598,39.624329],[42.5114952,39.6081952],[42.5119798,39.6000536],[42.5049816,39.5880843],[42.4861172,39.5883911],[42.4763476,39.5747839],[42.4774659,39.5686513],[42.4724132,39.563871],[42.4821554,39.5607438],[42.4773112,39.5546315],[42.4834407,39.548771],[42.4763305,39.54896],[42.4692273,39.5512917],[42.4603327,39.5504429],[42.447274,39.5415456],[42.4195897,39.5346642],[42.4250737,39.5250399],[42.4308275,39.5216258],[42.4304955,39.5134314],[42.4372452,39.511468],[42.4421137,39.503187],[42.4582686,39.4897816],[42.4661248,39.4780818],[42.4803986,39.4773131],[42.4901358,39.4820104],[42.5112699,39.4858534],[42.5185728,39.4761174],[42.5184622,39.4682593],[42.5133723,39.4629631],[42.5156959,39.4529676],[42.5106614,39.450344],[42.5125977,39.4352193],[42.510772,39.4304334],[42.5005922,39.4218863],[42.5015327,39.4142357],[42.5074525,39.4031645],[42.5135383,39.3986329],[42.5161939,39.4001078],[42.5156683,39.3965808],[42.5185452,39.3889488],[42.5172307,39.3845758],[42.5218614,39.3768293],[42.5218614,39.3711048],[42.5195584,39.3683235],[42.5245229,39.3601697],[42.534628,39.3610712],[42.5344911,39.358969],[42.5411252,39.3581791],[42.5446107,39.3616011],[42.5475429,39.3690864],[42.5509177,39.3714387],[42.5563396,39.3718236],[42.5643617,39.3690436],[42.5685111,39.3692147],[42.5698389,39.3653225],[42.5752607,39.3615156],[42.578027,39.3629272],[42.5813465,39.3623283],[42.5833382,39.3574091],[42.5877836,39.3527824],[42.5844086,39.3503626],[42.5858611,39.3472334],[42.5824566,39.3469341],[42.5816367,39.3455941],[42.5845404,39.3433916],[42.5800593,39.3418435],[42.5831272,39.3398855],[42.5809392,39.3368241],[42.6059997,39.3256219],[42.6249208,39.3113263],[42.6255714,39.3030451],[42.6816367,39.3118042],[42.7471268,39.3099782],[42.7918501,39.3099573],[42.8088732,39.3116489],[42.8178405,39.3168356],[42.8203049,39.3245944],[42.8168478,39.328696],[42.8199863,39.3400065],[42.8118637,39.3577229],[42.8266082,39.3679087],[42.842206,39.3838594],[42.8626317,39.4178986],[42.8776527,39.4204458],[42.8898051,39.4167014],[42.9085842,39.4004956],[42.9117247,39.408841],[42.9124574,39.4232759],[42.9234484,39.4442154],[42.9234484,39.4543999],[42.9194184,39.4716536],[42.9201511,39.4857927],[42.9345746,39.4978907],[42.9232106,39.5201437],[42.9528883,39.5288356],[42.9624751,39.5364545],[42.9685398,39.5507052],[42.9679572,39.5630613],[42.9608177,39.5736737],[42.9384694,39.5815804],[42.9256466,39.5942856],[42.9146556,39.6117868],[42.9120911,39.6239221],[42.904031,39.6343624],[42.8970701,39.6402873],[42.8831482,39.6608793],[42.8827099,39.6685582]]]}}]}