{"type":"FeatureCollection","features":[{"type":"Feature","properties":{"code":"66-01","provinceCode":"66","name":"Akdağmadeni"},"geometry":{"type":"Polygon","coordinates":[[[35.6668645,39.5118426],[35.7190912,39.5273],[35.730176,39.534863],[35.7472296,39.5404526],[35.7960456,39.5654356],[35.8101148,39.5667502],[35.8241841,39.5621489],[35.8350557,39.5526165],[35.8440672,39.5362539],[35.8567131,39.5216053],[35.867993,39.5129539],[35.8825317,39.5298478],[35.9061777,39.5413584],[35.9418947,39.5434224],[35.9651953,39.5359259],[36.019733,39.5073136],[36.0466036,39.5079182],[36.0610616,39.5083328],[36.0851682,39.5142346],[36.1044759,39.5221044],[36.1293634,39.5387843],[36.1435365,39.5550009],[36.1468376,39.5675532],[36.1391597,39.5823222],[36.1548258,39.6029702],[36.1512366,39.6261367],[36.1431685,39.6545508],[36.1682786,39.69561],[36.1546386,39.7114302],[36.118756,39.7152269],[36.1034355,39.7226217],[36.0934983,39.7290135],[36.0625774,39.7609395],[36.0496282,39.7670607],[36.0499174,39.774221],[36.0462529,39.7821484],[36.0495466,39.7937756],[36.061312,39.8203834],[36.0719061,39.8284467],[36.0751956,39.8359494],[36.0739004,39.852947],[36.0766682,39.8584653],[36.0732355,39.865712],[36.030469,39.8792778],[36.000682,39.8914544],[35.9862565,39.9131024],[35.9828886,39.9298591],[35.9835007,39.9363801],[35.9791529,39.9406615],[35.9778823,39.94555],[35.9734612,39.9353487],[35.9659244,39.9355747],[35.9663454,39.9380283],[35.9552718,39.9381574],[35.9531665,39.9419022],[35.9495876,39.9434195],[35.9506823,39.9450981],[35.9548928,39.9456468],[35.9516928,39.9468412],[35.9479876,39.9450981],[35.9448718,39.9457437],[35.936669,39.9362864],[35.9318992,39.9365832],[35.9355829,39.9323848],[35.9321678,39.930303],[35.9278191,39.9330887],[35.928577,39.9371889],[35.9270191,39.9381252],[35.9230612,39.9372212],[35.9252086,39.9320556],[35.9235244,39.9318296],[35.9012871,39.9373507],[35.8969139,39.9347676],[35.8927876,39.9382543],[35.890017,39.9378255],[35.8863455,39.9327982],[35.8828507,39.9329273],[35.878977,39.9356716],[35.878177,39.9304735],[35.8656483,39.9301725],[35.8642402,39.9273416],[35.8535455,39.9234345],[35.8426823,39.926276],[35.8338402,39.9247261],[35.8312718,39.9223689],[35.8274823,39.923047],[35.8228928,39.9178157],[35.8186141,39.9074409],[35.8187947,39.9046008],[35.8231293,39.9025226],[35.8196621,39.896344],[35.8214807,39.891342],[35.827314,39.8907628],[35.8257356,39.8896834],[35.818015,39.8897623],[35.8154759,39.8884723],[35.8156157,39.8867438],[35.8017561,39.8884165],[35.784182,39.8945012],[35.7808537,39.8926847],[35.7738537,39.8923688],[35.7610949,39.8949116],[35.7549814,39.8992924],[35.7455049,39.8973572],[35.738064,39.8995437],[35.7305688,39.8974653],[35.7276791,39.9007214],[35.7274082,39.9100038],[35.7321983,39.9130644],[35.7333608,39.9161809],[35.7321259,39.917935],[35.7339699,39.919721],[35.7308886,39.9239804],[35.7186234,39.9245429],[35.7072105,39.9096181],[35.6773183,39.8599873],[35.6754742,39.8453624],[35.6608923,39.8333392],[35.6411166,39.8343687],[35.6280098,39.8260491],[35.627647,39.8164006],[35.6069637,39.7951191],[35.594813,39.7870931],[35.5890574,39.7751342],[35.5888442,39.7638287],[35.5916154,39.7549796],[35.5918286,39.7466211],[35.6031266,39.7167845],[35.6056846,39.7036654],[35.6046188,39.6877551],[35.5969447,39.6560877],[35.5830886,39.6301523],[35.5775462,39.6230923],[35.5777593,39.6176736],[35.6022739,39.6166883],[35.6189012,39.5996083],[35.6429894,39.5930379],[35.6847708,39.5859741],[35.6909527,39.5818669],[35.6907395,39.571187],[35.6837049,39.5591907],[35.6632406,39.5445622],[35.6378733,39.534863],[35.6346758,39.5315749],[35.6382997,39.5210517],[35.6427762,39.5157895],[35.6611089,39.5149672],[35.6668645,39.5118426]]]}},{"type":"Feature","properties":{"code":"66-02","provinceCode":"66","name":"Aydıncık"},"geometry":{"type":"Polygon","coordinates":[[[35.4325569,40.2427259],[35.4087294,40.2374994],[35.4053212,40.2406923],[35.3915339,40.2423478],[35.3754228,40.2398645],[35.3693811,40.2340699],[35.3623573,40.2330084],[35.3472284,40.2365534],[35.3399519,40.2550786],[35.2846259,40.2266654],[35.2427266,40.1930771],[35.2306474,40.1976905],[35.2052744,40.1983854],[35.1921805,40.2043048],[35.1874943,40.2155567],[35.1805868,40.2253886],[35.17912,40.2349681],[35.1721554,40.2390947],[35.1572595,40.2395249],[35.1481826,40.230903],[35.1394676,40.2185892],[35.1361378,40.2117098],[35.1367357,40.2056705],[35.1447357,40.1947398],[35.1570283,40.1834122],[35.1577885,40.1703448],[35.155349,40.1633377],[35.1559291,40.1510391],[35.1632913,40.1481957],[35.1773298,40.1469137],[35.1956261,40.1528935],[35.2013035,40.1519535],[35.2026857,40.1431722],[35.1846807,40.1395703],[35.17711,40.1342607],[35.175294,40.1234835],[35.1587068,40.112707],[35.1464548,40.1072886],[35.1430216,40.0986428],[35.1516963,40.0919873],[35.1726549,40.0888819],[35.1894276,40.0990694],[35.2076476,40.0966195],[35.2162665,40.0998821],[35.2293883,40.0994017],[35.2339134,40.0948846],[35.2426501,40.0983138],[35.263678,40.0915246],[35.2744555,40.0768103],[35.2870589,40.0803659],[35.312933,40.1077104],[35.3317191,40.1161354],[35.3530332,40.1209938],[35.3677891,40.127889],[35.3784462,40.1358803],[35.3868489,40.1462206],[35.3852373,40.1589261],[35.3711097,40.1727293],[35.3720473,40.188302],[35.3790234,40.1943796],[35.3869656,40.1962994],[35.3951206,40.2022487],[35.4270354,40.2056988],[35.4274303,40.2181559],[35.4325569,40.2427259]]]}},{"type":"Feature","properties":{"code":"66-03","provinceCode":"66","name":"Boğazlıyan"},"geometry":{"type":"Polygon","coordinates":[[[35.4677894,39.3384633],[35.4406625,39.3429883],[35.4007699,39.3446337],[35.3748332,39.3513169],[35.3704516,39.3582067],[35.368324,39.3750665],[35.3704516,39.3919222],[35.3651326,39.4034311],[35.3587497,39.4112396],[35.3454522,39.4137052],[35.3289633,39.4083629],[35.3231124,39.3980879],[35.3278995,39.3865781],[35.3401332,39.3680763],[35.3417289,39.3590292],[35.330559,39.3401088],[35.3183253,39.3368177],[35.3002407,39.3380519],[35.2076899,39.3643754],[35.1390748,39.3894558],[35.1300324,39.3952106],[35.1273729,39.4100067],[35.1337557,39.4190472],[35.1401386,39.4424649],[35.1384543,39.4630706],[35.1327898,39.4815702],[35.1186812,39.5022855],[35.0532685,39.4713119],[35.0434645,39.4672755],[35.0334427,39.4652572],[35.0327891,39.4605476],[35.027996,39.4568469],[35.0033771,39.451632],[34.9927016,39.447258],[34.9808675,39.412832],[34.9989522,39.3894044],[35.0032074,39.3754262],[35.005335,39.3421142],[35.0111859,39.3157823],[35.0202282,39.2993198],[35.0335257,39.2927337],[35.0766097,39.2824417],[35.1058642,39.2709129],[35.1223531,39.2585585],[35.1308635,39.2474377],[35.1303316,39.238375],[35.1202255,39.2173615],[35.1149065,39.2017002],[35.1149065,39.1724291],[35.1101194,39.1596449],[35.0739502,39.1113741],[35.0494827,39.0861941],[35.0390432,39.064881],[35.0349209,39.064471],[35.0400235,39.0576584],[35.0446646,39.0468344],[35.0440617,39.03369],[35.0510044,39.0327336],[35.0552011,39.0348647],[35.0536956,39.0364231],[35.0563386,39.0358072],[35.0597783,39.0380992],[35.064945,39.0390347],[35.0639392,39.0409558],[35.0692356,39.0422947],[35.0657372,39.0476014],[35.0684775,39.0504886],[35.0721667,39.0475736],[35.0701939,39.0456619],[35.072055,39.0457717],[35.0741803,39.0430636],[35.0752311,39.0438444],[35.0778558,39.0408544],[35.0812133,39.0438253],[35.084095,39.0425789],[35.080375,39.0409594],[35.0830042,39.0400083],[35.0827539,39.0381917],[35.0852864,39.0392681],[35.083715,39.0380217],[35.0858942,39.0353692],[35.0909908,39.0357903],[35.0894189,39.0340872],[35.091865,39.0326625],[35.0902131,39.0322433],[35.0915142,39.0290789],[35.0974092,39.0296022],[35.0997925,39.0326686],[35.0995528,39.0303858],[35.1021803,39.0315086],[35.1028064,39.0285769],[35.1060458,39.0306656],[35.1105094,39.0303425],[35.1117647,39.0272031],[35.1195381,39.0256847],[35.1232786,39.0188703],[35.1340536,39.018505],[35.1369069,39.0136283],[35.1401867,39.0142644],[35.1407697,39.0160647],[35.1381472,39.0161797],[35.1419086,39.0174167],[35.1440294,39.0151878],[35.1461933,39.0152147],[35.1485197,39.0097439],[35.1520036,39.0114242],[35.1543142,39.0100242],[35.1534067,39.0121069],[35.1569592,39.0133783],[35.1532017,39.0133772],[35.1526442,39.0147614],[35.1553383,39.0156589],[35.1575358,39.0159247],[35.1596914,39.0142383],[35.1591333,39.0111256],[35.1606472,39.0126686],[35.1629242,39.0110997],[35.1644639,39.0117656],[35.1631756,39.0132428],[35.1657106,39.0140144],[35.1643086,39.0169714],[35.1689219,39.0221317],[35.1719056,39.0209581],[35.1726736,39.0177161],[35.1766256,39.0198483],[35.1772269,39.0172617],[35.1792658,39.0192964],[35.1795242,39.0183253],[35.1824567,39.0190469],[35.1814478,39.0153278],[35.1850953,39.0165881],[35.1847522,39.0130033],[35.1881969,39.0139361],[35.1880811,39.0163725],[35.1925522,39.0137972],[35.1929422,39.0153686],[35.1958575,39.0153881],[35.1951833,39.0100192],[35.1988803,39.0103569],[35.1991369,39.0088292],[35.2005183,39.0106356],[35.205755,39.0102644],[35.2064069,39.0120094],[35.20707,39.0083425],[35.2093403,39.0072564],[35.2073692,39.0040672],[35.2152417,39.0057197],[35.2178631,39.0037603],[35.2194922,39.0055678],[35.2217864,39.0053561],[35.2207197,39.0035847],[35.2254711,39.0021336],[35.2253972,38.9989533],[35.2216642,38.9990275],[35.2211678,38.9972233],[35.2235861,38.9946736],[35.2197817,38.9938781],[35.2251778,38.9933436],[35.2264022,38.9970458],[35.2289906,38.9977847],[35.2294672,38.9958431],[35.2317642,38.9956258],[35.2318692,38.9922894],[35.2332058,38.9924128],[35.2338661,38.9963356],[35.2384658,38.9960561],[35.2412014,38.9990475],[35.2404139,39.0003078],[35.2434378,39.0006547],[35.2449828,39.0039086],[35.2472683,38.9999525],[35.2496775,39.0004683],[35.2506544,38.9988336],[35.2525656,39.0002111],[35.2572161,38.9968014],[35.2636064,38.9975861],[35.2662361,38.9947956],[35.2689039,38.9955908],[35.2703547,38.9988617],[35.2712303,38.9966442],[35.27647,38.9956586],[35.2788089,38.9899081],[35.2831711,38.9871947],[35.2927156,38.9913936],[35.2960206,38.996425],[35.3061239,38.9993358],[35.3101969,38.9988086],[35.3252756,39.0055636],[35.3407475,39.0083186],[35.3535856,39.0157469],[35.3690475,39.0064978],[35.3700219,38.9941592],[35.3751456,38.9901169],[35.3925014,38.9860247],[35.3992558,38.9884044],[35.40162,38.9942553],[35.4037364,38.9950483],[35.4107164,38.9917272],[35.4246972,38.9892678],[35.4366069,38.9904017],[35.4181669,39.0003239],[35.4137214,39.0071494],[35.4064733,39.0121178],[35.3745769,39.0199831],[35.3690764,39.0246161],[35.3698261,39.0276994],[35.3773503,39.0363164],[35.3836314,39.0400586],[35.3853811,39.0394911],[35.3861967,39.0441042],[35.3899114,39.0444722],[35.3907183,39.0431911],[35.3911003,39.0456639],[35.3966192,39.0487478],[35.3989383,39.0471097],[35.3975372,39.0495847],[35.4006103,39.0508022],[35.4012364,39.0497872],[35.4075244,39.0514317],[35.4091408,39.0491022],[35.4091361,39.0555833],[35.4102231,39.0580981],[35.4121008,39.0584592],[35.4126769,39.0618078],[35.4138239,39.0594431],[35.4149875,39.0609669],[35.4188433,39.0594872],[35.4197625,39.0571069],[35.4254472,39.05759],[35.4233369,39.0580394],[35.4227944,39.0603631],[35.4255356,39.0614597],[35.4274894,39.0578625],[35.4349319,39.0583939],[35.4375233,39.0600792],[35.4382322,39.0563458],[35.4432356,39.0548767],[35.4431717,39.0531122],[35.4465997,39.0542544],[35.4471683,39.0582178],[35.4495167,39.0560461],[35.4511694,39.0491814],[35.4538822,39.0508753],[35.4531547,39.0538261],[35.4550239,39.0554867],[35.4580069,39.0543378],[35.4571653,39.0562431],[35.4590919,39.05413],[35.4603989,39.0569378],[35.4607206,39.0542553],[35.4659425,39.0538219],[35.4688989,39.0551058],[35.4709892,39.0528392],[35.4745589,39.0556272],[35.4732367,39.0588958],[35.4780581,39.0617539],[35.4730389,39.0777269],[35.4705036,39.07969],[35.4719131,39.0828103],[35.4684008,39.0826633],[35.4672817,39.0845686],[35.4634108,39.0836661],[35.4635847,39.0853556],[35.4684908,39.0869017],[35.4688656,39.0900689],[35.4661956,39.09103],[35.4585297,39.089405],[35.4491522,39.0909425],[35.4508583,39.09272],[35.4532922,39.0913714],[35.4527483,39.0939008],[35.4596989,39.1026564],[35.4599119,39.1039447],[35.4567681,39.1047625],[35.4572017,39.1065742],[35.4609439,39.1073394],[35.4621825,39.1093139],[35.4580828,39.1102747],[35.4505092,39.1075156],[35.4490442,39.1098183],[35.4348406,39.1102658],[35.4350397,39.1190792],[35.4317111,39.1257022],[35.4345189,39.1306628],[35.4327661,39.1398464],[35.4348339,39.1417481],[35.4352786,39.1457753],[35.4370931,39.1457417],[35.4402808,39.1507758],[35.4416114,39.1504475],[35.4410947,39.1528597],[35.4464594,39.1514081],[35.4477872,39.1496078],[35.4498025,39.1506372],[35.4518994,39.1472947],[35.451095,39.14941],[35.4531894,39.150345],[35.450695,39.1505758],[35.4500936,39.153735],[35.4516928,39.1537911],[35.4535139,39.1579014],[35.4559656,39.1570506],[35.4547856,39.1597017],[35.4567453,39.1595556],[35.4623997,39.164645],[35.4647592,39.1693225],[35.4656625,39.1724525],[35.4621967,39.1758911],[35.4670981,39.1749689],[35.4669036,39.1779986],[35.467815,39.1767014],[35.4729394,39.1779061],[35.4747108,39.1823797],[35.4766483,39.1813217],[35.4762817,39.1826461],[35.4790972,39.1839508],[35.4849008,39.1817569],[35.4871628,39.1867086],[35.4892772,39.1876592],[35.4922017,39.1811578],[35.4939078,39.1839742],[35.5026314,39.1837408],[35.5014322,39.1850553],[35.5055622,39.1914572],[35.5038958,39.1916594],[35.5027539,39.19436],[35.4789593,39.2248302],[35.4406625,39.2660229],[35.4305563,39.2796112],[35.4273649,39.2944318],[35.4332158,39.3100723],[35.4475772,39.3248864],[35.4677894,39.3384633]]]}},{"type":"Feature","properties":{"code":"66-04","provinceCode":"66","name":"Çandır"},"geometry":{"type":"Polygon","coordinates":[[[35.4677894,39.3384633],[35.4475772,39.3248864],[35.4332158,39.3100723],[35.4273649,39.2944318],[35.4305563,39.2796112],[35.4406625,39.2660229],[35.4789593,39.2248302],[35.5027539,39.19436],[35.5059728,39.1964367],[35.5136203,39.1954692],[35.5136158,39.1934567],[35.5165747,39.1928919],[35.5157386,39.1920522],[35.5315036,39.1815783],[35.5329831,39.1822186],[35.5302792,39.1840519],[35.5318242,39.1873228],[35.5338672,39.1869],[35.5436031,39.1916256],[35.5486894,39.1888286],[35.5558992,39.1901275],[35.5568083,39.1874369],[35.5618861,39.1899483],[35.5669858,39.1884903],[35.5669869,39.1901667],[35.5706989,39.1888725],[35.5754003,39.1906731],[35.5881769,39.1874817],[35.5934947,39.1891853],[35.5958653,39.1925839],[35.6020936,39.1931022],[35.6101167,39.1882869],[35.6209317,39.1938669],[35.6238856,39.1974297],[35.6108707,39.2289506],[35.5943818,39.2577863],[35.530479,39.3128513],[35.5108733,39.3191257],[35.4901292,39.3318809],[35.4677894,39.3384633]]]}},{"type":"Feature","properties":{"code":"66-05","provinceCode":"66","name":"Çayıralan"},"geometry":{"type":"Polygon","coordinates":[[[35.6238856,39.1974297],[35.6275564,39.2020064],[35.6328522,39.2032881],[35.6336953,39.209815],[35.6376119,39.2158536],[35.6363414,39.2178231],[35.6563503,39.2230794],[35.6638294,39.2288028],[35.6707097,39.2239208],[35.6727325,39.224705],[35.6799717,39.2208583],[35.7089958,39.2201658],[35.7143211,39.222665],[35.7303628,39.2221242],[35.7409292,39.2304347],[35.7481883,39.2335775],[35.7475972,39.2462439],[35.7452811,39.2531836],[35.7469086,39.2555886],[35.7393944,39.2611356],[35.7426144,39.2738419],[35.7521983,39.2790456],[35.7588883,39.2783706],[35.7629744,39.2795742],[35.7742511,39.2889867],[35.7726469,39.2968089],[35.7739192,39.3027128],[35.7667278,39.3072625],[35.7801222,39.3125083],[35.7828236,39.3002308],[35.8004025,39.3056597],[35.8085178,39.3062267],[35.8261961,39.3188025],[35.8451589,39.3153528],[35.856485,39.3223264],[35.8730365,39.365758],[35.8750315,39.3846716],[35.8863685,39.3931428],[35.8697,39.4118123],[35.8596142,39.4592331],[35.8676181,39.4664271],[35.8608782,39.4800824],[35.867993,39.5129539],[35.8567131,39.5216053],[35.8440672,39.5362539],[35.8350557,39.5526165],[35.8241841,39.5621489],[35.8101148,39.5667502],[35.7960456,39.5654356],[35.7472296,39.5404526],[35.730176,39.534863],[35.7190912,39.5273],[35.6668645,39.5118426],[35.6544577,39.4900424],[35.6374657,39.4851716],[35.6151259,39.4753185],[35.5741695,39.465464],[35.5231071,39.458483],[35.5092776,39.4515012],[35.4954482,39.434249],[35.4864059,39.4100067],[35.4895973,39.3582067],[35.4853421,39.3495696],[35.4677894,39.3384633],[35.4901292,39.3318809],[35.5108733,39.3191257],[35.530479,39.3128513],[35.5943818,39.2577863],[35.6108707,39.2289506],[35.6238856,39.1974297]]]}},{"type":"Feature","properties":{"code":"66-06","provinceCode":"66","name":"Çekerek"},"geometry":{"type":"Polygon","coordinates":[[[35.4325569,40.2427259],[35.4274303,40.2181559],[35.4270354,40.2056988],[35.3951206,40.2022487],[35.3869656,40.1962994],[35.3790234,40.1943796],[35.3720473,40.188302],[35.3711097,40.1727293],[35.3852373,40.1589261],[35.3868489,40.1462206],[35.3784462,40.1358803],[35.3677891,40.127889],[35.3530332,40.1209938],[35.3317191,40.1161354],[35.312933,40.1077104],[35.2870589,40.0803659],[35.2819692,40.0485089],[35.2987233,40.0402366],[35.3026172,40.0283109],[35.3124545,40.0193653],[35.3220868,40.0146566],[35.3251609,40.0113603],[35.3308994,39.9958185],[35.3405942,39.994551],[35.3519497,39.9797475],[35.3434178,39.9697158],[35.3231991,39.9573285],[35.3345772,39.9483037],[35.3871396,39.9428125],[35.438464,39.9210278],[35.4507912,39.9084678],[35.4454626,39.9018648],[35.4497665,39.8792213],[35.4581691,39.8740311],[35.4665718,39.8726155],[35.4906957,39.8612833],[35.504118,39.865136],[35.523965,39.8883255],[35.5354327,39.8965191],[35.5503319,39.9027257],[35.5731498,39.900741],[35.6088331,39.9066094],[35.61528,39.9058727],[35.621037,39.9147604],[35.6187314,39.93421],[35.6189876,39.9501193],[35.6223179,39.9615089],[35.6279538,39.9679883],[35.641019,39.9783933],[35.6852185,39.9888253],[35.7270951,40.0064594],[35.726589,40.0145943],[35.7296005,40.0313702],[35.7281957,40.0660633],[35.6992902,40.0687799],[35.6773546,40.0786804],[35.6681326,40.0909126],[35.6538027,40.0956801],[35.6442085,40.1136678],[35.5929221,40.1217516],[35.5701044,40.1192723],[35.5371373,40.1292588],[35.5136187,40.1305357],[35.489122,40.1398804],[35.4947323,40.1458988],[35.4943232,40.1541863],[35.5060965,40.1647586],[35.5095288,40.1756026],[35.5013963,40.1839589],[35.5027627,40.1948345],[35.4993112,40.2005117],[35.4909959,40.2077504],[35.460232,40.2191659],[35.4325569,40.2427259]]]}},{"type":"Feature","properties":{"code":"66-07","provinceCode":"66","name":"Kadışehri"},"geometry":{"type":"Polygon","coordinates":[[[35.7281957,40.0660633],[35.7296005,40.0313702],[35.726589,40.0145943],[35.7270951,40.0064594],[35.6852185,39.9888253],[35.641019,39.9783933],[35.6279538,39.9679883],[35.6223179,39.9615089],[35.6189876,39.9501193],[35.6187314,39.93421],[35.621037,39.9147604],[35.61528,39.9058727],[35.6398785,39.9193827],[35.6430662,39.9143335],[35.6504945,39.9184928],[35.6676668,39.9192764],[35.6693299,39.9228372],[35.6788236,39.9204988],[35.6869921,39.9286134],[35.6978804,39.9261853],[35.6998901,39.931765],[35.7087601,39.9312336],[35.712138,39.9328547],[35.7186234,39.9245429],[35.7308886,39.9239804],[35.7339699,39.919721],[35.7321259,39.917935],[35.7333608,39.9161809],[35.7321983,39.9130644],[35.7274082,39.9100038],[35.7276791,39.9007214],[35.7305688,39.8974653],[35.738064,39.8995437],[35.7455049,39.8973572],[35.7549814,39.8992924],[35.7610949,39.8949116],[35.7738537,39.8923688],[35.7808537,39.8926847],[35.784182,39.8945012],[35.8017561,39.8884165],[35.8156157,39.8867438],[35.8154759,39.8884723],[35.818015,39.8897623],[35.8257356,39.8896834],[35.827314,39.8907628],[35.8214807,39.891342],[35.8196621,39.896344],[35.8231293,39.9025226],[35.8187947,39.9046008],[35.8186141,39.9074409],[35.8228928,39.9178157],[35.8274823,39.923047],[35.8312718,39.9223689],[35.8338402,39.9247261],[35.8426823,39.926276],[35.8535455,39.9234345],[35.8642402,39.9273416],[35.8656483,39.9301725],[35.878177,39.9304735],[35.878977,39.9356716],[35.8828507,39.9329273],[35.8863455,39.9327982],[35.890017,39.9378255],[35.8927876,39.9382543],[35.8969139,39.9347676],[35.9012871,39.9373507],[35.9235244,39.9318296],[35.9252086,39.9320556],[35.9230612,39.9372212],[35.9270191,39.9381252],[35.928577,39.9371889],[35.9278191,39.9330887],[35.9321678,39.930303],[35.9355829,39.9323848],[35.9318992,39.9365832],[35.936669,39.9362864],[35.9448718,39.9457437],[35.9479876,39.9450981],[35.9516928,39.9468412],[35.9548928,39.9456468],[35.9506823,39.9450981],[35.9495876,39.9434195],[35.9531665,39.9419022],[35.9552718,39.9381574],[35.9663454,39.9380283],[35.9659244,39.9355747],[35.9734612,39.9353487],[35.9778823,39.94555],[35.9753981,39.9478418],[35.9780086,39.9517475],[35.9768753,39.9567729],[35.9600083,39.9793022],[35.9617422,39.9965348],[35.941992,40.0167163],[35.9439168,40.0510847],[35.9873451,40.0758825],[36.0273387,40.0827019],[36.0332621,40.0908665],[36.0455475,40.0997084],[36.0375429,40.1046253],[36.0250458,40.1093488],[36.0192169,40.109906],[36.0056058,40.1074106],[35.9866635,40.1074904],[35.943771,40.1014932],[35.9274882,40.1072312],[35.9155817,40.1064586],[35.852953,40.097307],[35.8366956,40.093518],[35.8239635,40.0950034],[35.8147934,40.1010271],[35.8016306,40.1017701],[35.7786025,40.0995426],[35.7671945,40.0962856],[35.7595805,40.0755586],[35.7281957,40.0660633]]]}},{"type":"Feature","properties":{"code":"66-08","provinceCode":"66","name":"Saraykent"},"geometry":{"type":"Polygon","coordinates":[[[35.5777593,39.6176736],[35.5775462,39.6230923],[35.5830886,39.6301523],[35.5969447,39.6560877],[35.6046188,39.6877551],[35.6056846,39.7036654],[35.6031266,39.7167845],[35.5918286,39.7466211],[35.5916154,39.7549796],[35.5888442,39.7638287],[35.5890574,39.7751342],[35.594813,39.7870931],[35.6069637,39.7951191],[35.627647,39.8164006],[35.6280098,39.8260491],[35.6411166,39.8343687],[35.6608923,39.8333392],[35.6754742,39.8453624],[35.6773183,39.8599873],[35.7072105,39.9096181],[35.7186234,39.9245429],[35.712138,39.9328547],[35.7087601,39.9312336],[35.6998901,39.931765],[35.6978804,39.9261853],[35.6869921,39.9286134],[35.6788236,39.9204988],[35.6693299,39.9228372],[35.6676668,39.9192764],[35.6504945,39.9184928],[35.6430662,39.9143335],[35.6398785,39.9193827],[35.61528,39.9058727],[35.6116775,39.8991172],[35.6096761,39.8733172],[35.5920533,39.8552947],[35.5839808,39.8530523],[35.5809717,39.847319],[35.5752232,39.846415],[35.5680201,39.8409909],[35.5520926,39.8212713],[35.5419491,39.8205196],[35.5354254,39.8132178],[35.5250448,39.8052036],[35.5232156,39.7995495],[35.5029159,39.792687],[35.5085753,39.7839529],[35.4755823,39.7635591],[35.4391569,39.7447873],[35.4191429,39.7293969],[35.4131387,39.7213925],[35.4131387,39.7106158],[35.4187426,39.6949097],[35.4310235,39.6878803],[35.4389266,39.6879692],[35.4531111,39.6819492],[35.4533232,39.6701428],[35.4293631,39.6724104],[35.4419588,39.6527011],[35.460772,39.6366736],[35.4683773,39.6351323],[35.4919938,39.6351323],[35.5024011,39.6326661],[35.5136089,39.622184],[35.5272184,39.6157089],[35.5428294,39.6120086],[35.5608419,39.6160173],[35.5777593,39.6176736]]]}},{"type":"Feature","properties":{"code":"66-09","provinceCode":"66","name":"Sarıkaya"},"geometry":{"type":"Polygon","coordinates":[[[35.1186812,39.5022855],[35.1327898,39.4815702],[35.1384543,39.4630706],[35.1401386,39.4424649],[35.1337557,39.4190472],[35.1273729,39.4100067],[35.1300324,39.3952106],[35.1390748,39.3894558],[35.2076899,39.3643754],[35.3002407,39.3380519],[35.3183253,39.3368177],[35.330559,39.3401088],[35.3417289,39.3590292],[35.3401332,39.3680763],[35.3278995,39.3865781],[35.3231124,39.3980879],[35.3289633,39.4083629],[35.3454522,39.4137052],[35.3587497,39.4112396],[35.3651326,39.4034311],[35.3704516,39.3919222],[35.368324,39.3750665],[35.3704516,39.3582067],[35.3748332,39.3513169],[35.4007699,39.3446337],[35.4406625,39.3429883],[35.4677894,39.3384633],[35.4853421,39.3495696],[35.4895973,39.3582067],[35.4864059,39.4100067],[35.4954482,39.434249],[35.5092776,39.4515012],[35.5231071,39.458483],[35.5741695,39.465464],[35.6151259,39.4753185],[35.6374657,39.4851716],[35.6544577,39.4900424],[35.6668645,39.5118426],[35.6611089,39.5149672],[35.6427762,39.5157895],[35.6382997,39.5210517],[35.6346758,39.5315749],[35.6378733,39.534863],[35.6632406,39.5445622],[35.6837049,39.5591907],[35.6907395,39.571187],[35.6909527,39.5818669],[35.6847708,39.5859741],[35.6429894,39.5930379],[35.6189012,39.5996083],[35.6022739,39.6166883],[35.5777593,39.6176736],[35.5608419,39.6160173],[35.5428294,39.6120086],[35.5272184,39.6157089],[35.5136089,39.622184],[35.5024011,39.6326661],[35.4919938,39.6351323],[35.4683773,39.6351323],[35.460772,39.6366736],[35.4419588,39.6527011],[35.4293631,39.6724104],[35.4025241,39.6809706],[35.3861127,39.6788142],[35.3765059,39.6751172],[35.3660987,39.6680309],[35.3416816,39.6461511],[35.3068572,39.6242643],[35.2968502,39.6233394],[35.2832407,39.6261142],[35.2744346,39.623956],[35.2624262,39.6165561],[35.2580231,39.6110056],[35.2592239,39.6060715],[35.2692309,39.6005202],[35.3004528,39.5958937],[35.3088586,39.5909585],[35.3144626,39.5820126],[35.3145003,39.5704874],[35.3072904,39.5605624],[35.2939007,39.5554008],[35.2640314,39.5546067],[35.1986279,39.5621505],[35.1878132,39.5593713],[35.1790584,39.5526213],[35.1687586,39.5363393],[35.1543389,39.5196561],[35.1186812,39.5022855]]]}},{"type":"Feature","properties":{"code":"66-10","provinceCode":"66","name":"Sorgun"},"geometry":{"type":"Polygon","coordinates":[[[35.4293631,39.6724104],[35.4533232,39.6701428],[35.4531111,39.6819492],[35.4389266,39.6879692],[35.4310235,39.6878803],[35.4187426,39.6949097],[35.4131387,39.7106158],[35.4131387,39.7213925],[35.4191429,39.7293969],[35.4391569,39.7447873],[35.4755823,39.7635591],[35.5085753,39.7839529],[35.5029159,39.792687],[35.5232156,39.7995495],[35.5250448,39.8052036],[35.5354254,39.8132178],[35.5419491,39.8205196],[35.5520926,39.8212713],[35.5680201,39.8409909],[35.5752232,39.846415],[35.5809717,39.847319],[35.5839808,39.8530523],[35.5920533,39.8552947],[35.6096761,39.8733172],[35.6116775,39.8991172],[35.61528,39.9058727],[35.6088331,39.9066094],[35.5731498,39.900741],[35.5503319,39.9027257],[35.5354327,39.8965191],[35.523965,39.8883255],[35.504118,39.865136],[35.4906957,39.8612833],[35.4665718,39.8726155],[35.4581691,39.8740311],[35.4497665,39.8792213],[35.4454626,39.9018648],[35.4507912,39.9084678],[35.438464,39.9210278],[35.3871396,39.9428125],[35.3345772,39.9483037],[35.3231991,39.9573285],[35.3434178,39.9697158],[35.3519497,39.9797475],[35.3405942,39.994551],[35.3308994,39.9958185],[35.3251609,40.0113603],[35.3220868,40.0146566],[35.3124545,40.0193653],[35.3026172,40.0283109],[35.2987233,40.0402366],[35.2819692,40.0485089],[35.2870589,40.0803659],[35.2744555,40.0768103],[35.263678,40.0915246],[35.2426501,40.0983138],[35.2339134,40.0948846],[35.2293883,40.0994017],[35.2162665,40.0998821],[35.2076476,40.0966195],[35.1894276,40.0990694],[35.1726549,40.0888819],[35.1854692,40.0877173],[35.1954525,40.08157],[35.1950556,40.0689782],[35.1895229,40.0553769],[35.1660745,40.0283118],[35.1529748,40.0199301],[35.1057798,40.0260639],[35.08798,40.020757],[35.0906658,40.0108159],[35.0876995,40.0007174],[35.0768229,39.99087],[35.0336463,39.9640981],[35.0142004,39.9466654],[35.0076085,39.9352939],[35.0062902,39.9216455],[35.0132116,39.9049606],[35.0242451,39.893273],[35.0177787,39.8796298],[35.0181682,39.8444234],[35.002335,39.8052718],[34.9977207,39.7513188],[35.0029942,39.7368735],[35.020133,39.7107629],[35.0336463,39.6727201],[35.0336463,39.6531834],[35.0495682,39.6364283],[35.0596753,39.6309772],[35.0751043,39.6195982],[35.0899942,39.6137541],[35.1005284,39.592679],[35.1038495,39.5625316],[35.1199995,39.5330506],[35.1246138,39.5162713],[35.1186812,39.5022855],[35.1543389,39.5196561],[35.1687586,39.5363393],[35.1790584,39.5526213],[35.1878132,39.5593713],[35.1986279,39.5621505],[35.2640314,39.5546067],[35.2939007,39.5554008],[35.3072904,39.5605624],[35.3145003,39.5704874],[35.3144626,39.5820126],[35.3088586,39.5909585],[35.3004528,39.5958937],[35.2692309,39.6005202],[35.2592239,39.6060715],[35.2580231,39.6110056],[35.2624262,39.6165561],[35.2744346,39.623956],[35.2832407,39.6261142],[35.2968502,39.6233394],[35.3068572,39.6242643],[35.3416816,39.6461511],[35.3660987,39.6680309],[35.3765059,39.6751172],[35.3861127,39.6788142],[35.4025241,39.6809706],[35.4293631,39.6724104]]]}},{"type":"Feature","properties":{"code":"66-11","provinceCode":"66","name":"Şefaatli"},"geometry":{"type":"Polygon","coordinates":[[[34.7262551,39.6373078],[34.7129132,39.6196923],[34.7079606,39.610192],[34.6960218,39.6005668],[34.6861677,39.5833228],[34.684131,39.5742694],[34.6719037,39.5647515],[34.6420331,39.5667539],[34.6335915,39.5632497],[34.6196302,39.5519852],[34.5751491,39.5286993],[34.5628113,39.5201843],[34.5628113,39.5119187],[34.5702789,39.4981405],[34.5628657,39.4400733],[34.5968605,39.4271837],[34.5980929,39.4182925],[34.6066858,39.4080558],[34.636687,39.4145704],[34.6622943,39.4036372],[34.6625518,39.3914994],[34.6710024,39.3879628],[34.6714979,39.3836464],[34.6818094,39.3756977],[34.681979,39.3719609],[34.6929203,39.3667684],[34.7059019,39.3651489],[34.7091749,39.3586222],[34.7350035,39.3387828],[34.7424932,39.3378969],[34.7509441,39.3300369],[34.7557929,39.3215144],[34.7625494,39.3186751],[34.7653245,39.3133077],[34.7704962,39.311551],[34.7699916,39.3067687],[34.7746338,39.3044946],[34.7899217,39.3073543],[34.7977541,39.3149906],[34.8563644,39.3202851],[34.8567757,39.322676],[34.8529283,39.3240771],[34.8507842,39.3299591],[34.8517301,39.3344823],[34.8581058,39.3355935],[34.8628304,39.3388725],[34.8594967,39.3426127],[34.8630613,39.3491394],[34.8684003,39.3516746],[34.8692635,39.3560405],[34.8743091,39.3547726],[34.8772103,39.3570159],[34.8915555,39.3513472],[34.8928573,39.3545859],[34.8970142,39.3556504],[34.8967619,39.3633552],[34.9019337,39.3677436],[34.9039329,39.372581],[34.9106979,39.373996],[34.9212947,39.3894044],[34.9436345,39.3996806],[34.9808675,39.412832],[34.9927016,39.447258],[35.0033771,39.451632],[35.027996,39.4568469],[35.0327891,39.4605476],[35.0334427,39.4652572],[35.0319176,39.4711438],[35.0227672,39.4803931],[34.990523,39.5083018],[34.9597593,39.5395815],[34.8814413,39.6010091],[34.8724938,39.6237998],[34.8558134,39.6245864],[34.8466221,39.6269462],[34.839133,39.635598],[34.8150624,39.6384954],[34.8000259,39.6445785],[34.7793217,39.6496841],[34.7692983,39.6578828],[34.74862,39.6493433],[34.7262551,39.6373078]]]}},{"type":"Feature","properties":{"code":"66-12","provinceCode":"66","name":"Yenifakılı"},"geometry":{"type":"Polygon","coordinates":[[[34.9106979,39.373996],[34.9225098,39.3724783],[34.9239823,39.3601452],[34.9210441,39.3533031],[34.9130438,39.3488246],[34.9117596,39.3385856],[34.9202868,39.3232944],[34.9351394,39.3087408],[34.9404405,39.3098042],[34.9467234,39.3140577],[34.9518282,39.3132981],[34.9519913,39.3084322],[34.9416424,39.3026273],[34.9415288,39.2981814],[34.9344098,39.2853232],[34.9228082,39.2709997],[34.9183205,39.258709],[34.9230672,39.2481755],[34.9393025,39.2472119],[34.9604745,39.2490554],[34.9653247,39.2455941],[34.9657204,39.2341375],[34.9636488,39.2251918],[34.9681216,39.2146364],[34.9539676,39.2076567],[34.9562295,39.1981142],[34.953426,39.1950922],[34.9506119,39.1840099],[34.9438092,39.1820733],[34.9390196,39.1775219],[34.932988,39.1775219],[34.9294395,39.172422],[34.9365919,39.1711187],[34.9466847,39.1639808],[34.9460564,39.1587196],[34.9496436,39.1531962],[34.9442403,39.146375],[34.9532877,39.147252],[34.9508794,39.1396761],[34.9607014,39.1461801],[34.9654694,39.1435525],[34.9708558,39.1443416],[34.9813092,39.1389682],[34.9907465,39.1411751],[35.003172,39.1379975],[35.0085296,39.140487],[35.0114879,39.1306206],[35.0064775,39.130752],[35.0143462,39.1233847],[35.0099694,39.1169704],[35.006103,39.1152737],[35.0084739,39.1006326],[35.0040078,39.0852245],[35.0160801,39.0755348],[35.0162597,39.0655759],[35.0189771,39.0647201],[35.0185409,39.0628903],[35.0208282,39.0607831],[35.0235846,39.0607168],[35.0237751,39.0535366],[35.0276494,39.0513911],[35.0334807,39.0584225],[35.0373335,39.059521],[35.0349209,39.064471],[35.0390432,39.064881],[35.0494827,39.0861941],[35.0739502,39.1113741],[35.1101194,39.1596449],[35.1149065,39.1724291],[35.1149065,39.2017002],[35.1202255,39.2173615],[35.1303316,39.238375],[35.1308635,39.2474377],[35.1223531,39.2585585],[35.1058642,39.2709129],[35.0766097,39.2824417],[35.0335257,39.2927337],[35.0202282,39.2993198],[35.0111859,39.3157823],[35.005335,39.3421142],[35.0032074,39.3754262],[34.9989522,39.3894044],[34.9808675,39.412832],[34.9436345,39.3996806],[34.9212947,39.3894044],[34.9106979,39.373996]]]}},{"type":"Feature","properties":{"code":"66-13","provinceCode":"66","name":"Yozgat merkez"},"geometry":{"type":"Polygon","coordinates":[[[35.0334427,39.4652572],[35.0434645,39.4672755],[35.0532685,39.4713119],[35.1186812,39.5022855],[35.1246138,39.5162713],[35.1199995,39.5330506],[35.1038495,39.5625316],[35.1005284,39.592679],[35.0899942,39.6137541],[35.0751043,39.6195982],[35.0596753,39.6309772],[35.0495682,39.6364283],[35.0336463,39.6531834],[35.0336463,39.6727201],[35.020133,39.7107629],[35.0029942,39.7368735],[34.9977207,39.7513188],[35.002335,39.8052718],[35.0181682,39.8444234],[35.0177787,39.8796298],[35.0242451,39.893273],[35.0132116,39.9049606],[35.0062902,39.9216455],[35.0076085,39.9352939],[35.0142004,39.9466654],[35.0336463,39.9640981],[35.0768229,39.99087],[35.0876995,40.0007174],[35.0906658,40.0108159],[35.08798,40.020757],[35.0805645,40.018546],[35.0697711,40.0045445],[35.0584377,40.0032462],[35.0413538,40.0062088],[35.0300121,40.0056745],[35.0187812,40.0018977],[35.0054033,40.000285],[34.9680219,40.002801],[34.9444377,40.0013421],[34.9183188,39.9871806],[34.8975733,39.9884522],[34.8886112,39.9970983],[34.8884453,40.0057434],[34.8909287,40.0166062],[34.8987462,40.0308335],[34.8948462,40.0382685],[34.8767989,40.0491352],[34.8550231,40.0334903],[34.8340121,40.004244],[34.8091838,39.9963356],[34.7964696,39.9938229],[34.7764691,39.9980343],[34.7548109,40.0067624],[34.7072549,40.0067398],[34.683037,40.0176437],[34.658154,40.0109435],[34.6511863,40.0050386],[34.6447902,40.0004415],[34.6381563,39.9879801],[34.6344038,39.9627555],[34.6198823,39.953781],[34.6035884,39.9506219],[34.5995209,39.9476396],[34.5844364,39.943551],[34.5417342,39.9517689],[34.5413852,39.9596486],[34.5298128,39.9784467],[34.5096855,39.9835457],[34.4881168,39.9795606],[34.4697159,39.9867608],[34.4634577,39.9922972],[34.4376826,39.9944979],[34.4129839,39.9952073],[34.3911016,39.9656447],[34.380396,39.9550012],[34.368749,39.9543605],[34.3600132,39.9506782],[34.3587587,39.9432569],[34.3631359,39.9364134],[34.3872998,39.9377504],[34.3956116,39.9339265],[34.4100741,39.9090659],[34.4133988,39.8960582],[34.4132326,39.8793487],[34.4203808,39.8732252],[34.4424901,39.8659527],[34.4675918,39.8663355],[34.4855453,39.8621248],[34.4983455,39.8544683],[34.5069897,39.8415779],[34.5139716,39.8263872],[34.5159665,39.8101715],[34.5207873,39.8042972],[34.5317589,39.8058297],[34.5402369,39.8208973],[34.5463877,39.8251105],[34.5580242,39.8266425],[34.5684971,39.8252382],[34.5879467,39.8136193],[34.5931,39.8051911],[34.5939312,39.7990609],[34.5864506,39.7811781],[34.5694945,39.760607],[34.569827,39.7397742],[34.5731517,39.7336382],[34.5832921,39.7283965],[34.5967572,39.7267345],[34.6128821,39.7272459],[34.6205289,39.7289079],[34.623355,39.7328711],[34.6301706,39.7373454],[34.6358227,39.7378567],[34.6452709,39.7431627],[34.6958339,39.7253281],[34.7066392,39.7177842],[34.720603,39.6943802],[34.7229304,39.686833],[34.7230999,39.6772161],[34.7157822,39.6708404],[34.706473,39.6663618],[34.6920104,39.6625227],[34.6885195,39.6584275],[34.6886857,39.654588],[34.7044781,39.6458844],[34.7262551,39.6373078],[34.74862,39.6493433],[34.7692983,39.6578828],[34.7793217,39.6496841],[34.8000259,39.6445785],[34.8150624,39.6384954],[34.839133,39.635598],[34.8466221,39.6269462],[34.8558134,39.6245864],[34.8724938,39.6237998],[34.8814413,39.6010091],[34.9597593,39.5395815],[34.990523,39.5083018],[35.0227672,39.4803931],[35.0319176,39.4711438],[35.0334427,39.4652572]]]}}]}