{"type":"FeatureCollection","features":[{"type":"Feature","properties":{"code":"69-01","provinceCode":"69","name":"Aydıntepe"},"geometry":{"type":"Polygon","coordinates":[[[40.2548893,40.5195664],[40.2517012,40.5477512],[40.2426839,40.5585802],[40.214112,40.5509962],[40.2062487,40.5505916],[40.1910607,40.5626321],[40.187857,40.5628427],[40.1830498,40.5683545],[40.1789975,40.5636337],[40.1678042,40.5575036],[40.1575653,40.5581038],[40.1502228,40.5489123],[40.1411032,40.5474285],[40.138464,40.5434174],[40.1332649,40.5401322],[40.1287222,40.5395038],[40.1271772,40.5374654],[40.1165986,40.5381829],[40.1033255,40.5414648],[40.0983381,40.5354759],[40.0967288,40.5281369],[40.0905704,40.5214659],[40.0841331,40.5183993],[40.0771102,40.5124853],[40.0686257,40.5025351],[40.0129674,40.5009743],[39.9622521,40.4894327],[39.9362126,40.4810275],[39.9358688,40.4695165],[39.9601869,40.4444047],[39.9816099,40.4106872],[40.011139,40.3767322],[40.0395101,40.3623955],[40.0568802,40.3590866],[40.0673022,40.3612925],[40.0855408,40.3736446],[40.0952333,40.3732035],[40.1051758,40.3706151],[40.1112484,40.3578981],[40.1348496,40.3456597],[40.1521009,40.3399434],[40.1591965,40.3404993],[40.1612659,40.3383936],[40.1703856,40.3382731],[40.1845022,40.3405879],[40.1944061,40.3468819],[40.2025815,40.3481363],[40.2106981,40.3524556],[40.213978,40.3501141],[40.2200235,40.3507302],[40.2211349,40.3532388],[40.2243406,40.3514776],[40.2276958,40.3524977],[40.2415618,40.3624987],[40.2485585,40.3721309],[40.2642998,40.374313],[40.2481224,40.4082006],[40.2358736,40.4139405],[40.2178495,40.4192671],[40.2051615,40.4261278],[40.2039757,40.4309118],[40.2064659,40.4348832],[40.2116834,40.4364175],[40.2294703,40.4332586],[40.2388381,40.4287455],[40.2534581,40.4291971],[40.2650649,40.4401878],[40.2689748,40.4418086],[40.2684316,40.4522467],[40.2699174,40.4550384],[40.2658032,40.4716828],[40.264216,40.5024538],[40.2548893,40.5195664]]]}},{"type":"Feature","properties":{"code":"69-02","provinceCode":"69","name":"Bayburt merkez"},"geometry":{"type":"Polygon","coordinates":[[[40.5911514,40.2504968],[40.5835289,40.2590015],[40.5587107,40.2587217],[40.5433325,40.2525205],[40.5306223,40.2598656],[40.5260651,40.2663458],[40.4997393,40.2719616],[40.5181709,40.2801606],[40.5375753,40.2995063],[40.5263637,40.3151898],[40.5108832,40.3262477],[40.5090817,40.3338772],[40.4946354,40.3391217],[40.5015245,40.3464346],[40.4883929,40.3508486],[40.4906282,40.3560931],[40.4839222,40.3621155],[40.5038317,40.3740576],[40.5127238,40.3667753],[40.5231816,40.3649366],[40.5352122,40.3666621],[40.5447869,40.3649185],[40.5621042,40.3539359],[40.5775688,40.3547191],[40.5989036,40.3629955],[40.600319,40.3690345],[40.6053006,40.3759432],[40.5994698,40.3820813],[40.5915483,40.3831877],[40.5787015,40.3915428],[40.5832343,40.396833],[40.5755501,40.4047185],[40.5400448,40.4017026],[40.5397185,40.4072193],[40.5549977,40.4194717],[40.5551021,40.4271361],[40.5467656,40.4375733],[40.5545822,40.4534693],[40.5649741,40.4889888],[40.5690128,40.4927853],[40.5703999,40.4970047],[40.5775089,40.496741],[40.5840976,40.5061019],[40.5948477,40.5137478],[40.5865251,40.5203384],[40.5858315,40.5267966],[40.5768153,40.5365486],[40.5738865,40.5554551],[40.5625799,40.5548348],[40.5493464,40.5479089],[40.5461677,40.5408962],[40.5350492,40.5317952],[40.5263041,40.5316621],[40.5199811,40.5289384],[40.5170178,40.5246887],[40.5164989,40.5185086],[40.5046458,40.5160397],[40.5012443,40.5166127],[40.4955625,40.5199082],[40.483414,40.5213345],[40.4762464,40.528455],[40.4634833,40.5257557],[40.4592883,40.5170454],[40.4577112,40.5191823],[40.4540956,40.5197124],[40.4457915,40.5179018],[40.422132,40.5197236],[40.4096246,40.5135382],[40.4023481,40.5164607],[40.3922653,40.5152021],[40.3883741,40.5181311],[40.3784425,40.521801],[40.3685331,40.5222326],[40.3584981,40.5180556],[40.3498006,40.5202263],[40.3285804,40.5194206],[40.3254711,40.5206421],[40.2990523,40.5182835],[40.2773462,40.5146075],[40.2548893,40.5195664],[40.264216,40.5024538],[40.2658032,40.4716828],[40.2699174,40.4550384],[40.2684316,40.4522467],[40.2689748,40.4418086],[40.2650649,40.4401878],[40.2534581,40.4291971],[40.2388381,40.4287455],[40.2294703,40.4332586],[40.2116834,40.4364175],[40.2064659,40.4348832],[40.2039757,40.4309118],[40.2051615,40.4261278],[40.2178495,40.4192671],[40.2358736,40.4139405],[40.2481224,40.4082006],[40.2642998,40.374313],[40.2485585,40.3721309],[40.2415618,40.3624987],[40.2276958,40.3524977],[40.2243406,40.3514776],[40.2211349,40.3532388],[40.2200235,40.3507302],[40.213978,40.3501141],[40.2106981,40.3524556],[40.2025815,40.3481363],[40.1944061,40.3468819],[40.1845022,40.3405879],[40.1703856,40.3382731],[40.1612659,40.3383936],[40.1591965,40.3404993],[40.1521009,40.3399434],[40.1348496,40.3456597],[40.1112484,40.3578981],[40.1051758,40.3706151],[40.0952333,40.3732035],[40.0855408,40.3736446],[40.0673022,40.3612925],[40.0568802,40.3590866],[40.0395101,40.3623955],[40.011139,40.3767322],[39.9816099,40.4106872],[39.9601869,40.4444047],[39.9358688,40.4695165],[39.9362126,40.4810275],[39.9209269,40.4760931],[39.8872898,40.445044],[39.8659009,40.4133034],[39.8556565,40.380088],[39.8265287,40.3462616],[39.8172463,40.3127054],[39.802039,40.3063676],[39.8277007,40.2928477],[39.8492082,40.2766316],[39.8536483,40.2189508],[39.8714862,40.2252942],[39.9032565,40.2177417],[39.9500399,40.2041229],[39.9896436,40.1843089],[39.9952008,40.1779662],[39.9963463,40.1738968],[39.9939649,40.1734067],[39.9893891,40.1680563],[39.9766739,40.1607722],[39.9718103,40.154223],[39.966114,40.1403373],[39.965519,40.1282468],[39.9566576,40.123968],[39.9398707,40.1258668],[39.9377827,40.0943353],[39.9593039,40.0867467],[39.9634727,40.0732789],[39.9666276,40.0508655],[40.0207777,40.0634451],[40.0416143,40.0759354],[40.0613592,40.0830928],[40.095966,40.0829892],[40.1125085,40.0761023],[40.1175444,40.0465547],[40.1406239,40.0288616],[40.1740587,40.0377795],[40.2183452,40.0317623],[40.2439796,40.0257428],[40.3010958,40.0322798],[40.3007935,40.0387448],[40.3506979,40.0475902],[40.3713008,40.044738],[40.3971212,40.0322066],[40.4283978,40.0257747],[40.45255,40.0250692],[40.4766177,40.0290474],[40.4894172,40.0342305],[40.5029957,40.0486349],[40.5073735,40.0503945],[40.5074882,40.0755625],[40.519282,40.084935],[40.5421284,40.095304],[40.5702666,40.1008034],[40.5777666,40.0997084],[40.5933226,40.1049953],[40.621998,40.1062284],[40.6274608,40.1093533],[40.6301546,40.1084168],[40.6338281,40.1096343],[40.6360322,40.1137548],[40.6392158,40.114223],[40.6446036,40.1109454],[40.6491342,40.11132],[40.6493791,40.1235867],[40.657081,40.128406],[40.6636932,40.1293423],[40.6639381,40.1366445],[40.6693258,40.1409505],[40.6891625,40.1480643],[40.6942893,40.1472848],[40.711135,40.1526826],[40.7042779,40.163164],[40.6827269,40.1762634],[40.6748902,40.1781346],[40.6675433,40.1878637],[40.6717066,40.1916053],[40.6773392,40.190857],[40.6827269,40.1974043],[40.6893391,40.1981526],[40.6935024,40.2022677],[40.689584,40.2080658],[40.6966861,40.2134895],[40.6935024,40.2162946],[40.6936584,40.2268925],[40.6781261,40.2275447],[40.6397596,40.2124805],[40.6209742,40.2198773],[40.5974617,40.2362974],[40.5911514,40.2504968]]]}},{"type":"Feature","properties":{"code":"69-03","provinceCode":"69","name":"Demirözü"},"geometry":{"type":"Polygon","coordinates":[[[39.8536483,40.2189508],[39.836375,40.1931843],[39.8141415,40.1794964],[39.776151,40.1641324],[39.7689125,40.1558199],[39.7499709,40.1544644],[39.7361009,40.1431205],[39.7209843,40.1380866],[39.6974037,40.1166085],[39.6848645,40.1125121],[39.6630441,40.096799],[39.6702334,40.0633897],[39.6827124,40.0516116],[39.6908272,40.0024211],[39.7136222,39.9861102],[39.7539256,39.9687696],[39.804707,39.9307085],[39.8103384,39.9416806],[39.8289113,39.955508],[39.8385004,39.9615741],[39.8476209,39.9620244],[39.8516328,39.9754859],[39.8643943,39.9861941],[39.8762321,39.9993291],[39.8836292,40.0107979],[39.8942007,40.0200818],[39.9179058,40.0363658],[39.9493531,40.0410473],[39.9666276,40.0508655],[39.9634727,40.0732789],[39.9593039,40.0867467],[39.9377827,40.0943353],[39.9398707,40.1258668],[39.9566576,40.123968],[39.965519,40.1282468],[39.966114,40.1403373],[39.9718103,40.154223],[39.9766739,40.1607722],[39.9893891,40.1680563],[39.9939649,40.1734067],[39.9963463,40.1738968],[39.9952008,40.1779662],[39.9896436,40.1843089],[39.9500399,40.2041229],[39.9032565,40.2177417],[39.8714862,40.2252942],[39.8536483,40.2189508]]]}}]}