{"type":"FeatureCollection","features":[{"type":"Feature","properties":{"code":"57-01","provinceCode":"57","name":"Ayancık"},"geometry":{"type":"Polygon","coordinates":[[[34.5794251,41.6877429],[34.5799821,41.692798],[34.6077984,41.7130809],[34.6148717,41.7142338],[34.6201444,41.714198],[34.6441945,41.704773],[34.6490817,41.7046177],[34.6588559,41.7011243],[34.7021122,41.7027546],[34.7242603,41.701823],[34.7410013,41.6994939],[34.7616936,41.694292],[34.7665808,41.690565],[34.7701161,41.6932826],[34.7716759,41.6981741],[34.7804103,41.7044625],[34.7863781,41.7201534],[34.7958014,41.7315517],[34.7982384,41.7387049],[34.7983359,41.7518114],[34.7957364,41.7550694],[34.7911612,41.75856],[34.780971,41.7560003],[34.7771237,41.7577068],[34.7748361,41.7644547],[34.7763958,41.7691856],[34.7905373,41.7796544],[34.8008315,41.7915945],[34.8049907,41.8108181],[34.7887696,41.8264717],[34.7777484,41.8290718],[34.7676645,41.8712042],[34.7638525,41.8714221],[34.7633446,41.8734771],[34.7600718,41.8745862],[34.7554423,41.8840217],[34.7490944,41.885333],[34.748998,41.8868788],[34.7402297,41.8896306],[34.7517055,41.8961241],[34.7473289,41.8992603],[34.7481653,41.9008732],[34.7635889,41.8969242],[34.7798272,41.9039085],[34.7802431,41.9130399],[34.7750441,41.9282817],[34.7827387,41.9384151],[34.7845064,41.9432105],[34.784219,41.952882],[34.7749413,41.9513012],[34.7656174,41.9535279],[34.745965,41.949748],[34.733119,41.945194],[34.717939,41.943241],[34.6981801,41.9436649],[34.694647,41.946539],[34.6590833,41.9410785],[34.623005,41.941542],[34.60964,41.94327],[34.6044019,41.9458724],[34.6044651,41.9448391],[34.6027474,41.9451256],[34.6041935,41.9468682],[34.6006129,41.9468353],[34.5951061,41.9494139],[34.5910077,41.9495876],[34.5911971,41.94777],[34.5902309,41.9501512],[34.5812825,41.9473895],[34.5665116,41.9488127],[34.5579484,41.946685],[34.5568748,41.9484181],[34.54514,41.948906],[34.544827,41.950193],[34.540352,41.949997],[34.537664,41.952599],[34.532496,41.952155],[34.528432,41.954776],[34.521553,41.954739],[34.51744,41.9569765],[34.5114047,41.9572208],[34.5031584,41.9608082],[34.5058825,41.9646195],[34.5019265,41.9611218],[34.4992073,41.9656691],[34.5027112,41.9683359],[34.5088875,41.9662066],[34.5022022,41.968886],[34.4998738,41.9728004],[34.4901481,41.9765532],[34.477456,41.966096],[34.44992,41.965163],[34.446776,41.963022],[34.4465896,41.9542488],[34.4533208,41.9467395],[34.4512374,41.9413753],[34.4435445,41.9369643],[34.4414611,41.9331491],[34.443224,41.9292145],[34.4606931,41.9152626],[34.4610136,41.9108499],[34.4441856,41.8997569],[34.4424227,41.882577],[34.4353709,41.8787586],[34.4260754,41.8818611],[34.4223893,41.8803099],[34.4223893,41.8723146],[34.4249536,41.8670634],[34.4364928,41.8536948],[34.4364928,41.8484421],[34.426396,41.8369801],[34.415017,41.8335172],[34.4114911,41.826352],[34.4084461,41.8240829],[34.3961055,41.8246801],[34.3875959,41.8086617],[34.3733476,41.7946963],[34.3606865,41.7877658],[34.3576414,41.7845393],[34.3356546,41.7405278],[34.3727745,41.7370105],[34.3839446,41.740635],[34.4084049,41.7387161],[34.4387007,41.7313677],[34.4585399,41.7281628],[34.4756268,41.7286856],[34.5127724,41.7364797],[34.5255041,41.7316645],[34.5508196,41.7036688],[34.5794251,41.6877429]]]}},{"type":"Feature","properties":{"code":"57-02","provinceCode":"57","name":"Boyabat"},"geometry":{"type":"Polygon","coordinates":[[[35.0981881,41.5861274],[35.1002781,41.5934545],[35.0987106,41.5953105],[35.0805541,41.6089852],[35.0783336,41.612208],[35.0767661,41.6202157],[35.0785948,41.6286129],[35.0891752,41.6420852],[35.0866934,41.644916],[35.0780723,41.649894],[35.0623977,41.6550667],[35.0512948,41.6566283],[35.0401919,41.6601415],[35.0182474,41.6774123],[35.0106713,41.6809244],[35.006622,41.6854118],[34.9976091,41.6837535],[34.9784076,41.6658014],[34.966521,41.6596536],[34.9305999,41.6460873],[34.9100922,41.6423781],[34.902908,41.6425733],[34.8778286,41.6597512],[34.8784572,41.6683231],[34.8827174,41.6782045],[34.8800267,41.6867447],[34.8716185,41.6832283],[34.8685915,41.6786231],[34.8587259,41.6777021],[34.8543536,41.6741014],[34.8482996,41.6730965],[34.8294652,41.6766135],[34.8284562,41.6799628],[34.830884,41.6835868],[34.8288651,41.6852205],[34.814495,41.6764291],[34.8080575,41.6803977],[34.7929899,41.6816035],[34.7722923,41.6872428],[34.7665808,41.690565],[34.7616936,41.694292],[34.7410013,41.6994939],[34.7242603,41.701823],[34.7021122,41.7027546],[34.6588559,41.7011243],[34.6490817,41.7046177],[34.6441945,41.704773],[34.6201444,41.714198],[34.6148717,41.7142338],[34.6077984,41.7130809],[34.5799821,41.692798],[34.5794251,41.6877429],[34.597332,41.679292],[34.6043332,41.673765],[34.6063384,41.6689131],[34.6067604,41.6543948],[34.5956212,41.6322152],[34.5991684,41.6120351],[34.5879702,41.6043182],[34.5793301,41.6036445],[34.5678972,41.5903366],[34.5690393,41.5821226],[34.5609739,41.5759227],[34.5596468,41.5692106],[34.5477605,41.559273],[34.5384356,41.5441362],[34.5252656,41.5393375],[34.5075621,41.5353256],[34.4905056,41.5285094],[34.4647023,41.5105955],[34.4419714,41.5045335],[34.4308312,41.4905151],[34.4526852,41.4607746],[34.4531762,41.4511705],[34.4472376,41.4404779],[34.449588,41.4252445],[34.455321,41.4132011],[34.4604104,41.4116638],[34.4625921,41.405008],[34.4733898,41.3991251],[34.4743717,41.3883457],[34.4783077,41.3855007],[34.4814507,41.3802656],[34.4786677,41.3661681],[34.474991,41.3617915],[34.4833264,41.3509213],[34.4906742,41.3509458],[34.498788,41.348294],[34.5045284,41.338763],[34.5062948,41.3266533],[34.5168463,41.3244567],[34.5226127,41.3192752],[34.5246568,41.309488],[34.5331973,41.2999977],[34.5476235,41.2962048],[34.5622871,41.2958342],[34.5806714,41.3018725],[34.6025522,41.3040887],[34.626753,41.2974123],[34.6282497,41.3030518],[34.6676578,41.3219531],[34.7276547,41.336608],[34.7346804,41.341548],[34.7478396,41.3561148],[34.7646789,41.3673307],[34.7798454,41.3744442],[34.7949004,41.3843182],[34.8018146,41.386661],[34.8555665,41.3940234],[34.8688372,41.3904259],[34.8805467,41.3846529],[34.894821,41.3901749],[34.9095415,41.3916809],[34.9330719,41.3865773],[34.9364175,41.3831468],[34.9405407,41.3817998],[34.9454521,41.386112],[34.9460791,41.3923839],[34.9434666,41.4012418],[34.9460791,41.4053176],[34.9459746,41.4108039],[34.9429441,41.4169166],[34.9289665,41.429858],[34.9241387,41.4452353],[34.9245525,41.4504436],[34.9261853,41.4553387],[34.9430029,41.4690429],[34.9464317,41.4746706],[34.946595,41.4820103],[34.9599838,41.5031685],[34.9691273,41.5135616],[34.9967213,41.529087],[35.0179474,41.5375206],[35.037704,41.5799159],[35.0514254,41.585932],[35.058479,41.5950175],[35.0630508,41.5957013],[35.0804235,41.5938452],[35.0981881,41.5861274]]]}},{"type":"Feature","properties":{"code":"57-03","provinceCode":"57","name":"Dikmen"},"geometry":{"type":"Polygon","coordinates":[[[35.3658788,41.4930864],[35.3685743,41.5047742],[35.3662867,41.5079349],[35.3569058,41.5121179],[35.3580407,41.5183188],[35.354511,41.527491],[35.355063,41.5325062],[35.3584002,41.534685],[35.3601565,41.5385165],[35.3351405,41.554178],[35.3289179,41.5666257],[35.321265,41.5721822],[35.3215912,41.5782075],[35.3146409,41.5918516],[35.3197846,41.5955108],[35.3290684,41.5933903],[35.3325059,41.5946664],[35.3452523,41.5937469],[35.3429439,41.596843],[35.3367965,41.5992823],[35.3358932,41.6036353],[35.3553892,41.6167487],[35.35835,41.6233138],[35.3552136,41.6297095],[35.3570703,41.6358044],[35.3621658,41.6408546],[35.3650578,41.6413717],[35.3715515,41.6462376],[35.3854436,41.6503873],[35.3999834,41.6768448],[35.4055226,41.6791778],[35.4100449,41.6778745],[35.4121084,41.684157],[35.3934199,41.6856532],[35.3859368,41.6891422],[35.3724378,41.6908006],[35.3389974,41.7007903],[35.3155208,41.7045898],[35.3118031,41.6995132],[35.3113546,41.6949504],[35.3141017,41.6910989],[35.3271047,41.6830239],[35.3250516,41.6798549],[35.3136911,41.6765835],[35.3046574,41.6763791],[35.2854951,41.683535],[35.276872,41.6839439],[35.2546985,41.6887481],[35.2291031,41.69764],[35.2210275,41.6959026],[35.2128151,41.6918144],[35.1909153,41.6800594],[35.1972115,41.6663595],[35.2141838,41.6549066],[35.217195,41.6511226],[35.2133626,41.6447814],[35.2033708,41.6445768],[35.1628561,41.6581791],[35.1550543,41.6593039],[35.1480738,41.65777],[35.1434201,41.6556225],[35.1363026,41.6482589],[35.1216571,41.6210474],[35.1066925,41.6028691],[35.0993356,41.5994147],[35.0987106,41.5953105],[35.1002781,41.5934545],[35.0981881,41.5861274],[35.0974044,41.5793858],[35.105503,41.5703958],[35.1069398,41.5613068],[35.1207601,41.5496342],[35.1568496,41.5241004],[35.1659956,41.520399],[35.1724225,41.5124403],[35.1721753,41.5061467],[35.1852763,41.5052211],[35.2059906,41.496631],[35.2233927,41.4944093],[35.231105,41.4912987],[35.2498913,41.4883361],[35.2651181,41.4718913],[35.2801471,41.4615185],[35.2890459,41.4606293],[35.3289915,41.4754473],[35.337297,41.4758917],[35.3485688,41.4810772],[35.3560833,41.4878917],[35.3658788,41.4930864]]]}},{"type":"Feature","properties":{"code":"57-04","provinceCode":"57","name":"Durağan"},"geometry":{"type":"Polygon","coordinates":[[[34.9405407,41.3817998],[34.9281761,41.3766051],[34.9141342,41.3654548],[34.9125014,41.3519739],[34.9169099,41.3421678],[34.9288292,41.3373868],[34.9443406,41.3382449],[34.9600152,41.3360382],[34.9733275,41.3261103],[34.9829112,41.3336045],[34.9914649,41.3330528],[34.9998177,41.3358117],[35.0039504,41.3419773],[35.0135906,41.3446087],[35.017995,41.3432575],[35.0306839,41.3327083],[35.0383408,41.3336005],[35.0499252,41.3283961],[35.0516744,41.3260168],[35.0539517,41.3290653],[35.0601564,41.330354],[35.0752722,41.3291644],[35.0802558,41.3324853],[35.0787376,41.3350874],[35.0817739,41.3388788],[35.0883747,41.340316],[35.0887708,41.34267],[35.0945464,41.3443549],[35.0983749,41.3474273],[35.0984409,41.3494342],[35.1041176,41.3478733],[35.1049427,41.3494342],[35.1033255,41.3493598],[35.1100253,41.3559003],[35.1207185,41.3572876],[35.125273,41.3603346],[35.1303601,41.3613293],[35.149594,41.3228623],[35.1582914,41.3182538],[35.1713377,41.3145148],[35.1806074,41.3147727],[35.1933285,41.3074874],[35.1951986,41.3047151],[35.1910787,41.2907866],[35.1915937,41.2670497],[35.2258225,41.2608183],[35.2439504,41.2511773],[35.2806766,41.2432019],[35.2944335,41.2441633],[35.3065518,41.2339324],[35.3177715,41.2335963],[35.3294294,41.2380443],[35.3585965,41.2441633],[35.3900413,41.2635176],[35.3994436,41.2632618],[35.4041698,41.2676627],[35.4040992,41.2701016],[35.400197,41.274374],[35.3843632,41.2824437],[35.3802774,41.2901678],[35.373111,41.2978423],[35.3686361,41.3109234],[35.3638369,41.3156485],[35.3563463,41.3192287],[35.3541413,41.3306497],[35.3548871,41.3395124],[35.3620466,41.3442706],[35.3683859,41.3453842],[35.3707738,41.3473078],[35.3791969,41.3443792],[35.3793265,41.3432296],[35.3827141,41.3439085],[35.388515,41.3412569],[35.3910759,41.3354114],[35.3980036,41.334807],[35.4034637,41.3302643],[35.4160156,41.3264491],[35.42516,41.321352],[35.4375893,41.3138837],[35.448559,41.3169305],[35.4502089,41.3234049],[35.4619039,41.3304766],[35.4639243,41.3373646],[35.4720506,41.3372928],[35.4782774,41.3406893],[35.4731736,41.3427733],[35.4670073,41.3501481],[35.4666329,41.3547019],[35.4599174,41.3593678],[35.4480593,41.3740191],[35.4500315,41.3812499],[35.4537012,41.3844717],[35.4532269,41.3863822],[35.4473353,41.3906712],[35.4388515,41.3936014],[35.4356714,41.3968352],[35.4387221,41.4033678],[35.4440699,41.4047312],[35.4469967,41.4105908],[35.4362882,41.422713],[35.4329655,41.4297379],[35.4323659,41.4373991],[35.4299923,41.4414448],[35.434314,41.4526071],[35.4228186,41.4542057],[35.4143396,41.4578863],[35.4066729,41.4692185],[35.399819,41.4717735],[35.395988,41.4741766],[35.391085,41.4709658],[35.3872651,41.4736906],[35.3749228,41.476587],[35.3695851,41.4813433],[35.3658788,41.4930864],[35.3560833,41.4878917],[35.3485688,41.4810772],[35.337297,41.4758917],[35.3289915,41.4754473],[35.2890459,41.4606293],[35.2801471,41.4615185],[35.2651181,41.4718913],[35.2498913,41.4883361],[35.231105,41.4912987],[35.2233927,41.4944093],[35.2059906,41.496631],[35.1852763,41.5052211],[35.1721753,41.5061467],[35.1724225,41.5124403],[35.1659956,41.520399],[35.1568496,41.5241004],[35.1207601,41.5496342],[35.1069398,41.5613068],[35.105503,41.5703958],[35.0974044,41.5793858],[35.0981881,41.5861274],[35.0804235,41.5938452],[35.0630508,41.5957013],[35.058479,41.5950175],[35.0514254,41.585932],[35.037704,41.5799159],[35.0179474,41.5375206],[34.9967213,41.529087],[34.9691273,41.5135616],[34.9599838,41.5031685],[34.946595,41.4820103],[34.9464317,41.4746706],[34.9430029,41.4690429],[34.9261853,41.4553387],[34.9245525,41.4504436],[34.9241387,41.4452353],[34.9289665,41.429858],[34.9429441,41.4169166],[34.9459746,41.4108039],[34.9460791,41.4053176],[34.9434666,41.4012418],[34.9460791,41.3923839],[34.9454521,41.386112],[34.9405407,41.3817998]]]}},{"type":"Feature","properties":{"code":"57-05","provinceCode":"57","name":"Erfelek"},"geometry":{"type":"Polygon","coordinates":[[[34.784219,41.952882],[34.7845064,41.9432105],[34.7827387,41.9384151],[34.7750441,41.9282817],[34.7802431,41.9130399],[34.7798272,41.9039085],[34.7635889,41.8969242],[34.7481653,41.9008732],[34.7473289,41.8992603],[34.7517055,41.8961241],[34.7402297,41.8896306],[34.748998,41.8868788],[34.7490944,41.885333],[34.7554423,41.8840217],[34.7600718,41.8745862],[34.7633446,41.8734771],[34.7638525,41.8714221],[34.7676645,41.8712042],[34.7777484,41.8290718],[34.7887696,41.8264717],[34.8049907,41.8108181],[34.8008315,41.7915945],[34.7905373,41.7796544],[34.7763958,41.7691856],[34.7748361,41.7644547],[34.7771237,41.7577068],[34.780971,41.7560003],[34.7911612,41.75856],[34.7957364,41.7550694],[34.7983359,41.7518114],[34.7982384,41.7387049],[34.7958014,41.7315517],[34.7863781,41.7201534],[34.7804103,41.7044625],[34.7716759,41.6981741],[34.7701161,41.6932826],[34.7665808,41.690565],[34.7722923,41.6872428],[34.7929899,41.6816035],[34.8080575,41.6803977],[34.814495,41.6764291],[34.8288651,41.6852205],[34.830884,41.6835868],[34.8411981,41.6866679],[34.8467162,41.6914742],[34.849353,41.7146025],[34.8559002,41.7234392],[34.8578734,41.7377627],[34.8550034,41.7581047],[34.8561693,41.7637243],[34.8714162,41.7728218],[34.8863941,41.794958],[34.8966185,41.8009087],[34.906686,41.8013225],[34.9187939,41.8063367],[34.9284802,41.8147597],[34.9359243,41.8255208],[34.9409468,41.8293302],[34.9569113,41.8364805],[34.9586153,41.8427614],[34.9511712,41.8521149],[34.9540412,41.8562567],[34.9589862,41.8557906],[34.9665307,41.8519036],[34.9763648,41.8496947],[34.980416,41.8502787],[34.9848939,41.8561899],[34.9744004,41.8686138],[34.9780776,41.8743573],[34.9871361,41.8754258],[34.9967327,41.8823039],[34.996643,41.8893816],[34.9938627,41.8970593],[34.9996182,41.9137146],[34.9979172,41.9175194],[34.9995505,41.9197662],[34.9713768,41.926456],[34.9750042,41.9280709],[34.9744127,41.9368147],[34.9767588,41.9371224],[34.9778839,41.9401411],[34.9771888,41.9457484],[34.9683231,41.9472594],[34.9728332,41.9540607],[34.971351,41.9611821],[34.9722479,41.9715851],[34.9655213,41.9855865],[34.9571803,41.9943858],[34.9325434,42.0060065],[34.9130374,42.0082057],[34.9090014,42.0119376],[34.9040374,42.0216342],[34.874949,41.998151],[34.827607,41.967087],[34.818552,41.963124],[34.817192,41.963659],[34.812621,41.960137],[34.800442,41.955067],[34.7945107,41.9546296],[34.791183,41.955982],[34.784219,41.952882]]]}},{"type":"Feature","properties":{"code":"57-06","provinceCode":"57","name":"Gerze"},"geometry":{"type":"Polygon","coordinates":[[[35.3155208,41.7045898],[35.3089762,41.7055182],[35.2765085,41.716028],[35.279293,41.7164253],[35.2743142,41.7181313],[35.2682277,41.7228899],[35.263019,41.7293825],[35.262462,41.73218],[35.265048,41.73752],[35.2540982,41.7419332],[35.2390207,41.7510464],[35.228446,41.754278],[35.2117772,41.7643982],[35.2043953,41.7739649],[35.2023579,41.7812333],[35.1975358,41.7854502],[35.192936,41.793592],[35.1950441,41.7986526],[35.2015304,41.7971218],[35.1951939,41.7987708],[35.1963925,41.8001571],[35.2056636,41.8016155],[35.2065625,41.8006629],[35.2039891,41.798035],[35.2067916,41.8002293],[35.2073292,41.8020623],[35.198393,41.809111],[35.1876413,41.8148059],[35.179737,41.8158203],[35.1739427,41.8187187],[35.1725709,41.8217904],[35.159573,41.831699],[35.1574582,41.8400997],[35.149778,41.841508],[35.134549,41.853215],[35.125985,41.864154],[35.127992,41.86771],[35.126685,41.874922],[35.125114,41.879314],[35.120896,41.881573],[35.1157462,41.8737029],[35.1070475,41.8708935],[35.0960533,41.8603139],[35.0967873,41.8477472],[35.0912532,41.8413002],[35.0782552,41.8393177],[35.0737519,41.8368777],[35.061982,41.8254387],[35.0564892,41.8166373],[35.0356544,41.8054825],[35.0317138,41.8017638],[35.0269789,41.7934027],[35.028642,41.7872027],[35.0195587,41.7743237],[35.0168721,41.7593427],[35.0011363,41.7464581],[34.9873195,41.7323298],[34.9882151,41.7190578],[34.9796435,41.710272],[34.9722234,41.7089349],[34.9632681,41.7097945],[34.9569993,41.7120866],[34.9498351,41.7216361],[34.9445898,41.7245006],[34.9416473,41.7298475],[34.9477881,41.7406353],[34.9490675,41.7482716],[34.940368,41.7730834],[34.946125,41.7926397],[34.9573831,41.7983624],[34.9601977,41.8015096],[34.9594301,41.8073269],[34.9553362,41.8111412],[34.9385769,41.8142878],[34.9028835,41.7972179],[34.8953355,41.7957872],[34.8906019,41.7913043],[34.8909857,41.7879658],[34.9003249,41.7848179],[34.9064657,41.7864395],[34.9097919,41.7857718],[34.9081288,41.7765181],[34.8996852,41.7663088],[34.8950796,41.7644003],[34.884717,41.7642095],[34.8821583,41.7612513],[34.8831818,41.7577203],[34.9013483,41.7453127],[34.9104316,41.7446445],[34.9093818,41.7418832],[34.9127344,41.7414945],[34.9046746,41.717148],[34.8840627,41.6969581],[34.8800267,41.6867447],[34.8827174,41.6782045],[34.8784572,41.6683231],[34.8778286,41.6597512],[34.902908,41.6425733],[34.9100922,41.6423781],[34.9305999,41.6460873],[34.966521,41.6596536],[34.9784076,41.6658014],[34.9976091,41.6837535],[35.006622,41.6854118],[35.0106713,41.6809244],[35.0182474,41.6774123],[35.0401919,41.6601415],[35.0512948,41.6566283],[35.0623977,41.6550667],[35.0780723,41.649894],[35.0866934,41.644916],[35.0891752,41.6420852],[35.0785948,41.6286129],[35.0767661,41.6202157],[35.0783336,41.612208],[35.0805541,41.6089852],[35.0987106,41.5953105],[35.0993356,41.5994147],[35.1066925,41.6028691],[35.1216571,41.6210474],[35.1363026,41.6482589],[35.1434201,41.6556225],[35.1480738,41.65777],[35.1550543,41.6593039],[35.1628561,41.6581791],[35.2033708,41.6445768],[35.2133626,41.6447814],[35.217195,41.6511226],[35.2141838,41.6549066],[35.1972115,41.6663595],[35.1909153,41.6800594],[35.2128151,41.6918144],[35.2210275,41.6959026],[35.2291031,41.69764],[35.2546985,41.6887481],[35.276872,41.6839439],[35.2854951,41.683535],[35.3046574,41.6763791],[35.3136911,41.6765835],[35.3250516,41.6798549],[35.3271047,41.6830239],[35.3141017,41.6910989],[35.3113546,41.6949504],[35.3118031,41.6995132],[35.3155208,41.7045898]]]}},{"type":"Feature","properties":{"code":"57-07","provinceCode":"57","name":"Saraydüzü"},"geometry":{"type":"Polygon","coordinates":[[[34.9405407,41.3817998],[34.9364175,41.3831468],[34.9330719,41.3865773],[34.9095415,41.3916809],[34.894821,41.3901749],[34.8805467,41.3846529],[34.8688372,41.3904259],[34.8555665,41.3940234],[34.8018146,41.386661],[34.7949004,41.3843182],[34.7798454,41.3744442],[34.7646789,41.3673307],[34.7478396,41.3561148],[34.7346804,41.341548],[34.7276547,41.336608],[34.6676578,41.3219531],[34.6282497,41.3030518],[34.626753,41.2974123],[34.6318617,41.2950291],[34.6496647,41.3005046],[34.6690301,41.2980529],[34.6965523,41.3023199],[34.7081512,41.2993816],[34.7162214,41.2797707],[34.7185532,41.263164],[34.7267471,41.2494069],[34.7673854,41.2366226],[34.7887274,41.2378895],[34.8044715,41.2253727],[34.8241908,41.2138947],[34.8366262,41.2082782],[34.8436278,41.2074624],[34.8463794,41.2020232],[34.8589945,41.21222],[34.8723859,41.2277724],[34.8747313,41.2356813],[34.8731536,41.2463696],[34.8786647,41.2569244],[34.8875428,41.2725216],[34.9147884,41.2795919],[34.9276427,41.2796981],[34.9329324,41.2936405],[34.9287758,41.3120699],[34.9327151,41.3154991],[34.9431661,41.3160928],[34.9446462,41.3257334],[34.9484245,41.3268232],[34.9590256,41.3242693],[34.9733275,41.3261103],[34.9600152,41.3360382],[34.9443406,41.3382449],[34.9288292,41.3373868],[34.9169099,41.3421678],[34.9125014,41.3519739],[34.9141342,41.3654548],[34.9281761,41.3766051],[34.9405407,41.3817998]]]}},{"type":"Feature","properties":{"code":"57-08","provinceCode":"57","name":"Sinop merkez"},"geometry":{"type":"Polygon","coordinates":[[[34.830884,41.6835868],[34.8284562,41.6799628],[34.8294652,41.6766135],[34.8482996,41.6730965],[34.8543536,41.6741014],[34.8587259,41.6777021],[34.8685915,41.6786231],[34.8716185,41.6832283],[34.8800267,41.6867447],[34.8840627,41.6969581],[34.9046746,41.717148],[34.9127344,41.7414945],[34.9093818,41.7418832],[34.9104316,41.7446445],[34.9013483,41.7453127],[34.8831818,41.7577203],[34.8821583,41.7612513],[34.884717,41.7642095],[34.8950796,41.7644003],[34.8996852,41.7663088],[34.9081288,41.7765181],[34.9097919,41.7857718],[34.9064657,41.7864395],[34.9003249,41.7848179],[34.8909857,41.7879658],[34.8906019,41.7913043],[34.8953355,41.7957872],[34.9028835,41.7972179],[34.9385769,41.8142878],[34.9553362,41.8111412],[34.9594301,41.8073269],[34.9601977,41.8015096],[34.9573831,41.7983624],[34.946125,41.7926397],[34.940368,41.7730834],[34.9490675,41.7482716],[34.9477881,41.7406353],[34.9416473,41.7298475],[34.9445898,41.7245006],[34.9498351,41.7216361],[34.9569993,41.7120866],[34.9632681,41.7097945],[34.9722234,41.7089349],[34.9796435,41.710272],[34.9882151,41.7190578],[34.9873195,41.7323298],[35.0011363,41.7464581],[35.0168721,41.7593427],[35.0195587,41.7743237],[35.028642,41.7872027],[35.0269789,41.7934027],[35.0317138,41.8017638],[35.0356544,41.8054825],[35.0564892,41.8166373],[35.061982,41.8254387],[35.0737519,41.8368777],[35.0782552,41.8393177],[35.0912532,41.8413002],[35.0967873,41.8477472],[35.0960533,41.8603139],[35.1070475,41.8708935],[35.1157462,41.8737029],[35.120896,41.881573],[35.117493,41.882535],[35.106975,41.891712],[35.0894544,41.9225376],[35.0894536,41.9270345],[35.092143,41.9276342],[35.0893148,41.9272548],[35.0897506,41.9326097],[35.0921504,41.9333187],[35.0943561,41.9314391],[35.0933449,41.9265622],[35.0949806,41.9310978],[35.0921608,41.9337973],[35.091828,41.943324],[35.093965,41.945595],[35.093735,41.954327],[35.0963264,41.9599927],[35.0947259,41.9615507],[35.095375,41.9665659],[35.0979491,41.9718862],[35.1053644,41.9753762],[35.1100789,41.9952959],[35.1131665,42.0031266],[35.1181736,42.0095326],[35.1245277,42.0151273],[35.1298585,42.0174352],[35.1327372,42.0163484],[35.1345631,42.0171522],[35.1410629,42.0236769],[35.1494986,42.0240558],[35.1437331,42.0216084],[35.14939,42.023176],[35.1521304,42.0211628],[35.1504563,42.0231064],[35.1519272,42.0235194],[35.1623439,42.0189196],[35.1762281,42.0173872],[35.1792815,42.0157069],[35.1837973,42.0163428],[35.1884622,42.01478],[35.1947518,42.0164675],[35.204454,42.0124819],[35.2068398,42.0131799],[35.2113647,42.0180238],[35.2050508,42.0217964],[35.2031072,42.025969],[35.199413,42.027554],[35.196529,42.033769],[35.192065,42.034112],[35.192595,42.039491],[35.189546,42.040961],[35.181928,42.039695],[35.17816,42.04028],[35.17786,42.041569],[35.1738778,42.0395182],[35.1710072,42.0407713],[35.1649407,42.0375873],[35.1623047,42.0377793],[35.1593707,42.0333055],[35.1482203,42.029791],[35.1443209,42.0265988],[35.1417863,42.0265661],[35.1457759,42.0282844],[35.1392557,42.025633],[35.1271938,42.02367],[35.1027731,42.0231659],[35.0797064,42.0265764],[35.0596471,42.0329322],[35.0466868,42.0398948],[35.0439821,42.0451452],[35.047896,42.047556],[35.0444754,42.0479496],[35.0434403,42.0513425],[35.0398476,42.049352],[35.0404827,42.0528978],[35.0453241,42.0549479],[35.0477689,42.0533212],[35.0515415,42.0602675],[35.0500596,42.059346],[35.044911,42.061854],[35.0441115,42.0596149],[35.037327,42.0609145],[35.0429067,42.060824],[35.044808,42.064038],[35.0434726,42.0684971],[35.0412608,42.067512],[35.0396044,42.0718657],[35.037184,42.0713835],[35.0314464,42.0774937],[35.0284465,42.0770732],[35.023118,42.080593],[35.022158,42.08292],[35.023568,42.083921],[35.020485,42.084489],[35.020959,42.088587],[35.018213,42.088892],[35.016621,42.093027],[35.011341,42.089526],[35.003829,42.091711],[35.002394,42.08994],[34.999383,42.092815],[34.997613,42.091306],[34.989099,42.094534],[34.984938,42.093708],[34.983844,42.091802],[34.9818313,42.0943295],[34.980048,42.091611],[34.9763435,42.0932666],[34.974874,42.091443],[34.974577,42.092988],[34.9719393,42.0925541],[34.96675,42.096203],[34.958432,42.094676],[34.957771,42.095586],[34.9561424,42.0941671],[34.9535677,42.0967741],[34.9491784,42.0955634],[34.9500426,42.0974092],[34.9473508,42.0962519],[34.944436,42.0980451],[34.9450232,42.095287],[34.9424587,42.0937806],[34.9495025,42.0891971],[34.9471533,42.0872551],[34.9475249,42.0813121],[34.9459048,42.0802734],[34.9496627,42.0764384],[34.9493267,42.0744919],[34.9419571,42.0658549],[34.9390589,42.0652571],[34.940024,42.0635751],[34.9386544,42.0636496],[34.9370607,42.0587983],[34.9239887,42.0474491],[34.9250777,42.0456794],[34.9235164,42.0432578],[34.919384,42.040427],[34.9172675,42.0353317],[34.9040374,42.0216342],[34.9090014,42.0119376],[34.9130374,42.0082057],[34.9325434,42.0060065],[34.9571803,41.9943858],[34.9655213,41.9855865],[34.9722479,41.9715851],[34.971351,41.9611821],[34.9728332,41.9540607],[34.9683231,41.9472594],[34.9771888,41.9457484],[34.9778839,41.9401411],[34.9767588,41.9371224],[34.9744127,41.9368147],[34.9750042,41.9280709],[34.9713768,41.926456],[34.9995505,41.9197662],[34.9979172,41.9175194],[34.9996182,41.9137146],[34.9938627,41.8970593],[34.996643,41.8893816],[34.9967327,41.8823039],[34.9871361,41.8754258],[34.9780776,41.8743573],[34.9744004,41.8686138],[34.9848939,41.8561899],[34.980416,41.8502787],[34.9763648,41.8496947],[34.9665307,41.8519036],[34.9589862,41.8557906],[34.9540412,41.8562567],[34.9511712,41.8521149],[34.9586153,41.8427614],[34.9569113,41.8364805],[34.9409468,41.8293302],[34.9359243,41.8255208],[34.9284802,41.8147597],[34.9187939,41.8063367],[34.906686,41.8013225],[34.8966185,41.8009087],[34.8863941,41.794958],[34.8714162,41.7728218],[34.8561693,41.7637243],[34.8550034,41.7581047],[34.8578734,41.7377627],[34.8559002,41.7234392],[34.849353,41.7146025],[34.8467162,41.6914742],[34.8411981,41.6866679],[34.830884,41.6835868]]]}},{"type":"Feature","properties":{"code":"57-09","provinceCode":"57","name":"Türkeli"},"geometry":{"type":"Polygon","coordinates":[[[34.3356546,41.7405278],[34.3576414,41.7845393],[34.3606865,41.7877658],[34.3733476,41.7946963],[34.3875959,41.8086617],[34.3961055,41.8246801],[34.4084461,41.8240829],[34.4114911,41.826352],[34.415017,41.8335172],[34.426396,41.8369801],[34.4364928,41.8484421],[34.4364928,41.8536948],[34.4249536,41.8670634],[34.4223893,41.8723146],[34.4223893,41.8803099],[34.4260754,41.8818611],[34.4353709,41.8787586],[34.4424227,41.882577],[34.4441856,41.8997569],[34.4610136,41.9108499],[34.4606931,41.9152626],[34.443224,41.9292145],[34.4414611,41.9331491],[34.4435445,41.9369643],[34.4512374,41.9413753],[34.4533208,41.9467395],[34.4465896,41.9542488],[34.446776,41.963022],[34.439207,41.96286],[34.435496,41.966115],[34.428204,41.962998],[34.420651,41.963605],[34.4158764,41.9600319],[34.4057582,41.9583846],[34.394959,41.952497],[34.3887772,41.9521149],[34.3853227,41.9534677],[34.379467,41.951657],[34.3763698,41.9523765],[34.36977,41.948437],[34.356304,41.945773],[34.348294,41.9462055],[34.3480311,41.9489704],[34.347925,41.9463935],[34.3449,41.9473107],[34.344641,41.9495302],[34.3496847,41.9502981],[34.3437031,41.9496761],[34.3419029,41.951117],[34.3383403,41.9510452],[34.3244981,41.9426733],[34.3001907,41.9406639],[34.2804599,41.9441257],[34.2780955,41.945836],[34.2792842,41.9475946],[34.2427427,41.9496838],[34.228226,41.954659],[34.2281363,41.9420291],[34.2237142,41.9384633],[34.2247051,41.9355836],[34.2300582,41.9304366],[34.2311375,41.925877],[34.2356906,41.9237172],[34.2376555,41.9205266],[34.2375328,41.915236],[34.2459986,41.9097507],[34.2448231,41.9065909],[34.2509273,41.8969984],[34.254401,41.8967017],[34.2540887,41.893738],[34.2572635,41.8920721],[34.2586771,41.8880609],[34.2637271,41.8863899],[34.2655353,41.8822207],[34.2690802,41.8816342],[34.2764981,41.8752557],[34.2897092,41.8566177],[34.2773187,41.8354065],[34.286427,41.8207318],[34.289381,41.8075829],[34.287986,41.7868449],[34.2783854,41.7677527],[34.273462,41.7631012],[34.2447563,41.7534766],[34.2437468,41.7425057],[34.254442,41.7372493],[34.2680043,41.7364595],[34.2843367,41.7378281],[34.2986065,41.7449873],[34.3099046,41.7465038],[34.3253775,41.7418973],[34.3356546,41.7405278]]]}},{"type":"Feature","properties":{"code":"57-10","provinceCode":"57","name":"Yakakent"},"geometry":{"type":"Polygon","coordinates":[[[35.399819,41.4717735],[35.3950628,41.4846984],[35.3963121,41.4927649],[35.3951293,41.4997494],[35.3990581,41.5024295],[35.4055144,41.5027481],[35.4105443,41.5053531],[35.4144231,41.5055592],[35.4160997,41.5029917],[35.4155242,41.4972566],[35.4221056,41.4977814],[35.4251586,41.4966756],[35.4292126,41.4981001],[35.4302135,41.5150788],[35.4331164,41.5248217],[35.4319152,41.5314536],[35.4350683,41.5412689],[35.4336169,41.5441721],[35.4360943,41.5471312],[35.4514843,41.5514574],[35.4529357,41.5542102],[35.45729,41.5551278],[35.4592168,41.5626179],[35.4673998,41.5676545],[35.4688262,41.5713802],[35.4739312,41.5755736],[35.4740563,41.583548],[35.4976293,41.5890134],[35.4981298,41.5932619],[35.4933502,41.6030492],[35.4987054,41.6065109],[35.5062615,41.6059291],[35.5099422,41.6075579],[35.5138452,41.6024691],[35.5261572,41.5999616],[35.5332641,41.6022633],[35.5419726,41.6104027],[35.5537341,41.6182231],[35.5627454,41.6319303],[35.5387323,41.6326885],[35.5337261,41.6343216],[35.5120961,41.6358559],[35.5097025,41.6368383],[35.5091645,41.6402308],[35.509068,41.636836],[35.50397,41.637717],[35.5032264,41.6398535],[35.5030323,41.6380922],[35.501015,41.6384277],[35.5002368,41.6397927],[35.5087709,41.6412642],[35.5104208,41.6428116],[35.5019816,41.6409354],[35.4717643,41.6463513],[35.459364,41.6515436],[35.4405043,41.6643397],[35.4228377,41.6734749],[35.4195021,41.6773687],[35.41871,41.681768],[35.4121084,41.684157],[35.4100449,41.6778745],[35.4055226,41.6791778],[35.3999834,41.6768448],[35.3854436,41.6503873],[35.3715515,41.6462376],[35.3650578,41.6413717],[35.3621658,41.6408546],[35.3570703,41.6358044],[35.3552136,41.6297095],[35.35835,41.6233138],[35.3553892,41.6167487],[35.3358932,41.6036353],[35.3367965,41.5992823],[35.3429439,41.596843],[35.3452523,41.5937469],[35.3325059,41.5946664],[35.3290684,41.5933903],[35.3197846,41.5955108],[35.3146409,41.5918516],[35.3215912,41.5782075],[35.321265,41.5721822],[35.3289179,41.5666257],[35.3351405,41.554178],[35.3601565,41.5385165],[35.3584002,41.534685],[35.355063,41.5325062],[35.354511,41.527491],[35.3580407,41.5183188],[35.3569058,41.5121179],[35.3662867,41.5079349],[35.3685743,41.5047742],[35.3658788,41.4930864],[35.3695851,41.4813433],[35.3749228,41.476587],[35.3872651,41.4736906],[35.391085,41.4709658],[35.395988,41.4741766],[35.399819,41.4717735]]]}}]}