{"type":"FeatureCollection","features":[{"type":"Feature","properties":{"code":"77-01","provinceCode":"77","name":"Armutlu"},"geometry":{"type":"Polygon","coordinates":[[[29.0115764,40.5525062],[28.9885724,40.5586286],[28.9882414,40.5546882],[28.981179,40.5526759],[28.9770961,40.5546043],[28.9713579,40.5550235],[28.9666129,40.5592155],[28.9610955,40.5554427],[28.9572332,40.5556104],[28.9500605,40.5585448],[28.9480742,40.5617305],[28.9520468,40.5660897],[28.948626,40.5729632],[28.9425568,40.5767349],[28.9360462,40.5738014],[28.9337288,40.5768188],[28.9275493,40.5791655],[28.9171764,40.5782436],[28.9160729,40.5796684],[28.9179489,40.5818474],[28.9061144,40.5916204],[28.895169,40.584538],[28.8843977,40.5806878],[28.8507722,40.5726501],[28.8392995,40.5690802],[28.8346462,40.5661007],[28.8184617,40.5653142],[28.80996,40.559077],[28.8060592,40.558598],[28.803138,40.555717],[28.7936245,40.5518241],[28.7886033,40.5402378],[28.7826673,40.5375275],[28.7804612,40.5344694],[28.7808798,40.5182047],[28.7914754,40.5174369],[28.7975326,40.5138687],[28.8202796,40.5120479],[28.8245795,40.5091176],[28.8248242,40.5100878],[28.8258817,40.5079083],[28.8287484,40.5079614],[28.8257157,40.5093701],[28.8280667,40.5087655],[28.8285211,40.509822],[28.8380474,40.5080545],[28.8399876,40.5093701],[28.8484072,40.5061287],[28.8538858,40.5063309],[28.8606171,40.4991548],[28.873543,40.491312],[28.8839842,40.4789345],[28.8828325,40.4810633],[28.8852513,40.4782915],[28.896163,40.476565],[28.899758,40.472912],[28.909156,40.472372],[28.921764,40.466514],[28.929806,40.46561],[28.933782,40.463619],[28.945863,40.462902],[28.948248,40.464017],[28.9662606,40.4610147],[28.9666924,40.4622964],[28.9669543,40.460845],[28.9702245,40.4603792],[28.9751546,40.4562294],[28.9772463,40.4567276],[28.9820596,40.4641194],[28.9885257,40.4643887],[28.9901749,40.4665589],[29.0006404,40.4682175],[29.0028913,40.4703149],[29.0112119,40.470323],[29.0055647,40.4792846],[29.0004148,40.4802343],[28.9949528,40.4865252],[28.9999473,40.4998699],[29.0006615,40.5142113],[29.0039913,40.5216312],[29.0079415,40.5448454],[29.0115764,40.5525062]]]}},{"type":"Feature","properties":{"code":"77-02","provinceCode":"77","name":"Çınarcık"},"geometry":{"type":"Polygon","coordinates":[[[29.1324449,40.5772582],[29.1375326,40.583513],[29.1518119,40.5905052],[29.1488468,40.5934086],[29.1491589,40.5976745],[29.1472082,40.6009923],[29.1551671,40.6041321],[29.1582102,40.6075088],[29.1584443,40.6147355],[29.1667154,40.619237],[29.1668714,40.6261663],[29.1627083,40.6312903],[29.167312,40.6410012],[29.1736323,40.6441392],[29.1817473,40.6437839],[29.1865851,40.6450273],[29.1907206,40.6485795],[29.1933343,40.6566226],[29.190011,40.6575858],[29.1712137,40.6551965],[29.1611722,40.6555981],[29.1549736,40.6570231],[29.1509508,40.6599865],[29.1438722,40.6610925],[29.1454457,40.6568545],[29.1376397,40.6492906],[29.1290519,40.6481574],[29.1312994,40.6501727],[29.1060941,40.6433465],[29.0789452,40.646333],[29.0677033,40.6440406],[29.0536368,40.6481548],[29.0468893,40.6482853],[29.035429,40.645819],[29.0243076,40.6464812],[29.013808,40.644144],[29.006799,40.646449],[29.003709,40.644577],[28.99667,40.645854],[28.965952,40.6335801],[28.9523443,40.6176174],[28.9553913,40.6193395],[28.952767,40.614001],[28.940965,40.607782],[28.933541,40.601488],[28.9210195,40.5955723],[28.9061144,40.5916204],[28.9179489,40.5818474],[28.9160729,40.5796684],[28.9171764,40.5782436],[28.9275493,40.5791655],[28.9337288,40.5768188],[28.9360462,40.5738014],[28.9425568,40.5767349],[28.948626,40.5729632],[28.9520468,40.5660897],[28.9480742,40.5617305],[28.9500605,40.5585448],[28.9572332,40.5556104],[28.9610955,40.5554427],[28.9666129,40.5592155],[28.9713579,40.5550235],[28.9770961,40.5546043],[28.981179,40.5526759],[28.9882414,40.5546882],[28.9885724,40.5586286],[29.0115764,40.5525062],[29.015832,40.5595949],[29.0158699,40.5638629],[29.018991,40.5702646],[29.0305393,40.5769026],[29.0319438,40.5797473],[29.0399027,40.5761914],[29.0506707,40.5667082],[29.0619069,40.5616104],[29.0665886,40.5644557],[29.0715824,40.5644557],[29.0767323,40.5723983],[29.0850034,40.5764285],[29.0968638,40.5778509],[29.0998288,40.5760729],[29.100141,40.5676566],[29.1063833,40.5708573],[29.1168391,40.5710943],[29.1226132,40.5682493],[29.1268268,40.5686049],[29.1324449,40.5772582]]]}},{"type":"Feature","properties":{"code":"77-03","provinceCode":"77","name":"Çiftlikköy"},"geometry":{"type":"Polygon","coordinates":[[[29.3474836,40.569099],[29.3832319,40.5606307],[29.3881985,40.5551622],[29.397121,40.5512639],[29.4045067,40.5517399],[29.4202175,40.5455719],[29.4230296,40.5486209],[29.4221368,40.5581178],[29.4255295,40.5619161],[29.4253509,40.5666638],[29.4299934,40.5699191],[29.4296363,40.5848374],[29.4350343,40.5991951],[29.4407482,40.6059736],[29.4516403,40.6099048],[29.4518188,40.6134291],[29.458247,40.6168178],[29.4694962,40.6180376],[29.4719961,40.6212905],[29.4784242,40.6204773],[29.4834239,40.6272536],[29.4819954,40.6296929],[29.4677106,40.6300994],[29.4634252,40.6326742],[29.4462835,40.6337582],[29.443248,40.6386363],[29.443248,40.6421591],[29.4443193,40.6481204],[29.4466406,40.6498816],[29.4364627,40.6576031],[29.4334272,40.6618022],[29.4409267,40.6768354],[29.4360716,40.6895527],[29.4327908,40.691526],[29.4290448,40.6884718],[29.4233747,40.6887972],[29.4103115,40.6934592],[29.4090504,40.6942764],[29.4102041,40.6954067],[29.4076235,40.6958258],[29.408553,40.6967829],[29.4064365,40.6949973],[29.4069452,40.6967829],[29.4039683,40.6962925],[29.3934927,40.7021205],[29.3874761,40.7002731],[29.3819745,40.7014825],[29.3694154,40.696335],[29.3568323,40.6834262],[29.342643,40.6734187],[29.3076378,40.6676998],[29.3099336,40.6596802],[29.3038708,40.6498726],[29.3039098,40.6470161],[29.305518,40.6434173],[29.3091237,40.642241],[29.3087241,40.6404268],[29.3169246,40.6378162],[29.3172598,40.6351815],[29.3201145,40.6377584],[29.324721,40.6375799],[29.3193206,40.6319852],[29.3230557,40.6264006],[29.3211413,40.6242755],[29.324167,40.6191765],[29.3236361,40.6079889],[29.3252285,40.607118],[29.323758,40.6057423],[29.3284833,40.6026126],[29.3260937,40.5998474],[29.3269618,40.5979443],[29.3331534,40.5969846],[29.3344764,40.5952832],[29.3374196,40.5846781],[29.3456675,40.5813141],[29.3494177,40.5769947],[29.350302,40.5719622],[29.3474836,40.569099]]]}},{"type":"Feature","properties":{"code":"77-04","provinceCode":"77","name":"Termal"},"geometry":{"type":"Polygon","coordinates":[[[29.2087935,40.6559972],[29.1933343,40.6566226],[29.1907206,40.6485795],[29.1865851,40.6450273],[29.1817473,40.6437839],[29.1736323,40.6441392],[29.167312,40.6410012],[29.1627083,40.6312903],[29.1668714,40.6261663],[29.1667154,40.619237],[29.1584443,40.6147355],[29.1582102,40.6075088],[29.1551671,40.6041321],[29.1472082,40.6009923],[29.1491589,40.5976745],[29.1488468,40.5934086],[29.1518119,40.5905052],[29.1375326,40.583513],[29.1324449,40.5772582],[29.1486749,40.5759544],[29.1577262,40.5665896],[29.1580383,40.5627959],[29.1528884,40.5542594],[29.162564,40.5479748],[29.1669336,40.5476191],[29.1667775,40.5428756],[29.1764531,40.5368272],[29.1854487,40.5378536],[29.1909061,40.5410327],[29.1925757,40.5450336],[29.1944912,40.5438415],[29.1958135,40.5451166],[29.1939927,40.5485858],[29.1945732,40.5581234],[29.1992211,40.5580453],[29.1994421,40.5610292],[29.2059048,40.5625739],[29.2117993,40.5716677],[29.2117711,40.5776624],[29.2048614,40.5820935],[29.204678,40.5893054],[29.2003679,40.5919713],[29.1994035,40.5959064],[29.2044062,40.6002283],[29.2082661,40.5961819],[29.2082213,40.5930182],[29.211059,40.591439],[29.2134647,40.5991624],[29.2214927,40.596388],[29.2215134,40.5979504],[29.2250409,40.5992514],[29.2237663,40.6032356],[29.2270132,40.6110197],[29.2343733,40.6149437],[29.2355733,40.6193323],[29.2440831,40.6227708],[29.2462238,40.641372],[29.2516552,40.6480597],[29.2478216,40.6509263],[29.2447203,40.6500857],[29.242547,40.6514559],[29.2386592,40.6469862],[29.2342198,40.6460298],[29.2324373,40.6431627],[29.2337646,40.6355552],[29.2276498,40.6297321],[29.2206233,40.6317029],[29.2173905,40.6301965],[29.2099005,40.6379656],[29.2036528,40.6405616],[29.2016263,40.6443984],[29.2014519,40.6475986],[29.2087935,40.6559972]]]}},{"type":"Feature","properties":{"code":"77-05","provinceCode":"77","name":"Yalova merkez"},"geometry":{"type":"Polygon","coordinates":[[[29.1854487,40.5378536],[29.2052728,40.5351361],[29.2055483,40.529357],[29.2135562,40.5242022],[29.2177906,40.5234194],[29.2214382,40.5246344],[29.226054,40.5213111],[29.2304253,40.5206105],[29.2341405,40.5219572],[29.237593,40.5293064],[29.2416845,40.5320995],[29.2536627,40.5324271],[29.2564811,40.5360192],[29.2671758,40.5364946],[29.2700587,40.5364596],[29.2745675,40.5330061],[29.2786134,40.5361042],[29.2888028,40.535332],[29.3015398,40.5299557],[29.3044127,40.5262856],[29.3085388,40.5282255],[29.3128058,40.5280248],[29.3150028,40.5245527],[29.3173491,40.528096],[29.3165585,40.5314019],[29.3250984,40.5405429],[29.3330341,40.5583791],[29.3474836,40.569099],[29.350302,40.5719622],[29.3494177,40.5769947],[29.3456675,40.5813141],[29.3374196,40.5846781],[29.3344764,40.5952832],[29.3331534,40.5969846],[29.3269618,40.5979443],[29.3260937,40.5998474],[29.3284833,40.6026126],[29.323758,40.6057423],[29.3252285,40.607118],[29.3236361,40.6079889],[29.324167,40.6191765],[29.3211413,40.6242755],[29.3230557,40.6264006],[29.3193206,40.6319852],[29.324721,40.6375799],[29.3201145,40.6377584],[29.3172598,40.6351815],[29.3169246,40.6378162],[29.3087241,40.6404268],[29.3091237,40.642241],[29.305518,40.6434173],[29.3039098,40.6470161],[29.3038708,40.6498726],[29.3099336,40.6596802],[29.3076378,40.6676998],[29.2988274,40.6647985],[29.2903922,40.6639854],[29.2807063,40.6599612],[29.2778873,40.6621301],[29.2748935,40.6611908],[29.2783929,40.6614983],[29.2760752,40.6599108],[29.2740482,40.6619083],[29.2736865,40.6603661],[29.2679085,40.6600017],[29.2677641,40.6587133],[29.2678524,40.6604634],[29.2660732,40.6587493],[29.2658066,40.6603259],[29.2657665,40.6586166],[29.2620407,40.657613],[29.2484565,40.6583205],[29.2470327,40.6606184],[29.2468226,40.6586786],[29.2436525,40.6589476],[29.2420236,40.6574961],[29.245671,40.6611432],[29.2434958,40.659497],[29.2339294,40.6580906],[29.2087935,40.6559972],[29.2014519,40.6475986],[29.2016263,40.6443984],[29.2036528,40.6405616],[29.2099005,40.6379656],[29.2173905,40.6301965],[29.2206233,40.6317029],[29.2276498,40.6297321],[29.2337646,40.6355552],[29.2324373,40.6431627],[29.2342198,40.6460298],[29.2386592,40.6469862],[29.242547,40.6514559],[29.2447203,40.6500857],[29.2478216,40.6509263],[29.2516552,40.6480597],[29.2462238,40.641372],[29.2440831,40.6227708],[29.2355733,40.6193323],[29.2343733,40.6149437],[29.2270132,40.6110197],[29.2237663,40.6032356],[29.2250409,40.5992514],[29.2215134,40.5979504],[29.2214927,40.596388],[29.2134647,40.5991624],[29.211059,40.591439],[29.2082213,40.5930182],[29.2082661,40.5961819],[29.2044062,40.6002283],[29.1994035,40.5959064],[29.2003679,40.5919713],[29.204678,40.5893054],[29.2048614,40.5820935],[29.2117711,40.5776624],[29.2117993,40.5716677],[29.2059048,40.5625739],[29.1994421,40.5610292],[29.1992211,40.5580453],[29.1945732,40.5581234],[29.1939927,40.5485858],[29.1958135,40.5451166],[29.1944912,40.5438415],[29.1925757,40.5450336],[29.1909061,40.5410327],[29.1854487,40.5378536]]]}}]}