{"type":"FeatureCollection","features":[{"type":"Feature","properties":{"code":"19-01","provinceCode":"19","name":"Alaca"},"geometry":{"type":"Polygon","coordinates":[[[34.6615994,40.1023797],[34.6608451,40.096321],[34.6575762,40.0921853],[34.644878,40.0870876],[34.6414835,40.0809313],[34.6416092,40.0712148],[34.6539302,40.0545684],[34.6536788,40.0476393],[34.6491527,40.0390731],[34.6482726,40.013368],[34.6511863,40.0050386],[34.658154,40.0109435],[34.683037,40.0176437],[34.7072549,40.0067398],[34.7548109,40.0067624],[34.7764691,39.9980343],[34.7964696,39.9938229],[34.8091838,39.9963356],[34.8340121,40.004244],[34.8550231,40.0334903],[34.8767989,40.0491352],[34.8948462,40.0382685],[34.8987462,40.0308335],[34.8909287,40.0166062],[34.8884453,40.0057434],[34.8886112,39.9970983],[34.8975733,39.9884522],[34.9183188,39.9871806],[34.9444377,40.0013421],[34.9680219,40.002801],[35.0054033,40.000285],[35.0187812,40.0018977],[35.0300121,40.0056745],[35.0413538,40.0062088],[35.0584377,40.0032462],[35.0697711,40.0045445],[35.0805645,40.018546],[35.08798,40.020757],[35.1057798,40.0260639],[35.1529748,40.0199301],[35.1660745,40.0283118],[35.1895229,40.0553769],[35.1950556,40.0689782],[35.1954525,40.08157],[35.1854692,40.0877173],[35.1726549,40.0888819],[35.1516963,40.0919873],[35.1430216,40.0986428],[35.1464548,40.1072886],[35.1587068,40.112707],[35.175294,40.1234835],[35.17711,40.1342607],[35.1846807,40.1395703],[35.2026857,40.1431722],[35.2013035,40.1519535],[35.1956261,40.1528935],[35.1773298,40.1469137],[35.1632913,40.1481957],[35.1559291,40.1510391],[35.155349,40.1633377],[35.1577885,40.1703448],[35.1570283,40.1834122],[35.1447357,40.1947398],[35.1367357,40.2056705],[35.1361378,40.2117098],[35.1394676,40.2185892],[35.1235614,40.2209399],[35.1107434,40.2267704],[35.0992356,40.2405771],[35.0722361,40.2540034],[35.0514871,40.2663336],[35.0432446,40.273084],[35.027154,40.2764132],[35.0080634,40.2779737],[34.999609,40.2858797],[34.9809275,40.2969049],[34.9610188,40.3052247],[34.9559194,40.3205572],[34.9401483,40.3301073],[34.9145196,40.3320488],[34.9008834,40.3383894],[34.8955653,40.3378697],[34.895429,40.3266433],[34.8835656,40.3107359],[34.866384,40.3051207],[34.8426572,40.3020009],[34.8040669,40.3069925],[34.7932944,40.3047047],[34.78334,40.3004409],[34.7510224,40.2947208],[34.7356136,40.2954488],[34.6362773,40.259365],[34.6402705,40.2504213],[34.6343172,40.2435008],[34.6312998,40.236111],[34.6341915,40.2289124],[34.6433693,40.221137],[34.6487755,40.2124006],[34.6423636,40.1976134],[34.6443751,40.1913711],[34.6900131,40.1676451],[34.691899,40.1627451],[34.6676342,40.141508],[34.6614737,40.1328575],[34.664994,40.1251672],[34.6651197,40.1123802],[34.6615994,40.1023797]]]}},{"type":"Feature","properties":{"code":"19-02","provinceCode":"19","name":"Bayat"},"geometry":{"type":"Polygon","coordinates":[[[34.168402,40.4364711],[34.1951412,40.4391204],[34.2437995,40.4508497],[34.2540067,40.460681],[34.2525608,40.4742715],[34.2482938,40.4780351],[34.2546953,40.4915578],[34.2592663,40.4959834],[34.2793081,40.4998183],[34.2908913,40.5094088],[34.3005719,40.5085496],[34.3323044,40.5181367],[34.3384668,40.5173033],[34.3438155,40.5117894],[34.3412971,40.5371496],[34.3286803,40.5579512],[34.3310401,40.5700621],[34.3283185,40.5783078],[34.3337865,40.5893737],[34.3467551,40.5930906],[34.3465017,40.5965905],[34.351503,40.6019891],[34.3533099,40.6091603],[34.3609814,40.613145],[34.3658265,40.6180489],[34.3662303,40.631686],[34.3720849,40.6444012],[34.3724886,40.6568077],[34.3609814,40.6681401],[34.3399857,40.6805422],[34.3214126,40.7035029],[34.312126,40.7259968],[34.2913322,40.7451183],[34.2808344,40.7596469],[34.2065419,40.8403376],[34.1786,40.8377],[34.1755,40.8393],[34.1333,40.8363],[34.1232,40.8386],[34.0981,40.8303],[34.0957,40.828],[34.0895,40.8274],[34.0782,40.8223],[34.0776943,40.8033082],[34.0846856,40.7914867],[34.0809682,40.7772525],[34.0764929,40.7680439],[34.0705409,40.7614334],[34.0613995,40.7569018],[34.0596794,40.7496054],[34.0642082,40.7413976],[34.065114,40.7334952],[34.0557289,40.7283048],[34.0586664,40.7131552],[34.0669397,40.7021188],[34.0918209,40.6828696],[34.1017368,40.6804848],[34.1136439,40.6762408],[34.1195333,40.6671842],[34.130304,40.6484176],[34.1278865,40.6389674],[34.1293207,40.6350508],[34.1203647,40.6190699],[34.0972647,40.6039713],[34.0867807,40.5932733],[34.0851987,40.5894824],[34.0864696,40.5815769],[34.0922498,40.5790952],[34.0911305,40.5726125],[34.0943124,40.5706064],[34.0937189,40.5678298],[34.096529,40.5631879],[34.1028964,40.5616666],[34.1021026,40.5602018],[34.1042837,40.5569862],[34.1185194,40.5592663],[34.1240389,40.5431504],[34.1205647,40.5358844],[34.1260758,40.5314245],[34.1310661,40.5229481],[34.1270639,40.5009133],[34.1088072,40.4834947],[34.1116192,40.4765029],[34.1252233,40.4754979],[34.1346678,40.4780477],[34.1397571,40.4742136],[34.1429868,40.4737483],[34.1642988,40.4819818],[34.1698546,40.4831089],[34.1749854,40.4819816],[34.1675434,40.4562907],[34.168402,40.4364711]]]}},{"type":"Feature","properties":{"code":"19-03","provinceCode":"19","name":"Boğazkale"},"geometry":{"type":"Polygon","coordinates":[[[34.4376826,39.9944979],[34.4634577,39.9922972],[34.4697159,39.9867608],[34.4881168,39.9795606],[34.5096855,39.9835457],[34.5298128,39.9784467],[34.5413852,39.9596486],[34.5417342,39.9517689],[34.5844364,39.943551],[34.5995209,39.9476396],[34.6035884,39.9506219],[34.6198823,39.953781],[34.6344038,39.9627555],[34.6381563,39.9879801],[34.6447902,40.0004415],[34.6511863,40.0050386],[34.6482726,40.013368],[34.6491527,40.0390731],[34.6536788,40.0476393],[34.6539302,40.0545684],[34.6416092,40.0712148],[34.6414835,40.0809313],[34.644878,40.0870876],[34.6575762,40.0921853],[34.6608451,40.096321],[34.6615994,40.1023797],[34.6594621,40.1005525],[34.646543,40.0991766],[34.6282165,40.1063463],[34.6171831,40.1174125],[34.6064802,40.1222227],[34.5946506,40.124879],[34.5832904,40.1251661],[34.5513693,40.1157612],[34.5455484,40.1165509],[34.5143784,40.0858146],[34.4900621,40.0669926],[34.4580471,40.0577233],[34.4438704,40.0427748],[34.4367351,40.0220716],[34.4376826,39.9944979]]]}},{"type":"Feature","properties":{"code":"19-04","provinceCode":"19","name":"Çorum merkez"},"geometry":{"type":"Polygon","coordinates":[[[34.7167791,40.6901933],[34.7028921,40.6875307],[34.6980703,40.6780349],[34.6829379,40.6785366],[34.6683177,40.6727187],[34.664963,40.6682053],[34.6618527,40.6557875],[34.6466116,40.6496976],[34.6379436,40.6444861],[34.5824356,40.6261776],[34.5384025,40.6068631],[34.5164166,40.6112485],[34.5068932,40.607423],[34.5028188,40.6039346],[34.4948341,40.603142],[34.4855447,40.5957617],[34.4838305,40.5874597],[34.4769786,40.5813592],[34.5347235,40.5053838],[34.5445571,40.4953278],[34.5518476,40.4912018],[34.5637158,40.4909439],[34.5625086,40.4872767],[34.567283,40.4696962],[34.5637022,40.4488908],[34.5409153,40.4197359],[34.5243134,40.4047819],[34.5093391,40.3828819],[34.4872032,40.3605613],[34.479716,40.3562617],[34.5254391,40.3322522],[34.5585006,40.3038122],[34.5799393,40.2936712],[34.5957382,40.3003582],[34.6123185,40.3039994],[34.6254264,40.3005568],[34.6362773,40.259365],[34.7356136,40.2954488],[34.7510224,40.2947208],[34.78334,40.3004409],[34.7932944,40.3047047],[34.8040669,40.3069925],[34.8426572,40.3020009],[34.866384,40.3051207],[34.8835656,40.3107359],[34.895429,40.3266433],[34.8955653,40.3378697],[34.9008834,40.3383894],[34.9145196,40.3320488],[34.9401483,40.3301073],[34.9559194,40.3205572],[34.9610188,40.3052247],[34.9809275,40.2969049],[34.999609,40.2858797],[35.0080634,40.2779737],[35.027154,40.2764132],[35.0432446,40.273084],[35.0514871,40.2663336],[35.0722808,40.2749334],[35.0782717,40.2826461],[35.0900228,40.2895662],[35.1285026,40.2951375],[35.1500406,40.3011099],[35.1562757,40.3010478],[35.1587515,40.3064816],[35.1707141,40.3061813],[35.1729717,40.3130651],[35.1733963,40.3183223],[35.177906,40.3252069],[35.1790168,40.3312053],[35.172387,40.3399148],[35.1753934,40.34555],[35.1882813,40.3581758],[35.1941247,40.3720021],[35.2091113,40.390683],[35.2115077,40.41357],[35.1933109,40.4282783],[35.16233,40.4217656],[35.1488225,40.4208544],[35.1228969,40.4319409],[35.1120949,40.4340383],[35.1039191,40.4396095],[35.0950839,40.4381971],[35.0878947,40.439337],[35.0841005,40.4460242],[35.0826027,40.4609919],[35.0963819,40.4737536],[35.1070657,40.4916008],[35.1089629,40.5132388],[35.1171505,40.5546733],[35.1224425,40.5728781],[35.1281339,40.5847844],[35.1594864,40.6014649],[35.1808541,40.6053311],[35.2031204,40.6128355],[35.2277831,40.6239769],[35.2373686,40.6348133],[35.2625305,40.6534508],[35.273414,40.6758696],[35.2936726,40.6983895],[35.2832632,40.6983647],[35.2795999,40.7023582],[35.2616243,40.7030241],[35.2538138,40.7093332],[35.2348698,40.7058386],[35.2215025,40.7118316],[35.2035141,40.7096191],[35.1753549,40.699167],[35.1738325,40.7073607],[35.1607274,40.7089134],[35.1109029,40.7134096],[35.0698042,40.7117049],[35.0428364,40.7180249],[35.0300784,40.7289023],[35.0264992,40.7261343],[34.9773103,40.7295719],[34.9404607,40.7385055],[34.9267579,40.7491512],[34.9163066,40.7512185],[34.8962169,40.7520542],[34.8634686,40.7487759],[34.8478756,40.7448023],[34.8097435,40.7257904],[34.7662104,40.7207429],[34.7240466,40.7254709],[34.7184414,40.7174095],[34.7179214,40.7104278],[34.7218179,40.702024],[34.7218905,40.6924359],[34.7167791,40.6901933]]]}},{"type":"Feature","properties":{"code":"19-05","provinceCode":"19","name":"Dodurga"},"geometry":{"type":"Polygon","coordinates":[[[34.6366293,40.8957244],[34.6121936,40.8867552],[34.6011905,40.8768739],[34.5988402,40.870722],[34.5992018,40.86204],[34.6034957,40.857596],[34.6137784,40.8546901],[34.6470131,40.8538149],[34.6626339,40.8478524],[34.6716736,40.8446247],[34.6743494,40.8347766],[34.6689979,40.8220266],[34.6776037,40.813215],[34.681292,40.8007346],[34.6932245,40.7883066],[34.7058801,40.7821738],[34.722441,40.7777929],[34.772401,40.7576381],[34.778261,40.7611524],[34.7843134,40.7695954],[34.7881885,40.7711867],[34.7954823,40.770886],[34.7972611,40.7725294],[34.7961486,40.7774346],[34.8026522,40.7828827],[34.8030058,40.7891286],[34.811495,40.793616],[34.8207459,40.8078688],[34.8273532,40.8027604],[34.8364486,40.801635],[34.8407099,40.8032407],[34.8431477,40.8123513],[34.8546018,40.8190874],[34.8566188,40.8240433],[34.8618084,40.8254266],[34.8628432,40.827611],[34.8613874,40.8306822],[34.8655827,40.83454],[34.8656959,40.8371531],[34.8625323,40.8415988],[34.8699907,40.8466118],[34.8699907,40.8502116],[34.8684733,40.8517617],[34.8635256,40.8512952],[34.8571189,40.8610999],[34.8602291,40.8645833],[34.8630905,40.8649565],[34.8633393,40.8690619],[34.8601047,40.8734162],[34.8564969,40.8746602],[34.8329154,40.8757051],[34.8320824,40.8781461],[34.8369846,40.8856833],[34.8340918,40.8882639],[34.787198,40.8945766],[34.7773107,40.8945766],[34.7500502,40.9001284],[34.6847943,40.9013028],[34.6710934,40.8970056],[34.6542851,40.8985003],[34.6366293,40.8957244]]]}},{"type":"Feature","properties":{"code":"19-06","provinceCode":"19","name":"İskilip"},"geometry":{"type":"Polygon","coordinates":[[[34.6366293,40.8957244],[34.6330981,40.9019167],[34.6212114,40.9102866],[34.6125778,40.9123946],[34.59717,40.9088813],[34.5785744,40.9096843],[34.5732614,40.9108889],[34.5694094,40.914101],[34.5706049,40.9188185],[34.5691438,40.9228331],[34.5466963,40.9262453],[34.5342106,40.9345744],[34.5254442,40.9368823],[34.5184044,40.9347751],[34.5028638,40.9342734],[34.4948943,40.9369826],[34.4789552,40.9472165],[34.4720483,40.9557436],[34.4583672,40.960759],[34.4434177,40.9718204],[34.4361853,40.972293],[34.4247623,40.9646708],[34.4110813,40.9653729],[34.405237,40.972995],[34.3808871,40.9852719],[34.373,40.9947],[34.3704,40.9835],[34.3652,40.9787],[34.3592,40.9777],[34.357,40.9745],[34.3422,40.9693],[34.3256,40.9691],[34.3218,40.9721],[34.3105,40.9726],[34.2961,40.9765],[34.2837,40.9737],[34.2779,40.9737],[34.2767,40.9772],[34.2674,40.9747],[34.266,40.9698],[34.2605,40.9673],[34.2591,40.9619],[34.2603,40.9411],[34.255,40.9331],[34.2487,40.9274],[34.2495,40.9212],[34.2537,40.9151],[34.2507,40.9114],[34.25,40.9024],[34.2463,40.8926],[34.2442,40.8922],[34.2418,40.888],[34.2367,40.8881],[34.2415,40.8815],[34.2383,40.8767],[34.2401,40.8658],[34.2364,40.8648],[34.2304,40.8599],[34.2104,40.8568],[34.1996,40.8462],[34.1936,40.8449],[34.1915,40.8508],[34.1846,40.8503],[34.1853,40.8529],[34.1824,40.8506],[34.1786,40.8377],[34.2065419,40.8403376],[34.2808344,40.7596469],[34.2913322,40.7451183],[34.312126,40.7259968],[34.3214126,40.7035029],[34.3399857,40.6805422],[34.3609814,40.6681401],[34.3724886,40.6568077],[34.3720849,40.6444012],[34.3662303,40.631686],[34.3658265,40.6180489],[34.3609814,40.613145],[34.3533099,40.6091603],[34.351503,40.6019891],[34.3465017,40.5965905],[34.3467551,40.5930906],[34.3337865,40.5893737],[34.3283185,40.5783078],[34.3310401,40.5700621],[34.3286803,40.5579512],[34.3412971,40.5371496],[34.3438155,40.5117894],[34.3480513,40.5108324],[34.3563042,40.5179406],[34.3589147,40.5253707],[34.3645438,40.5296466],[34.36625,40.5407623],[34.4009617,40.5600047],[34.4116108,40.5651254],[34.4184074,40.5656026],[34.4269109,40.5691671],[34.4337246,40.5669058],[34.4399429,40.567559],[34.4499166,40.5726738],[34.4550517,40.5723094],[34.4626978,40.5768742],[34.4769786,40.5813592],[34.4838305,40.5874597],[34.4855447,40.5957617],[34.4948341,40.603142],[34.5028188,40.6039346],[34.5068932,40.607423],[34.5164166,40.6112485],[34.5384025,40.6068631],[34.5824356,40.6261776],[34.6379436,40.6444861],[34.6466116,40.6496976],[34.6618527,40.6557875],[34.664963,40.6682053],[34.6683177,40.6727187],[34.6829379,40.6785366],[34.6980703,40.6780349],[34.7028921,40.6875307],[34.7167791,40.6901933],[34.6972509,40.7004445],[34.6783871,40.7025994],[34.6529338,40.7193468],[34.6351036,40.7377543],[34.6227,40.7407891],[34.6135265,40.7471519],[34.6021566,40.7496969],[34.5909158,40.7602672],[34.5927246,40.7731842],[34.5991849,40.7841421],[34.6114954,40.7929944],[34.6146673,40.8040524],[34.6125536,40.8100131],[34.604999,40.8159293],[34.6021566,40.821405],[34.6060327,40.8250226],[34.6177903,40.829031],[34.6234753,40.833528],[34.6298063,40.8343101],[34.6626339,40.8478524],[34.6470131,40.8538149],[34.6137784,40.8546901],[34.6034957,40.857596],[34.5992018,40.86204],[34.5988402,40.870722],[34.6011905,40.8768739],[34.6121936,40.8867552],[34.6366293,40.8957244]]]}},{"type":"Feature","properties":{"code":"19-07","provinceCode":"19","name":"Kargı"},"geometry":{"type":"Polygon","coordinates":[[[34.2176,41.1825],[34.2291,41.1722],[34.2255,41.1653],[34.2324,41.1608],[34.2331,41.1496],[34.2054,41.1448],[34.2061,41.1427],[34.2216,41.1363],[34.2258,41.1286],[34.2258,41.1222],[34.2332,41.1187],[34.231,41.1126],[34.2229,41.1076],[34.2246,41.0982],[34.2202,41.0957],[34.2291,41.0814],[34.2418,41.0744],[34.2567,41.074],[34.2694,41.0774],[34.2935,41.0896],[34.3021,41.0872],[34.3091,41.0809],[34.3216,41.0797],[34.3263,41.0769],[34.33,41.0724],[34.3311,41.0673],[34.3273,41.0664],[34.3261,41.0638],[34.3198967,41.0624472],[34.3239,41.0515],[34.323,41.0429],[34.3246,41.04],[34.3225,41.0364],[34.3244,41.034],[34.33,41.0333],[34.3292,41.0289],[34.3312,41.025],[34.3536,41.0123],[34.3567,41.0068],[34.363,41.0037],[34.3656,40.9984],[34.373,40.9947],[34.3808871,40.9852719],[34.405237,40.972995],[34.4110813,40.9653729],[34.4247623,40.9646708],[34.4361853,40.972293],[34.4434177,40.9718204],[34.4558029,40.9741045],[34.4736331,40.9975489],[34.4831966,41.0246104],[34.5086991,41.0304222],[34.5226458,41.0439476],[34.5201221,41.0553669],[34.4919645,41.0682719],[34.4924958,41.0792304],[34.5191672,41.0821139],[34.550089,41.0656922],[34.5732538,41.0613658],[34.5888741,41.0612056],[34.6208585,41.0682559],[34.66145,41.0875602],[34.6737762,41.0965296],[34.6808957,41.0978909],[34.6892903,41.1017344],[34.691356,41.1066122],[34.7285871,41.1113906],[34.7625724,41.1290105],[34.7689555,41.130488],[34.7734106,41.1451914],[34.8018203,41.1599384],[34.8326673,41.1784888],[34.8319069,41.186845],[34.8390966,41.1904912],[34.8463794,41.2020232],[34.8436278,41.2074624],[34.8366262,41.2082782],[34.8241908,41.2138947],[34.8044715,41.2253727],[34.7887274,41.2378895],[34.7673854,41.2366226],[34.7267471,41.2494069],[34.7185532,41.263164],[34.7162214,41.2797707],[34.7081512,41.2993816],[34.6965523,41.3023199],[34.6690301,41.2980529],[34.6496647,41.3005046],[34.6318617,41.2950291],[34.626753,41.2974123],[34.6025522,41.3040887],[34.5806714,41.3018725],[34.5622871,41.2958342],[34.5476235,41.2962048],[34.5331973,41.2999977],[34.5246568,41.309488],[34.5226127,41.3192752],[34.5168463,41.3244567],[34.5062948,41.3266533],[34.5045284,41.338763],[34.498788,41.348294],[34.4906742,41.3509458],[34.4833264,41.3509213],[34.4809598,41.344316],[34.4668848,41.3279043],[34.4602782,41.3092181],[34.4608994,41.304785],[34.4446692,41.297275],[34.4300502,41.2880254],[34.4231254,41.2790057],[34.4222021,41.2695221],[34.412969,41.2655895],[34.4094297,41.2555255],[34.4026588,41.2521705],[34.4001966,41.2578392],[34.394349,41.2624664],[34.3977152,41.2803862],[34.3573206,41.2942979],[34.3364019,41.2930334],[34.3354402,41.2865294],[34.3311122,41.2811089],[34.3205326,41.2729774],[34.3114091,41.2702832],[34.3109095,41.2642498],[34.3190653,41.2580033],[34.3216814,41.2531444],[34.3139871,41.2459712],[34.2993681,41.2399544],[34.2992142,41.2325482],[34.2942899,41.2289606],[34.292327,41.2235659],[34.2938318,41.2126978],[34.2606315,41.2089787],[34.2439684,41.1994166],[34.2410393,41.1915214],[34.2176,41.1825]]]}},{"type":"Feature","properties":{"code":"19-08","provinceCode":"19","name":"Laçin"},"geometry":{"type":"Polygon","coordinates":[[[34.772401,40.7576381],[34.7682635,40.7495026],[34.7618439,40.7438152],[34.7513284,40.7442679],[34.7449066,40.7423793],[34.7304729,40.7328966],[34.7286947,40.7291108],[34.7240466,40.7254709],[34.7662104,40.7207429],[34.8097435,40.7257904],[34.8478756,40.7448023],[34.8634686,40.7487759],[34.8962169,40.7520542],[34.9163066,40.7512185],[34.9267579,40.7491512],[34.9404607,40.7385055],[34.9773103,40.7295719],[35.0264992,40.7261343],[35.0300784,40.7289023],[35.0258258,40.7436712],[35.0125239,40.75695],[35.0189155,40.7622867],[35.0153202,40.767872],[34.9903322,40.7768109],[34.9824785,40.7850473],[34.9788445,40.7920618],[34.9800058,40.8004684],[34.9863201,40.8079399],[35.001997,40.8147515],[35.0074565,40.826102],[35.0061199,40.8542446],[34.9928021,40.8574589],[34.9555893,40.8616201],[34.9396838,40.8610148],[34.9292802,40.8583668],[34.9218177,40.8585121],[34.8932664,40.8538499],[34.8849487,40.8501927],[34.8750739,40.8412969],[34.8656959,40.8371531],[34.8655827,40.83454],[34.8613874,40.8306822],[34.8628432,40.827611],[34.8618084,40.8254266],[34.8566188,40.8240433],[34.8546018,40.8190874],[34.8431477,40.8123513],[34.8407099,40.8032407],[34.8364486,40.801635],[34.8273532,40.8027604],[34.8207459,40.8078688],[34.811495,40.793616],[34.8030058,40.7891286],[34.8026522,40.7828827],[34.7961486,40.7774346],[34.7972611,40.7725294],[34.7954823,40.770886],[34.7881885,40.7711867],[34.7843134,40.7695954],[34.778261,40.7611524],[34.772401,40.7576381]]]}},{"type":"Feature","properties":{"code":"19-09","provinceCode":"19","name":"Mecitözü"},"geometry":{"type":"Polygon","coordinates":[[[35.2936726,40.6983895],[35.273414,40.6758696],[35.2625305,40.6534508],[35.2373686,40.6348133],[35.2277831,40.6239769],[35.2031204,40.6128355],[35.1808541,40.6053311],[35.1594864,40.6014649],[35.1281339,40.5847844],[35.1224425,40.5728781],[35.1171505,40.5546733],[35.1089629,40.5132388],[35.1070657,40.4916008],[35.0963819,40.4737536],[35.0826027,40.4609919],[35.0841005,40.4460242],[35.0878947,40.439337],[35.0950839,40.4381971],[35.1039191,40.4396095],[35.1120949,40.4340383],[35.1228969,40.4319409],[35.1488225,40.4208544],[35.16233,40.4217656],[35.1933109,40.4282783],[35.2115077,40.41357],[35.2091113,40.390683],[35.1941247,40.3720021],[35.1882813,40.3581758],[35.1753934,40.34555],[35.172387,40.3399148],[35.1790168,40.3312053],[35.177906,40.3252069],[35.1733963,40.3183223],[35.1729717,40.3130651],[35.1928787,40.3139695],[35.1996271,40.321599],[35.2263534,40.3391214],[35.2384655,40.340098],[35.2581911,40.3548668],[35.2677094,40.3574854],[35.2771787,40.354445],[35.296215,40.3605527],[35.3098091,40.3591229],[35.3164779,40.3675156],[35.3238749,40.3730402],[35.3469494,40.3844324],[35.3538956,40.3857219],[35.3957545,40.4057096],[35.4114365,40.4631941],[35.4348721,40.4877477],[35.4617958,40.4953346],[35.4839249,40.5039019],[35.5020407,40.5129769],[35.5135394,40.5208309],[35.5304532,40.5371581],[35.5309346,40.5486637],[35.5214365,40.5654854],[35.5151086,40.5633526],[35.4869241,40.5694022],[35.4850251,40.5840565],[35.486913,40.5885206],[35.4838664,40.5924263],[35.4855054,40.5970552],[35.4678825,40.6144746],[35.45641,40.6219798],[35.4312268,40.625036],[35.4264893,40.6285345],[35.4203433,40.6295062],[35.4065967,40.6401877],[35.3986529,40.6363763],[35.3893575,40.6399031],[35.3713056,40.6381571],[35.3651967,40.6422801],[35.3537622,40.6409718],[35.3336598,40.6434979],[35.3237097,40.6488352],[35.3254652,40.6665195],[35.3306033,40.6743444],[35.3292289,40.6839267],[35.3142755,40.6903264],[35.3037497,40.6926371],[35.2936726,40.6983895]]]}},{"type":"Feature","properties":{"code":"19-10","provinceCode":"19","name":"Oğuzlar"},"geometry":{"type":"Polygon","coordinates":[[[34.6626339,40.8478524],[34.6298063,40.8343101],[34.6234753,40.833528],[34.6177903,40.829031],[34.6060327,40.8250226],[34.6021566,40.821405],[34.604999,40.8159293],[34.6125536,40.8100131],[34.6146673,40.8040524],[34.6114954,40.7929944],[34.5991849,40.7841421],[34.5927246,40.7731842],[34.5909158,40.7602672],[34.6021566,40.7496969],[34.6135265,40.7471519],[34.6227,40.7407891],[34.6351036,40.7377543],[34.6529338,40.7193468],[34.6783871,40.7025994],[34.6972509,40.7004445],[34.7167791,40.6901933],[34.7218905,40.6924359],[34.7218179,40.702024],[34.7179214,40.7104278],[34.7184414,40.7174095],[34.7240466,40.7254709],[34.7286947,40.7291108],[34.7304729,40.7328966],[34.7449066,40.7423793],[34.7513284,40.7442679],[34.7618439,40.7438152],[34.7682635,40.7495026],[34.772401,40.7576381],[34.722441,40.7777929],[34.7058801,40.7821738],[34.6932245,40.7883066],[34.681292,40.8007346],[34.6776037,40.813215],[34.6689979,40.8220266],[34.6743494,40.8347766],[34.6716736,40.8446247],[34.6626339,40.8478524]]]}},{"type":"Feature","properties":{"code":"19-11","provinceCode":"19","name":"Ortaköy"},"geometry":{"type":"Polygon","coordinates":[[[35.0514871,40.2663336],[35.0722361,40.2540034],[35.0992356,40.2405771],[35.1107434,40.2267704],[35.1235614,40.2209399],[35.1394676,40.2185892],[35.1481826,40.230903],[35.1572595,40.2395249],[35.1721554,40.2390947],[35.17912,40.2349681],[35.1805868,40.2253886],[35.1874943,40.2155567],[35.1921805,40.2043048],[35.2052744,40.1983854],[35.2306474,40.1976905],[35.2427266,40.1930771],[35.2846259,40.2266654],[35.3399519,40.2550786],[35.3372765,40.2583453],[35.3513967,40.2672864],[35.3559036,40.2761586],[35.385138,40.286226],[35.3904922,40.2923004],[35.4086393,40.3232669],[35.4104431,40.3321189],[35.406084,40.3347318],[35.3799114,40.3319623],[35.3615129,40.3596443],[35.3538956,40.3857219],[35.3469494,40.3844324],[35.3238749,40.3730402],[35.3164779,40.3675156],[35.3098091,40.3591229],[35.296215,40.3605527],[35.2771787,40.354445],[35.2677094,40.3574854],[35.2581911,40.3548668],[35.2384655,40.340098],[35.2263534,40.3391214],[35.1996271,40.321599],[35.1928787,40.3139695],[35.1729717,40.3130651],[35.1707141,40.3061813],[35.1587515,40.3064816],[35.1562757,40.3010478],[35.1500406,40.3011099],[35.1285026,40.2951375],[35.0900228,40.2895662],[35.0782717,40.2826461],[35.0722808,40.2749334],[35.0514871,40.2663336]]]}},{"type":"Feature","properties":{"code":"19-12","provinceCode":"19","name":"Osmancık"},"geometry":{"type":"Polygon","coordinates":[[[34.8656959,40.8371531],[34.8750739,40.8412969],[34.8849487,40.8501927],[34.8932664,40.8538499],[34.9218177,40.8585121],[34.9292802,40.8583668],[34.9396838,40.8610148],[34.9555893,40.8616201],[34.9928021,40.8574589],[35.0061199,40.8542446],[35.0082036,40.8638525],[35.0216314,40.8728485],[35.0310607,40.8821879],[35.0654142,40.9106577],[35.059825,40.9253765],[35.0593393,40.9377589],[35.0644753,40.9463451],[35.0537546,40.951331],[35.0462045,40.9607713],[35.0346432,40.9695892],[35.0244134,40.9923971],[35.0197767,40.9944766],[35.0171764,40.9929373],[35.0140057,40.9940729],[35.0198957,40.9974523],[35.0263488,41.0058822],[35.035362,41.0118139],[35.0378232,41.0112993],[35.0447314,41.0146281],[35.0463474,41.017344],[35.0710566,41.0210264],[35.0733049,41.0226742],[35.075697,41.0219999],[35.083184,41.0268258],[35.0951428,41.0398778],[35.0952946,41.043088],[35.0995584,41.0459689],[35.1010569,41.051222],[35.1012557,41.0620917],[35.0938414,41.062324],[35.0919108,41.0683129],[35.0814304,41.0759523],[35.0751344,41.0762118],[35.0565441,41.0808206],[35.0479448,41.0808955],[35.0439186,41.0829562],[35.0330328,41.0831436],[35.0198108,41.0793593],[35.0139454,41.079172],[35.0116589,41.0828813],[35.0000773,41.0797715],[34.9933172,41.0818322],[34.9870949,41.0813468],[34.9862933,41.0904588],[34.9628241,41.0914152],[34.9434613,41.0978664],[34.9353094,41.0979787],[34.9283008,41.0941953],[34.9230816,41.0962931],[34.9230319,41.0991774],[34.9309352,41.107867],[34.9391673,41.1124079],[34.9423331,41.1126464],[34.9458507,41.1175492],[34.9692427,41.1247038],[34.9732176,41.130639],[34.9827854,41.1394347],[34.9841221,41.1435937],[34.9825744,41.1478054],[34.9770517,41.153659],[34.9618557,41.1656559],[34.9606949,41.1703164],[34.9650216,41.1850899],[34.9601321,41.1927137],[34.9580567,41.1935078],[34.9586547,41.1961811],[34.9565793,41.197981],[34.9532025,41.1980339],[34.9414537,41.195043],[34.9325542,41.1965781],[34.929916,41.1992514],[34.9312527,41.2101285],[34.9269964,41.2235438],[34.9168657,41.2291525],[34.9058908,41.2398659],[34.8827451,41.24989],[34.8831672,41.2522702],[34.8786647,41.2569244],[34.8731536,41.2463696],[34.8747313,41.2356813],[34.8723859,41.2277724],[34.8589945,41.21222],[34.8463794,41.2020232],[34.8390966,41.1904912],[34.8319069,41.186845],[34.8326673,41.1784888],[34.8018203,41.1599384],[34.7734106,41.1451914],[34.7689555,41.130488],[34.7625724,41.1290105],[34.7285871,41.1113906],[34.691356,41.1066122],[34.6892903,41.1017344],[34.6808957,41.0978909],[34.6737762,41.0965296],[34.66145,41.0875602],[34.6208585,41.0682559],[34.5888741,41.0612056],[34.5732538,41.0613658],[34.550089,41.0656922],[34.5191672,41.0821139],[34.4924958,41.0792304],[34.4919645,41.0682719],[34.5201221,41.0553669],[34.5226458,41.0439476],[34.5086991,41.0304222],[34.4831966,41.0246104],[34.4736331,40.9975489],[34.4558029,40.9741045],[34.4434177,40.9718204],[34.4583672,40.960759],[34.4720483,40.9557436],[34.4789552,40.9472165],[34.4948943,40.9369826],[34.5028638,40.9342734],[34.5184044,40.9347751],[34.5254442,40.9368823],[34.5342106,40.9345744],[34.5466963,40.9262453],[34.5691438,40.9228331],[34.5706049,40.9188185],[34.5694094,40.914101],[34.5732614,40.9108889],[34.5785744,40.9096843],[34.59717,40.9088813],[34.6125778,40.9123946],[34.6212114,40.9102866],[34.6330981,40.9019167],[34.6366293,40.8957244],[34.6542851,40.8985003],[34.6710934,40.8970056],[34.6847943,40.9013028],[34.7500502,40.9001284],[34.7773107,40.8945766],[34.787198,40.8945766],[34.8340918,40.8882639],[34.8369846,40.8856833],[34.8320824,40.8781461],[34.8329154,40.8757051],[34.8564969,40.8746602],[34.8601047,40.8734162],[34.8633393,40.8690619],[34.8630905,40.8649565],[34.8602291,40.8645833],[34.8571189,40.8610999],[34.8635256,40.8512952],[34.8684733,40.8517617],[34.8699907,40.8502116],[34.8699907,40.8466118],[34.8625323,40.8415988],[34.8656959,40.8371531]]]}},{"type":"Feature","properties":{"code":"19-13","provinceCode":"19","name":"Sungurlu"},"geometry":{"type":"Polygon","coordinates":[[[34.208147,39.9775884],[34.2178194,39.973247],[34.2369075,39.9583187],[34.2498033,39.9451581],[34.2789985,39.942076],[34.2860826,39.9449378],[34.3207339,39.9394362],[34.3587587,39.9432569],[34.3600132,39.9506782],[34.368749,39.9543605],[34.380396,39.9550012],[34.3911016,39.9656447],[34.4129839,39.9952073],[34.4376826,39.9944979],[34.4367351,40.0220716],[34.4438704,40.0427748],[34.4580471,40.0577233],[34.4900621,40.0669926],[34.5143784,40.0858146],[34.5455484,40.1165509],[34.5513693,40.1157612],[34.5832904,40.1251661],[34.5946506,40.124879],[34.6064802,40.1222227],[34.6171831,40.1174125],[34.6282165,40.1063463],[34.646543,40.0991766],[34.6594621,40.1005525],[34.6615994,40.1023797],[34.6651197,40.1123802],[34.664994,40.1251672],[34.6614737,40.1328575],[34.6676342,40.141508],[34.691899,40.1627451],[34.6900131,40.1676451],[34.6443751,40.1913711],[34.6423636,40.1976134],[34.6487755,40.2124006],[34.6433693,40.221137],[34.6341915,40.2289124],[34.6312998,40.236111],[34.6343172,40.2435008],[34.6402705,40.2504213],[34.6362773,40.259365],[34.6254264,40.3005568],[34.6123185,40.3039994],[34.5957382,40.3003582],[34.5799393,40.2936712],[34.5585006,40.3038122],[34.5254391,40.3322522],[34.479716,40.3562617],[34.473097,40.3553521],[34.4367464,40.3578327],[34.4169499,40.3661989],[34.4007943,40.362506],[34.3918189,40.3648312],[34.3832026,40.3726268],[34.3830231,40.3804215],[34.3760223,40.3904029],[34.3598666,40.3961449],[34.3345203,40.4017803],[34.3272395,40.4137461],[34.3205135,40.4387039],[34.2928408,40.4441527],[34.2713466,40.4404022],[34.2612525,40.434256],[34.2615049,40.4246514],[34.2577196,40.4137005],[34.2498967,40.408897],[34.2405597,40.410242],[34.2345032,40.4140848],[34.2244091,40.4169668],[34.1883053,40.4223851],[34.1775308,40.4221305],[34.168402,40.4364711],[34.1675434,40.4562907],[34.1749854,40.4819816],[34.1698546,40.4831089],[34.1642988,40.4819818],[34.1429868,40.4737483],[34.1397571,40.4742136],[34.1346678,40.4780477],[34.1252233,40.4754979],[34.1116192,40.4765029],[34.1037179,40.469932],[34.1030083,40.4651108],[34.0920712,40.4565287],[34.0906032,40.4506081],[34.0837277,40.4440539],[34.0948469,40.438247],[34.1188218,40.4499535],[34.1373791,40.4516896],[34.143262,40.4401604],[34.1416352,40.4352105],[34.1445721,40.4324262],[34.1512197,40.4309805],[34.1496853,40.4293808],[34.151035,40.4238753],[34.1638661,40.4245539],[34.1588624,40.4167995],[34.1623629,40.4116015],[34.1598305,40.4079593],[34.1635412,40.4048258],[34.1562605,40.4029643],[34.1565947,40.4007144],[34.1636819,40.4005805],[34.1656515,40.397018],[34.1639457,40.3951429],[34.1552581,40.3977546],[34.1485578,40.3978752],[34.1451988,40.3963082],[34.1466057,40.3924374],[34.1450057,40.3899317],[34.1422482,40.3899185],[34.1377296,40.392542],[34.1339932,40.3916914],[34.1343103,40.3866823],[34.1289194,40.3839833],[34.121936,40.3774525],[34.1208886,40.3679145],[34.1116426,40.3605756],[34.1090143,40.3564552],[34.1120009,40.3425256],[34.1058357,40.3379341],[34.1094159,40.3336394],[34.1090646,40.3272628],[34.1027953,40.3216491],[34.0951796,40.3191468],[34.0892521,40.3150424],[34.0854389,40.3063193],[34.0727504,40.2959403],[34.0458817,40.2940936],[34.0176276,40.2941098],[34.0031226,40.2921347],[33.9677428,40.2734713],[33.9630602,40.26593],[33.9613163,40.2547991],[33.9726929,40.2395426],[33.9785261,40.2137558],[33.9947305,40.1901148],[34.0085729,40.1909151],[34.0346846,40.1966621],[34.0517252,40.1983267],[34.061618,40.1970729],[34.0683699,40.188696],[34.0734626,40.1774383],[34.071403,40.1617205],[34.0810713,40.1456131],[34.0766878,40.1294484],[34.0757464,40.115882],[34.0831484,40.098177],[34.0800458,40.0890706],[34.0898741,40.0806169],[34.088876,40.0736443],[34.0901756,40.0706918],[34.1029365,40.0671496],[34.1042199,40.0629332],[34.1110449,40.0614286],[34.1228101,40.051971],[34.1429546,40.0427169],[34.1608109,40.0229615],[34.1645187,40.0130534],[34.1761748,40.004257],[34.1887869,39.9981585],[34.1976382,39.9856321],[34.208147,39.9775884]]]}},{"type":"Feature","properties":{"code":"19-14","provinceCode":"19","name":"Uğurludağ"},"geometry":{"type":"Polygon","coordinates":[[[34.479716,40.3562617],[34.4872032,40.3605613],[34.5093391,40.3828819],[34.5243134,40.4047819],[34.5409153,40.4197359],[34.5637022,40.4488908],[34.567283,40.4696962],[34.5625086,40.4872767],[34.5637158,40.4909439],[34.5518476,40.4912018],[34.5445571,40.4953278],[34.5347235,40.5053838],[34.4769786,40.5813592],[34.4626978,40.5768742],[34.4550517,40.5723094],[34.4499166,40.5726738],[34.4399429,40.567559],[34.4337246,40.5669058],[34.4269109,40.5691671],[34.4184074,40.5656026],[34.4116108,40.5651254],[34.4009617,40.5600047],[34.36625,40.5407623],[34.3645438,40.5296466],[34.3589147,40.5253707],[34.3563042,40.5179406],[34.3480513,40.5108324],[34.3438155,40.5117894],[34.3384668,40.5173033],[34.3323044,40.5181367],[34.3005719,40.5085496],[34.2908913,40.5094088],[34.2793081,40.4998183],[34.2592663,40.4959834],[34.2546953,40.4915578],[34.2482938,40.4780351],[34.2525608,40.4742715],[34.2540067,40.460681],[34.2437995,40.4508497],[34.1951412,40.4391204],[34.168402,40.4364711],[34.1775308,40.4221305],[34.1883053,40.4223851],[34.2244091,40.4169668],[34.2345032,40.4140848],[34.2405597,40.410242],[34.2498967,40.408897],[34.2577196,40.4137005],[34.2615049,40.4246514],[34.2612525,40.434256],[34.2713466,40.4404022],[34.2928408,40.4441527],[34.3205135,40.4387039],[34.3272395,40.4137461],[34.3345203,40.4017803],[34.3598666,40.3961449],[34.3760223,40.3904029],[34.3830231,40.3804215],[34.3832026,40.3726268],[34.3918189,40.3648312],[34.4007943,40.362506],[34.4169499,40.3661989],[34.4367464,40.3578327],[34.473097,40.3553521],[34.479716,40.3562617]]]}}]}