{"type":"FeatureCollection","features":[{"type":"Feature","properties":{"code":"18-01","provinceCode":"18","name":"Atkaracalar"},"geometry":{"type":"Polygon","coordinates":[[[33.0796368,40.724263],[33.0951637,40.730053],[33.1134017,40.7328544],[33.1252317,40.7298662],[33.1432233,40.7203405],[33.1461251,40.735545],[33.1525625,40.7508838],[33.1638084,40.7572728],[33.1715472,40.7696651],[33.1761057,40.7829464],[33.1650637,40.813318],[33.1658259,40.8204416],[33.1765362,40.8321424],[33.1796909,40.839971],[33.1680738,40.8711141],[33.1592012,40.883935],[33.1588069,40.8966044],[33.1662993,40.9220849],[33.1540749,40.931321],[33.1479543,40.9327477],[33.1430664,40.9326884],[33.1412442,40.9306271],[33.1299182,40.92734],[33.1268328,40.931375],[33.1227377,40.9312181],[33.1230997,40.9291426],[33.1164056,40.9279967],[33.1139089,40.9299892],[33.1040381,40.9326897],[33.0991934,40.9290841],[33.098557,40.9331909],[33.0941312,40.9374084],[33.0854126,40.9375319],[33.0748795,40.9416777],[33.0683993,40.9382495],[33.0650796,40.9379962],[33.0616002,40.9399469],[33.0583713,40.938391],[33.0515726,40.9385488],[33.0463697,40.9333045],[33.0285897,40.9342169],[33.026342,40.931059],[33.0196876,40.9138798],[33.0126019,40.8850051],[33.000587,40.8542536],[32.9981224,40.8332785],[33.0061323,40.8225553],[33.0261571,40.8097318],[33.0570989,40.7725759],[33.0719239,40.7690031],[33.0767221,40.7581006],[33.0793815,40.7397771],[33.0773141,40.7314057],[33.0796368,40.724263]]]}},{"type":"Feature","properties":{"code":"18-02","provinceCode":"18","name":"Bayramören"},"geometry":{"type":"Polygon","coordinates":[[[33.0616002,40.9399469],[33.0650796,40.9379962],[33.0683993,40.9382495],[33.0748795,40.9416777],[33.0854126,40.9375319],[33.0941312,40.9374084],[33.098557,40.9331909],[33.0991934,40.9290841],[33.1040381,40.9326897],[33.1139089,40.9299892],[33.1164056,40.9279967],[33.1230997,40.9291426],[33.1227377,40.9312181],[33.1268328,40.931375],[33.1299182,40.92734],[33.1412442,40.9306271],[33.1430664,40.9326884],[33.1479543,40.9327477],[33.1540749,40.931321],[33.1662993,40.9220849],[33.3054995,40.9415984],[33.3118089,40.9435345],[33.3151731,40.950111],[33.3136623,40.9658109],[33.3065642,40.9834361],[33.3136781,40.9864384],[33.3154338,40.9911465],[33.3178359,40.9940621],[33.3218791,40.9955521],[33.3206657,40.9984542],[33.3214629,41.0003794],[33.3250528,41.0012507],[33.3254453,41.0053268],[33.3213521,41.0055097],[33.3103157,41.0161064],[33.3085223,41.022293],[33.3048348,41.0215035],[33.3019336,41.0267844],[33.3034783,41.0301049],[33.2981687,41.0332966],[33.296892,41.036571],[33.2915732,41.0387272],[33.282285,41.039229],[33.2715248,41.0440482],[33.2671067,41.0429092],[33.2565102,41.0465719],[33.2515885,41.0452688],[33.2482127,41.0471639],[33.2477642,41.0503819],[33.2429676,41.0527871],[33.2373153,41.052417],[33.2337983,41.0556242],[33.2281122,41.0540079],[33.2237463,41.0551105],[33.2087946,41.0616244],[33.1996639,41.0684678],[33.1910893,41.071636],[33.1791914,41.0744568],[33.1702514,41.0727679],[33.1634205,41.0708054],[33.150106,41.0628376],[33.1422707,41.065328],[33.1222815,41.054422],[33.1058195,41.0549923],[33.0977705,41.0583263],[33.0739217,41.0627029],[33.0708203,41.059924],[33.0701929,41.0513817],[33.0634616,41.0450167],[33.0454897,41.0400211],[33.0403731,41.0339098],[33.0400983,41.0268783],[33.0457412,41.0172271],[33.0448238,40.997593],[33.0469138,40.9938993],[33.0528018,40.9920657],[33.0547046,40.9865965],[33.0474362,40.9663996],[33.0481428,40.9591577],[33.057935,40.9481789],[33.0616002,40.9399469]]]}},{"type":"Feature","properties":{"code":"18-03","provinceCode":"18","name":"Çankırı merkez"},"geometry":{"type":"Polygon","coordinates":[[[33.5916479,40.7906355],[33.5837191,40.7804437],[33.5844566,40.7581001],[33.5800312,40.7379844],[33.5731473,40.727738],[33.5615922,40.720285],[33.5542165,40.7048175],[33.5520038,40.6710747],[33.5392501,40.6406239],[33.5487186,40.6383292],[33.5540291,40.6310155],[33.5540291,40.625791],[33.5485219,40.6132504],[33.5461617,40.6014541],[33.5563893,40.5859217],[33.5552092,40.5805442],[33.5401001,40.5637138],[33.5406858,40.5605855],[33.5438015,40.5566392],[33.5514722,40.5540988],[33.5811714,40.5527538],[33.5931691,40.546477],[33.5967094,40.5394522],[33.5797946,40.4766448],[33.5713372,40.4619813],[33.5152824,40.3920611],[33.5145993,40.3685384],[33.4865994,40.3390369],[33.4885596,40.3369929],[33.4861564,40.3363386],[33.4858131,40.3337216],[33.4785174,40.3339833],[33.4786033,40.3328056],[33.4818648,40.3321513],[33.4826373,40.3295341],[33.4821223,40.320962],[33.47826,40.3198495],[33.4785174,40.3184752],[33.4834098,40.3153339],[33.487358,40.3184752],[33.4936236,40.3164465],[33.5000609,40.3168391],[33.5014342,40.3184752],[33.5068416,40.3170355],[33.5090732,40.3195223],[33.515253,40.3166428],[33.5169696,40.3229252],[33.5205745,40.3208965],[33.5270976,40.3210929],[33.5263251,40.3233832],[33.5280418,40.32515],[33.53199,40.3250191],[33.5381698,40.3293378],[33.5470962,40.3292724],[33.5440921,40.334245],[33.5486411,40.3332636],[33.5547351,40.3386285],[33.5549926,40.3407874],[33.5502719,40.3409182],[33.5513019,40.3441238],[33.5585116,40.3439929],[33.5611724,40.3464788],[33.5627174,40.3443854],[33.5589408,40.3430771],[33.5579108,40.3405911],[33.5647773,40.3313661],[33.5858916,40.330123],[33.5921573,40.3255426],[33.594818,40.3205039],[33.6000537,40.3269822],[33.6030578,40.3229906],[33.6031436,40.3186715],[33.6109542,40.3148758],[33.6199664,40.3076109],[33.6215972,40.30388],[33.6292361,40.3038145],[33.6468415,40.2955756],[33.6589824,40.323184],[33.661709,40.3246946],[33.664199,40.3233062],[33.6706612,40.3234194],[33.6736558,40.3285169],[33.6790648,40.3314241],[33.6817807,40.3312841],[33.6836087,40.328738],[33.6863735,40.3292623],[33.6905542,40.3277333],[33.6933866,40.3327638],[33.6969865,40.3336547],[33.7000735,40.3300189],[33.7125703,40.3250344],[33.7234634,40.3240042],[33.7261699,40.3275263],[33.7288067,40.3277613],[33.7302774,40.3259762],[33.7294244,40.3225009],[33.7318615,40.3224617],[33.7338972,40.3255117],[33.7377125,40.32645],[33.7447804,40.3256408],[33.7581476,40.3192397],[33.7609797,40.3208201],[33.7743622,40.3210373],[33.7808054,40.3229933],[33.7834737,40.320797],[33.7878991,40.321195],[33.7927701,40.3250683],[33.794124,40.3332391],[33.8018075,40.3349144],[33.8044584,40.3343637],[33.8065684,40.3306666],[33.8163516,40.3347823],[33.8202593,40.333882],[33.8287323,40.33675],[33.8327968,40.3427222],[33.8399295,40.3409555],[33.8442115,40.343062],[33.8522392,40.3433936],[33.8560104,40.3473662],[33.8611377,40.347612],[33.8676876,40.3503325],[33.8718424,40.349381],[33.8731976,40.3526174],[33.8844205,40.3484257],[33.8771118,40.3591446],[33.870857,40.392781],[33.8728238,40.4141987],[33.8718404,40.4281241],[33.8625975,40.4502489],[33.8721438,40.4622676],[33.887469,40.4733695],[33.9101578,40.4814979],[33.9212207,40.4819906],[33.929088,40.4852817],[33.9412824,40.4858801],[33.9564076,40.495779],[33.9717225,40.4957137],[34.0264828,40.4898017],[34.0442838,40.494077],[34.0708258,40.4919687],[34.094683,40.5153539],[34.1310661,40.5229481],[34.1260758,40.5314245],[34.1205647,40.5358844],[34.1240389,40.5431504],[34.1185194,40.5592663],[34.1042837,40.5569862],[34.1021026,40.5602018],[34.1028964,40.5616666],[34.096529,40.5631879],[34.0937189,40.5678298],[34.0943124,40.5706064],[34.0911305,40.5726125],[34.0922498,40.5790952],[34.0864696,40.5815769],[34.0851987,40.5894824],[34.0867807,40.5932733],[34.0972647,40.6039713],[34.1203647,40.6190699],[34.1293207,40.6350508],[34.1278865,40.6389674],[34.130304,40.6484176],[34.1195333,40.6671842],[34.1136439,40.6762408],[34.1017368,40.6804848],[34.0864916,40.6701423],[34.0697735,40.6621234],[34.0469091,40.6539171],[34.0092933,40.6352625],[33.9598765,40.6067109],[33.9448794,40.6029778],[33.9259486,40.6026044],[33.906772,40.6063376],[33.849242,40.6356356],[33.8317863,40.653171],[33.8042506,40.672007],[33.7793908,40.6679114],[33.7478051,40.6662915],[33.7358733,40.6728958],[33.7244533,40.6936795],[33.7213976,40.7027673],[33.7104287,40.7187808],[33.7073858,40.7222858],[33.6955829,40.7260611],[33.6899282,40.7299737],[33.6879614,40.7366804],[33.6891907,40.7512093],[33.6826755,40.7617314],[33.6565535,40.7699711],[33.6211504,40.7763945],[33.6035718,40.7815607],[33.5916479,40.7906355]]]}},{"type":"Feature","properties":{"code":"18-04","provinceCode":"18","name":"Çerkeş"},"geometry":{"type":"Polygon","coordinates":[[[32.5719835,40.8254243],[32.5957534,40.8134513],[32.5814078,40.7781553],[32.5691845,40.7655659],[32.5935172,40.7453713],[32.5971448,40.743311],[32.6063918,40.74251],[32.610855,40.7395836],[32.6205539,40.7438756],[32.6210689,40.7466718],[32.6555728,40.7465417],[32.6577186,40.747127],[32.6601218,40.7510284],[32.665615,40.7518086],[32.6669883,40.7538892],[32.6799487,40.7519387],[32.6995181,40.7408192],[32.7022647,40.7336654],[32.7058696,40.7311289],[32.7107619,40.7210468],[32.7078437,40.7165581],[32.709732,40.7099873],[32.7055263,40.708621],[32.7085303,40.7042616],[32.7135085,40.703676],[32.7152251,40.7006828],[32.7181434,40.699902],[32.7169417,40.6975594],[32.7245807,40.6928088],[32.7304172,40.6920279],[32.7351379,40.6894247],[32.7375411,40.6836322],[32.7446651,40.6831766],[32.7498149,40.6796617],[32.7516173,40.6806381],[32.7532481,40.6771882],[32.7676677,40.6703531],[32.7793407,40.660392],[32.7895545,40.6613035],[32.7935886,40.6591549],[32.8101539,40.6583084],[32.8437995,40.6498434],[32.8626406,40.6646981],[32.8919076,40.6775496],[32.9246405,40.6845584],[32.9939572,40.6871866],[33.0243796,40.6941944],[33.0441895,40.7037153],[33.0796368,40.724263],[33.0773141,40.7314057],[33.0793815,40.7397771],[33.0767221,40.7581006],[33.0719239,40.7690031],[33.0570989,40.7725759],[33.0261571,40.8097318],[33.0061323,40.8225553],[32.9981224,40.8332785],[33.000587,40.8542536],[33.0126019,40.8850051],[33.0196876,40.9138798],[33.026342,40.931059],[33.0285897,40.9342169],[33.0463697,40.9333045],[33.0515726,40.9385488],[33.0583713,40.938391],[33.0616002,40.9399469],[33.057935,40.9481789],[33.0481428,40.9591577],[33.0474362,40.9663996],[33.0547046,40.9865965],[33.0528018,40.9920657],[33.036925,40.9908498],[33.0225211,40.9923056],[32.9990569,40.9839917],[32.9981359,40.9706855],[32.9723478,40.9633933],[32.8928141,40.9482323],[32.8613619,40.9504048],[32.848898,40.9532054],[32.833881,40.9644154],[32.8244193,40.9542949],[32.8184373,40.9532421],[32.8058911,40.9541756],[32.8013555,40.9516651],[32.7989589,40.9522684],[32.7964889,40.9565459],[32.7861535,40.9530729],[32.7825116,40.9311031],[32.7783177,40.9262898],[32.7735173,40.9156004],[32.7569285,40.9003897],[32.7501079,40.8770764],[32.7334484,40.8733015],[32.6761303,40.8557487],[32.6218816,40.8420007],[32.5719835,40.8254243]]]}},{"type":"Feature","properties":{"code":"18-05","provinceCode":"18","name":"Eldivan"},"geometry":{"type":"Polygon","coordinates":[[[33.417679,40.3896563],[33.4202384,40.3845397],[33.4243583,40.3821861],[33.4255599,40.3757131],[33.429594,40.3753861],[33.4313106,40.3770208],[33.4328555,40.3759746],[33.4324264,40.3732937],[33.4372329,40.3723129],[33.4352588,40.3702857],[33.4353446,40.3657735],[33.4288215,40.3605416],[33.4272765,40.3552439],[33.4328555,40.3527583],[33.4348296,40.3549822],[33.4374045,40.348245],[33.4391212,40.349357],[33.4452151,40.3488337],[33.4471034,40.3468713],[33.4475326,40.3481795],[33.4511375,40.345563],[33.450365,40.3429463],[33.4648704,40.3385631],[33.4656428,40.336862],[33.4798049,40.3375163],[33.4842681,40.3408528],[33.4865994,40.3390369],[33.5145993,40.3685384],[33.5152824,40.3920611],[33.5713372,40.4619813],[33.5797946,40.4766448],[33.5967094,40.5394522],[33.5931691,40.546477],[33.5811714,40.5527538],[33.5514722,40.5540988],[33.5438015,40.5566392],[33.5406858,40.5605855],[33.5401001,40.5637138],[33.5552092,40.5805442],[33.5563893,40.5859217],[33.5461617,40.6014541],[33.5485219,40.6132504],[33.5540291,40.625791],[33.5540291,40.6310155],[33.5487186,40.6383292],[33.5392501,40.6406239],[33.5192621,40.642564],[33.4773685,40.6537562],[33.463404,40.653607],[33.4542053,40.6439381],[33.4487108,40.6343656],[33.4302347,40.632163],[33.4022354,40.623757],[33.3758798,40.6113654],[33.3689221,40.6004134],[33.3899949,40.5878121],[33.406713,40.5755632],[33.4194974,40.5624155],[33.4271681,40.5513575],[33.4305117,40.5447816],[33.4318885,40.5249005],[33.4462464,40.4831759],[33.4493933,40.4480115],[33.4460497,40.4337908],[33.417679,40.3896563]]]}},{"type":"Feature","properties":{"code":"18-06","provinceCode":"18","name":"Ilgaz"},"geometry":{"type":"Polygon","coordinates":[[[33.4129649,40.9868705],[33.4237367,40.9699348],[33.421906,40.9638038],[33.3854531,40.9559244],[33.3757138,40.9216199],[33.3841037,40.9137396],[33.3860595,40.908573],[33.387633,40.8678132],[33.4033431,40.8603109],[33.4160292,40.8571126],[33.4339765,40.844132],[33.4552017,40.8235732],[33.4636419,40.8092528],[33.4801981,40.8119424],[33.5122895,40.8108764],[33.5293852,40.8203642],[33.5493609,40.8209689],[33.565157,40.8169686],[33.5781873,40.8096187],[33.5861776,40.8023145],[33.5916479,40.7906355],[33.6035718,40.7815607],[33.6211504,40.7763945],[33.6565535,40.7699711],[33.6771438,40.7966381],[33.6963205,40.8078044],[33.7538504,40.8278989],[33.7700113,40.8359032],[33.7810748,40.8448311],[33.7763022,40.8564163],[33.7601296,40.8709685],[33.7516503,40.882398],[33.7495161,40.8952842],[33.7599046,40.9011658],[33.7699597,40.9013155],[33.8042,40.9104],[33.7991,40.9184],[33.7799,40.9332],[33.7675,40.9384],[33.7713,40.9452],[33.7764,40.9475],[33.7764,40.9581],[33.784,40.9654],[33.7812,40.9693],[33.7761,40.9711],[33.7771,40.9745],[33.7747,40.9765],[33.7967,40.9786],[33.7974,40.9851],[33.8053,40.9967],[33.8152,40.9993],[33.8097,41.0107],[33.8214,41.019],[33.8238,41.0265],[33.8221,41.0343],[33.8442,41.0399],[33.8453,41.0443],[33.8532,41.0502],[33.8544,41.0532],[33.8509,41.0542],[33.8484,41.0606],[33.8525,41.0665],[33.8506,41.0772],[33.8527,41.079],[33.8515,41.0818],[33.8349678,41.0891662],[33.8174865,41.0829068],[33.7922196,41.0855478],[33.7786806,41.0853222],[33.7709881,41.0809946],[33.7618383,41.0692828],[33.7398625,41.0650633],[33.7236132,41.0542641],[33.6966626,41.0538783],[33.6852646,41.0491633],[33.6557706,41.0310081],[33.6319038,41.0230038],[33.618387,41.0221589],[33.5738663,41.0244704],[33.5631454,41.0271889],[33.5417005,41.025141],[33.5281278,41.0278033],[33.5232416,41.0345608],[33.5254899,41.0456111],[33.5150979,41.0462312],[33.4935606,41.0558148],[33.473061,41.0506591],[33.4648955,41.0318851],[33.4542251,41.0346946],[33.4271466,41.0329227],[33.4193329,41.027078],[33.4205576,41.0164467],[33.4264986,41.0021982],[33.4129649,40.9868705]]]}},{"type":"Feature","properties":{"code":"18-07","provinceCode":"18","name":"Kızılırmak"},"geometry":{"type":"Polygon","coordinates":[[[34.1116192,40.4765029],[34.1088072,40.4834947],[34.1270639,40.5009133],[34.1310661,40.5229481],[34.094683,40.5153539],[34.0708258,40.4919687],[34.0442838,40.494077],[34.0264828,40.4898017],[33.9717225,40.4957137],[33.9564076,40.495779],[33.9412824,40.4858801],[33.929088,40.4852817],[33.9212207,40.4819906],[33.9101578,40.4814979],[33.887469,40.4733695],[33.8721438,40.4622676],[33.8625975,40.4502489],[33.8718404,40.4281241],[33.8728238,40.4141987],[33.870857,40.392781],[33.8771118,40.3591446],[33.8844205,40.3484257],[33.8731976,40.3526174],[33.8718424,40.349381],[33.8676876,40.3503325],[33.8611377,40.347612],[33.8560104,40.3473662],[33.8522392,40.3433936],[33.8442115,40.343062],[33.8399295,40.3409555],[33.8327968,40.3427222],[33.8287323,40.33675],[33.8202593,40.333882],[33.8163516,40.3347823],[33.8065684,40.3306666],[33.8044584,40.3343637],[33.8018075,40.3349144],[33.801358,40.3164353],[33.8103923,40.2807443],[33.8288371,40.2761189],[33.854258,40.2769542],[33.8953831,40.2707531],[33.9159639,40.2715145],[33.9310777,40.2656042],[33.9481624,40.2684837],[33.9613163,40.2547991],[33.9630602,40.26593],[33.9677428,40.2734713],[34.0031226,40.2921347],[34.0176276,40.2941098],[34.0458817,40.2940936],[34.0727504,40.2959403],[34.0854389,40.3063193],[34.0892521,40.3150424],[34.0951796,40.3191468],[34.1027953,40.3216491],[34.1090646,40.3272628],[34.1094159,40.3336394],[34.1058357,40.3379341],[34.1120009,40.3425256],[34.1090143,40.3564552],[34.1116426,40.3605756],[34.1208886,40.3679145],[34.121936,40.3774525],[34.1289194,40.3839833],[34.1343103,40.3866823],[34.1339932,40.3916914],[34.1377296,40.392542],[34.1422482,40.3899185],[34.1450057,40.3899317],[34.1466057,40.3924374],[34.1451988,40.3963082],[34.1485578,40.3978752],[34.1552581,40.3977546],[34.1639457,40.3951429],[34.1656515,40.397018],[34.1636819,40.4005805],[34.1565947,40.4007144],[34.1562605,40.4029643],[34.1635412,40.4048258],[34.1598305,40.4079593],[34.1623629,40.4116015],[34.1588624,40.4167995],[34.1638661,40.4245539],[34.151035,40.4238753],[34.1496853,40.4293808],[34.1512197,40.4309805],[34.1445721,40.4324262],[34.1416352,40.4352105],[34.143262,40.4401604],[34.1373791,40.4516896],[34.1188218,40.4499535],[34.0948469,40.438247],[34.0837277,40.4440539],[34.0906032,40.4506081],[34.0920712,40.4565287],[34.1030083,40.4651108],[34.1037179,40.469932],[34.1116192,40.4765029]]]}},{"type":"Feature","properties":{"code":"18-08","provinceCode":"18","name":"Korgun"},"geometry":{"type":"Polygon","coordinates":[[[33.4636419,40.8092528],[33.4377365,40.7732475],[33.4145579,40.7670795],[33.3868992,40.7452553],[33.3673077,40.7257529],[33.3397176,40.697108],[33.329325,40.6748693],[33.3056914,40.6613098],[33.2953768,40.6382068],[33.3058962,40.6365584],[33.3300801,40.6286272],[33.3689221,40.6004134],[33.3758798,40.6113654],[33.4022354,40.623757],[33.4302347,40.632163],[33.4487108,40.6343656],[33.4542053,40.6439381],[33.463404,40.653607],[33.4773685,40.6537562],[33.5192621,40.642564],[33.5392501,40.6406239],[33.5520038,40.6710747],[33.5542165,40.7048175],[33.5615922,40.720285],[33.5731473,40.727738],[33.5800312,40.7379844],[33.5844566,40.7581001],[33.5837191,40.7804437],[33.5916479,40.7906355],[33.5861776,40.8023145],[33.5781873,40.8096187],[33.565157,40.8169686],[33.5493609,40.8209689],[33.5293852,40.8203642],[33.5122895,40.8108764],[33.4801981,40.8119424],[33.4636419,40.8092528]]]}},{"type":"Feature","properties":{"code":"18-09","provinceCode":"18","name":"Kurşunlu"},"geometry":{"type":"Polygon","coordinates":[[[33.4129649,40.9868705],[33.3932833,40.9829211],[33.3863309,40.9837149],[33.3711709,40.9811137],[33.359468,40.9836408],[33.3353132,40.9798635],[33.3260501,40.9804058],[33.3154338,40.9911465],[33.3136781,40.9864384],[33.3065642,40.9834361],[33.3136623,40.9658109],[33.3151731,40.950111],[33.3118089,40.9435345],[33.3054995,40.9415984],[33.1662993,40.9220849],[33.1588069,40.8966044],[33.1592012,40.883935],[33.1680738,40.8711141],[33.1796909,40.839971],[33.1765362,40.8321424],[33.1658259,40.8204416],[33.1650637,40.813318],[33.1761057,40.7829464],[33.1715472,40.7696651],[33.1638084,40.7572728],[33.1525625,40.7508838],[33.1461251,40.735545],[33.1432233,40.7203405],[33.1782205,40.699977],[33.2112461,40.6906339],[33.2261316,40.6836068],[33.2457028,40.6633986],[33.2953768,40.6382068],[33.3056914,40.6613098],[33.329325,40.6748693],[33.3397176,40.697108],[33.3673077,40.7257529],[33.3868992,40.7452553],[33.4145579,40.7670795],[33.4377365,40.7732475],[33.4636419,40.8092528],[33.4552017,40.8235732],[33.4339765,40.844132],[33.4160292,40.8571126],[33.4033431,40.8603109],[33.387633,40.8678132],[33.3860595,40.908573],[33.3841037,40.9137396],[33.3757138,40.9216199],[33.3854531,40.9559244],[33.421906,40.9638038],[33.4237367,40.9699348],[33.4129649,40.9868705]]]}},{"type":"Feature","properties":{"code":"18-10","provinceCode":"18","name":"Orta"},"geometry":{"type":"Polygon","coordinates":[[[32.8437995,40.6498434],[32.8740119,40.6396187],[32.8855991,40.6416377],[32.8898048,40.643852],[32.8920364,40.6431356],[32.8952121,40.6378602],[32.8952979,40.6276337],[32.8883456,40.6172102],[32.888689,40.6082186],[32.8857707,40.6061986],[32.8831958,40.5995517],[32.8938388,40.5981831],[32.8952121,40.5963583],[32.8996753,40.5966842],[32.902336,40.5922523],[32.9085158,40.5906229],[32.9107474,40.5908836],[32.9116916,40.5961628],[32.913494,40.5957717],[32.9183005,40.5896452],[32.9188155,40.586321],[32.9158115,40.5840396],[32.903881,40.5850173],[32.8998469,40.5817581],[32.9013919,40.5779772],[32.908945,40.5775208],[32.915039,40.5734789],[32.9072284,40.5710666],[32.8953837,40.5625253],[32.8797626,40.5591997],[32.877531,40.5476568],[32.8784751,40.5369599],[32.8809642,40.5342202],[32.8830241,40.5242388],[32.8794192,40.5192802],[32.881565,40.516344],[32.8902339,40.5171923],[32.892228,40.5141189],[32.8963279,40.5139297],[32.9029368,40.5167355],[32.9058551,40.5141255],[32.908945,40.5143865],[32.915554,40.5170618],[32.919588,40.5170618],[32.9228496,40.5234559],[32.9245662,40.5238474],[32.9289435,40.5203894],[32.9305743,40.5225425],[32.9345225,40.5219553],[32.9439639,40.526718],[32.9422473,40.5331765],[32.946968,40.5356553],[32.9476546,40.5405475],[32.9503154,40.537547],[32.9578685,40.5416564],[32.9596709,40.5402866],[32.9652499,40.5447219],[32.9666232,40.5428304],[32.9645633,40.5391777],[32.9685973,40.5346768],[32.9698848,40.5368947],[32.9728889,40.5359815],[32.9793262,40.5372209],[32.9989814,40.5219553],[32.9989814,40.5198675],[33.0042171,40.516083],[33.0149459,40.503619],[33.0150317,40.5017264],[33.0085086,40.5002905],[33.0089377,40.4989852],[33.0367469,40.4804468],[33.0376052,40.4711103],[33.0434417,40.4677803],[33.0629253,40.4715021],[33.0747699,40.4722856],[33.0842113,40.4756155],[33.0945968,40.4841027],[33.1035232,40.4775089],[33.1073855,40.4783576],[33.1094455,40.4847555],[33.1133937,40.4891291],[33.1124496,40.4908916],[33.1217948,40.4907526],[33.1408884,40.498019],[33.1779204,40.5041342],[33.1885181,40.5093812],[33.2018348,40.524184],[33.1990299,40.5309635],[33.1817712,40.5438899],[33.1729912,40.5556488],[33.1816173,40.5605172],[33.1909827,40.559581],[33.2257335,40.5459109],[33.2464361,40.5432889],[33.2698497,40.5462854],[33.283405,40.5528399],[33.2890736,40.5622023],[33.2912917,40.5764307],[33.2885799,40.6193717],[33.29035,40.6293736],[33.2953768,40.6382068],[33.2457028,40.6633986],[33.2261316,40.6836068],[33.2112461,40.6906339],[33.1782205,40.699977],[33.1432233,40.7203405],[33.1252317,40.7298662],[33.1134017,40.7328544],[33.0951637,40.730053],[33.0796368,40.724263],[33.0441895,40.7037153],[33.0243796,40.6941944],[32.9939572,40.6871866],[32.9246405,40.6845584],[32.8919076,40.6775496],[32.8626406,40.6646981],[32.8437995,40.6498434]]]}},{"type":"Feature","properties":{"code":"18-11","provinceCode":"18","name":"Şabanözü"},"geometry":{"type":"Polygon","coordinates":[[[33.1217948,40.4907526],[33.1290149,40.4889333],[33.1284141,40.4789452],[33.1398295,40.4701962],[33.1315898,40.4643194],[33.1369113,40.462295],[33.1389712,40.4656254],[33.1437778,40.4645153],[33.1438636,40.4681067],[33.1519317,40.4648418],[33.1539058,40.4621644],[33.15176,40.4604665],[33.1559657,40.4537398],[33.1642913,40.4486454],[33.166952,40.4413949],[33.1706428,40.4396311],[33.1696128,40.4373447],[33.1792258,40.4300277],[33.1778525,40.428133],[33.1794833,40.4253235],[33.183174,40.4249314],[33.1889247,40.4204229],[33.1940745,40.4189853],[33.1996535,40.4125159],[33.2097816,40.4134961],[33.2099532,40.4107513],[33.2130431,40.4073529],[33.2119273,40.3902274],[33.2154464,40.3867626],[33.2141589,40.3842128],[33.206005,40.3823822],[33.2043742,40.3799631],[33.2063483,40.3757785],[33.2124423,40.3712012],[33.2187938,40.361588],[33.2230853,40.3611302],[33.2248019,40.3589065],[33.2278918,40.3600184],[33.2369041,40.3577293],[33.2393931,40.3532816],[33.2351016,40.3545244],[33.2354449,40.3519734],[33.238964,40.3517118],[33.2404231,40.3499457],[33.2372474,40.3476562],[33.2363032,40.3503382],[33.2343291,40.3463479],[33.2368182,40.34432],[33.2413673,40.3442546],[33.2429122,40.3407874],[33.2401656,40.3406566],[33.2402515,40.3395444],[33.2460879,40.3344413],[33.2591342,40.3278328],[33.2596492,40.3245611],[33.2648849,40.3216818],[33.2649746,40.3186934],[33.2814502,40.3226634],[33.2855701,40.3257389],[33.2994746,40.3280946],[33.2999896,40.3303193],[33.297243,40.3307118],[33.2964706,40.3347684],[33.302822,40.3358807],[33.3102035,40.3348338],[33.3148383,40.3366658],[33.314495,40.3385631],[33.3209323,40.3367312],[33.3201598,40.3341796],[33.3231639,40.3343104],[33.3244514,40.332413],[33.3381843,40.3322167],[33.3384418,40.335161],[33.3362102,40.3381705],[33.3391284,40.3438621],[33.3456515,40.3502073],[33.3421325,40.3585141],[33.3320903,40.3594952],[33.3290862,40.3552439],[33.3229064,40.367016],[33.3239364,40.3679316],[33.3205031,40.3704165],[33.3227347,40.3727052],[33.3170699,40.3750592],[33.3181857,40.3769554],[33.3114051,40.3878739],[33.3143233,40.3879393],[33.31295,40.3927115],[33.3141517,40.3989868],[33.31604,40.3987907],[33.31501,40.4002941],[33.3120917,40.4005555],[33.3131217,40.4073529],[33.3152675,40.4087254],[33.3201598,40.4074836],[33.3187007,40.4057843],[33.3332061,40.4041504],[33.3384418,40.401536],[33.3381843,40.3999019],[33.3407592,40.3984639],[33.3434199,40.3996404],[33.3472823,40.3988561],[33.3494281,40.3950648],[33.3537196,40.3959146],[33.3556937,40.3916656],[33.3587836,40.3918617],[33.3611869,40.3887238],[33.3644485,40.3895083],[33.3655643,40.3938228],[33.3747481,40.3895737],[33.3755206,40.3874163],[33.3784389,40.3874817],[33.3837604,40.3909465],[33.3870219,40.389639],[33.3929443,40.3914695],[33.4004115,40.3851281],[33.3981799,40.3838859],[33.3997249,40.3829052],[33.3989524,40.3814669],[33.3956908,40.3791785],[33.4021281,40.374863],[33.4127711,40.377217],[33.4156036,40.3855858],[33.4135436,40.3872856],[33.4162902,40.3876778],[33.417679,40.3896563],[33.4460497,40.4337908],[33.4493933,40.4480115],[33.4462464,40.4831759],[33.4318885,40.5249005],[33.4305117,40.5447816],[33.4271681,40.5513575],[33.4194974,40.5624155],[33.406713,40.5755632],[33.3899949,40.5878121],[33.3689221,40.6004134],[33.3300801,40.6286272],[33.3058962,40.6365584],[33.2953768,40.6382068],[33.29035,40.6293736],[33.2885799,40.6193717],[33.2912917,40.5764307],[33.2890736,40.5622023],[33.283405,40.5528399],[33.2698497,40.5462854],[33.2464361,40.5432889],[33.2257335,40.5459109],[33.1909827,40.559581],[33.1816173,40.5605172],[33.1729912,40.5556488],[33.1817712,40.5438899],[33.1990299,40.5309635],[33.2018348,40.524184],[33.1885181,40.5093812],[33.1779204,40.5041342],[33.1408884,40.498019],[33.1217948,40.4907526]]]}},{"type":"Feature","properties":{"code":"18-12","provinceCode":"18","name":"Yapraklı"},"geometry":{"type":"Polygon","coordinates":[[[33.6565535,40.7699711],[33.6826755,40.7617314],[33.6891907,40.7512093],[33.6879614,40.7366804],[33.6899282,40.7299737],[33.6955829,40.7260611],[33.7073858,40.7222858],[33.7104287,40.7187808],[33.7213976,40.7027673],[33.7244533,40.6936795],[33.7358733,40.6728958],[33.7478051,40.6662915],[33.7793908,40.6679114],[33.8042506,40.672007],[33.8317863,40.653171],[33.849242,40.6356356],[33.906772,40.6063376],[33.9259486,40.6026044],[33.9448794,40.6029778],[33.9598765,40.6067109],[34.0092933,40.6352625],[34.0469091,40.6539171],[34.0697735,40.6621234],[34.0864916,40.6701423],[34.1017368,40.6804848],[34.0918209,40.6828696],[34.0669397,40.7021188],[34.0586664,40.7131552],[34.0557289,40.7283048],[34.065114,40.7334952],[34.0642082,40.7413976],[34.0596794,40.7496054],[34.0613995,40.7569018],[34.0705409,40.7614334],[34.0764929,40.7680439],[34.0809682,40.7772525],[34.0846856,40.7914867],[34.0776943,40.8033082],[34.0782,40.8223],[34.0664,40.8197],[34.0581,40.8216],[34.055,40.8277],[34.0339,40.8282],[34.0214,40.8239],[34.0149,40.828],[33.9951,40.8259],[33.9986,40.8276],[33.9994,40.8389],[33.9965,40.8437],[33.9927,40.8463],[33.9898,40.8469],[33.9848,40.8434],[33.98,40.8438],[33.9788,40.8462],[33.9757,40.8468],[33.9754,40.8491],[33.9514,40.8567],[33.9438,40.856],[33.9345,40.8587],[33.9246,40.8565],[33.9086,40.8502],[33.8918,40.8416],[33.8822,40.8408],[33.8796,40.8441],[33.8648,40.845],[33.8549,40.8421],[33.8485,40.8429],[33.8472,40.8494],[33.8317,40.8591],[33.8269,40.8647],[33.8274,40.8687],[33.8171,40.8704],[33.8132,40.8803],[33.7953,40.8825],[33.7982,40.8896],[33.8084,40.9025],[33.8042,40.9055],[33.8041,40.9074],[33.8063,40.9069],[33.8094,40.9098],[33.8042,40.9104],[33.7699597,40.9013155],[33.7599046,40.9011658],[33.7495161,40.8952842],[33.7516503,40.882398],[33.7601296,40.8709685],[33.7763022,40.8564163],[33.7810748,40.8448311],[33.7700113,40.8359032],[33.7538504,40.8278989],[33.6963205,40.8078044],[33.6771438,40.7966381],[33.6565535,40.7699711]]]}}]}