{"type":"FeatureCollection","features":[{"type":"Feature","properties":{"code":"37-01","provinceCode":"37","name":"Abana"},"geometry":{"type":"Polygon","coordinates":[[[34.1186106,41.974469],[34.0944278,41.9793527],[34.0747642,41.9783864],[34.0569481,41.9803863],[34.04952,41.9798101],[34.0459189,41.981545],[34.0391485,41.9796645],[34.0277185,41.9795138],[34.0232832,41.9812381],[34.022991,41.979901],[34.0196416,41.9797912],[34.0200704,41.9815526],[34.0250121,41.9825032],[34.0212914,41.9823417],[34.0183891,41.9809866],[33.9852706,41.9791146],[33.974834,41.9798291],[33.9759233,41.9757505],[33.9806013,41.9724676],[33.9881115,41.9673916],[33.9971969,41.9676466],[34.0013576,41.9617523],[34.008191,41.9625083],[34.007235,41.9660595],[34.0099551,41.9684958],[34.0157058,41.9653177],[34.0198772,41.9647876],[34.0234657,41.9670691],[34.0315853,41.9638526],[34.048283,41.941476],[34.0544796,41.9293458],[34.0632706,41.9218183],[34.0921397,41.9160992],[34.1025058,41.9035166],[34.1054857,41.9125175],[34.0979456,41.9302897],[34.1033526,41.9383344],[34.1161132,41.9491127],[34.1145993,41.9614975],[34.1186106,41.974469]]]}},{"type":"Feature","properties":{"code":"37-02","provinceCode":"37","name":"Ağlı"},"geometry":{"type":"Polygon","coordinates":[[[33.5960828,41.5910181],[33.6084592,41.6108068],[33.6038441,41.6273427],[33.6064936,41.6306078],[33.612285,41.6306688],[33.6193331,41.634567],[33.6187693,41.6373325],[33.6131846,41.6424569],[33.6080914,41.6430475],[33.6025141,41.6460036],[33.6035205,41.6523655],[33.6070726,41.6533634],[33.6146727,41.6629112],[33.6121737,41.6755656],[33.6138408,41.6775869],[33.6257362,41.6766965],[33.6357306,41.6781245],[33.6443093,41.6832703],[33.6643363,41.6902332],[33.6891012,41.694843],[33.6923969,41.6984172],[33.7047009,41.699885],[33.7067723,41.7056729],[33.6921768,41.7065013],[33.6737233,41.71127],[33.6649696,41.7176278],[33.6633135,41.7253974],[33.6413112,41.7328131],[33.6346868,41.7375798],[33.6311381,41.7471123],[33.6245137,41.751525],[33.6022845,41.7517818],[33.6011638,41.7559112],[33.5787712,41.7653848],[33.5673526,41.765122],[33.5677782,41.7747421],[33.5600586,41.7997901],[33.5601673,41.8063504],[33.5549632,41.8146271],[33.544745,41.817547],[33.5256999,41.8193962],[33.5118304,41.8240149],[33.5001691,41.8328939],[33.5000302,41.8259554],[33.4928766,41.8177703],[33.4846956,41.8138997],[33.4797795,41.8091209],[33.480843,41.7993688],[33.4880246,41.7919885],[33.4878269,41.7798054],[33.5018272,41.7671371],[33.5022235,41.7608104],[33.4990817,41.7571553],[33.4967804,41.7468855],[33.4982627,41.7417027],[33.5036938,41.7375587],[33.5068638,41.7320007],[33.5088094,41.7176256],[33.4888084,41.7181176],[33.4814845,41.702976],[33.4748542,41.7009572],[33.4692754,41.7078824],[33.4657849,41.7096089],[33.4617994,41.7091741],[33.4605238,41.7074787],[33.4678629,41.7017443],[33.468525,41.6956748],[33.4865735,41.6871581],[33.500236,41.6975391],[33.5141941,41.6943271],[33.5167142,41.6876765],[33.5242229,41.683615],[33.526812,41.6770768],[33.4922093,41.6435223],[33.4782825,41.6374692],[33.468967,41.6274425],[33.492727,41.6130638],[33.5142398,41.6101511],[33.5178476,41.608039],[33.5272572,41.6084272],[33.5450955,41.6152063],[33.5609367,41.618431],[33.5706665,41.6163527],[33.5780796,41.6111568],[33.5831379,41.5997915],[33.5960828,41.5910181]]]}},{"type":"Feature","properties":{"code":"37-03","provinceCode":"37","name":"Araç"},"geometry":{"type":"Polygon","coordinates":[[[33.1341362,41.3787301],[33.1373224,41.3722961],[33.1256154,41.3558948],[33.1229849,41.3495407],[33.0946633,41.3396257],[33.0684359,41.3188589],[33.0257268,41.3152007],[33.0109529,41.31742],[33.0062525,41.3148404],[33.0025623,41.3069164],[32.9915858,41.2982136],[32.9812197,41.2942522],[32.9707028,41.2891809],[32.9708384,41.2815992],[32.9676233,41.2770893],[32.9386852,41.2546015],[32.9352245,41.2484171],[32.9350706,41.2443366],[32.9405948,41.2374177],[32.9334646,41.2287615],[32.9304576,41.209084],[32.9252716,41.1984532],[32.9265796,41.1871737],[32.9581486,41.1717697],[32.9662371,41.1641693],[32.9635674,41.1594639],[32.9565973,41.1571046],[32.960361,41.1523619],[32.966876,41.1512636],[32.9785452,41.1543916],[32.9912482,41.1485751],[32.996913,41.1479288],[33.0101309,41.1494799],[33.0159674,41.145602],[33.0206023,41.1393969],[33.0305586,41.1337083],[33.0387984,41.1265969],[33.0473814,41.1175449],[33.050128,41.1121131],[33.0595694,41.1095264],[33.0614577,41.102671],[33.0552779,41.0853355],[33.0597411,41.0797717],[33.0587111,41.0742073],[33.0739217,41.0627029],[33.0977705,41.0583263],[33.1058195,41.0549923],[33.1222815,41.054422],[33.1422707,41.065328],[33.150106,41.0628376],[33.1634205,41.0708054],[33.1702514,41.0727679],[33.1791914,41.0744568],[33.1910893,41.071636],[33.1996639,41.0684678],[33.2087946,41.0616244],[33.2237463,41.0551105],[33.2281122,41.0540079],[33.2337983,41.0556242],[33.2373153,41.052417],[33.2429676,41.0527871],[33.2477642,41.0503819],[33.2482127,41.0471639],[33.2515885,41.0452688],[33.2565102,41.0465719],[33.2671067,41.0429092],[33.2715248,41.0440482],[33.282285,41.039229],[33.2915732,41.0387272],[33.296892,41.036571],[33.2981687,41.0332966],[33.3034783,41.0301049],[33.3019336,41.0267844],[33.3048348,41.0215035],[33.3085223,41.022293],[33.3103157,41.0161064],[33.3213521,41.0055097],[33.3254453,41.0053268],[33.3250528,41.0012507],[33.3214629,41.0003794],[33.3206657,40.9984542],[33.3218791,40.9955521],[33.3178359,40.9940621],[33.3154338,40.9911465],[33.3260501,40.9804058],[33.3353132,40.9798635],[33.359468,40.9836408],[33.3711709,40.9811137],[33.3863309,40.9837149],[33.3932833,40.9829211],[33.4129649,40.9868705],[33.4264986,41.0021982],[33.4205576,41.0164467],[33.4193329,41.027078],[33.4271466,41.0329227],[33.4542251,41.0346946],[33.4648955,41.0318851],[33.473061,41.0506591],[33.4645582,41.0551074],[33.4539265,41.0547654],[33.4461213,41.0681638],[33.4511308,41.0721615],[33.4600554,41.0901885],[33.4651521,41.0939071],[33.4628713,41.1037361],[33.4596509,41.1091312],[33.4424838,41.1200446],[33.4345685,41.1143646],[33.423599,41.115372],[33.4219041,41.1275794],[33.4149901,41.1378383],[33.428047,41.1459039],[33.4372446,41.1584307],[33.4490126,41.153821],[33.4596579,41.153943],[33.4720689,41.1574882],[33.48291,41.1682275],[33.4728249,41.1775539],[33.4709865,41.1821308],[33.4730224,41.1915791],[33.4709865,41.2005155],[33.4740404,41.2097058],[33.462984,41.2284469],[33.4730224,41.2543629],[33.4950781,41.2727273],[33.5054866,41.2774693],[33.5173479,41.2910691],[33.5206193,41.2992872],[33.52393,41.3026909],[33.531982,41.3057153],[33.5419886,41.3036549],[33.5511358,41.3084646],[33.5597129,41.3087098],[33.5616881,41.3183948],[33.5602273,41.3285537],[33.5405468,41.343076],[33.5334211,41.3428213],[33.5262954,41.3402737],[33.5123834,41.3290633],[33.5012305,41.3321791],[33.499145,41.3353979],[33.4998286,41.343076],[33.4954174,41.3474066],[33.4825233,41.343076],[33.4686113,41.3407833],[33.4621642,41.3374713],[33.4526633,41.3379809],[33.4411265,41.3435855],[33.4146596,41.3435855],[33.4010869,41.351737],[33.3820851,41.3499539],[33.3613866,41.3644715],[33.3562968,41.379495],[33.3467959,41.3789858],[33.3325445,41.3736388],[33.3203291,41.3800042],[33.3087922,41.3838232],[33.2911477,41.384587],[33.2796109,41.382041],[33.2653595,41.3680367],[33.2500901,41.3662541],[33.2375354,41.3688007],[33.2246413,41.3744027],[33.2117471,41.3772035],[33.1866376,41.3716017],[33.1767973,41.3731295],[33.1438834,41.384587],[33.1341362,41.3787301]]]}},{"type":"Feature","properties":{"code":"37-04","provinceCode":"37","name":"Azdavay"},"geometry":{"type":"Polygon","coordinates":[[[33.468967,41.6274425],[33.4782825,41.6374692],[33.4922093,41.6435223],[33.526812,41.6770768],[33.5242229,41.683615],[33.5167142,41.6876765],[33.5141941,41.6943271],[33.500236,41.6975391],[33.4865735,41.6871581],[33.468525,41.6956748],[33.4678629,41.7017443],[33.4605238,41.7074787],[33.4617994,41.7091741],[33.4657849,41.7096089],[33.4692754,41.7078824],[33.4748542,41.7009572],[33.4814845,41.702976],[33.4888084,41.7181176],[33.5088094,41.7176256],[33.5068638,41.7320007],[33.5036938,41.7375587],[33.4982627,41.7417027],[33.4967804,41.7468855],[33.4990817,41.7571553],[33.5022235,41.7608104],[33.5018272,41.7671371],[33.4878269,41.7798054],[33.4880246,41.7919885],[33.480843,41.7993688],[33.4797795,41.8091209],[33.4846956,41.8138997],[33.4928766,41.8177703],[33.5000302,41.8259554],[33.5001691,41.8328939],[33.5016504,41.8411294],[33.5082896,41.846236],[33.5122695,41.8520455],[33.5056747,41.8520812],[33.5000696,41.855432],[33.485653,41.8588063],[33.4788625,41.8625015],[33.4797827,41.8701061],[33.4774934,41.8741587],[33.466891,41.8775526],[33.4599883,41.8765109],[33.4548852,41.8786572],[33.4498073,41.8787997],[33.4427076,41.8847632],[33.4037208,41.8896373],[33.3982432,41.8921269],[33.3712008,41.8920528],[33.3601269,41.8989054],[33.3461596,41.8878297],[33.3423848,41.8790615],[33.3344896,41.870791],[33.3245586,41.8643407],[33.3146711,41.8603039],[33.3090422,41.854475],[33.3097136,41.8473699],[33.3268425,41.8342122],[33.3312211,41.8283385],[33.3282643,41.8187389],[33.3286132,41.8131354],[33.3204182,41.8054821],[33.3208559,41.7945404],[33.3138404,41.78003],[33.3060596,41.7753418],[33.3075604,41.7668022],[33.3048194,41.7631282],[33.2816082,41.7634078],[33.2674612,41.7583552],[33.2413702,41.7563974],[33.2179603,41.7570616],[33.21015,41.7510138],[33.1982996,41.7489472],[33.1914787,41.745455],[33.1795868,41.7438387],[33.1721357,41.739138],[33.1539487,41.7313516],[33.1438633,41.7293424],[33.1237216,41.7289998],[33.1356173,41.7215412],[33.1391137,41.711358],[33.1372423,41.6997154],[33.1330317,41.6970372],[33.1313162,41.6892351],[33.1359947,41.6874883],[33.1473269,41.6896832],[33.1490152,41.6857755],[33.1466877,41.6789189],[33.1402988,41.6698057],[33.1394256,41.6601144],[33.1426691,41.6573985],[33.1609804,41.6708539],[33.165191,41.670155],[33.1661267,41.6667766],[33.1875465,41.66354],[33.207453,41.6635146],[33.2101041,41.6590874],[33.2193051,41.6554754],[33.2233597,41.6553589],[33.2229114,41.6490175],[33.2167222,41.6416215],[33.2142991,41.6342864],[33.2188372,41.6277383],[33.2082328,41.6175961],[33.2075071,41.6118055],[33.2160698,41.5890564],[33.2159671,41.5777516],[33.2127648,41.5675239],[33.2084215,41.5623928],[33.1947057,41.5543533],[33.1523013,41.5383768],[33.1850594,41.5389451],[33.1921041,41.5408703],[33.2002794,41.5393195],[33.2030499,41.5356251],[33.2170389,41.5333107],[33.2250752,41.5303308],[33.2384986,41.5273102],[33.2526888,41.5268762],[33.2648731,41.5404931],[33.2748345,41.5454782],[33.2961474,41.5484256],[33.313522,41.5531066],[33.3298624,41.5550014],[33.3524412,41.5453048],[33.3603691,41.5462001],[33.3629478,41.5492923],[33.3577983,41.5571754],[33.3579089,41.5623445],[33.3693525,41.5721736],[33.3906654,41.5732134],[33.4007115,41.5756498],[33.4026541,41.581057],[33.4083699,41.5864402],[33.4160905,41.5906269],[33.4344737,41.5902453],[33.4505471,41.5922098],[33.4639281,41.5980801],[33.4684947,41.602266],[33.4653039,41.6186008],[33.468967,41.6274425]]]}},{"type":"Feature","properties":{"code":"37-05","provinceCode":"37","name":"Bozkurt"},"geometry":{"type":"Polygon","coordinates":[[[34.0929876,41.7496529],[34.1100884,41.7493255],[34.1221557,41.7512208],[34.1516888,41.7765656],[34.1694721,41.7893525],[34.1732828,41.798586],[34.1736004,41.8149189],[34.1685194,41.8227288],[34.1643911,41.8246219],[34.1618507,41.829118],[34.1408917,41.8397652],[34.1405742,41.8459162],[34.1488307,41.8530127],[34.1504185,41.8579798],[34.1231084,41.863183],[34.1123114,41.8620005],[34.099609,41.8530127],[34.0932578,41.8584528],[34.094528,41.8672034],[34.1046899,41.884228],[34.1025058,41.9035166],[34.0921397,41.9160992],[34.0632706,41.9218183],[34.0544796,41.9293458],[34.048283,41.941476],[34.0315853,41.9638526],[34.0234657,41.9670691],[34.0198772,41.9647876],[34.0157058,41.9653177],[34.0099551,41.9684958],[34.007235,41.9660595],[34.008191,41.9625083],[34.0013576,41.9617523],[33.9971969,41.9676466],[33.9881115,41.9673916],[33.9806013,41.9724676],[33.9759233,41.9757505],[33.974834,41.9798291],[33.96589,41.980267],[33.9627707,41.9793086],[33.9672566,41.9797702],[33.966541,41.977824],[33.964125,41.977331],[33.963801,41.978617],[33.963426,41.976567],[33.9442645,41.9737698],[33.9300731,41.9746446],[33.913662,41.9729215],[33.9152083,41.960085],[33.9186131,41.9503494],[33.918356,41.9389987],[33.9235164,41.9330929],[33.918753,41.9180308],[33.9235164,41.9094645],[33.9151805,41.8935103],[33.918753,41.8881914],[33.9290737,41.8808032],[33.9322493,41.86632],[33.9298676,41.8615901],[33.920385,41.8613724],[33.9187953,41.8574961],[33.9128883,41.8542825],[33.9294939,41.8437523],[33.9492794,41.8432451],[33.9709506,41.8388216],[33.9749478,41.8343151],[33.9645175,41.8263392],[33.9638156,41.8190773],[33.9687583,41.8108436],[33.9832756,41.7939147],[33.9900449,41.7918515],[33.9943286,41.7950495],[34.0001403,41.7936318],[34.0145436,41.7967432],[34.0188662,41.7998603],[34.0231909,41.7971986],[34.0340528,41.7978172],[34.0365168,41.7999728],[34.0427272,41.7972549],[34.0452164,41.7938109],[34.0442107,41.7929487],[34.0468757,41.7909617],[34.0581393,41.7888997],[34.0584477,41.7816144],[34.0629307,41.7750812],[34.0627559,41.7642455],[34.0764745,41.753633],[34.084604,41.7538226],[34.0929876,41.7496529]]]}},{"type":"Feature","properties":{"code":"37-06","provinceCode":"37","name":"Cide"},"geometry":{"type":"Polygon","coordinates":[[[32.9311438,41.728031],[32.9405795,41.7333621],[32.9557583,41.7390937],[32.9979686,41.7461466],[33.0205425,41.7463598],[33.0456738,41.7454857],[33.0671618,41.7417333],[33.0879641,41.7352514],[33.1237216,41.7289998],[33.1091844,41.7391304],[33.1125212,41.7462884],[33.1267028,41.7511119],[33.1306653,41.7548459],[33.1273284,41.7629356],[33.1131469,41.7836218],[33.1077245,41.7969942],[33.1068903,41.8098976],[33.1008423,41.8182912],[33.1000081,41.8248187],[33.1384957,41.8342058],[33.1551147,41.8414892],[33.1798803,41.8589659],[33.2026907,41.8640624],[33.1981286,41.8774084],[33.1987803,41.8842016],[33.2131183,41.8890535],[33.249289,41.8856572],[33.2665597,41.8873554],[33.2936063,41.8985136],[33.3177201,41.918157],[33.3248891,41.9220365],[33.3314064,41.9203393],[33.3326867,41.9122492],[33.3509581,41.9300372],[33.3457443,41.9482168],[33.3450926,41.9610606],[33.3424857,41.9668758],[33.334665,41.9717214],[33.3320581,41.9775356],[33.3617116,41.9915845],[33.372465,42.0024823],[33.3760495,42.0095044],[33.3725341,42.0156435],[33.3618519,42.0159625],[33.3607147,42.0185688],[33.3567074,42.0195492],[33.360087,42.0182858],[33.3596579,42.0169228],[33.3512516,42.0187718],[33.3471011,42.017866],[33.343625,42.0196115],[33.340593,42.0181546],[33.3378268,42.0194855],[33.334119,42.017728],[33.3265105,42.0173111],[33.31565,42.0133691],[33.312051,42.009961],[33.297582,42.007176],[33.296197,42.005383],[33.2783949,41.9997839],[33.275678,41.995936],[33.2649325,41.9905411],[33.2440487,41.9847197],[33.2399416,41.9849543],[33.235193,41.981523],[33.2284191,41.9800693],[33.225214,41.980773],[33.2149637,41.978348],[33.2128608,41.9795364],[33.2129896,41.9782922],[33.206048,41.974352],[33.1932592,41.9712571],[33.1898368,41.9679467],[33.1827021,41.9661678],[33.1792152,41.9667501],[33.171705,41.9587325],[33.1686793,41.9581657],[33.1693338,41.9558041],[33.1650959,41.9542642],[33.1488954,41.9529796],[33.141353,41.9484155],[33.1334458,41.9500752],[33.1214183,41.9491021],[33.1080716,41.9457187],[33.1061833,41.9440748],[33.0971067,41.9433088],[33.0676893,41.934945],[33.0487637,41.933205],[33.0466179,41.9310181],[33.0439357,41.9321515],[33.0378396,41.9288199],[33.028336,41.9275699],[33.0268125,41.9261331],[33.0270914,41.9212637],[33.0206677,41.9170129],[33.0115056,41.916081],[33.0059285,41.9115702],[32.9855586,41.9092569],[32.9814352,41.9069231],[32.9820401,41.9040812],[32.9775693,41.9003589],[32.9818298,41.9034415],[32.9856697,41.9019581],[32.9856331,41.8993178],[32.9832469,41.8986577],[32.9800173,41.9002687],[32.9827059,41.8986277],[32.98412,41.898432],[32.9829098,41.8982004],[32.9807747,41.8992226],[32.9825656,41.8981757],[32.9814935,41.895565],[32.9565325,41.8860258],[32.9364593,41.8815718],[32.93831,41.8815558],[32.9386546,41.8773717],[32.935896,41.8822867],[32.9317656,41.879144],[32.8958718,41.8689017],[32.8852395,41.8669563],[32.8728369,41.8677552],[32.861529,41.8630686],[32.8594744,41.8614991],[32.8629399,41.8609231],[32.8629238,41.859837],[32.8598446,41.8585905],[32.8568459,41.8593975],[32.8578812,41.8608752],[32.853359,41.8597651],[32.842775,41.8610516],[32.838147,41.859849],[32.8299,41.861762],[32.824067,41.860213],[32.819615,41.855971],[32.816525,41.85571],[32.814117,41.857503],[32.788704,41.858613],[32.7841846,41.8600974],[32.7795661,41.8582342],[32.7759009,41.8591487],[32.7746851,41.8579336],[32.7774385,41.8562526],[32.7710345,41.8533574],[32.766591,41.849202],[32.7579044,41.8499337],[32.7577593,41.8485979],[32.7522355,41.8441419],[32.7555935,41.840487],[32.755194,41.8386176],[32.751617,41.8374171],[32.7511494,41.8330649],[32.7467894,41.8299211],[32.752,41.8271],[32.7518,41.8237],[32.7583,41.8194],[32.7623,41.8121],[32.7609,41.8091],[32.7632,41.8051],[32.7771,41.8038],[32.7673,41.7926],[32.7743,41.7773],[32.7875626,41.7724809],[32.7845697,41.7481885],[32.7869685,41.745773],[32.8032458,41.7412278],[32.8320436,41.7255419],[32.8423854,41.7247136],[32.9034393,41.740574],[32.915301,41.7405117],[32.9257648,41.7348806],[32.9311438,41.728031]]]}},{"type":"Feature","properties":{"code":"37-07","provinceCode":"37","name":"Çatalzeytin"},"geometry":{"type":"Polygon","coordinates":[[[34.1190002,41.7283923],[34.1398001,41.7370528],[34.1478191,41.7321004],[34.1968559,41.7450436],[34.2214913,41.7432288],[34.2447563,41.7534766],[34.273462,41.7631012],[34.2783854,41.7677527],[34.287986,41.7868449],[34.289381,41.8075829],[34.286427,41.8207318],[34.2773187,41.8354065],[34.2897092,41.8566177],[34.2764981,41.8752557],[34.2690802,41.8816342],[34.2655353,41.8822207],[34.2637271,41.8863899],[34.2586771,41.8880609],[34.2572635,41.8920721],[34.2540887,41.893738],[34.254401,41.8967017],[34.2509273,41.8969984],[34.2448231,41.9065909],[34.2459986,41.9097507],[34.2375328,41.915236],[34.2376555,41.9205266],[34.2356906,41.9237172],[34.2311375,41.925877],[34.2300582,41.9304366],[34.2247051,41.9355836],[34.2237142,41.9384633],[34.2281363,41.9420291],[34.228226,41.954659],[34.212577,41.9547984],[34.1744344,41.9593179],[34.170361,41.9617558],[34.1713749,41.9640218],[34.1691862,41.9612854],[34.167931,41.9618997],[34.1679095,41.9656971],[34.1733501,41.9647865],[34.1687249,41.9663193],[34.163339,41.9652025],[34.1625344,41.9670133],[34.1339324,41.9706975],[34.1186106,41.974469],[34.1145993,41.9614975],[34.1161132,41.9491127],[34.1033526,41.9383344],[34.0979456,41.9302897],[34.1054857,41.9125175],[34.1025058,41.9035166],[34.1046899,41.884228],[34.094528,41.8672034],[34.0932578,41.8584528],[34.099609,41.8530127],[34.1123114,41.8620005],[34.1231084,41.863183],[34.1504185,41.8579798],[34.1488307,41.8530127],[34.1405742,41.8459162],[34.1408917,41.8397652],[34.1618507,41.829118],[34.1643911,41.8246219],[34.1685194,41.8227288],[34.1736004,41.8149189],[34.1732828,41.798586],[34.1694721,41.7893525],[34.1516888,41.7765656],[34.1221557,41.7512208],[34.1100884,41.7493255],[34.0929876,41.7496529],[34.1190002,41.7283923]]]}},{"type":"Feature","properties":{"code":"37-08","provinceCode":"37","name":"Daday"},"geometry":{"type":"Polygon","coordinates":[[[33.0526119,41.5062312],[33.0593584,41.4925629],[33.0591627,41.4880029],[33.0648854,41.484002],[33.1045537,41.4778904],[33.1076688,41.4754454],[33.0996655,41.4630903],[33.0991397,41.4578823],[33.1083529,41.4525498],[33.1133587,41.4439909],[33.125254,41.4349434],[33.1245706,41.4263101],[33.1284202,41.4174845],[33.1301986,41.3976686],[33.1240476,41.3882609],[33.1341362,41.3787301],[33.1438834,41.384587],[33.1767973,41.3731295],[33.1866376,41.3716017],[33.2117471,41.3772035],[33.2246413,41.3744027],[33.2375354,41.3688007],[33.2500901,41.3662541],[33.2653595,41.3680367],[33.2796109,41.382041],[33.2911477,41.384587],[33.3087922,41.3838232],[33.3203291,41.3800042],[33.3325445,41.3736388],[33.3467959,41.3789858],[33.3562968,41.379495],[33.3613866,41.3644715],[33.3820851,41.3499539],[33.4010869,41.351737],[33.4146596,41.3435855],[33.4411265,41.3435855],[33.4526633,41.3379809],[33.4621642,41.3374713],[33.4686113,41.3407833],[33.4825233,41.343076],[33.4954174,41.3474066],[33.50389,41.3584962],[33.5067857,41.3665377],[33.5238708,41.3826179],[33.541535,41.3878323],[33.5479057,41.391091],[33.5508015,41.4060792],[33.5473265,41.4297491],[33.5505119,41.4375648],[33.5667282,41.4551466],[33.5878673,41.4712049],[33.6121918,41.4837884],[33.6081377,41.4919771],[33.6103095,41.4987551],[33.6081377,41.5009239],[33.5864194,41.501195],[33.5784561,41.5058035],[33.5770082,41.5112248],[33.5830243,41.5212976],[33.5810589,41.5249229],[33.5565331,41.5338292],[33.5510783,41.5326229],[33.5431802,41.5338236],[33.5419775,41.5413902],[33.5484917,41.5463653],[33.5500054,41.5501026],[33.5467243,41.5550902],[33.546177,41.5606545],[33.5545715,41.5634999],[33.5647633,41.5585773],[33.570958,41.5590823],[33.5885895,41.5755636],[33.5979072,41.5796497],[33.5987877,41.5848137],[33.5960828,41.5910181],[33.5831379,41.5997915],[33.5780796,41.6111568],[33.5706665,41.6163527],[33.5609367,41.618431],[33.5450955,41.6152063],[33.5272572,41.6084272],[33.5178476,41.608039],[33.5142398,41.6101511],[33.492727,41.6130638],[33.468967,41.6274425],[33.4653039,41.6186008],[33.4684947,41.602266],[33.4639281,41.5980801],[33.4505471,41.5922098],[33.4344737,41.5902453],[33.4160905,41.5906269],[33.4083699,41.5864402],[33.4026541,41.581057],[33.4007115,41.5756498],[33.3906654,41.5732134],[33.3693525,41.5721736],[33.3579089,41.5623445],[33.3577983,41.5571754],[33.3629478,41.5492923],[33.3603691,41.5462001],[33.3524412,41.5453048],[33.3298624,41.5550014],[33.313522,41.5531066],[33.2961474,41.5484256],[33.2748345,41.5454782],[33.2648731,41.5404931],[33.2526888,41.5268762],[33.2384986,41.5273102],[33.2250752,41.5303308],[33.2170389,41.5333107],[33.2030499,41.5356251],[33.2002794,41.5393195],[33.1921041,41.5408703],[33.1850594,41.5389451],[33.1523013,41.5383768],[33.158216,41.5433282],[33.1363472,41.5476281],[33.116724,41.5396563],[33.1109037,41.5335481],[33.1041514,41.5298719],[33.1017851,41.5251739],[33.0960065,41.5252379],[33.0851145,41.5227084],[33.0629568,41.5146088],[33.0526119,41.5062312]]]}},{"type":"Feature","properties":{"code":"37-09","provinceCode":"37","name":"Devrekani"},"geometry":{"type":"Polygon","coordinates":[[[33.7172379,41.5648951],[33.7247,41.5450998],[33.7509732,41.5460313],[33.7584403,41.5438579],[33.7679816,41.5355777],[33.7726831,41.5338181],[33.7831924,41.5397179],[33.792872,41.5414775],[33.7973579,41.5378836],[33.8085107,41.5372788],[33.8153717,41.5333827],[33.8283838,41.5307261],[33.8376106,41.5328514],[33.8465282,41.5320628],[33.8513959,41.5267677],[33.8624166,41.5329545],[33.8763984,41.5341664],[33.8822479,41.5370215],[33.8862323,41.5463089],[33.8934445,41.5489656],[33.9031491,41.5510617],[33.9163154,41.5473063],[33.998813,41.5701088],[34.0317299,41.5900682],[34.0492866,41.6143444],[34.050109,41.6177502],[34.04236,41.6440605],[34.0644819,41.6541972],[34.0775351,41.6583246],[34.0836672,41.6674034],[34.0910066,41.6728042],[34.1095336,41.681206],[34.1157678,41.6903313],[34.1217527,41.7102535],[34.1227502,41.7266335],[34.1190002,41.7283923],[34.0929876,41.7496529],[34.084604,41.7538226],[34.0764745,41.753633],[34.0627559,41.7642455],[34.0629307,41.7750812],[34.0584477,41.7816144],[34.0581393,41.7888997],[34.0468757,41.7909617],[34.0442107,41.7929487],[34.0452164,41.7938109],[34.0427272,41.7972549],[34.0365168,41.7999728],[34.0340528,41.7978172],[34.0231909,41.7971986],[34.0188662,41.7998603],[34.0145436,41.7967432],[34.0001403,41.7936318],[33.9943286,41.7950495],[33.9900449,41.7918515],[33.9832756,41.7939147],[33.9687583,41.8108436],[33.9638156,41.8190773],[33.9645175,41.8263392],[33.9749478,41.8343151],[33.9709506,41.8388216],[33.9492794,41.8432451],[33.9294939,41.8437523],[33.9128883,41.8542825],[33.893395,41.851834],[33.8811314,41.8554272],[33.8815783,41.8366777],[33.8844097,41.8277653],[33.8733356,41.8084237],[33.8537937,41.8018179],[33.8431707,41.8036911],[33.840885,41.7997132],[33.8428859,41.7931515],[33.8358762,41.7862762],[33.8391938,41.7757881],[33.8263202,41.765467],[33.8160017,41.7598848],[33.8102324,41.7511719],[33.7974498,41.7464631],[33.7729356,41.7339367],[33.7881668,41.722199],[33.7911506,41.7060849],[33.7761112,41.6891788],[33.77349,41.6814685],[33.7759632,41.6733272],[33.7856374,41.6677534],[33.7964064,41.6661626],[33.7995952,41.6600691],[33.7972768,41.6556749],[33.7915423,41.6536688],[33.7886958,41.648216],[33.7833777,41.645031],[33.7805191,41.6374069],[33.7971385,41.6305089],[33.7984524,41.6285965],[33.7851064,41.6249266],[33.7684413,41.6287516],[33.7618721,41.6271493],[33.7579081,41.6222911],[33.7537816,41.6223938],[33.7555937,41.6184219],[33.7483187,41.6108137],[33.7487384,41.6089259],[33.766015,41.6036803],[33.7697319,41.5953481],[33.7612996,41.5903036],[33.7598985,41.5860861],[33.7546805,41.5816992],[33.7495634,41.5807681],[33.7463825,41.5819578],[33.74653,41.5769537],[33.7381537,41.5737848],[33.7392454,41.5689348],[33.7315088,41.5689746],[33.7327401,41.5661279],[33.7310088,41.5649685],[33.7225122,41.5639074],[33.7172379,41.5648951]]]}},{"type":"Feature","properties":{"code":"37-10","provinceCode":"37","name":"Doğanyurt"},"geometry":{"type":"Polygon","coordinates":[[[33.4774934,41.8741587],[33.4795854,41.8824945],[33.4871895,41.8910218],[33.5267722,41.8971801],[33.5383761,41.8956939],[33.5437139,41.8996835],[33.5576519,41.8981148],[33.5613029,41.9019863],[33.5729048,41.9089595],[33.5674876,41.9335265],[33.5705367,41.94052],[33.571299,41.956961],[33.5814626,41.96074],[33.5834953,41.9652744],[33.5817166,41.9745313],[33.5707908,41.9864309],[33.5714003,41.9906922],[33.551149,41.997382],[33.542884,41.996652],[33.533966,42.000031],[33.520888,41.999963],[33.515405,42.002811],[33.513676,42.001792],[33.507494,42.00336],[33.506451,42.002081],[33.498204,42.003528],[33.495785,42.002384],[33.492356,42.003939],[33.4650431,42.0058689],[33.4615927,42.0067546],[33.4612434,42.0087276],[33.460431,42.0072022],[33.4583681,42.0082493],[33.4582179,42.0098915],[33.4625309,42.0095886],[33.455879,42.0109916],[33.4494675,42.009579],[33.4428328,42.0121076],[33.4306025,42.0084738],[33.4260534,42.0091267],[33.4183287,42.0077563],[33.412622,42.0086325],[33.4044466,42.0138619],[33.3978591,42.011598],[33.396164,42.0148503],[33.392881,42.0141648],[33.3909484,42.0162616],[33.3829662,42.0152493],[33.3789643,42.0179192],[33.3725341,42.0156435],[33.3760495,42.0095044],[33.372465,42.0024823],[33.3617116,41.9915845],[33.3320581,41.9775356],[33.334665,41.9717214],[33.3424857,41.9668758],[33.3450926,41.9610606],[33.3457443,41.9482168],[33.3509581,41.9300372],[33.3326867,41.9122492],[33.339214,41.9080593],[33.3459214,41.908618],[33.3565778,41.9042386],[33.3601269,41.8989054],[33.3712008,41.8920528],[33.3982432,41.8921269],[33.4037208,41.8896373],[33.4427076,41.8847632],[33.4498073,41.8787997],[33.4548852,41.8786572],[33.4599883,41.8765109],[33.466891,41.8775526],[33.4774934,41.8741587]]]}},{"type":"Feature","properties":{"code":"37-11","provinceCode":"37","name":"Hanönü"},"geometry":{"type":"Polygon","coordinates":[[[34.3253775,41.7418973],[34.3102017,41.7142169],[34.3034891,41.7062961],[34.2976426,41.7030628],[34.3026229,41.6883494],[34.300241,41.6799403],[34.3006741,41.6731475],[34.2909299,41.6658687],[34.2775047,41.6610157],[34.2785873,41.6498524],[34.2701424,41.6435418],[34.2697093,41.6322137],[34.276855,41.6137607],[34.3008906,41.5998366],[34.3043552,41.596436],[34.3047883,41.5862333],[34.3004576,41.5748951],[34.3037056,41.5711692],[34.3164813,41.5698732],[34.3335877,41.565013],[34.3400838,41.5552915],[34.3628202,41.5481614],[34.3790605,41.5449202],[34.3996315,41.5329264],[34.4108914,41.5303328],[34.4256159,41.5217409],[34.4419714,41.5045335],[34.4647023,41.5105955],[34.4905056,41.5285094],[34.5075621,41.5353256],[34.5252656,41.5393375],[34.5384356,41.5441362],[34.5477605,41.559273],[34.5596468,41.5692106],[34.5609739,41.5759227],[34.5690393,41.5821226],[34.5678972,41.5903366],[34.5793301,41.6036445],[34.5879702,41.6043182],[34.5991684,41.6120351],[34.5956212,41.6322152],[34.6067604,41.6543948],[34.6063384,41.6689131],[34.6043332,41.673765],[34.597332,41.679292],[34.5794251,41.6877429],[34.5508196,41.7036688],[34.5255041,41.7316645],[34.5127724,41.7364797],[34.4756268,41.7286856],[34.4585399,41.7281628],[34.4387007,41.7313677],[34.4084049,41.7387161],[34.3839446,41.740635],[34.3727745,41.7370105],[34.3356546,41.7405278],[34.3253775,41.7418973]]]}},{"type":"Feature","properties":{"code":"37-12","provinceCode":"37","name":"İhsangazi"},"geometry":{"type":"Polygon","coordinates":[[[33.6852646,41.0491633],[33.6822721,41.0589112],[33.6855953,41.0667414],[33.6889185,41.0886608],[33.6951495,41.1008699],[33.6930725,41.1033741],[33.6752104,41.1115119],[33.6677332,41.1255943],[33.66441,41.1277846],[33.6444709,41.1334165],[33.6390707,41.1362322],[33.6357475,41.1424891],[33.6381627,41.1454532],[33.6384772,41.1505381],[33.6332045,41.156846],[33.6328961,41.1638245],[33.6394861,41.1800175],[33.6611788,41.1954645],[33.6625911,41.2178347],[33.6666688,41.2241917],[33.6675961,41.2299826],[33.6566649,41.2393303],[33.6532407,41.2507075],[33.6428093,41.2615677],[33.6170606,41.2761482],[33.6018764,41.2741529],[33.5932254,41.2756487],[33.5743156,41.2741817],[33.5700456,41.2768406],[33.5686747,41.2931602],[33.5597129,41.3087098],[33.5511358,41.3084646],[33.5419886,41.3036549],[33.531982,41.3057153],[33.52393,41.3026909],[33.5206193,41.2992872],[33.5173479,41.2910691],[33.5054866,41.2774693],[33.4950781,41.2727273],[33.4730224,41.2543629],[33.462984,41.2284469],[33.4740404,41.2097058],[33.4709865,41.2005155],[33.4730224,41.1915791],[33.4709865,41.1821308],[33.4728249,41.1775539],[33.48291,41.1682275],[33.4720689,41.1574882],[33.4596579,41.153943],[33.4490126,41.153821],[33.4372446,41.1584307],[33.428047,41.1459039],[33.4149901,41.1378383],[33.4219041,41.1275794],[33.423599,41.115372],[33.4345685,41.1143646],[33.4424838,41.1200446],[33.4596509,41.1091312],[33.4628713,41.1037361],[33.4651521,41.0939071],[33.4600554,41.0901885],[33.4511308,41.0721615],[33.4461213,41.0681638],[33.4539265,41.0547654],[33.4645582,41.0551074],[33.473061,41.0506591],[33.4935606,41.0558148],[33.5150979,41.0462312],[33.5254899,41.0456111],[33.5232416,41.0345608],[33.5281278,41.0278033],[33.5417005,41.025141],[33.5631454,41.0271889],[33.5738663,41.0244704],[33.618387,41.0221589],[33.6319038,41.0230038],[33.6557706,41.0310081],[33.6852646,41.0491633]]]}},{"type":"Feature","properties":{"code":"37-13","provinceCode":"37","name":"İnebolu"},"geometry":{"type":"Polygon","coordinates":[[[33.9128883,41.8542825],[33.9187953,41.8574961],[33.920385,41.8613724],[33.9298676,41.8615901],[33.9322493,41.86632],[33.9290737,41.8808032],[33.918753,41.8881914],[33.9151805,41.8935103],[33.9235164,41.9094645],[33.918753,41.9180308],[33.9235164,41.9330929],[33.918356,41.9389987],[33.9186131,41.9503494],[33.9152083,41.960085],[33.913662,41.9729215],[33.9083312,41.9739355],[33.9043644,41.9720136],[33.8946746,41.971543],[33.89232,41.9725406],[33.8924626,41.9742636],[33.8918476,41.9726069],[33.8891379,41.9733424],[33.8886565,41.9743828],[33.8916426,41.9756419],[33.8946821,41.9750124],[33.8916069,41.9759534],[33.8813296,41.9734816],[33.8548474,41.9747539],[33.8295283,41.9723954],[33.8123513,41.9762192],[33.8062007,41.9748607],[33.8039276,41.9764577],[33.8016457,41.9754372],[33.7979108,41.9767294],[33.7918939,41.9734557],[33.7838892,41.9731244],[33.7716594,41.9758149],[33.7697607,41.9775445],[33.7705536,41.9789677],[33.7672409,41.9782078],[33.7647511,41.9810589],[33.7730086,41.9800621],[33.7772907,41.9820021],[33.7715208,41.9809126],[33.7675392,41.9819342],[33.7528101,41.9778366],[33.7334444,41.9777876],[33.7166873,41.9805237],[33.6799724,41.9804836],[33.6631747,41.9840426],[33.6244769,41.9852209],[33.6204885,41.9869983],[33.6203608,41.9855272],[33.6183738,41.9856416],[33.6167527,41.9873748],[33.6214678,41.9879964],[33.617499,41.9882703],[33.61505,41.986534],[33.583416,41.988624],[33.577931,41.990833],[33.5714003,41.9906922],[33.5707908,41.9864309],[33.5817166,41.9745313],[33.5834953,41.9652744],[33.5814626,41.96074],[33.571299,41.956961],[33.5705367,41.94052],[33.5674876,41.9335265],[33.5729048,41.9089595],[33.5867592,41.906724],[33.5916676,41.8996313],[33.6074918,41.8939997],[33.614542,41.9060434],[33.6317501,41.9132826],[33.6449806,41.9152224],[33.6579458,41.9131714],[33.6699134,41.9001836],[33.6720869,41.8938702],[33.6833613,41.889038],[33.6850292,41.8849145],[33.6827662,41.8789829],[33.685024,41.8761731],[33.6922582,41.874158],[33.6971526,41.8763907],[33.7081121,41.8763907],[33.7199681,41.873609],[33.721796,41.8649783],[33.7368991,41.8606121],[33.7396171,41.854824],[33.7468738,41.8509998],[33.7618269,41.8521646],[33.7678663,41.8442184],[33.7750623,41.8384598],[33.7833932,41.8349777],[33.7941108,41.8346819],[33.8020498,41.8317243],[33.808401,41.8264002],[33.8340995,41.8141538],[33.8421676,41.8065531],[33.8431707,41.8036911],[33.8537937,41.8018179],[33.8733356,41.8084237],[33.8844097,41.8277653],[33.8815783,41.8366777],[33.8811314,41.8554272],[33.893395,41.851834],[33.9128883,41.8542825]]]}},{"type":"Feature","properties":{"code":"37-14","provinceCode":"37","name":"Kastamonu merkez"},"geometry":{"type":"Polygon","coordinates":[[[33.4954174,41.3474066],[33.4998286,41.343076],[33.499145,41.3353979],[33.5012305,41.3321791],[33.5123834,41.3290633],[33.5262954,41.3402737],[33.5334211,41.3428213],[33.5405468,41.343076],[33.5602273,41.3285537],[33.5616881,41.3183948],[33.5597129,41.3087098],[33.5686747,41.2931602],[33.5700456,41.2768406],[33.5743156,41.2741817],[33.5932254,41.2756487],[33.6018764,41.2741529],[33.6170606,41.2761482],[33.6428093,41.2615677],[33.6532407,41.2507075],[33.6566649,41.2393303],[33.6675961,41.2299826],[33.6666688,41.2241917],[33.6625911,41.2178347],[33.6611788,41.1954645],[33.6394861,41.1800175],[33.6328961,41.1638245],[33.6332045,41.156846],[33.6384772,41.1505381],[33.6381627,41.1454532],[33.6357475,41.1424891],[33.6390707,41.1362322],[33.6444709,41.1334165],[33.66441,41.1277846],[33.6677332,41.1255943],[33.6752104,41.1115119],[33.6930725,41.1033741],[33.6951495,41.1008699],[33.6889185,41.0886608],[33.6855953,41.0667414],[33.6822721,41.0589112],[33.6852646,41.0491633],[33.6966626,41.0538783],[33.7236132,41.0542641],[33.7398625,41.0650633],[33.7618383,41.0692828],[33.7709881,41.0809946],[33.7786806,41.0853222],[33.7922196,41.0855478],[33.8174865,41.0829068],[33.8349678,41.0891662],[33.8515,41.0818],[33.8614,41.0894],[33.8655,41.0907],[33.8633,41.0984],[33.8684,41.1072],[33.9075,41.1171],[33.9117,41.1201],[33.9369,41.1211],[33.9443,41.124],[33.956,41.1158],[33.9819,41.1129],[33.9939,41.1171],[33.9993,41.1233],[34.0171,41.1263],[34.0281,41.1249],[34.0346,41.1266],[34.0406,41.1244],[34.0418,41.1262],[34.0494,41.126],[34.0482,41.1286],[34.0415,41.133],[34.0405,41.143],[34.0363,41.1466],[34.0362,41.1511],[34.0332,41.1546],[34.0322,41.161],[34.0372,41.1723],[34.036,41.1746],[34.0458,41.1723],[34.0483,41.1809],[34.0506,41.1823],[34.0592,41.1785],[34.066,41.1805],[34.0794,41.1787],[34.078,41.1757],[34.0904,41.1753],[34.1043,41.1781],[34.1115,41.1827],[34.0892234,41.2028601],[34.0864898,41.20826],[34.1106372,41.2236932],[34.1158907,41.2308367],[34.1173314,41.2511842],[34.1254859,41.2577695],[34.1383341,41.2575875],[34.1480763,41.2610255],[34.1440864,41.2683359],[34.1535625,41.2893251],[34.1587993,41.2898873],[34.1575524,41.2955082],[34.1607942,41.3020653],[34.1490785,41.3035533],[34.1231392,41.3179871],[34.1126657,41.3181744],[34.1079276,41.3159268],[34.087978,41.3183616],[34.0867311,41.323231],[34.0912198,41.3299726],[34.0702726,41.3325942],[34.0543129,41.3400837],[34.0393507,41.3449515],[34.030124,41.351878],[34.0208972,41.3543115],[34.0114211,41.3642317],[33.995212,41.3702205],[33.9710231,41.3739632],[33.9630432,41.3793898],[33.9617964,41.3868739],[33.9550634,41.3943572],[33.9585545,41.4012785],[33.9546668,41.4080244],[33.9566006,41.411592],[33.9505747,41.4192331],[33.9445898,41.4231599],[33.9435923,41.4272736],[33.9351137,41.431013],[33.9580558,41.4399868],[33.9710231,41.4478378],[33.9857559,41.4641649],[33.9893535,41.4805208],[33.9733038,41.4842372],[33.9636669,41.4839775],[33.949083,41.4871286],[33.9393677,41.4894384],[33.9371658,41.4919499],[33.9291078,41.494519],[33.9337795,41.5150003],[33.9329278,41.5175112],[33.9205659,41.5280983],[33.9215283,41.5312143],[33.9196611,41.5334764],[33.9211589,41.5387508],[33.9170959,41.5428136],[33.9163154,41.5473063],[33.9031491,41.5510617],[33.8934445,41.5489656],[33.8862323,41.5463089],[33.8822479,41.5370215],[33.8763984,41.5341664],[33.8624166,41.5329545],[33.8513959,41.5267677],[33.8465282,41.5320628],[33.8376106,41.5328514],[33.8283838,41.5307261],[33.8153717,41.5333827],[33.8085107,41.5372788],[33.7973579,41.5378836],[33.792872,41.5414775],[33.7831924,41.5397179],[33.7726831,41.5338181],[33.7679816,41.5355777],[33.7584403,41.5438579],[33.7509732,41.5460313],[33.7247,41.5450998],[33.7172379,41.5648951],[33.7149691,41.5617694],[33.7038624,41.5578317],[33.6907924,41.5583205],[33.6649879,41.5529727],[33.6455456,41.5518523],[33.632181,41.5532261],[33.6155191,41.558387],[33.608659,41.5670405],[33.5983586,41.5719466],[33.5979072,41.5796497],[33.5885895,41.5755636],[33.570958,41.5590823],[33.5647633,41.5585773],[33.5545715,41.5634999],[33.546177,41.5606545],[33.5467243,41.5550902],[33.5500054,41.5501026],[33.5484917,41.5463653],[33.5419775,41.5413902],[33.5431802,41.5338236],[33.5510783,41.5326229],[33.5565331,41.5338292],[33.5810589,41.5249229],[33.5830243,41.5212976],[33.5770082,41.5112248],[33.5784561,41.5058035],[33.5864194,41.501195],[33.6081377,41.5009239],[33.6103095,41.4987551],[33.6081377,41.4919771],[33.6121918,41.4837884],[33.5878673,41.4712049],[33.5667282,41.4551466],[33.5505119,41.4375648],[33.5473265,41.4297491],[33.5508015,41.4060792],[33.5479057,41.391091],[33.541535,41.3878323],[33.5238708,41.3826179],[33.5067857,41.3665377],[33.50389,41.3584962],[33.4954174,41.3474066]]]}},{"type":"Feature","properties":{"code":"37-15","provinceCode":"37","name":"Küre"},"geometry":{"type":"Polygon","coordinates":[[[33.5001691,41.8328939],[33.5118304,41.8240149],[33.5256999,41.8193962],[33.544745,41.817547],[33.5549632,41.8146271],[33.5601673,41.8063504],[33.5600586,41.7997901],[33.5677782,41.7747421],[33.5673526,41.765122],[33.5787712,41.7653848],[33.6011638,41.7559112],[33.6022845,41.7517818],[33.6245137,41.751525],[33.6311381,41.7471123],[33.6346868,41.7375798],[33.6413112,41.7328131],[33.6633135,41.7253974],[33.6902842,41.7261037],[33.7160719,41.7238083],[33.7323962,41.7264569],[33.7420139,41.7331476],[33.7587007,41.7347943],[33.7729356,41.7339367],[33.7974498,41.7464631],[33.8102324,41.7511719],[33.8160017,41.7598848],[33.8263202,41.765467],[33.8391938,41.7757881],[33.8358762,41.7862762],[33.8428859,41.7931515],[33.840885,41.7997132],[33.8431707,41.8036911],[33.8421676,41.8065531],[33.8340995,41.8141538],[33.808401,41.8264002],[33.8020498,41.8317243],[33.7941108,41.8346819],[33.7833932,41.8349777],[33.7750623,41.8384598],[33.7678663,41.8442184],[33.7618269,41.8521646],[33.7468738,41.8509998],[33.7396171,41.854824],[33.7368991,41.8606121],[33.721796,41.8649783],[33.7199681,41.873609],[33.7081121,41.8763907],[33.6971526,41.8763907],[33.6922582,41.874158],[33.685024,41.8761731],[33.6827662,41.8789829],[33.6850292,41.8849145],[33.6833613,41.889038],[33.6720869,41.8938702],[33.6699134,41.9001836],[33.6579458,41.9131714],[33.6449806,41.9152224],[33.6317501,41.9132826],[33.614542,41.9060434],[33.6074918,41.8939997],[33.5916676,41.8996313],[33.5867592,41.906724],[33.5729048,41.9089595],[33.5613029,41.9019863],[33.5576519,41.8981148],[33.5437139,41.8996835],[33.5383761,41.8956939],[33.5267722,41.8971801],[33.4871895,41.8910218],[33.4795854,41.8824945],[33.4774934,41.8741587],[33.4797827,41.8701061],[33.4788625,41.8625015],[33.485653,41.8588063],[33.5000696,41.855432],[33.5056747,41.8520812],[33.5122695,41.8520455],[33.5082896,41.846236],[33.5016504,41.8411294],[33.5001691,41.8328939]]]}},{"type":"Feature","properties":{"code":"37-16","provinceCode":"37","name":"Pınarbaşı"},"geometry":{"type":"Polygon","coordinates":[[[32.8748333,41.575564],[32.8894955,41.5773606],[32.898387,41.5710408],[32.8984251,41.5637408],[32.903294,41.5610722],[32.9123914,41.5598015],[32.9226084,41.5604876],[32.9318324,41.5653099],[32.9380078,41.5748339],[32.9567583,41.5862025],[32.9734091,41.5848451],[32.9795297,41.5873962],[32.9909658,41.5878589],[32.9962874,41.5855335],[32.9872677,41.5754399],[32.9877099,41.5727846],[32.9893828,41.5705275],[32.9953761,41.5705767],[33.002662,41.568402],[33.0052127,41.5683742],[33.0077315,41.5739471],[33.0158229,41.5786781],[33.0255037,41.5789247],[33.0394359,41.5817129],[33.0439238,41.5852756],[33.0470898,41.5850604],[33.0540714,41.5618782],[33.0509378,41.5547525],[33.0553341,41.5498587],[33.0588636,41.536908],[33.0533017,41.5227828],[33.0392853,41.5128326],[33.0526119,41.5062312],[33.0629568,41.5146088],[33.0851145,41.5227084],[33.0960065,41.5252379],[33.1017851,41.5251739],[33.1041514,41.5298719],[33.1109037,41.5335481],[33.116724,41.5396563],[33.1363472,41.5476281],[33.158216,41.5433282],[33.1523013,41.5383768],[33.1947057,41.5543533],[33.2084215,41.5623928],[33.2127648,41.5675239],[33.2159671,41.5777516],[33.2160698,41.5890564],[33.2075071,41.6118055],[33.2082328,41.6175961],[33.2188372,41.6277383],[33.2142991,41.6342864],[33.2167222,41.6416215],[33.2229114,41.6490175],[33.2233597,41.6553589],[33.2193051,41.6554754],[33.2101041,41.6590874],[33.207453,41.6635146],[33.1875465,41.66354],[33.1661267,41.6667766],[33.165191,41.670155],[33.1609804,41.6708539],[33.1426691,41.6573985],[33.1394256,41.6601144],[33.1402988,41.6698057],[33.1466877,41.6789189],[33.1490152,41.6857755],[33.1473269,41.6896832],[33.1359947,41.6874883],[33.1313162,41.6892351],[33.1330317,41.6970372],[33.1372423,41.6997154],[33.1391137,41.711358],[33.1356173,41.7215412],[33.1237216,41.7289998],[33.0879641,41.7352514],[33.0671618,41.7417333],[33.0456738,41.7454857],[33.0205425,41.7463598],[32.9979686,41.7461466],[32.9557583,41.7390937],[32.9405795,41.7333621],[32.9311438,41.728031],[32.9389811,41.7149626],[32.9369801,41.7077428],[32.9303837,41.7030378],[32.9187622,41.6989211],[32.9204717,41.6899386],[32.914235,41.6817141],[32.9159695,41.6717558],[32.9028059,41.6525405],[32.9032474,41.6391966],[32.9066448,41.6281143],[32.9017455,41.6208586],[32.8721514,41.5984015],[32.8699055,41.5891701],[32.8769703,41.5787661],[32.8748333,41.575564]]]}},{"type":"Feature","properties":{"code":"37-17","provinceCode":"37","name":"Seydiler"},"geometry":{"type":"Polygon","coordinates":[[[33.5979072,41.5796497],[33.5983586,41.5719466],[33.608659,41.5670405],[33.6155191,41.558387],[33.632181,41.5532261],[33.6455456,41.5518523],[33.6649879,41.5529727],[33.6907924,41.5583205],[33.7038624,41.5578317],[33.7149691,41.5617694],[33.7172379,41.5648951],[33.7225122,41.5639074],[33.7310088,41.5649685],[33.7327401,41.5661279],[33.7315088,41.5689746],[33.7392454,41.5689348],[33.7381537,41.5737848],[33.74653,41.5769537],[33.7463825,41.5819578],[33.7495634,41.5807681],[33.7546805,41.5816992],[33.7598985,41.5860861],[33.7612996,41.5903036],[33.7697319,41.5953481],[33.766015,41.6036803],[33.7487384,41.6089259],[33.7483187,41.6108137],[33.7555937,41.6184219],[33.7537816,41.6223938],[33.7579081,41.6222911],[33.7618721,41.6271493],[33.7684413,41.6287516],[33.7851064,41.6249266],[33.7984524,41.6285965],[33.7971385,41.6305089],[33.7805191,41.6374069],[33.7833777,41.645031],[33.7886958,41.648216],[33.7915423,41.6536688],[33.7972768,41.6556749],[33.7995952,41.6600691],[33.7964064,41.6661626],[33.7856374,41.6677534],[33.7759632,41.6733272],[33.77349,41.6814685],[33.7761112,41.6891788],[33.7911506,41.7060849],[33.7881668,41.722199],[33.7729356,41.7339367],[33.7587007,41.7347943],[33.7420139,41.7331476],[33.7323962,41.7264569],[33.7160719,41.7238083],[33.6902842,41.7261037],[33.6633135,41.7253974],[33.6649696,41.7176278],[33.6737233,41.71127],[33.6921768,41.7065013],[33.7067723,41.7056729],[33.7047009,41.699885],[33.6923969,41.6984172],[33.6891012,41.694843],[33.6643363,41.6902332],[33.6443093,41.6832703],[33.6357306,41.6781245],[33.6257362,41.6766965],[33.6138408,41.6775869],[33.6121737,41.6755656],[33.6146727,41.6629112],[33.6070726,41.6533634],[33.6035205,41.6523655],[33.6025141,41.6460036],[33.6080914,41.6430475],[33.6131846,41.6424569],[33.6187693,41.6373325],[33.6193331,41.634567],[33.612285,41.6306688],[33.6064936,41.6306078],[33.6038441,41.6273427],[33.6084592,41.6108068],[33.5960828,41.5910181],[33.5987877,41.5848137],[33.5979072,41.5796497]]]}},{"type":"Feature","properties":{"code":"37-18","provinceCode":"37","name":"Şenpazar"},"geometry":{"type":"Polygon","coordinates":[[[33.3601269,41.8989054],[33.3565778,41.9042386],[33.3459214,41.908618],[33.339214,41.9080593],[33.3326867,41.9122492],[33.3314064,41.9203393],[33.3248891,41.9220365],[33.3177201,41.918157],[33.2936063,41.8985136],[33.2665597,41.8873554],[33.249289,41.8856572],[33.2131183,41.8890535],[33.1987803,41.8842016],[33.1981286,41.8774084],[33.2026907,41.8640624],[33.1798803,41.8589659],[33.1551147,41.8414892],[33.1384957,41.8342058],[33.1000081,41.8248187],[33.1008423,41.8182912],[33.1068903,41.8098976],[33.1077245,41.7969942],[33.1131469,41.7836218],[33.1273284,41.7629356],[33.1306653,41.7548459],[33.1267028,41.7511119],[33.1125212,41.7462884],[33.1091844,41.7391304],[33.1237216,41.7289998],[33.1438633,41.7293424],[33.1539487,41.7313516],[33.1721357,41.739138],[33.1795868,41.7438387],[33.1914787,41.745455],[33.1982996,41.7489472],[33.21015,41.7510138],[33.2179603,41.7570616],[33.2413702,41.7563974],[33.2674612,41.7583552],[33.2816082,41.7634078],[33.3048194,41.7631282],[33.3075604,41.7668022],[33.3060596,41.7753418],[33.3138404,41.78003],[33.3208559,41.7945404],[33.3204182,41.8054821],[33.3286132,41.8131354],[33.3282643,41.8187389],[33.3312211,41.8283385],[33.3268425,41.8342122],[33.3097136,41.8473699],[33.3090422,41.854475],[33.3146711,41.8603039],[33.3245586,41.8643407],[33.3344896,41.870791],[33.3423848,41.8790615],[33.3461596,41.8878297],[33.3601269,41.8989054]]]}},{"type":"Feature","properties":{"code":"37-19","provinceCode":"37","name":"Taşköprü"},"geometry":{"type":"Polygon","coordinates":[[[33.9163154,41.5473063],[33.9170959,41.5428136],[33.9211589,41.5387508],[33.9196611,41.5334764],[33.9215283,41.5312143],[33.9205659,41.5280983],[33.9329278,41.5175112],[33.9337795,41.5150003],[33.9291078,41.494519],[33.9371658,41.4919499],[33.9393677,41.4894384],[33.949083,41.4871286],[33.9636669,41.4839775],[33.9733038,41.4842372],[33.9893535,41.4805208],[33.9857559,41.4641649],[33.9710231,41.4478378],[33.9580558,41.4399868],[33.9351137,41.431013],[33.9435923,41.4272736],[33.9445898,41.4231599],[33.9505747,41.4192331],[33.9566006,41.411592],[33.9546668,41.4080244],[33.9585545,41.4012785],[33.9550634,41.3943572],[33.9617964,41.3868739],[33.9630432,41.3793898],[33.9710231,41.3739632],[33.995212,41.3702205],[34.0114211,41.3642317],[34.0208972,41.3543115],[34.030124,41.351878],[34.0393507,41.3449515],[34.0543129,41.3400837],[34.0702726,41.3325942],[34.0912198,41.3299726],[34.0867311,41.323231],[34.087978,41.3183616],[34.1079276,41.3159268],[34.1126657,41.3181744],[34.1231392,41.3179871],[34.1490785,41.3035533],[34.1607942,41.3020653],[34.1575524,41.2955082],[34.1587993,41.2898873],[34.1535625,41.2893251],[34.1440864,41.2683359],[34.1480763,41.2610255],[34.1383341,41.2575875],[34.1254859,41.2577695],[34.1173314,41.2511842],[34.1158907,41.2308367],[34.1106372,41.2236932],[34.0864898,41.20826],[34.0892234,41.2028601],[34.1115,41.1827],[34.1136,41.1732],[34.1186,41.1699],[34.1284,41.1688],[34.1297,41.1735],[34.1378,41.1785],[34.1459,41.1785],[34.1532,41.1819],[34.1604,41.1774],[34.1637,41.1781],[34.1654,41.1803],[34.1762,41.1814],[34.1771,41.1736],[34.1867,41.1721],[34.1975,41.1745],[34.2003,41.1783],[34.2078,41.1768],[34.2176,41.1825],[34.2410393,41.1915214],[34.2439684,41.1994166],[34.2606315,41.2089787],[34.2938318,41.2126978],[34.292327,41.2235659],[34.2942899,41.2289606],[34.2992142,41.2325482],[34.2993681,41.2399544],[34.3139871,41.2459712],[34.3216814,41.2531444],[34.3190653,41.2580033],[34.3109095,41.2642498],[34.3114091,41.2702832],[34.3205326,41.2729774],[34.3311122,41.2811089],[34.3354402,41.2865294],[34.3364019,41.2930334],[34.3573206,41.2942979],[34.3977152,41.2803862],[34.394349,41.2624664],[34.4001966,41.2578392],[34.4026588,41.2521705],[34.4094297,41.2555255],[34.412969,41.2655895],[34.4222021,41.2695221],[34.4231254,41.2790057],[34.4300502,41.2880254],[34.4446692,41.297275],[34.4608994,41.304785],[34.4602782,41.3092181],[34.4668848,41.3279043],[34.4809598,41.344316],[34.4833264,41.3509213],[34.474991,41.3617915],[34.4786677,41.3661681],[34.4814507,41.3802656],[34.4783077,41.3855007],[34.4743717,41.3883457],[34.4733898,41.3991251],[34.4625921,41.405008],[34.4604104,41.4116638],[34.455321,41.4132011],[34.449588,41.4252445],[34.4472376,41.4404779],[34.4531762,41.4511705],[34.4526852,41.4607746],[34.4308312,41.4905151],[34.4419714,41.5045335],[34.4256159,41.5217409],[34.4108914,41.5303328],[34.3996315,41.5329264],[34.3790605,41.5449202],[34.3628202,41.5481614],[34.3400838,41.5552915],[34.3335877,41.565013],[34.3164813,41.5698732],[34.3037056,41.5711692],[34.3004576,41.5748951],[34.3047883,41.5862333],[34.3043552,41.596436],[34.3008906,41.5998366],[34.276855,41.6137607],[34.2697093,41.6322137],[34.2701424,41.6435418],[34.2785873,41.6498524],[34.2775047,41.6610157],[34.2909299,41.6658687],[34.3006741,41.6731475],[34.300241,41.6799403],[34.3026229,41.6883494],[34.2976426,41.7030628],[34.3034891,41.7062961],[34.3102017,41.7142169],[34.3253775,41.7418973],[34.3099046,41.7465038],[34.2986065,41.7449873],[34.2843367,41.7378281],[34.2680043,41.7364595],[34.254442,41.7372493],[34.2437468,41.7425057],[34.2447563,41.7534766],[34.2214913,41.7432288],[34.1968559,41.7450436],[34.1478191,41.7321004],[34.1398001,41.7370528],[34.1190002,41.7283923],[34.1227502,41.7266335],[34.1217527,41.7102535],[34.1157678,41.6903313],[34.1095336,41.681206],[34.0910066,41.6728042],[34.0836672,41.6674034],[34.0775351,41.6583246],[34.0644819,41.6541972],[34.04236,41.6440605],[34.050109,41.6177502],[34.0492866,41.6143444],[34.0317299,41.5900682],[33.998813,41.5701088],[33.9163154,41.5473063]]]}},{"type":"Feature","properties":{"code":"37-20","provinceCode":"37","name":"Tosya"},"geometry":{"type":"Polygon","coordinates":[[[33.8042,40.9104],[33.8094,40.9098],[33.8063,40.9069],[33.8041,40.9074],[33.8042,40.9055],[33.8084,40.9025],[33.7982,40.8896],[33.7953,40.8825],[33.8132,40.8803],[33.8171,40.8704],[33.8274,40.8687],[33.8269,40.8647],[33.8317,40.8591],[33.8472,40.8494],[33.8485,40.8429],[33.8549,40.8421],[33.8648,40.845],[33.8796,40.8441],[33.8822,40.8408],[33.8918,40.8416],[33.9086,40.8502],[33.9246,40.8565],[33.9345,40.8587],[33.9438,40.856],[33.9514,40.8567],[33.9754,40.8491],[33.9757,40.8468],[33.9788,40.8462],[33.98,40.8438],[33.9848,40.8434],[33.9898,40.8469],[33.9927,40.8463],[33.9965,40.8437],[33.9994,40.8389],[33.9986,40.8276],[33.9951,40.8259],[34.0149,40.828],[34.0214,40.8239],[34.0339,40.8282],[34.055,40.8277],[34.0581,40.8216],[34.0664,40.8197],[34.0782,40.8223],[34.0895,40.8274],[34.0957,40.828],[34.0981,40.8303],[34.1232,40.8386],[34.1333,40.8363],[34.1755,40.8393],[34.1786,40.8377],[34.1824,40.8506],[34.1853,40.8529],[34.1846,40.8503],[34.1915,40.8508],[34.1936,40.8449],[34.1996,40.8462],[34.2104,40.8568],[34.2304,40.8599],[34.2364,40.8648],[34.2401,40.8658],[34.2383,40.8767],[34.2415,40.8815],[34.2367,40.8881],[34.2418,40.888],[34.2442,40.8922],[34.2463,40.8926],[34.25,40.9024],[34.2507,40.9114],[34.2537,40.9151],[34.2495,40.9212],[34.2487,40.9274],[34.255,40.9331],[34.2603,40.9411],[34.2591,40.9619],[34.2605,40.9673],[34.266,40.9698],[34.2674,40.9747],[34.2767,40.9772],[34.2779,40.9737],[34.2837,40.9737],[34.2961,40.9765],[34.3105,40.9726],[34.3218,40.9721],[34.3256,40.9691],[34.3422,40.9693],[34.357,40.9745],[34.3592,40.9777],[34.3652,40.9787],[34.3704,40.9835],[34.373,40.9947],[34.3656,40.9984],[34.363,41.0037],[34.3567,41.0068],[34.3536,41.0123],[34.3312,41.025],[34.3292,41.0289],[34.33,41.0333],[34.3244,41.034],[34.3225,41.0364],[34.3246,41.04],[34.323,41.0429],[34.3239,41.0515],[34.3198967,41.0624472],[34.3261,41.0638],[34.3273,41.0664],[34.3311,41.0673],[34.33,41.0724],[34.3263,41.0769],[34.3216,41.0797],[34.3091,41.0809],[34.3021,41.0872],[34.2935,41.0896],[34.2694,41.0774],[34.2567,41.074],[34.2418,41.0744],[34.2291,41.0814],[34.2202,41.0957],[34.2246,41.0982],[34.2229,41.1076],[34.231,41.1126],[34.2332,41.1187],[34.2258,41.1222],[34.2258,41.1286],[34.2216,41.1363],[34.2061,41.1427],[34.2054,41.1448],[34.2331,41.1496],[34.2324,41.1608],[34.2255,41.1653],[34.2291,41.1722],[34.2176,41.1825],[34.2078,41.1768],[34.2003,41.1783],[34.1975,41.1745],[34.1867,41.1721],[34.1771,41.1736],[34.1762,41.1814],[34.1654,41.1803],[34.1637,41.1781],[34.1604,41.1774],[34.1532,41.1819],[34.1459,41.1785],[34.1378,41.1785],[34.1297,41.1735],[34.1284,41.1688],[34.1186,41.1699],[34.1136,41.1732],[34.1115,41.1827],[34.1043,41.1781],[34.0904,41.1753],[34.078,41.1757],[34.0794,41.1787],[34.066,41.1805],[34.0592,41.1785],[34.0506,41.1823],[34.0483,41.1809],[34.0458,41.1723],[34.036,41.1746],[34.0372,41.1723],[34.0322,41.161],[34.0332,41.1546],[34.0362,41.1511],[34.0363,41.1466],[34.0405,41.143],[34.0415,41.133],[34.0482,41.1286],[34.0494,41.126],[34.0418,41.1262],[34.0406,41.1244],[34.0346,41.1266],[34.0281,41.1249],[34.0171,41.1263],[33.9993,41.1233],[33.9939,41.1171],[33.9819,41.1129],[33.956,41.1158],[33.9443,41.124],[33.9369,41.1211],[33.9117,41.1201],[33.9075,41.1171],[33.8684,41.1072],[33.8633,41.0984],[33.8655,41.0907],[33.8614,41.0894],[33.8515,41.0818],[33.8527,41.079],[33.8506,41.0772],[33.8525,41.0665],[33.8484,41.0606],[33.8509,41.0542],[33.8544,41.0532],[33.8532,41.0502],[33.8453,41.0443],[33.8442,41.0399],[33.8221,41.0343],[33.8238,41.0265],[33.8214,41.019],[33.8097,41.0107],[33.8152,40.9993],[33.8053,40.9967],[33.7974,40.9851],[33.7967,40.9786],[33.7747,40.9765],[33.7771,40.9745],[33.7761,40.9711],[33.7812,40.9693],[33.784,40.9654],[33.7764,40.9581],[33.7764,40.9475],[33.7713,40.9452],[33.7675,40.9384],[33.7799,40.9332],[33.7991,40.9184],[33.8042,40.9104]]]}}]}