{"type":"FeatureCollection","features":[{"type":"Feature","properties":{"code":"29-01","provinceCode":"29","name":"Doğankent"},"geometry":{"type":"Polygon","coordinates":[[[38.8805398,40.7911903],[38.8794962,40.7831197],[38.8852241,40.7591151],[38.8861385,40.741029],[38.8905519,40.7361955],[38.8962362,40.7342508],[38.8958929,40.7160378],[38.9005278,40.7121343],[38.9020727,40.7021144],[38.9120291,40.6943057],[38.9149473,40.6825908],[38.9111708,40.6747798],[38.9118574,40.6702229],[38.9077376,40.666447],[38.9109991,40.6631917],[38.9096258,40.6599363],[38.9109991,40.6552482],[38.9163206,40.6522528],[38.9183806,40.6381859],[38.9218138,40.6354503],[38.9264487,40.6350595],[38.9312552,40.629588],[38.9425848,40.6252886],[38.9453314,40.6226828],[38.9458464,40.6194254],[38.9343451,40.6131707],[38.9305685,40.6057425],[38.9532278,40.6009203],[38.957176,40.5975315],[38.9566611,40.5946639],[38.9645575,40.5895801],[38.9674757,40.5944032],[38.969879,40.5947942],[38.9691923,40.5998776],[38.9722822,40.6046999],[38.9697073,40.6159072],[38.9774321,40.6245069],[38.9774321,40.627764],[38.9743422,40.6302394],[38.969879,40.629588],[38.9657591,40.6327146],[38.9700506,40.6406609],[38.9695357,40.6538156],[38.9666174,40.6561598],[38.9673041,40.6585038],[38.9714239,40.6600665],[38.9707373,40.6635824],[38.9669607,40.6669678],[38.9588927,40.6667074],[38.9568327,40.6694417],[38.9604376,40.6728269],[38.9600943,40.6755609],[38.9503096,40.6814192],[38.9458464,40.6799873],[38.9393233,40.6825908],[38.9329718,40.6911819],[38.9338301,40.6939152],[38.9300535,40.6961278],[38.9355467,40.7012035],[38.9511679,40.7073198],[38.9455031,40.7114837],[38.9290236,40.7306086],[38.9295386,40.7369823],[38.9323771,40.7434831],[38.9437865,40.7508333],[38.944044,40.7550596],[38.9518168,40.7631246],[38.9517688,40.7677368],[38.9549445,40.7692318],[38.9596652,40.7680618],[38.9633559,40.7627962],[38.9673041,40.7637713],[38.9720248,40.7623411],[38.9789265,40.7627367],[38.9997922,40.7677461],[39.0082918,40.7607359],[39.0110777,40.7620811],[39.0179325,40.7727731],[39.0160559,40.7772919],[39.0177725,40.7811915],[39.0151976,40.784571],[39.0176008,40.7936687],[39.012451,40.7983471],[39.0136526,40.8087423],[39.0086978,40.8160223],[39.0034743,40.8193533],[38.9936194,40.8166053],[38.9851971,40.8195284],[38.9851059,40.8257841],[38.9754979,40.838517],[38.968068,40.8389513],[38.9435927,40.8500443],[38.933151,40.8471343],[38.9086955,40.8483815],[38.9045738,40.8469265],[38.8823166,40.8061733],[38.8805398,40.7911903]]]}},{"type":"Feature","properties":{"code":"29-02","provinceCode":"29","name":"Gümüşhane merkez"},"geometry":{"type":"Polygon","coordinates":[[[40.0396035,40.6512125],[40.0264548,40.6510806],[40.0169276,40.6489968],[39.9911784,40.6468478],[39.9915309,40.6271217],[39.997015,40.6224547],[39.9939465,40.6172427],[39.9960734,40.6107317],[40.0090723,40.5989173],[40.0019546,40.5812765],[40.0067433,40.5796608],[40.0158236,40.5793727],[40.0281462,40.5713293],[40.0348851,40.5640162],[40.0252982,40.5550658],[40.0187799,40.5530848],[40.0061444,40.5556753],[39.9963168,40.553161],[39.9846841,40.5475223],[39.9786672,40.5415784],[39.9730515,40.5323567],[39.9671348,40.5288506],[39.9611179,40.529689],[39.9469471,40.5445469],[39.936217,40.5517097],[39.9231803,40.5552146],[39.9194699,40.5588717],[39.9240829,40.5761641],[39.9195702,40.5931474],[39.9184671,40.6060153],[39.9057313,40.6044926],[39.8972074,40.6071573],[39.892093,40.6138567],[39.885675,40.6114968],[39.8791567,40.605254],[39.868928,40.6047972],[39.8632119,40.6073096],[39.8464649,40.6090606],[39.8423534,40.6114968],[39.8309213,40.638745],[39.8348322,40.646126],[39.8281134,40.6511476],[39.8240018,40.6583751],[39.8286148,40.6656778],[39.8238013,40.6730558],[39.8391443,40.6939684],[39.8370384,40.6998988],[39.8456627,40.7132022],[39.8548886,40.7174587],[39.8533843,40.721867],[39.8555905,40.725287],[39.8515793,40.7298467],[39.8421528,40.734938],[39.8450077,40.7399311],[39.841522,40.7430145],[39.8326994,40.7452436],[39.8228817,40.7446746],[39.8155296,40.7377107],[39.8166976,40.727987],[39.7964165,40.7233698],[39.7867504,40.7238091],[39.7832205,40.7252683],[39.7715397,40.7254142],[39.7696143,40.7241982],[39.7692934,40.7200501],[39.7601746,40.7080323],[39.7650626,40.7022718],[39.7618035,40.6982804],[39.7611767,40.6911523],[39.7580429,40.6858295],[39.7555359,40.6749924],[39.7483908,40.6602551],[39.7487668,40.6552151],[39.7437528,40.6498894],[39.736357,40.6499845],[39.7309669,40.6448487],[39.7275824,40.6382856],[39.729588,40.631817],[39.7070246,40.6201149],[39.6789458,40.6304851],[39.6687923,40.6298192],[39.6538754,40.6240158],[39.6435965,40.6225887],[39.6321895,40.6271554],[39.6145148,40.6265846],[39.6036092,40.6246818],[39.5886923,40.6166895],[39.5840543,40.608601],[39.5790402,40.6048895],[39.5646247,40.6001309],[39.5732683,40.5820189],[39.5674233,40.5750428],[39.5535915,40.5745566],[39.5477999,40.5715957],[39.5421345,40.5658135],[39.5325737,40.5620766],[39.519826,40.5539707],[39.5166906,40.5542802],[39.5102658,40.5464644],[39.5068704,40.5449161],[39.5048613,40.540441],[39.500843,40.5401251],[39.4879536,40.5326551],[39.4745138,40.5341915],[39.4635989,40.5394395],[39.4540251,40.533869],[39.4407666,40.5324985],[39.4169742,40.5359218],[39.3881919,40.5489698],[39.3831653,40.558534],[39.3761711,40.5562208],[39.3740559,40.5525042],[39.3580286,40.5424353],[39.345775,40.5379204],[39.3310226,40.5282259],[39.3275603,40.523594],[39.3261784,40.5157147],[39.322195,40.5125514],[39.3223453,40.5092947],[39.329483,40.5023768],[39.3274218,40.4924258],[39.3305741,40.4878653],[39.3364088,40.4847075],[39.3411325,40.4772577],[39.3497019,40.4763847],[39.3570037,40.4677725],[39.3427055,40.4378958],[39.3407212,40.4293293],[39.3268025,40.4217535],[39.3191701,40.4141547],[39.3207334,40.405778],[39.3029266,40.3877757],[39.3069037,40.3803699],[39.2929457,40.3713767],[39.2884445,40.3661581],[39.2655472,40.3624302],[39.2641772,40.3399094],[39.2753324,40.3224544],[39.2786612,40.3122128],[39.2707807,40.2931825],[39.3342912,40.2971096],[39.3389513,40.2859104],[39.3604331,40.2934247],[39.4154124,40.2774523],[39.4353804,40.2819648],[39.4560375,40.2692228],[39.4605747,40.2430731],[39.5040691,40.2671527],[39.5761702,40.2942727],[39.6334391,40.2904518],[39.6932462,40.2898047],[39.7442094,40.295894],[39.7479198,40.2980027],[39.7570476,40.2965679],[39.7697289,40.2976307],[39.7853367,40.3077802],[39.802039,40.3063676],[39.8172463,40.3127054],[39.8265287,40.3462616],[39.8556565,40.380088],[39.8659009,40.4133034],[39.8872898,40.445044],[39.9209269,40.4760931],[39.9362126,40.4810275],[39.9622521,40.4894327],[40.0129674,40.5009743],[40.0686257,40.5025351],[40.0771102,40.5124853],[40.0841331,40.5183993],[40.0905704,40.5214659],[40.0967288,40.5281369],[40.0983381,40.5354759],[40.1033255,40.5414648],[40.0911712,40.5673503],[40.0903361,40.5736482],[40.0850218,40.5788511],[40.0752026,40.5844295],[40.0728488,40.5937212],[40.0765923,40.5999971],[40.0863894,40.6047039],[40.0902083,40.6098206],[40.0800991,40.6242462],[40.0774195,40.6320157],[40.0558462,40.6251776],[40.0438481,40.634007],[40.0396035,40.6512125]]]}},{"type":"Feature","properties":{"code":"29-03","provinceCode":"29","name":"Kelkit"},"geometry":{"type":"Polygon","coordinates":[[[39.3389513,40.2859104],[39.3377533,40.2380013],[39.32001,40.2254465],[39.2884181,40.2148722],[39.2741369,40.2029742],[39.2510413,40.1327808],[39.2354618,40.0990235],[39.2164202,40.0685614],[39.1856939,40.0768405],[39.154102,40.0347723],[39.0974312,39.9994786],[39.1073129,39.9895509],[39.1262045,39.9862421],[39.1228408,39.967062],[39.1377435,39.9523813],[39.140538,39.9493117],[39.1612488,39.9416085],[39.1794988,39.9372062],[39.2153838,39.9302879],[39.2492182,39.9290299],[39.2715694,39.9217963],[39.277311,39.9136181],[39.2857183,39.908113],[39.2914599,39.9010345],[39.2941257,39.8930112],[39.3043719,39.8903949],[39.3152465,39.8930112],[39.3726102,39.8849255],[39.4471407,39.8623058],[39.4693936,39.8589893],[39.4849822,39.8615403],[39.5088134,39.874124],[39.513075,39.8810552],[39.5243601,39.8792265],[39.5280442,39.8733443],[39.5407577,39.8665769],[39.5436285,39.8539846],[39.5434235,39.8409177],[39.5538814,39.8361941],[39.5864854,39.8371388],[39.5973534,39.8361941],[39.5612634,39.8788522],[39.5589335,39.8855779],[39.5919537,39.8917509],[39.6134962,39.897523],[39.6225583,39.8925501],[39.6326235,39.8652118],[39.6421829,39.8619321],[39.6531187,39.8626693],[39.6943284,39.8860244],[39.7713724,39.8894161],[39.798187,39.8970799],[39.8167176,39.9194755],[39.804707,39.9307085],[39.7539256,39.9687696],[39.7136222,39.9861102],[39.6908272,40.0024211],[39.6827124,40.0516116],[39.6702334,40.0633897],[39.6630441,40.096799],[39.6396491,40.1008958],[39.6185708,40.115405],[39.6149742,40.1458491],[39.5774682,40.1577057],[39.5637673,40.1814631],[39.5405812,40.1931374],[39.5147603,40.2108463],[39.4928467,40.2226049],[39.4605747,40.2430731],[39.4560375,40.2692228],[39.4353804,40.2819648],[39.4154124,40.2774523],[39.3604331,40.2934247],[39.3389513,40.2859104]]]}},{"type":"Feature","properties":{"code":"29-04","provinceCode":"29","name":"Köse"},"geometry":{"type":"Polygon","coordinates":[[[39.802039,40.3063676],[39.7853367,40.3077802],[39.7697289,40.2976307],[39.7570476,40.2965679],[39.7479198,40.2980027],[39.7442094,40.295894],[39.6932462,40.2898047],[39.6334391,40.2904518],[39.5761702,40.2942727],[39.5040691,40.2671527],[39.4605747,40.2430731],[39.4928467,40.2226049],[39.5147603,40.2108463],[39.5405812,40.1931374],[39.5637673,40.1814631],[39.5774682,40.1577057],[39.6149742,40.1458491],[39.6185708,40.115405],[39.6396491,40.1008958],[39.6630441,40.096799],[39.6848645,40.1125121],[39.6974037,40.1166085],[39.7209843,40.1380866],[39.7361009,40.1431205],[39.7499709,40.1544644],[39.7689125,40.1558199],[39.776151,40.1641324],[39.8141415,40.1794964],[39.836375,40.1931843],[39.8536483,40.2189508],[39.8492082,40.2766316],[39.8277007,40.2928477],[39.802039,40.3063676]]]}},{"type":"Feature","properties":{"code":"29-05","provinceCode":"29","name":"Kürtün"},"geometry":{"type":"Polygon","coordinates":[[[38.9305685,40.6057425],[38.9199255,40.6106947],[38.9056776,40.6099128],[38.8776968,40.6146041],[38.8653372,40.614995],[38.8593291,40.6126495],[38.8438795,40.613301],[38.8332956,40.6169102],[38.8222576,40.6121859],[38.8178386,40.6066692],[38.8117707,40.6055499],[38.8028139,40.5957089],[38.7978057,40.5939193],[38.7991794,40.5877501],[38.7724488,40.5495034],[38.7571959,40.5419238],[38.750523,40.529776],[38.7575989,40.5173072],[38.7549589,40.5088399],[38.7580299,40.5056869],[38.7675554,40.5037877],[38.7669752,40.4997032],[38.7811388,40.4978137],[38.8006209,40.5014001],[38.8117165,40.4978306],[38.8205336,40.4974841],[38.8295438,40.4903033],[38.8595278,40.4884692],[38.8741119,40.4825019],[38.8852499,40.4809038],[38.8829417,40.476644],[38.8837951,40.4717459],[38.8972662,40.4725469],[38.9080809,40.4686292],[38.9163243,40.472598],[38.9649008,40.4617074],[38.9814024,40.4559506],[39.0387638,40.5023052],[39.0481536,40.5208449],[39.0751831,40.563112],[39.0724552,40.5731165],[39.0827899,40.6028125],[39.089805,40.6100588],[39.1340779,40.6140255],[39.1488481,40.608008],[39.1797124,40.6037668],[39.1786964,40.6189315],[39.1811505,40.6426703],[39.211033,40.6498896],[39.2442345,40.6502962],[39.2560432,40.6547757],[39.2814318,40.6597027],[39.3044587,40.6722427],[39.3478597,40.6894652],[39.3408087,40.6912473],[39.332034,40.7007513],[39.3336009,40.7166673],[39.3283659,40.7236808],[39.2948985,40.7239114],[39.2662242,40.7198738],[39.2601133,40.7216551],[39.2414672,40.7220114],[39.2319091,40.7241489],[39.2254848,40.7318672],[39.2173369,40.732817],[39.2076222,40.733292],[39.202138,40.73721],[39.2008845,40.7465887],[39.197594,40.7518117],[39.1880359,40.7488441],[39.1778511,40.7492002],[39.1720535,40.7392283],[39.1582648,40.7274738],[39.1535641,40.7261676],[39.1474532,40.7309173],[39.1466697,40.7355256],[39.1500973,40.7396068],[39.149118,40.753518],[39.1422628,40.7696513],[39.1373719,40.7763645],[39.1293524,40.7770319],[39.1190527,40.7854808],[39.1073154,40.8006265],[39.1065249,40.8192412],[39.0948485,40.8209546],[39.0811156,40.8373207],[39.0764807,40.8293979],[39.0658916,40.8271581],[39.0593719,40.8215694],[39.0458682,40.8163155],[39.0291896,40.8244987],[39.0086978,40.8160223],[39.0136526,40.8087423],[39.012451,40.7983471],[39.0176008,40.7936687],[39.0151976,40.784571],[39.0177725,40.7811915],[39.0160559,40.7772919],[39.0179325,40.7727731],[39.0110777,40.7620811],[39.0082918,40.7607359],[38.9997922,40.7677461],[38.9789265,40.7627367],[38.9720248,40.7623411],[38.9673041,40.7637713],[38.9633559,40.7627962],[38.9596652,40.7680618],[38.9549445,40.7692318],[38.9517688,40.7677368],[38.9518168,40.7631246],[38.944044,40.7550596],[38.9437865,40.7508333],[38.9323771,40.7434831],[38.9295386,40.7369823],[38.9290236,40.7306086],[38.9455031,40.7114837],[38.9511679,40.7073198],[38.9355467,40.7012035],[38.9300535,40.6961278],[38.9338301,40.6939152],[38.9329718,40.6911819],[38.9393233,40.6825908],[38.9458464,40.6799873],[38.9503096,40.6814192],[38.9600943,40.6755609],[38.9604376,40.6728269],[38.9568327,40.6694417],[38.9588927,40.6667074],[38.9669607,40.6669678],[38.9707373,40.6635824],[38.9714239,40.6600665],[38.9673041,40.6585038],[38.9666174,40.6561598],[38.9695357,40.6538156],[38.9700506,40.6406609],[38.9657591,40.6327146],[38.969879,40.629588],[38.9743422,40.6302394],[38.9774321,40.627764],[38.9774321,40.6245069],[38.9697073,40.6159072],[38.9722822,40.6046999],[38.9691923,40.5998776],[38.969879,40.5947942],[38.9674757,40.5944032],[38.9645575,40.5895801],[38.9566611,40.5946639],[38.957176,40.5975315],[38.9532278,40.6009203],[38.9305685,40.6057425]]]}},{"type":"Feature","properties":{"code":"29-06","provinceCode":"29","name":"Şiran"},"geometry":{"type":"Polygon","coordinates":[[[39.2707807,40.2931825],[39.186247,40.2979962],[39.1388567,40.3358982],[39.1222093,40.34627],[39.0747478,40.361089],[39.0655781,40.3546858],[39.0440733,40.3470237],[39.0345953,40.3402641],[39.0313338,40.3346376],[39.0133382,40.3350078],[39.0052412,40.3229907],[38.982381,40.3052456],[38.9770718,40.2982956],[38.9659432,40.288917],[38.9489006,40.2647941],[38.9368725,40.2592268],[38.9362885,40.2560841],[38.9315985,40.2520185],[38.9153651,40.2500372],[38.9077039,40.2468296],[38.9046477,40.233281],[38.9099459,40.2293934],[38.9083992,40.2227251],[38.9009984,40.2145441],[38.8917731,40.2128341],[38.8916451,40.203727],[38.8775252,40.2018217],[38.8730954,40.1911854],[38.88216,40.1858243],[38.8802718,40.1799882],[38.8841324,40.1749703],[38.8818883,40.1706288],[38.8841342,40.1654942],[38.8822459,40.1616243],[38.8863658,40.1570325],[38.8869709,40.145699],[38.9055405,40.1472164],[38.9134462,40.1384275],[38.9208125,40.133325],[38.9232054,40.1196734],[38.9259322,40.1201909],[38.9279837,40.1177501],[38.9374733,40.1145008],[38.9443874,40.1156272],[38.9455031,40.1179245],[38.9480781,40.1179901],[38.9467048,40.116743],[38.9475631,40.1120169],[38.9540004,40.1068967],[38.9640426,40.1026951],[38.9608668,40.1011195],[38.9585685,40.1016818],[38.9576911,40.0975085],[38.9539275,40.0963587],[38.9503097,40.0906799],[38.9521121,40.0860834],[38.9363275,40.0865753],[38.9450958,40.0724143],[38.9565382,40.0630675],[38.9539366,40.0588931],[38.9570477,40.0557747],[38.9827549,40.0497974],[38.9927425,40.0506219],[38.9997308,40.0465058],[39.0135363,40.0436909],[39.0239969,40.0363665],[39.0263007,40.028665],[39.0442128,40.0251563],[39.0598387,40.0178961],[39.0891684,40.00984],[39.0974312,39.9994786],[39.154102,40.0347723],[39.1856939,40.0768405],[39.2164202,40.0685614],[39.2354618,40.0990235],[39.2510413,40.1327808],[39.2741369,40.2029742],[39.2884181,40.2148722],[39.32001,40.2254465],[39.3377533,40.2380013],[39.3389513,40.2859104],[39.3342912,40.2971096],[39.2707807,40.2931825]]]}},{"type":"Feature","properties":{"code":"29-07","provinceCode":"29","name":"Torul"},"geometry":{"type":"Polygon","coordinates":[[[39.3478597,40.6894652],[39.3044587,40.6722427],[39.2814318,40.6597027],[39.2560432,40.6547757],[39.2442345,40.6502962],[39.211033,40.6498896],[39.1811505,40.6426703],[39.1786964,40.6189315],[39.1797124,40.6037668],[39.1488481,40.608008],[39.1340779,40.6140255],[39.089805,40.6100588],[39.0827899,40.6028125],[39.0724552,40.5731165],[39.0751831,40.563112],[39.0481536,40.5208449],[39.0387638,40.5023052],[38.9814024,40.4559506],[39.002838,40.4447263],[39.0085028,40.4334904],[39.0102024,40.4244095],[39.0069578,40.4184626],[39.0073012,40.4128427],[39.012451,40.4093136],[39.0163992,40.3972874],[39.023609,40.3937575],[39.0273141,40.3860603],[39.0604495,40.382297],[39.0696849,40.3784936],[39.0747478,40.361089],[39.1222093,40.34627],[39.1388567,40.3358982],[39.186247,40.2979962],[39.2707807,40.2931825],[39.2786612,40.3122128],[39.2753324,40.3224544],[39.2641772,40.3399094],[39.2655472,40.3624302],[39.2884445,40.3661581],[39.2929457,40.3713767],[39.3069037,40.3803699],[39.3029266,40.3877757],[39.3207334,40.405778],[39.3191701,40.4141547],[39.3268025,40.4217535],[39.3407212,40.4293293],[39.3427055,40.4378958],[39.3570037,40.4677725],[39.3497019,40.4763847],[39.3411325,40.4772577],[39.3364088,40.4847075],[39.3305741,40.4878653],[39.3274218,40.4924258],[39.329483,40.5023768],[39.3223453,40.5092947],[39.322195,40.5125514],[39.3261784,40.5157147],[39.3275603,40.523594],[39.3310226,40.5282259],[39.345775,40.5379204],[39.3580286,40.5424353],[39.3740559,40.5525042],[39.3761711,40.5562208],[39.3831653,40.558534],[39.3881919,40.5489698],[39.4169742,40.5359218],[39.4407666,40.5324985],[39.4540251,40.533869],[39.4635989,40.5394395],[39.4745138,40.5341915],[39.4879536,40.5326551],[39.500843,40.5401251],[39.5048613,40.540441],[39.5068704,40.5449161],[39.5102658,40.5464644],[39.5166906,40.5542802],[39.519826,40.5539707],[39.5325737,40.5620766],[39.5421345,40.5658135],[39.5477999,40.5715957],[39.5535915,40.5745566],[39.5674233,40.5750428],[39.5732683,40.5820189],[39.5646247,40.6001309],[39.5484543,40.60803],[39.5073389,40.6085059],[39.483898,40.6155476],[39.4770037,40.6154525],[39.4533121,40.6232547],[39.4340393,40.6269414],[39.4249512,40.6334818],[39.4226009,40.6389514],[39.4222875,40.6506027],[39.41696,40.6583295],[39.4091255,40.6633217],[39.3986273,40.6654611],[39.378571,40.6653422],[39.3718333,40.6700962],[39.3661925,40.6829303],[39.3478597,40.6894652]]]}}]}