{"type":"FeatureCollection","features":[{"type":"Feature","properties":{"code":"13-01","provinceCode":"13","name":"Adilcevaz"},"geometry":{"type":"Polygon","coordinates":[[[43.0007683,39.0188218],[42.9649865,39.0240651],[42.9551522,39.0217444],[42.9358296,38.9973915],[42.9241002,38.9795444],[42.9253688,38.9469963],[42.909638,38.9307798],[42.7714972,38.9308058],[42.7445495,38.9372562],[42.7146572,38.935095],[42.6946398,38.9576246],[42.6885729,38.9546781],[42.6806334,38.9538438],[42.673874,38.9493381],[42.6751615,38.9425791],[42.6737667,38.940326],[42.6689386,38.9387404],[42.6650762,38.9333157],[42.6607845,38.9318134],[42.6611064,38.9275568],[42.6591751,38.9259709],[42.6581022,38.930478],[42.6523085,38.9370713],[42.6470512,38.9387404],[42.6415794,38.9364036],[42.6349273,38.9364036],[42.6325669,38.9353187],[42.6298846,38.9299773],[42.6258076,38.9296434],[42.6213014,38.9260544],[42.6169024,38.9253032],[42.6164732,38.9222147],[42.6141128,38.9202948],[42.6099285,38.9218809],[42.6048858,38.9206287],[42.6015598,38.925637],[42.5929765,38.9243015],[42.5917963,38.9197105],[42.5876119,38.9192097],[42.5872532,38.9107568],[42.5847889,38.9083015],[42.5980581,38.9044714],[42.5991382,38.87785],[42.5948178,38.8646758],[42.5955379,38.8576672],[42.6113791,38.8405634],[42.6857249,38.64163],[42.9287715,38.6238444],[42.9524425,38.6471904],[42.9762115,38.6760674],[42.9846415,38.6830254],[43.0021326,38.7024573],[43.0263675,38.7338524],[43.0410765,38.7452434],[43.0709766,38.7607993],[43.116309,38.7744104],[43.1346278,38.7826879],[43.1839392,38.8290688],[43.1877306,38.845488],[43.1882449,38.8623012],[43.196576,38.881538],[43.1991072,38.8954733],[43.1869294,38.9040396],[43.1598324,38.9159018],[43.083645,38.9203727],[43.0710976,38.9382958],[43.0603663,38.9632564],[43.035294,39.0016003],[43.0191007,39.0129045],[43.0007683,39.0188218]]]}},{"type":"Feature","properties":{"code":"13-02","provinceCode":"13","name":"Ahlat"},"geometry":{"type":"Polygon","coordinates":[[[42.131873,38.846065],[42.1190491,38.8361548],[42.1170004,38.8165588],[42.1093746,38.8112377],[42.1099437,38.8080449],[42.1140411,38.803344],[42.1121062,38.7908365],[42.1089193,38.7919898],[42.0997001,38.7899494],[42.0926434,38.7844488],[42.0883183,38.7784155],[42.0882045,38.7727366],[42.0917329,38.7689208],[42.0990172,38.7670572],[42.095375,38.7566735],[42.1107404,38.7631524],[42.1167727,38.7631524],[42.1155207,38.7580936],[42.1167104,38.7511271],[42.1294686,38.7409225],[42.2032963,38.6533008],[42.2417377,38.6254619],[42.2865435,38.6228763],[42.4216981,38.6648187],[42.4541006,38.683651],[42.6857249,38.64163],[42.6113791,38.8405634],[42.5955379,38.8576672],[42.5948178,38.8646758],[42.5991382,38.87785],[42.5980581,38.9044714],[42.5847889,38.9083015],[42.584522,38.911111],[42.5798183,38.9138265],[42.5770871,38.9104026],[42.5707144,38.9138265],[42.5707144,38.9203196],[42.5667693,38.9230347],[42.5682866,38.9277564],[42.5632795,38.9297631],[42.5628243,38.9328319],[42.5386988,38.9263399],[42.5033451,38.9230347],[42.4978827,38.9317696],[42.4904478,38.9318877],[42.4830129,38.9349564],[42.4726082,38.9465743],[42.4737567,38.9505481],[42.4658671,38.9512422],[42.4555999,38.9547823],[42.4474626,38.9552453],[42.4444856,38.951927],[42.4335697,38.9543964],[42.4294018,38.957869],[42.4219592,38.957406],[42.4166005,38.9503835],[42.4108448,38.9493031],[42.4005244,38.9364136],[42.3945703,38.9363364],[42.3777996,38.9263783],[42.3674791,38.9279222],[42.3599372,38.9359504],[42.3490214,38.9371083],[42.3331438,38.9482998],[42.3276858,38.9485313],[42.3202432,38.9445952],[42.3164723,38.945367],[42.3092281,38.9416623],[42.3105181,38.9377258],[42.3047625,38.9372627],[42.2960298,38.9320137],[42.2951367,38.9295434],[42.2917627,38.9294662],[42.2887857,38.9220549],[42.2953352,38.9129441],[42.2844193,38.9061489],[42.2735034,38.9050678],[42.2731065,38.9007431],[42.2756866,38.8941012],[42.2621906,38.8862227],[42.2413513,38.8894669],[42.239565,38.8914751],[42.206619,38.8859137],[42.1808178,38.8760258],[42.1702989,38.8763348],[42.1701005,38.8712358],[42.1745648,38.8567614],[42.1657248,38.8442569],[42.131873,38.846065]]]}},{"type":"Feature","properties":{"code":"13-03","provinceCode":"13","name":"Bahçesaray"},"geometry":{"type":"Polygon","coordinates":[[[42.8954548,38.1408299],[42.8561187,38.2037895],[42.8409572,38.2097463],[42.8234884,38.2203639],[42.8089861,38.2258015],[42.8039434,38.2313633],[42.7849233,38.2319924],[42.7753717,38.2259898],[42.7522567,38.2294413],[42.7356605,38.2243393],[42.7404156,38.2152088],[42.7329882,38.2012104],[42.7324596,38.1893372],[42.721697,38.1843921],[42.7019804,38.1806117],[42.7006638,38.1730177],[42.6857356,38.1503809],[42.6721403,38.143882],[42.6685415,38.1309873],[42.6700453,38.1179128],[42.663579,38.1097221],[42.6721073,38.0974431],[42.6832031,38.0944924],[42.6904006,38.0869395],[42.6886679,38.0767627],[42.679959,38.0595963],[42.6766638,38.0464312],[42.6786187,38.0387346],[42.6832876,38.0304943],[42.7098881,38.0194446],[42.7360479,37.9990545],[42.7422045,37.9610115],[42.765067,37.964856],[42.779899,37.964856],[42.7889629,37.9664801],[42.8061913,37.9620292],[42.8169789,37.9622575],[42.8386978,37.9563127],[42.8632511,37.9710415],[42.8669875,37.9795618],[42.877396,37.9774581],[42.8843624,37.992638],[42.8829906,37.9977009],[42.8839529,38.0051673],[42.88757,38.013948],[42.896108,38.0249025],[42.9138716,38.0315764],[42.9307858,38.0475017],[42.9453571,38.0505251],[42.9529257,38.0597519],[42.9472278,38.0798056],[42.9415783,38.0846245],[42.9336684,38.0990026],[42.9346077,38.1031543],[42.9301823,38.1092297],[42.9133279,38.1134526],[42.9111618,38.1193052],[42.9064761,38.1221958],[42.895162,38.1252014],[42.8954548,38.1408299]]]}},{"type":"Feature","properties":{"code":"13-04","provinceCode":"13","name":"Bitlis merkez"},"geometry":{"type":"Polygon","coordinates":[[[41.9435741,38.1752033],[41.9539924,38.1632864],[41.9703071,38.1577338],[41.976486,38.1685454],[41.9815076,38.1669383],[42.016236,38.1724983],[42.0407329,38.1730673],[42.0981371,38.2031199],[42.1162845,38.2167347],[42.1321748,38.2160406],[42.1708799,38.2227827],[42.2023217,38.2328696],[42.2232992,38.2367071],[42.2459616,38.232564],[42.2611029,38.2363386],[42.3063465,38.2380982],[42.3465376,38.2482456],[42.3468187,38.2651517],[42.3631141,38.3035047],[42.3753451,38.3160646],[42.4212912,38.3508147],[42.413533,38.352047],[42.4100402,38.3573424],[42.3918777,38.3620897],[42.381865,38.3690274],[42.3781099,38.3746616],[42.3671952,38.3768773],[42.3602096,38.3743216],[42.348567,38.374139],[42.3241174,38.3808931],[42.3041139,38.3816479],[42.2939307,38.3872354],[42.2846668,38.3862425],[42.2635755,38.3942169],[42.2418073,38.3954647],[42.2314418,38.3933044],[42.2194133,38.400241],[42.2159316,38.4295868],[42.2245411,38.4426725],[42.2256652,38.4597965],[42.1979284,38.4934194],[42.1850155,38.4891315],[42.1700729,38.5029508],[42.1698188,38.494847],[42.1605062,38.4986759],[42.1557855,38.4985416],[42.154026,38.495821],[42.1332946,38.4842929],[42.0776473,38.4699173],[42.0460795,38.4816146],[41.9873285,38.4748383],[41.9756023,38.4823201],[41.9576008,38.4792199],[41.9349191,38.4789381],[41.9518404,38.4651264],[41.9540006,38.4397512],[41.9788425,38.4092891],[41.997924,38.3960285],[42.010525,38.3830476],[42.0126852,38.3680885],[42.0098049,38.3618782],[41.965579,38.3460031],[41.9626412,38.3384435],[41.9659175,38.3237487],[41.9449998,38.3079387],[41.934559,38.3073737],[41.921598,38.3022883],[41.9100771,38.3011581],[41.9022005,38.2953763],[41.8895384,38.2981396],[41.8785013,38.3030284],[41.8715541,38.3116113],[41.8548441,38.3156517],[41.837685,38.3036478],[41.8218941,38.2883081],[41.8123955,38.2675427],[41.8026639,38.2614105],[41.785283,38.235676],[41.8178515,38.211418],[41.8240244,38.2028061],[41.8427048,38.1981974],[41.8545508,38.1913099],[41.9148703,38.1898082],[41.9313513,38.185063],[41.9435741,38.1752033]]]}},{"type":"Feature","properties":{"code":"13-05","provinceCode":"13","name":"Güroymak"},"geometry":{"type":"Polygon","coordinates":[[[42.2417377,38.6254619],[42.2032963,38.6533008],[42.1294686,38.7409225],[42.1167104,38.7511271],[42.1161559,38.7433946],[42.1142244,38.7414486],[42.115834,38.7369915],[42.1059348,38.7288928],[42.0984098,38.7262872],[42.0871827,38.7196629],[42.0788529,38.7100235],[42.0556743,38.703806],[42.0434009,38.702173],[42.0369624,38.6992209],[42.0305642,38.6926883],[42.0304837,38.6887622],[42.0391354,38.6796841],[42.034548,38.6745007],[42.0351114,38.6727727],[42.0420327,38.6713276],[42.0409865,38.6638184],[42.0389342,38.6610219],[42.0262182,38.6594822],[42.0233712,38.6618624],[42.0202729,38.6594612],[42.0122931,38.6573005],[42.0112282,38.6552436],[42.0089456,38.6561734],[42.0069943,38.6528344],[41.9987158,38.649856],[41.9881747,38.6536492],[41.9842632,38.6532241],[41.9822085,38.6514919],[41.9829191,38.6503359],[41.9802875,38.6492063],[41.9790719,38.6500802],[41.9778873,38.6478578],[41.9738488,38.6465137],[41.9732424,38.6437221],[41.9705434,38.6439037],[41.9707105,38.6451708],[41.9662181,38.6414735],[41.9607879,38.6424112],[41.9583939,38.6387726],[41.955891,38.639891],[41.9546253,38.638123],[41.9483523,38.6382351],[41.9451157,38.6351931],[41.9416095,38.6373054],[41.9407973,38.6353016],[41.9395308,38.6362581],[41.9376441,38.6352431],[41.9366448,38.6372473],[41.9320692,38.6348976],[41.9311381,38.6324729],[41.9360268,38.6293915],[41.9417546,38.6211984],[41.9419347,38.6044287],[41.936705,38.5932891],[41.9388585,38.5906042],[41.9474721,38.5881595],[41.9495742,38.5859553],[41.9482924,38.5810657],[41.9542912,38.5772579],[41.9541085,38.5696236],[41.9576008,38.5482382],[41.9453599,38.5378193],[41.9208779,38.5316235],[41.8989162,38.517822],[41.895676,38.5104976],[41.9003563,38.5006368],[41.9349191,38.4789381],[41.9576008,38.4792199],[41.9756023,38.4823201],[41.9873285,38.4748383],[42.0460795,38.4816146],[42.0776473,38.4699173],[42.1332946,38.4842929],[42.154026,38.495821],[42.1557855,38.4985416],[42.1605062,38.4986759],[42.1698188,38.494847],[42.1700729,38.5029508],[42.172265,38.5037138],[42.1712779,38.5050907],[42.2106791,38.530928],[42.2129703,38.5416813],[42.2086425,38.557211],[42.2101699,38.5661689],[42.2417377,38.6254619]]]}},{"type":"Feature","properties":{"code":"13-06","provinceCode":"13","name":"Hizan"},"geometry":{"type":"Polygon","coordinates":[[[42.4212912,38.3508147],[42.3753451,38.3160646],[42.3631141,38.3035047],[42.3468187,38.2651517],[42.3465376,38.2482456],[42.3063465,38.2380982],[42.2611029,38.2363386],[42.2459616,38.232564],[42.2407432,38.1896995],[42.2363234,38.1802386],[42.256441,38.1523298],[42.2713162,38.1403221],[42.2870706,38.1193931],[42.3314529,38.109953],[42.3838953,38.1294064],[42.3896785,38.1273519],[42.3885065,38.120418],[42.3718036,38.1047533],[42.3748166,38.0888374],[42.3878287,38.076609],[42.39148,38.0691268],[42.406969,38.06546],[42.4113463,38.0665412],[42.4168395,38.0648518],[42.4489402,38.0701901],[42.4483313,38.0660946],[42.4403571,38.056945],[42.4514293,38.0500513],[42.4539325,38.0437905],[42.4614283,38.0409678],[42.4658391,38.0335543],[42.4705695,38.0295688],[42.4847316,38.0252418],[42.4862765,38.0219963],[42.4896239,38.0203059],[42.48353,37.9995446],[42.4913406,37.9894662],[42.5019321,37.981597],[42.5327833,37.9710912],[42.5413798,37.9718086],[42.5483321,37.9692375],[42.5521087,37.971335],[42.5535678,37.9743121],[42.5554561,37.9730265],[42.559061,37.9751916],[42.5623225,37.9752593],[42.562065,37.9779656],[42.5656699,37.9786421],[42.5675386,37.98242],[42.5828958,37.9767613],[42.5880228,37.978649],[42.5892287,37.9831089],[42.5962023,37.9846243],[42.6065153,37.9823579],[42.6081973,37.9802068],[42.6119326,37.9828872],[42.6140569,37.9811463],[42.6172434,37.9825948],[42.626481,37.9896691],[42.6314508,37.9883955],[42.6495266,37.9943449],[42.654682,37.9990488],[42.6542178,38.0166553],[42.6631905,38.0244853],[42.6832876,38.0304943],[42.6786187,38.0387346],[42.6766638,38.0464312],[42.679959,38.0595963],[42.6886679,38.0767627],[42.6904006,38.0869395],[42.6832031,38.0944924],[42.6721073,38.0974431],[42.663579,38.1097221],[42.6700453,38.1179128],[42.6685415,38.1309873],[42.6721403,38.143882],[42.6857356,38.1503809],[42.7006638,38.1730177],[42.7019804,38.1806117],[42.721697,38.1843921],[42.7324596,38.1893372],[42.7329882,38.2012104],[42.7404156,38.2152088],[42.7356605,38.2243393],[42.7229824,38.2310298],[42.7185975,38.2379384],[42.7088998,38.2453193],[42.7081223,38.2500575],[42.7037294,38.2565936],[42.6850132,38.2565978],[42.6702063,38.2675066],[42.6684745,38.2811637],[42.6631162,38.2912886],[42.6622008,38.3130516],[42.6558215,38.3063159],[42.6440578,38.2979753],[42.6311677,38.2981825],[42.6177454,38.29231],[42.6098035,38.2935934],[42.5887062,38.2856005],[42.5602721,38.2801666],[42.5467251,38.2659882],[42.535781,38.2654398],[42.5324808,38.2738616],[42.5149101,38.2667886],[42.5076103,38.2653445],[42.5079155,38.2594325],[42.4991042,38.2659372],[42.5029487,38.278602],[42.5080715,38.2818921],[42.5038801,38.2875582],[42.5054794,38.2934439],[42.4797261,38.3065443],[42.4698835,38.3054674],[42.4656922,38.3087563],[42.4677676,38.314632],[42.465097,38.3240721],[42.4424069,38.3228241],[42.429445,38.3241503],[42.4261071,38.3332361],[42.4286685,38.3394461],[42.4212912,38.3508147]]]}},{"type":"Feature","properties":{"code":"13-07","provinceCode":"13","name":"Mutki"},"geometry":{"type":"Polygon","coordinates":[[[41.785283,38.235676],[41.8026639,38.2614105],[41.8123955,38.2675427],[41.8218941,38.2883081],[41.837685,38.3036478],[41.8548441,38.3156517],[41.8715541,38.3116113],[41.8785013,38.3030284],[41.8895384,38.2981396],[41.9022005,38.2953763],[41.9100771,38.3011581],[41.921598,38.3022883],[41.934559,38.3073737],[41.9449998,38.3079387],[41.9659175,38.3237487],[41.9626412,38.3384435],[41.965579,38.3460031],[42.0098049,38.3618782],[42.0126852,38.3680885],[42.010525,38.3830476],[41.997924,38.3960285],[41.9788425,38.4092891],[41.9540006,38.4397512],[41.9518404,38.4651264],[41.9349191,38.4789381],[41.9003563,38.5006368],[41.895676,38.5104976],[41.8989162,38.517822],[41.9208779,38.5316235],[41.9453599,38.5378193],[41.9576008,38.5482382],[41.9541085,38.5696236],[41.9462165,38.5617055],[41.9178827,38.5494882],[41.9146526,38.5442352],[41.9089614,38.5406661],[41.9017321,38.5430321],[41.8922469,38.5545003],[41.8874273,38.5563446],[41.8753785,38.5657261],[41.8705077,38.574986],[41.8638936,38.5748257],[41.8569938,38.5792281],[41.8487728,38.5931895],[41.8374976,38.5979499],[41.8239747,38.5956264],[41.8171226,38.5995366],[41.8054327,38.5990557],[41.79323,38.6033832],[41.7861545,38.5996167],[41.7749773,38.5966915],[41.7704141,38.6021411],[41.7651331,38.6045852],[41.7296019,38.6112761],[41.7257565,38.6142007],[41.7182196,38.6166845],[41.709042,38.6158032],[41.7047351,38.618327],[41.6985313,38.6170451],[41.6583343,38.6189279],[41.6398252,38.6094332],[41.6243925,38.6078707],[41.6207009,38.6096736],[41.6165479,38.6095935],[41.6083266,38.614742],[41.6015088,38.6069929],[41.6006823,38.6021493],[41.5971701,38.6026337],[41.5940711,38.6057013],[41.5909249,38.6032068],[41.5791957,38.6032795],[41.5736174,38.6006962],[41.5570893,38.5998889],[41.5519242,38.5973054],[41.5513044,38.5945603],[41.5382884,38.5919767],[41.5360158,38.5851941],[41.5340737,38.584326],[41.5174216,38.587778],[41.5070915,38.5818026],[41.5077113,38.5767958],[41.5054387,38.5727577],[41.5093641,38.5682349],[41.5019264,38.5591883],[41.4936623,38.5588652],[41.4936623,38.5509485],[41.5365039,38.5216031],[41.5631416,38.5243489],[41.586657,38.5103376],[41.6047099,38.5067406],[41.6461534,38.5028047],[41.6640948,38.4959601],[41.6666685,38.4912953],[41.6670847,38.4823566],[41.639295,38.4727347],[41.6421006,38.455211],[41.6262848,38.4552071],[41.6096394,38.4414218],[41.6134659,38.427334],[41.6113964,38.4111666],[41.5935129,38.3722078],[41.5889962,38.3542313],[41.6413327,38.3296747],[41.6445909,38.3213756],[41.6420145,38.3168087],[41.6383016,38.2973451],[41.6443248,38.2867935],[41.6606902,38.267337],[41.6828224,38.2436999],[41.7145832,38.2417871],[41.7440946,38.237095],[41.785283,38.235676]]]}},{"type":"Feature","properties":{"code":"13-08","provinceCode":"13","name":"Tatvan"},"geometry":{"type":"Polygon","coordinates":[[[42.9287715,38.6238444],[42.6857249,38.64163],[42.4541006,38.683651],[42.4216981,38.6648187],[42.2865435,38.6228763],[42.2417377,38.6254619],[42.2101699,38.5661689],[42.2086425,38.557211],[42.2129703,38.5416813],[42.2106791,38.530928],[42.1712779,38.5050907],[42.172265,38.5037138],[42.1700729,38.5029508],[42.1850155,38.4891315],[42.1979284,38.4934194],[42.2256652,38.4597965],[42.2245411,38.4426725],[42.2159316,38.4295868],[42.2194133,38.400241],[42.2314418,38.3933044],[42.2418073,38.3954647],[42.2635755,38.3942169],[42.2846668,38.3862425],[42.2939307,38.3872354],[42.3041139,38.3816479],[42.3241174,38.3808931],[42.348567,38.374139],[42.3602096,38.3743216],[42.3671952,38.3768773],[42.3781099,38.3746616],[42.381865,38.3690274],[42.3918777,38.3620897],[42.4100402,38.3573424],[42.413533,38.352047],[42.4212912,38.3508147],[42.4286685,38.3394461],[42.4261071,38.3332361],[42.429445,38.3241503],[42.4424069,38.3228241],[42.465097,38.3240721],[42.4677676,38.314632],[42.4656922,38.3087563],[42.4698835,38.3054674],[42.4797261,38.3065443],[42.5054794,38.2934439],[42.5038801,38.2875582],[42.5080715,38.2818921],[42.5029487,38.278602],[42.4991042,38.2659372],[42.5079155,38.2594325],[42.5076103,38.2653445],[42.5149101,38.2667886],[42.5324808,38.2738616],[42.535781,38.2654398],[42.5467251,38.2659882],[42.5602721,38.2801666],[42.5887062,38.2856005],[42.6098035,38.2935934],[42.6177454,38.29231],[42.6311677,38.2981825],[42.6440578,38.2979753],[42.6558215,38.3063159],[42.6622008,38.3130516],[42.6721664,38.3154892],[42.6843414,38.311497],[42.6915599,38.3153338],[42.6957512,38.3197184],[42.7085582,38.3228241],[42.7139138,38.3284869],[42.7256188,38.3220686],[42.7354437,38.3245722],[42.7743515,38.3193878],[42.7825014,38.3224934],[42.7845971,38.3265123],[42.7899527,38.3301656],[42.7899527,38.3374717],[42.7953083,38.3482469],[42.7946097,38.355186],[42.7850628,38.3657759],[42.7885784,38.3767208],[42.7790247,38.3953384],[42.7775959,38.411525],[42.7623548,38.4298608],[42.756163,38.4402879],[42.7530212,38.4675906],[42.7898595,38.4957923],[42.8112185,38.5052453],[42.8572736,38.5313453],[42.8787426,38.5466274],[42.8834995,38.5524563],[42.9064025,38.5932883],[42.9287715,38.6238444]]]}}]}