{"type":"FeatureCollection","features":[{"type":"Feature","properties":{"code":"65-01","provinceCode":"65","name":"Başkale"},"geometry":{"type":"Polygon","coordinates":[[[44.4215712,37.8043708],[44.4180879,37.8058291],[44.4163517,37.8085692],[44.4148019,37.8156397],[44.4066197,37.8192865],[44.3974823,37.8205652],[44.3934623,37.8240503],[44.3922192,37.8278824],[44.393587,37.83262],[44.396797,37.837895],[44.403777,37.840287],[44.40508,37.846265],[44.402986,37.852173],[44.389074,37.862054],[44.377581,37.864094],[44.365237,37.8624766],[44.3571214,37.8633178],[44.351602,37.8665526],[44.3375565,37.8700026],[44.331565,37.8749123],[44.3193365,37.8770837],[44.3047168,37.8679322],[44.3023952,37.8686861],[44.2929042,37.866908],[44.2887948,37.8718914],[44.2844905,37.8731084],[44.2706959,37.8692161],[44.2680203,37.867248],[44.2628325,37.8681025],[44.2578993,37.8700504],[44.2558141,37.8728159],[44.2517298,37.8737368],[44.2517196,37.8757813],[44.2441613,37.8757569],[44.2385502,37.8841326],[44.2323603,37.8844803],[44.2227458,37.8882392],[44.232465,37.9002434],[44.2243172,37.9070057],[44.2264554,37.9103677],[44.2305583,37.9115624],[44.2291728,37.9171852],[44.2343149,37.9199198],[44.234637,37.9269538],[44.2433854,37.9290987],[44.2459051,37.9313962],[44.2460126,37.9370968],[44.251232,37.9433704],[44.2486542,37.9510362],[44.2435064,37.95189],[44.2406054,37.9555238],[44.2407127,37.9650564],[44.2435591,37.9651103],[44.2457337,37.9682362],[44.2490979,37.9696807],[44.250479,37.9732927],[44.2557674,37.9755899],[44.2565431,37.9769475],[44.254392,37.9794769],[44.2606744,37.9836871],[44.26158,37.9885896],[44.2680798,37.9937114],[44.2667028,37.9991311],[44.2691715,38.0082248],[44.2735487,38.0121883],[44.2745049,38.0160998],[44.2817682,38.020966],[44.2867384,38.0211755],[44.2920116,38.0272833],[44.3013231,38.0325345],[44.3088646,38.0463001],[44.3051212,38.0476467],[44.3024973,38.0545195],[44.3211099,38.0632898],[44.3199941,38.069029],[44.312443,38.0681178],[44.3112128,38.0725601],[44.3172191,38.0741236],[44.3215799,38.078638],[44.3285769,38.0786286],[44.3282662,38.0828429],[44.3313906,38.0897769],[44.3293645,38.098353],[44.335369,38.0982137],[44.3517701,38.1048418],[44.3645086,38.1039085],[44.3587591,38.1143004],[44.3596171,38.1228582],[44.3495126,38.1316841],[44.3511809,38.1349942],[44.3686252,38.1356841],[44.3708835,38.1387481],[44.3805398,38.1390596],[44.3850239,38.1441622],[44.3926934,38.1464431],[44.3916636,38.1520277],[44.394711,38.1601149],[44.3911827,38.1677279],[44.3933359,38.1703507],[44.3972184,38.1715538],[44.4001524,38.1796829],[44.3997361,38.1850007],[44.396911,38.189168],[44.4008788,38.194572],[44.3980254,38.1984635],[44.3997955,38.2017482],[44.4023802,38.2019941],[44.4080271,38.2159455],[44.4117396,38.2195101],[44.405316,38.2336446],[44.3986824,38.2385345],[44.3990156,38.2429418],[44.4022375,38.2464421],[44.4022685,38.2520003],[44.4111819,38.2559697],[44.413471,38.2611],[44.4225323,38.2680027],[44.4339559,38.2691525],[44.4411169,38.27775],[44.4491621,38.283338],[44.4558723,38.2843657],[44.4583853,38.2877703],[44.4683832,38.2946001],[44.473474,38.2953126],[44.4782878,38.302652],[44.4861315,38.3021931],[44.492951,38.3036964],[44.4983339,38.308938],[44.4988619,38.3117152],[44.4964051,38.3172983],[44.4994221,38.3232448],[44.4969863,38.3295419],[44.4975509,38.3337116],[44.5103614,38.3353408],[44.5125314,38.3412598],[44.5100577,38.3451748],[44.5069312,38.3460892],[44.4988735,38.3457846],[44.4954973,38.3437118],[44.4933408,38.3473579],[44.4990194,38.3509064],[44.490835,38.3561158],[44.4904477,38.3578647],[44.4770569,38.3576627],[44.4727777,38.3556011],[44.4675444,38.3586655],[44.4627198,38.3594066],[44.4625568,38.3653337],[44.4515908,38.3786345],[44.4493712,38.3854921],[44.4395946,38.3834674],[44.428678,38.3753964],[44.4161169,38.3691999],[44.4042214,38.3659624],[44.3998451,38.3672677],[44.3806525,38.3585695],[44.3747839,38.3606422],[44.3691001,38.3688773],[44.3646124,38.3702781],[44.363997,38.3738289],[44.3619279,38.3752561],[44.3556943,38.3747547],[44.3511501,38.3691678],[44.3424523,38.3718987],[44.335919,38.3693763],[44.3300158,38.369103],[44.3163979,38.3742545],[44.3090648,38.3847212],[44.2911263,38.3826587],[44.2772211,38.378983],[44.2681666,38.3737861],[44.264286,38.3679549],[44.2600822,38.3532481],[44.2549081,38.3481761],[44.2528062,38.3433573],[44.2356673,38.3373969],[44.2341359,38.3268088],[44.2206381,38.3239618],[44.2228413,38.3100125],[44.2194175,38.297121],[44.1844367,38.3146562],[44.1717945,38.3182233],[44.1394871,38.3177263],[44.1279495,38.3146786],[44.0993356,38.303312],[44.1194136,38.2795423],[44.1156947,38.2761152],[44.1058318,38.2737035],[44.0767279,38.257454],[44.0578104,38.2437407],[44.046654,38.238788],[44.0356592,38.23574],[44.0198138,38.234851],[44.001543,38.2318029],[43.9824638,38.2265954],[43.9195672,38.198265],[43.9158484,38.1943258],[43.9072789,38.1625505],[43.9035601,38.1577195],[43.8890081,38.1492008],[43.8723543,38.1344496],[43.8676653,38.1099001],[43.8637848,38.1032844],[43.8655634,38.0976859],[43.8746179,38.0852151],[43.875588,38.080379],[43.8721926,38.0735059],[43.8587927,38.0574266],[43.8570242,38.0520554],[43.8580348,38.044744],[43.8690877,38.0291987],[43.8690877,38.0211138],[43.8754036,38.0080517],[43.8746141,38.0036971],[43.8619822,37.9999644],[43.8438239,37.9918763],[43.832771,37.9819205],[43.8138232,37.957025],[43.8177707,37.9489322],[43.8157969,37.9433289],[43.8122442,37.9395931],[43.7901384,37.9265165],[43.7834278,37.9202887],[43.7755328,37.9006678],[43.7707959,37.8819763],[43.7636904,37.8757448],[43.7415847,37.8617219],[43.7210579,37.8529952],[43.7143472,37.8483197],[43.7119787,37.8408384],[43.7119787,37.8283678],[43.7185191,37.7702876],[43.7759593,37.7616156],[43.8229656,37.7519473],[43.8454205,37.7516703],[43.8531266,37.7541274],[43.8627206,37.7601394],[43.9033837,37.7722049],[43.9394983,37.7794928],[43.9950994,37.7941074],[44.0130155,37.8032525],[44.0378193,37.8093123],[44.0537531,37.8105835],[44.0682833,37.7996914],[44.068763,37.792726],[44.081013,37.7843418],[44.0891009,37.7806743],[44.0902548,37.7774105],[44.0864799,37.7700929],[44.0830507,37.7697983],[44.0805567,37.7627371],[44.0819646,37.7581093],[44.0808125,37.7551449],[44.0826214,37.7522647],[44.0805295,37.7484626],[44.0819786,37.7395889],[44.0864062,37.7335301],[44.0953426,37.7200905],[44.1028402,37.7203014],[44.1126659,37.7234212],[44.1210478,37.7297487],[44.1320937,37.7335281],[44.1454824,37.7337124],[44.1573595,37.7301898],[44.1803153,37.7289226],[44.2119205,37.7298594],[44.2332412,37.7368434],[44.2503931,37.7492995],[44.2653039,37.7575605],[44.2903669,37.7641662],[44.3111098,37.7772804],[44.3507458,37.7787322],[44.3760296,37.7852428],[44.3995075,37.79737],[44.4215712,37.8043708]]]}},{"type":"Feature","properties":{"code":"65-02","provinceCode":"65","name":"Çaldıran"},"geometry":{"type":"Polygon","coordinates":[[[43.8942065,38.9042179],[43.9334588,38.9047538],[43.9661342,38.9068479],[43.9759368,38.9056513],[43.9891991,38.8998177],[44.0089966,38.8962276],[44.0566642,38.8971251],[44.0662746,38.9001169],[44.0668512,38.904006],[44.066659,38.9132791],[44.0609701,38.9315304],[44.0688985,38.9360009],[44.0754261,38.9484913],[44.0816081,38.9511161],[44.1085604,38.9467719],[44.1495007,38.9508079],[44.1621865,38.9473698],[44.1667994,38.9428851],[44.1717969,38.9419882],[44.1902488,38.9433336],[44.1973567,38.9421479],[44.2002792,38.9473873],[44.1992658,38.9501495],[44.1897607,38.9518827],[44.1841169,38.9555609],[44.1802595,38.9560676],[44.1849596,38.9659894],[44.1884266,38.9675811],[44.1864425,38.971967],[44.1885147,38.9742373],[44.1914252,38.9746819],[44.1873353,38.9778634],[44.1894753,38.9816243],[44.1849221,38.9821818],[44.1807623,38.9853985],[44.1730001,38.9882801],[44.1717941,38.9917907],[44.1736556,39.0003331],[44.1761208,39.0018263],[44.1809525,39.0106834],[44.1873039,39.0113926],[44.1916459,39.0091419],[44.2004906,39.0157505],[44.211677,39.0209503],[44.1947723,39.0405005],[44.1959068,39.0461699],[44.205512,39.0554679],[44.1968694,39.0636482],[44.1908665,39.0745913],[44.1982417,39.0868192],[44.2026104,39.0873465],[44.2057823,39.0899555],[44.2092274,39.0876745],[44.2123189,39.0878149],[44.2168608,39.0908357],[44.2212121,39.0907636],[44.222913,39.0940911],[44.22591,39.0950499],[44.2228335,39.102561],[44.2180401,39.1037438],[44.2151731,39.1080923],[44.2098131,39.1104689],[44.2075924,39.1140854],[44.2135655,39.1303045],[44.2068714,39.13799],[44.2010388,39.1402004],[44.1972577,39.1477209],[44.1903645,39.1531692],[44.1902139,39.1581882],[44.1842524,39.1610696],[44.1832615,39.1647651],[44.1779327,39.1697597],[44.1663807,39.1776245],[44.1500163,39.1820659],[44.144875,39.1854963],[44.1336574,39.182713],[44.1295851,39.1851757],[44.1158881,39.1887227],[44.1122791,39.1918378],[44.1081411,39.2011741],[44.0972566,39.2044917],[44.0976507,39.2092272],[44.0940514,39.216368],[44.100648,39.2252757],[44.0987108,39.2278631],[44.1023816,39.2313926],[44.1032307,39.2425733],[44.0991451,39.2456337],[44.089445,39.247049],[44.0843065,39.2560217],[44.0915587,39.2628142],[44.091075,39.2696567],[44.0937966,39.2755803],[44.1001975,39.2764647],[44.1080596,39.2842966],[44.1040044,39.2855295],[44.1014094,39.2894732],[44.0944685,39.2909127],[44.0905064,39.2900285],[44.0812513,39.2941275],[44.0767137,39.3079177],[44.0793872,39.3134792],[44.0777466,39.3194318],[44.0797056,39.3249882],[44.0774721,39.3261855],[44.0732183,39.3356242],[44.0650393,39.3397829],[44.0617863,39.3434587],[44.0574016,39.3435904],[44.0565238,39.3554892],[44.0377009,39.3612643],[43.9829634,39.3709684],[43.9629634,39.3689657],[43.9098386,39.3492469],[43.9033445,39.3438925],[43.8806071,39.3336033],[43.8527536,39.3198597],[43.7754235,39.2500385],[43.7557435,39.225152],[43.7411592,39.2155561],[43.7345317,39.2004619],[43.7703993,39.1679978],[43.7919722,39.1588434],[43.8106299,39.1486704],[43.8310367,39.1301293],[43.851152,39.1085295],[43.8531927,39.099933],[43.8600436,39.0865837],[43.8617927,39.0776451],[43.8547538,39.05093],[43.8431768,39.0310197],[43.8492409,38.9699693],[43.8575102,38.9511081],[43.867,38.9366483],[43.8690634,38.9249254],[43.8839729,38.9143176],[43.8942065,38.9042179]]]}},{"type":"Feature","properties":{"code":"65-03","provinceCode":"65","name":"Çatak"},"geometry":{"type":"Polygon","coordinates":[[[42.7422045,37.9610115],[42.745319,37.9534049],[42.7439095,37.9442353],[42.7463469,37.9402153],[42.7488494,37.9380495],[42.7560021,37.9363585],[42.7640068,37.9371072],[42.770236,37.9360233],[42.7795602,37.9232245],[42.7784199,37.920276],[42.7819042,37.9192765],[42.7809539,37.9167776],[42.7869549,37.9132372],[42.7888094,37.9095805],[42.788319,37.9029645],[42.8044711,37.891668],[42.8179453,37.8671538],[42.8246475,37.8501403],[42.8392943,37.8242426],[42.8654331,37.7994026],[42.8845218,37.7668903],[42.908538,37.7698422],[42.9354872,37.7602812],[42.9536153,37.7568391],[42.967712,37.7553291],[43.0778169,37.7525906],[43.1280437,37.7425169],[43.2110549,37.7353051],[43.2558907,37.7403513],[43.3072673,37.7496104],[43.3609592,37.7550213],[43.4386763,37.7478448],[43.4112005,37.7879707],[43.374411,37.8159356],[43.3515921,37.8210858],[43.3371557,37.8266036],[43.3193663,37.8419775],[43.3044642,37.8758035],[43.2981308,37.8822728],[43.2884444,37.8869774],[43.2541696,37.8922697],[43.2284635,37.8934457],[43.1889729,37.8993255],[43.1584236,37.9063806],[43.1446391,37.9146108],[43.1360704,37.9272481],[43.1315998,37.9381204],[43.1319723,37.944878],[43.1390508,37.9513412],[43.1666197,37.9657346],[43.1841297,37.9727833],[43.1967965,37.9845298],[43.2016397,37.9953935],[43.2262282,38.0250405],[43.2489539,38.0335508],[43.2627383,38.0438205],[43.2981308,38.0634757],[43.3324057,38.0755009],[43.3458175,38.0842985],[43.3555039,38.097493],[43.3584843,38.1092195],[43.345445,38.1276848],[43.3439548,38.1476104],[43.3555039,38.1760243],[43.3588569,38.2055981],[43.3577392,38.2120383],[43.3521509,38.2205269],[43.3482062,38.2318066],[43.3335635,38.2394493],[43.3289692,38.2462827],[43.3181429,38.2505212],[43.2974564,38.252044],[43.2747552,38.2594249],[43.2488256,38.2638713],[43.2071544,38.2504873],[43.1804108,38.2518281],[43.1728971,38.2556516],[43.1504066,38.2483703],[43.1317079,38.2513945],[43.1184493,38.2436662],[43.1071984,38.2460477],[43.1027978,38.2319105],[43.0763719,38.22192],[43.0485719,38.2175763],[43.0377478,38.2094388],[43.0287148,38.2055227],[42.9867763,38.2117295],[42.9652401,38.2110603],[42.9460157,38.2035072],[42.9382286,38.1974833],[42.9265479,38.1836169],[42.9013482,38.1405869],[42.8954548,38.1408299],[42.895162,38.1252014],[42.9064761,38.1221958],[42.9111618,38.1193052],[42.9133279,38.1134526],[42.9301823,38.1092297],[42.9346077,38.1031543],[42.9336684,38.0990026],[42.9415783,38.0846245],[42.9472278,38.0798056],[42.9529257,38.0597519],[42.9453571,38.0505251],[42.9307858,38.0475017],[42.9138716,38.0315764],[42.896108,38.0249025],[42.88757,38.013948],[42.8839529,38.0051673],[42.8829906,37.9977009],[42.8843624,37.992638],[42.877396,37.9774581],[42.8669875,37.9795618],[42.8632511,37.9710415],[42.8386978,37.9563127],[42.8169789,37.9622575],[42.8061913,37.9620292],[42.7889629,37.9664801],[42.779899,37.964856],[42.765067,37.964856],[42.7422045,37.9610115]]]}},{"type":"Feature","properties":{"code":"65-04","provinceCode":"65","name":"Edremit"},"geometry":{"type":"Polygon","coordinates":[[[42.9064025,38.5932883],[42.8834995,38.5524563],[43.1096642,38.3357324],[43.1547429,38.3245197],[43.1647375,38.3264269],[43.1855372,38.3207051],[43.1922904,38.3201399],[43.200124,38.3211996],[43.21309,38.3263562],[43.2196631,38.3272039],[43.290616,38.3212702],[43.2998903,38.3215528],[43.3150622,38.3261215],[43.3189574,38.3274429],[43.3209758,38.3244294],[43.3252643,38.3241564],[43.3261723,38.3253486],[43.3296798,38.3218101],[43.3346651,38.3223858],[43.3368018,38.3241527],[43.3428402,38.3224938],[43.3441275,38.3231258],[43.3429835,38.3251201],[43.3445222,38.3252927],[43.347449,38.3250474],[43.3496394,38.3216718],[43.3534296,38.3242996],[43.3565279,38.3214019],[43.3576215,38.3243434],[43.3608031,38.3228843],[43.3641977,38.3251026],[43.365968,38.3230457],[43.3691635,38.3265283],[43.388616,38.3356785],[43.4117488,38.3617499],[43.4311969,38.3658623],[43.443409,38.3727617],[43.458644,38.3766807],[43.4826537,38.376954],[43.4885451,38.3842112],[43.4754158,38.3978001],[43.4878718,38.4034724],[43.501506,38.4042639],[43.5171602,38.4141562],[43.5277193,38.4242048],[43.5103483,38.4326469],[43.4816319,38.4318506],[43.4667097,38.4285307],[43.4529855,38.4338094],[43.4480888,38.4343373],[43.4311751,38.4472331],[43.4221744,38.4517739],[43.4239554,38.4639727],[43.4207421,38.4671145],[43.417443,38.4669045],[43.4061402,38.4706131],[43.4048474,38.4748801],[43.3984852,38.4795753],[43.3873907,38.4785764],[43.3680823,38.4887714],[43.3580375,38.4788823],[43.3506775,38.4899429],[43.3350134,38.4920675],[43.3297241,38.488952],[43.3256042,38.4908666],[43.3192935,38.4898399],[43.2480142,38.5094193],[42.9064025,38.5932883]]]}},{"type":"Feature","properties":{"code":"65-05","provinceCode":"65","name":"Erciş"},"geometry":{"type":"Polygon","coordinates":[[[43.2162343,39.3311636],[43.1863825,39.2838296],[43.1630682,39.2363765],[43.1528398,39.2111275],[43.1517561,39.1879119],[43.1482304,39.180317],[43.1383608,39.1712448],[43.1044412,39.159099],[43.0808181,39.1456949],[43.0818556,39.1337888],[43.0612283,39.1255839],[43.0434152,39.1129085],[43.0364528,39.1007724],[43.0116986,39.092204],[42.9988574,39.0774756],[42.994673,39.0700752],[42.9939824,39.0609611],[42.9876483,39.0484187],[42.996643,39.0342128],[43.0007683,39.0188218],[43.0191007,39.0129045],[43.035294,39.0016003],[43.0603663,38.9632564],[43.0710976,38.9382958],[43.083645,38.9203727],[43.1598324,38.9159018],[43.1869294,38.9040396],[43.1991072,38.8954733],[43.4784704,38.9294372],[43.5345497,38.9873333],[43.5475182,38.9893486],[43.5581774,38.9931552],[43.5754626,38.9956181],[43.5892908,38.9927073],[43.6083045,39.0137516],[43.6152186,39.0439638],[43.6273182,39.0790832],[43.6278944,39.0985367],[43.6345204,39.1079262],[43.6345204,39.1177614],[43.6313514,39.1255839],[43.6301991,39.1483759],[43.6261903,39.1558844],[43.626706,39.1611889],[43.6291748,39.1625562],[43.6362721,39.1620299],[43.6443403,39.1591835],[43.6491458,39.1614479],[43.6376893,39.193268],[43.6440875,39.2003281],[43.6264539,39.2106811],[43.5911202,39.2409095],[43.5772951,39.249237],[43.5259049,39.3037156],[43.5127363,39.3198977],[43.4335322,39.3555325],[43.418489,39.3578959],[43.4031869,39.3602999],[43.3617158,39.3606209],[43.3264415,39.3665654],[43.3110194,39.3658379],[43.2850244,39.3581884],[43.2467894,39.3459338],[43.2369149,39.3372609],[43.2162343,39.3311636]]]}},{"type":"Feature","properties":{"code":"65-06","provinceCode":"65","name":"Gevaş"},"geometry":{"type":"Polygon","coordinates":[[[43.3289692,38.2462827],[43.3296393,38.2560668],[43.3144486,38.2817319],[43.3117662,38.2917913],[43.3111702,38.3074625],[43.3131671,38.323744],[43.3150622,38.3261215],[43.2998903,38.3215528],[43.290616,38.3212702],[43.2196631,38.3272039],[43.21309,38.3263562],[43.200124,38.3211996],[43.1922904,38.3201399],[43.1855372,38.3207051],[43.1647375,38.3264269],[43.1547429,38.3245197],[43.1096642,38.3357324],[42.8834995,38.5524563],[42.8787426,38.5466274],[42.8572736,38.5313453],[42.8112185,38.5052453],[42.7898595,38.4957923],[42.7530212,38.4675906],[42.756163,38.4402879],[42.7623548,38.4298608],[42.7775959,38.411525],[42.7790247,38.3953384],[42.7885784,38.3767208],[42.7850628,38.3657759],[42.7946097,38.355186],[42.7953083,38.3482469],[42.7899527,38.3374717],[42.7899527,38.3301656],[42.7845971,38.3265123],[42.7825014,38.3224934],[42.7743515,38.3193878],[42.7354437,38.3245722],[42.7256188,38.3220686],[42.7139138,38.3284869],[42.7085582,38.3228241],[42.6957512,38.3197184],[42.6915599,38.3153338],[42.6843414,38.311497],[42.6721664,38.3154892],[42.6622008,38.3130516],[42.6631162,38.2912886],[42.6684745,38.2811637],[42.6702063,38.2675066],[42.6850132,38.2565978],[42.7037294,38.2565936],[42.7081223,38.2500575],[42.7088998,38.2453193],[42.7185975,38.2379384],[42.7229824,38.2310298],[42.7356605,38.2243393],[42.7522567,38.2294413],[42.7753717,38.2259898],[42.7849233,38.2319924],[42.8039434,38.2313633],[42.8089861,38.2258015],[42.8234884,38.2203639],[42.8409572,38.2097463],[42.8561187,38.2037895],[42.8954548,38.1408299],[42.9013482,38.1405869],[42.9265479,38.1836169],[42.9382286,38.1974833],[42.9460157,38.2035072],[42.9652401,38.2110603],[42.9867763,38.2117295],[43.0287148,38.2055227],[43.0377478,38.2094388],[43.0485719,38.2175763],[43.0763719,38.22192],[43.1027978,38.2319105],[43.1071984,38.2460477],[43.1184493,38.2436662],[43.1317079,38.2513945],[43.1504066,38.2483703],[43.1728971,38.2556516],[43.1804108,38.2518281],[43.2071544,38.2504873],[43.2488256,38.2638713],[43.2747552,38.2594249],[43.2974564,38.252044],[43.3181429,38.2505212],[43.3289692,38.2462827]]]}},{"type":"Feature","properties":{"code":"65-07","provinceCode":"65","name":"Gürpınar"},"geometry":{"type":"Polygon","coordinates":[[[43.4386763,37.7478448],[43.4991914,37.7417871],[43.5345149,37.742301],[43.6246889,37.7667882],[43.6782142,37.7728367],[43.7185191,37.7702876],[43.7119787,37.8283678],[43.7119787,37.8408384],[43.7143472,37.8483197],[43.7210579,37.8529952],[43.7415847,37.8617219],[43.7636904,37.8757448],[43.7707959,37.8819763],[43.7755328,37.9006678],[43.7834278,37.9202887],[43.7901384,37.9265165],[43.8122442,37.9395931],[43.8157969,37.9433289],[43.8177707,37.9489322],[43.8138232,37.957025],[43.832771,37.9819205],[43.8438239,37.9918763],[43.8619822,37.9999644],[43.8746141,38.0036971],[43.8754036,38.0080517],[43.8690877,38.0211138],[43.8690877,38.0291987],[43.8580348,38.044744],[43.8570242,38.0520554],[43.8587927,38.0574266],[43.8721926,38.0735059],[43.875588,38.080379],[43.8746179,38.0852151],[43.8655634,38.0976859],[43.8637848,38.1032844],[43.8676653,38.1099001],[43.8723543,38.1344496],[43.8890081,38.1492008],[43.9035601,38.1577195],[43.9072789,38.1625505],[43.9158484,38.1943258],[43.9195672,38.198265],[43.9824638,38.2265954],[44.001543,38.2318029],[44.0198138,38.234851],[44.0356592,38.23574],[44.046654,38.238788],[44.0578104,38.2437407],[44.0767279,38.257454],[44.1058318,38.2737035],[44.1156947,38.2761152],[44.1194136,38.2795423],[44.0993356,38.303312],[44.1075608,38.3200927],[44.0714884,38.35655],[44.0608631,38.3769607],[44.0544878,38.3842488],[44.047847,38.3900787],[44.0297839,38.3948673],[44.0101269,38.4044434],[43.9917982,38.421927],[43.9902043,38.4298348],[43.9920638,38.4404466],[44.0018923,38.4600016],[44.0072049,38.4658254],[44.0072049,38.4720647],[44.0004479,38.476081],[43.982501,38.4768478],[43.9718756,38.4745603],[43.9615158,38.4693611],[43.9495623,38.4660334],[43.9166237,38.4641615],[43.904546,38.4673185],[43.9020934,38.4733112],[43.8894383,38.4807117],[43.8574195,38.4916917],[43.849491,38.4926464],[43.8348538,38.4896629],[43.8196067,38.4893049],[43.7948888,38.4986802],[43.7654896,38.4965264],[43.7552812,38.4910544],[43.7131102,38.4967209],[43.6902813,38.4968332],[43.669597,38.4944191],[43.6596208,38.4863897],[43.6462035,38.4847018],[43.6327862,38.4711971],[43.6364675,38.4632493],[43.6027932,38.4588661],[43.5875243,38.44899],[43.5740198,38.4456124],[43.5645012,38.4369117],[43.5376229,38.436178],[43.5316023,38.4270741],[43.5277193,38.4242048],[43.5171602,38.4141562],[43.501506,38.4042639],[43.4878718,38.4034724],[43.4754158,38.3978001],[43.4885451,38.3842112],[43.4826537,38.376954],[43.458644,38.3766807],[43.443409,38.3727617],[43.4311969,38.3658623],[43.4117488,38.3617499],[43.388616,38.3356785],[43.3691635,38.3265283],[43.365968,38.3230457],[43.3641977,38.3251026],[43.3608031,38.3228843],[43.3576215,38.3243434],[43.3565279,38.3214019],[43.3534296,38.3242996],[43.3496394,38.3216718],[43.347449,38.3250474],[43.3445222,38.3252927],[43.3429835,38.3251201],[43.3441275,38.3231258],[43.3428402,38.3224938],[43.3368018,38.3241527],[43.3346651,38.3223858],[43.3296798,38.3218101],[43.3261723,38.3253486],[43.3252643,38.3241564],[43.3209758,38.3244294],[43.3189574,38.3274429],[43.3150622,38.3261215],[43.3131671,38.323744],[43.3111702,38.3074625],[43.3117662,38.2917913],[43.3144486,38.2817319],[43.3296393,38.2560668],[43.3289692,38.2462827],[43.3335635,38.2394493],[43.3482062,38.2318066],[43.3521509,38.2205269],[43.3577392,38.2120383],[43.3588569,38.2055981],[43.3555039,38.1760243],[43.3439548,38.1476104],[43.345445,38.1276848],[43.3584843,38.1092195],[43.3555039,38.097493],[43.3458175,38.0842985],[43.3324057,38.0755009],[43.2981308,38.0634757],[43.2627383,38.0438205],[43.2489539,38.0335508],[43.2262282,38.0250405],[43.2016397,37.9953935],[43.1967965,37.9845298],[43.1841297,37.9727833],[43.1666197,37.9657346],[43.1390508,37.9513412],[43.1319723,37.944878],[43.1315998,37.9381204],[43.1360704,37.9272481],[43.1446391,37.9146108],[43.1584236,37.9063806],[43.1889729,37.8993255],[43.2284635,37.8934457],[43.2541696,37.8922697],[43.2884444,37.8869774],[43.2981308,37.8822728],[43.3044642,37.8758035],[43.3193663,37.8419775],[43.3371557,37.8266036],[43.3515921,37.8210858],[43.374411,37.8159356],[43.4112005,37.7879707],[43.4386763,37.7478448]]]}},{"type":"Feature","properties":{"code":"65-08","provinceCode":"65","name":"İpekyolu"},"geometry":{"type":"Polygon","coordinates":[[[43.5860756,38.7963795],[43.5724027,38.7923743],[43.5525939,38.7792601],[43.5433678,38.7636046],[43.541197,38.7451943],[43.5623626,38.7030656],[43.5715887,38.6700228],[43.5753876,38.6376005],[43.5702319,38.6102527],[43.562634,38.6043154],[43.5506238,38.6029214],[43.4739404,38.5710887],[43.4577513,38.5656331],[43.4540391,38.5624285],[43.4395074,38.5562552],[43.4320235,38.5543241],[43.4235048,38.5432986],[43.4112954,38.5381293],[43.4131837,38.5314825],[43.4159302,38.5298878],[43.4180009,38.5254562],[43.4163219,38.5194966],[43.4133124,38.5206046],[43.4133232,38.5172133],[43.4103191,38.51425],[43.4075618,38.5124367],[43.4059203,38.5135112],[43.4041929,38.5105898],[43.4009635,38.5094648],[43.4030986,38.5060772],[43.3842587,38.5104554],[43.3750534,38.510573],[43.3745598,38.5083818],[43.3389239,38.515673],[43.3368694,38.5181199],[43.3260441,38.520655],[43.3207226,38.5165585],[43.3022688,38.5084155],[43.2480142,38.5094193],[43.3192935,38.4898399],[43.3256042,38.4908666],[43.3297241,38.488952],[43.3350134,38.4920675],[43.3506775,38.4899429],[43.3580375,38.4788823],[43.3680823,38.4887714],[43.3873907,38.4785764],[43.3984852,38.4795753],[43.4048474,38.4748801],[43.4061402,38.4706131],[43.417443,38.4669045],[43.4207421,38.4671145],[43.4239554,38.4639727],[43.4221744,38.4517739],[43.4311751,38.4472331],[43.4480888,38.4343373],[43.4529855,38.4338094],[43.4667097,38.4285307],[43.4816319,38.4318506],[43.5103483,38.4326469],[43.5277193,38.4242048],[43.5316023,38.4270741],[43.5376229,38.436178],[43.5645012,38.4369117],[43.5740198,38.4456124],[43.5875243,38.44899],[43.6027932,38.4588661],[43.6364675,38.4632493],[43.6327862,38.4711971],[43.6462035,38.4847018],[43.6596208,38.4863897],[43.669597,38.4944191],[43.6902813,38.4968332],[43.7131102,38.4967209],[43.7552812,38.4910544],[43.7654896,38.4965264],[43.7948888,38.4986802],[43.7873938,38.5025972],[43.7853921,38.5121002],[43.7867783,38.5159157],[43.8058979,38.5368766],[43.8091728,38.5527373],[43.8240036,38.567173],[43.8266784,38.5760644],[43.8212209,38.5842141],[43.8205788,38.5958564],[43.8149599,38.6041507],[43.8187739,38.6185962],[43.8333414,38.6287907],[43.8460333,38.6340453],[43.8565046,38.6528568],[43.8622656,38.6590384],[43.8485841,38.6621167],[43.85299,38.6699023],[43.8615872,38.6744552],[43.8563522,38.6798809],[43.8453743,38.7038012],[43.8435788,38.7259606],[43.8323308,38.7310352],[43.8308896,38.742937],[43.8171672,38.7462667],[43.7790495,38.7504287],[43.7739127,38.7447868],[43.7456584,38.744483],[43.7219113,38.7477513],[43.6980521,38.7477882],[43.6708119,38.7507355],[43.6607281,38.7554664],[43.6538463,38.7635581],[43.6454161,38.7691663],[43.6305035,38.7756606],[43.6157837,38.7701142],[43.6023279,38.774231],[43.5860756,38.7963795]]]}},{"type":"Feature","properties":{"code":"65-09","provinceCode":"65","name":"Muradiye"},"geometry":{"type":"Polygon","coordinates":[[[43.4784704,38.9294372],[43.5734936,38.9409861],[43.6371908,38.9254938],[43.6499098,38.9144376],[43.6475725,38.904248],[43.6444611,38.8987899],[43.6492753,38.8891049],[43.6495654,38.8768204],[43.6526443,38.8616475],[43.6357604,38.8564418],[43.6259905,38.845474],[43.6136227,38.8375993],[43.6056499,38.8359871],[43.59678,38.8272914],[43.5993661,38.8217395],[43.5916788,38.8145946],[43.5860756,38.7963795],[43.6023279,38.774231],[43.6157837,38.7701142],[43.6305035,38.7756606],[43.6454161,38.7691663],[43.6538463,38.7635581],[43.6607281,38.7554664],[43.6708119,38.7507355],[43.6980521,38.7477882],[43.7219113,38.7477513],[43.7456584,38.744483],[43.7739127,38.7447868],[43.7790495,38.7504287],[43.8171672,38.7462667],[43.8308896,38.742937],[43.8330241,38.7578007],[43.831042,38.7707592],[43.8318044,38.7803874],[43.8154459,38.8190104],[43.8188399,38.8239384],[43.8288201,38.8270484],[43.8309829,38.8425586],[43.8385411,38.8511912],[43.8462787,38.8657685],[43.8597572,38.8850059],[43.8682436,38.8927771],[43.8942065,38.9042179],[43.8839729,38.9143176],[43.8690634,38.9249254],[43.867,38.9366483],[43.8575102,38.9511081],[43.8492409,38.9699693],[43.8431768,39.0310197],[43.8547538,39.05093],[43.8617927,39.0776451],[43.8600436,39.0865837],[43.8531927,39.099933],[43.851152,39.1085295],[43.8310367,39.1301293],[43.8106299,39.1486704],[43.7919722,39.1588434],[43.7703993,39.1679978],[43.7345317,39.2004619],[43.7108514,39.1984627],[43.6857573,39.2051929],[43.660026,39.1994872],[43.6440875,39.2003281],[43.6376893,39.193268],[43.6491458,39.1614479],[43.6443403,39.1591835],[43.6362721,39.1620299],[43.6291748,39.1625562],[43.626706,39.1611889],[43.6261903,39.1558844],[43.6301991,39.1483759],[43.6313514,39.1255839],[43.6345204,39.1177614],[43.6345204,39.1079262],[43.6278944,39.0985367],[43.6273182,39.0790832],[43.6152186,39.0439638],[43.6083045,39.0137516],[43.5892908,38.9927073],[43.5754626,38.9956181],[43.5581774,38.9931552],[43.5475182,38.9893486],[43.5345497,38.9873333],[43.4784704,38.9294372]]]}},{"type":"Feature","properties":{"code":"65-10","provinceCode":"65","name":"Özalp"},"geometry":{"type":"Polygon","coordinates":[[[43.8308896,38.742937],[43.8323308,38.7310352],[43.8435788,38.7259606],[43.8453743,38.7038012],[43.8563522,38.6798809],[43.8615872,38.6744552],[43.85299,38.6699023],[43.8485841,38.6621167],[43.8622656,38.6590384],[43.8565046,38.6528568],[43.8460333,38.6340453],[43.8333414,38.6287907],[43.8187739,38.6185962],[43.8149599,38.6041507],[43.8205788,38.5958564],[43.8212209,38.5842141],[43.8266784,38.5760644],[43.8240036,38.567173],[43.8091728,38.5527373],[43.8058979,38.5368766],[43.7867783,38.5159157],[43.7853921,38.5121002],[43.7873938,38.5025972],[43.7948888,38.4986802],[43.8196067,38.4893049],[43.8348538,38.4896629],[43.849491,38.4926464],[43.8574195,38.4916917],[43.8894383,38.4807117],[43.9020934,38.4733112],[43.904546,38.4673185],[43.9166237,38.4641615],[43.9495623,38.4660334],[43.9615158,38.4693611],[43.9718756,38.4745603],[43.982501,38.4768478],[44.0004479,38.476081],[44.0328553,38.5120485],[44.0393848,38.5184075],[44.0506055,38.5252908],[44.0522631,38.5308768],[44.0558333,38.5345673],[44.0730469,38.5430448],[44.0889853,38.555111],[44.099441,38.5786392],[44.1041587,38.6126219],[44.1222648,38.6409119],[44.1229024,38.663715],[44.1118092,38.7049216],[44.1203522,38.7168611],[44.1389245,38.7285745],[44.1407534,38.7391428],[44.149679,38.7522698],[44.1700802,38.7517726],[44.1810459,38.7545568],[44.1903539,38.7542585],[44.2034872,38.7515737],[44.2147079,38.7517726],[44.2329415,38.7474966],[44.2620133,38.7517726],[44.2821269,38.7493867],[44.2863845,38.7525111],[44.2876757,38.7575641],[44.292505,38.7641949],[44.2890161,38.7717856],[44.2913361,38.7749852],[44.2899882,38.779509],[44.2864982,38.7831041],[44.2888377,38.7859756],[44.300227,38.7914997],[44.3031487,38.8029532],[44.3148364,38.8072531],[44.3135464,38.8102486],[44.3060656,38.815769],[44.3021981,38.8241669],[44.2950267,38.8263251],[44.3004488,38.835752],[44.3009879,38.8408017],[44.2964366,38.8410655],[44.289747,38.8454494],[44.2820406,38.847847],[44.281026,38.8512857],[44.27748,38.8542313],[44.2666064,38.8527613],[44.2569929,38.8469492],[44.2544356,38.8488171],[44.245308,38.8506821],[44.2410992,38.8584455],[44.2436893,38.8609583],[44.2454553,38.8702175],[44.2398948,38.872287],[44.2309135,38.8811148],[44.2192696,38.8851026],[44.2113518,38.8905571],[44.2101228,38.8979001],[44.216515,38.9035116],[44.2202203,38.9042982],[44.2192992,38.9150764],[44.2149161,38.9204472],[44.199469,38.9215112],[44.197876,38.923048],[44.1957626,38.9307797],[44.1897152,38.9340273],[44.1973567,38.9421479],[44.1902488,38.9433336],[44.1717969,38.9419882],[44.1667994,38.9428851],[44.1621865,38.9473698],[44.1495007,38.9508079],[44.1085604,38.9467719],[44.0816081,38.9511161],[44.0754261,38.9484913],[44.0688985,38.9360009],[44.0609701,38.9315304],[44.066659,38.9132791],[44.0668512,38.904006],[44.0662746,38.9001169],[44.0566642,38.8971251],[44.0089966,38.8962276],[43.9891991,38.8998177],[43.9759368,38.9056513],[43.9661342,38.9068479],[43.9334588,38.9047538],[43.8942065,38.9042179],[43.8682436,38.8927771],[43.8597572,38.8850059],[43.8462787,38.8657685],[43.8385411,38.8511912],[43.8309829,38.8425586],[43.8288201,38.8270484],[43.8188399,38.8239384],[43.8154459,38.8190104],[43.8318044,38.7803874],[43.831042,38.7707592],[43.8330241,38.7578007],[43.8308896,38.742937]]]}},{"type":"Feature","properties":{"code":"65-11","provinceCode":"65","name":"Saray"},"geometry":{"type":"Polygon","coordinates":[[[44.3090648,38.3847212],[44.3036725,38.3925576],[44.3000078,38.3943783],[44.3070599,38.3959144],[44.3107323,38.3952057],[44.3138492,38.4044728],[44.3198318,38.4086056],[44.3173379,38.411838],[44.3181184,38.4163786],[44.3160531,38.4189069],[44.3174565,38.4324044],[44.3052696,38.4409624],[44.3019383,38.4472285],[44.3088961,38.4508763],[44.3094456,38.4576972],[44.3137012,38.465112],[44.3116946,38.4763474],[44.3193512,38.4823315],[44.3226619,38.4831586],[44.3221616,38.489227],[44.3194615,38.4915576],[44.3199259,38.4967157],[44.3254601,38.502081],[44.3224173,38.5046696],[44.3197075,38.5125041],[44.3133674,38.5150921],[44.3147281,38.5186098],[44.3093356,38.5302464],[44.3103947,38.537234],[44.3130195,38.5390451],[44.3132509,38.5463209],[44.3163089,38.5490348],[44.3127907,38.5617214],[44.315384,38.5654119],[44.3174009,38.5743174],[44.3249447,38.5774874],[44.3245993,38.5820946],[44.3215816,38.5857076],[44.321783,38.5937353],[44.3176394,38.5986565],[44.320678,38.6008058],[44.3193612,38.6049039],[44.3167174,38.6068434],[44.3222742,38.6095996],[44.3205551,38.6189994],[44.3216199,38.6240924],[44.3120286,38.6301056],[44.3068138,38.6357953],[44.2940001,38.6386411],[44.2910979,38.6404941],[44.2814012,38.6415394],[44.2721185,38.6462477],[44.2693126,38.6508529],[44.2728633,38.6554093],[44.2792605,38.6571906],[44.281571,38.6630314],[44.2799304,38.6689078],[44.2826414,38.674969],[44.2718366,38.684796],[44.2735923,38.6899112],[44.269405,38.6972487],[44.2714288,38.7026035],[44.2677889,38.7048953],[44.2612371,38.7041787],[44.2608988,38.7147018],[44.2540673,38.718334],[44.25612,38.7198635],[44.2633298,38.7191828],[44.2644978,38.721776],[44.2691063,38.7219717],[44.2694928,38.7254647],[44.2736689,38.7261773],[44.2736591,38.7294056],[44.2761536,38.729443],[44.2801473,38.7329247],[44.2810098,38.7360556],[44.2785385,38.7375707],[44.2765516,38.7426255],[44.2773726,38.7464973],[44.2821269,38.7493867],[44.2620133,38.7517726],[44.2329415,38.7474966],[44.2147079,38.7517726],[44.2034872,38.7515737],[44.1903539,38.7542585],[44.1810459,38.7545568],[44.1700802,38.7517726],[44.149679,38.7522698],[44.1407534,38.7391428],[44.1389245,38.7285745],[44.1203522,38.7168611],[44.1118092,38.7049216],[44.1229024,38.663715],[44.1222648,38.6409119],[44.1041587,38.6126219],[44.099441,38.5786392],[44.0889853,38.555111],[44.0730469,38.5430448],[44.0558333,38.5345673],[44.0522631,38.5308768],[44.0506055,38.5252908],[44.0393848,38.5184075],[44.0328553,38.5120485],[44.0004479,38.476081],[44.0072049,38.4720647],[44.0072049,38.4658254],[44.0018923,38.4600016],[43.9920638,38.4404466],[43.9902043,38.4298348],[43.9917982,38.421927],[44.0101269,38.4044434],[44.0297839,38.3948673],[44.047847,38.3900787],[44.0544878,38.3842488],[44.0608631,38.3769607],[44.0714884,38.35655],[44.1075608,38.3200927],[44.0993356,38.303312],[44.1279495,38.3146786],[44.1394871,38.3177263],[44.1717945,38.3182233],[44.1844367,38.3146562],[44.2194175,38.297121],[44.2228413,38.3100125],[44.2206381,38.3239618],[44.2341359,38.3268088],[44.2356673,38.3373969],[44.2528062,38.3433573],[44.2549081,38.3481761],[44.2600822,38.3532481],[44.264286,38.3679549],[44.2681666,38.3737861],[44.2772211,38.378983],[44.2911263,38.3826587],[44.3090648,38.3847212]]]}},{"type":"Feature","properties":{"code":"65-12","provinceCode":"65","name":"Tuşba"},"geometry":{"type":"Polygon","coordinates":[[[43.4784704,38.9294372],[43.1991072,38.8954733],[43.196576,38.881538],[43.1882449,38.8623012],[43.1877306,38.845488],[43.1839392,38.8290688],[43.1346278,38.7826879],[43.116309,38.7744104],[43.0709766,38.7607993],[43.0410765,38.7452434],[43.0263675,38.7338524],[43.0021326,38.7024573],[42.9846415,38.6830254],[42.9762115,38.6760674],[42.9524425,38.6471904],[42.9287715,38.6238444],[42.9064025,38.5932883],[43.2480142,38.5094193],[43.3022688,38.5084155],[43.3207226,38.5165585],[43.3260441,38.520655],[43.3368694,38.5181199],[43.3389239,38.515673],[43.3745598,38.5083818],[43.3750534,38.510573],[43.3842587,38.5104554],[43.4030986,38.5060772],[43.4009635,38.5094648],[43.4041929,38.5105898],[43.4059203,38.5135112],[43.4075618,38.5124367],[43.4103191,38.51425],[43.4133232,38.5172133],[43.4133124,38.5206046],[43.4163219,38.5194966],[43.4180009,38.5254562],[43.4159302,38.5298878],[43.4131837,38.5314825],[43.4112954,38.5381293],[43.4235048,38.5432986],[43.4320235,38.5543241],[43.4395074,38.5562552],[43.4540391,38.5624285],[43.4577513,38.5656331],[43.4739404,38.5710887],[43.5506238,38.6029214],[43.562634,38.6043154],[43.5702319,38.6102527],[43.5753876,38.6376005],[43.5715887,38.6700228],[43.5623626,38.7030656],[43.541197,38.7451943],[43.5433678,38.7636046],[43.5525939,38.7792601],[43.5724027,38.7923743],[43.5860756,38.7963795],[43.5916788,38.8145946],[43.5993661,38.8217395],[43.59678,38.8272914],[43.6056499,38.8359871],[43.6136227,38.8375993],[43.6259905,38.845474],[43.6357604,38.8564418],[43.6526443,38.8616475],[43.6495654,38.8768204],[43.6492753,38.8891049],[43.6444611,38.8987899],[43.6475725,38.904248],[43.6499098,38.9144376],[43.6371908,38.9254938],[43.5734936,38.9409861],[43.4784704,38.9294372]]]}}]}