{"type":"FeatureCollection","features":[{"type":"Feature","properties":{"code":"47-01","provinceCode":"47","name":"Artuklu"},"geometry":{"type":"Polygon","coordinates":[[[40.7346408,37.1096285],[40.7430866,37.1111649],[40.7494636,37.1093803],[40.7536277,37.1101418],[40.7629743,37.1258889],[40.7688145,37.1274227],[40.7758599,37.1224573],[40.798198,37.1190191],[40.8013788,37.1198715],[40.8085123,37.1255506],[40.8116643,37.1256048],[40.82144,37.1111493],[40.8348279,37.106563],[40.8427949,37.1105093],[40.8454797,37.118947],[40.8489326,37.1222031],[40.8727364,37.1287744],[40.8890061,37.1278105],[40.9088623,37.1320065],[40.9811202,37.1162631],[41.0127047,37.1157112],[41.0676924,37.1055157],[41.0752655,37.1308172],[41.0225577,37.1726407],[41.0162327,37.1808534],[41.0127189,37.1886918],[41.0134216,37.1955965],[41.0220892,37.2103367],[41.0270086,37.2286181],[41.0274771,37.2401816],[41.0216206,37.2450303],[41.0211521,37.2485734],[41.0167012,37.2513704],[40.9944056,37.2562816],[40.9871313,37.2608453],[40.9764971,37.261729],[40.9707819,37.259187],[40.9320438,37.2582394],[40.9267408,37.2427293],[40.914806,37.2297479],[40.9048884,37.2218509],[40.8907683,37.2163627],[40.8736226,37.2131498],[40.8526106,37.2120789],[40.8273963,37.217969],[40.8183191,37.2243941],[40.8095781,37.2334953],[40.8065524,37.2408558],[40.8035697,37.2618646],[40.8118526,37.2754315],[40.8200685,37.2962038],[40.8205044,37.3045276],[40.8098828,37.3233033],[40.8085294,37.3302381],[40.8100097,37.3392545],[40.8261872,37.3633614],[40.8065255,37.3802455],[40.7930779,37.3972341],[40.7823092,37.4191042],[40.7841381,37.4261101],[40.7907275,37.4310651],[40.7900123,37.437047],[40.7796953,37.4498845],[40.768103,37.450766],[40.7492806,37.4601675],[40.7453408,37.4768444],[40.7316496,37.5018439],[40.7046878,37.5285295],[40.696665,37.533138],[40.6741784,37.5336622],[40.6686559,37.525137],[40.6529549,37.4910537],[40.6461578,37.4641817],[40.6219114,37.4608739],[40.6130065,37.4566838],[40.6093157,37.4398529],[40.5805324,37.4156438],[40.5779059,37.4070903],[40.5721276,37.4029176],[40.5663493,37.4012484],[40.5631975,37.3956147],[40.5519036,37.3864329],[40.5513783,37.3766238],[40.5448121,37.3711969],[40.5273964,37.3395336],[40.5268869,37.3264518],[40.535188,37.3164996],[40.5671373,37.3230398],[40.5834164,37.3302083],[40.5934022,37.3390452],[40.6105161,37.3475406],[40.639667,37.3414299],[40.6523118,37.3322799],[40.6520422,37.2978622],[40.6887376,37.2862715],[40.7063352,37.2735233],[40.7186797,37.2584735],[40.7202556,37.2507384],[40.7035892,37.2343153],[40.6950441,37.2218345],[40.6859562,37.192648],[40.7136226,37.1791112],[40.7226194,37.1597392],[40.7268218,37.1323133],[40.7346408,37.1096285]]]}},{"type":"Feature","properties":{"code":"47-02","provinceCode":"47","name":"Dargeçit"},"geometry":{"type":"Polygon","coordinates":[[[41.549146,37.5295005],[41.5485037,37.5193999],[41.5522218,37.509128],[41.5670314,37.4880876],[41.579964,37.4840776],[41.6040649,37.4838499],[41.6169761,37.4902246],[41.6228099,37.4948555],[41.6448069,37.500696],[41.6643172,37.5011512],[41.6800975,37.4991026],[41.6988423,37.4913483],[41.6951722,37.4828714],[41.6920614,37.4822291],[41.6918208,37.4780396],[41.6861496,37.4709576],[41.6828055,37.4610936],[41.6765326,37.4540036],[41.6811796,37.4486121],[41.6964251,37.4402932],[41.7066721,37.4369035],[41.7359869,37.4212873],[41.7519837,37.418285],[41.7587642,37.4101916],[41.7613332,37.4124955],[41.7679897,37.4134262],[41.7695213,37.4196224],[41.7800322,37.4201999],[41.7845294,37.4172303],[41.8054893,37.411784],[41.8203817,37.4031802],[41.8219793,37.4033198],[41.820633,37.4095667],[41.8223997,37.4128133],[41.8337143,37.4077552],[41.8363804,37.4087311],[41.8417445,37.4148012],[41.8426887,37.4120743],[41.8388263,37.4013702],[41.8406287,37.3993928],[41.853675,37.4032111],[41.8561641,37.3986427],[41.8601998,37.3975132],[41.8632022,37.400211],[41.8595025,37.4053072],[41.8617035,37.4070355],[41.8690252,37.4035015],[41.865667,37.4001585],[41.8667439,37.3975903],[41.8753365,37.4032793],[41.8720038,37.4074522],[41.8729914,37.4109144],[41.874459,37.4117675],[41.8810567,37.4105837],[41.8742919,37.4155659],[41.8706689,37.4154144],[41.8652661,37.4177752],[41.8581038,37.4309252],[41.8464737,37.4414207],[41.8477612,37.4455435],[41.8576746,37.451097],[41.8603354,37.4575699],[41.8486499,37.4670743],[41.8498516,37.4707529],[41.8560314,37.4767473],[41.8534565,37.4851931],[41.8546581,37.4935018],[41.8529415,37.4994944],[41.8381786,37.5170607],[41.8378806,37.5205327],[41.8425572,37.5209191],[41.855113,37.5304384],[41.8553447,37.5380259],[41.8510532,37.5485063],[41.8529415,37.5513644],[41.8678702,37.5458489],[41.8728623,37.5491881],[41.8820652,37.5513934],[41.8874989,37.5548721],[41.890707,37.5544945],[41.892902,37.5695171],[41.8970527,37.5737782],[41.8972301,37.5781702],[41.8903637,37.5870126],[41.8807506,37.5900052],[41.8762874,37.5929976],[41.8766307,37.6006143],[41.8738842,37.6056463],[41.8642711,37.6114938],[41.8546581,37.6136696],[41.8516626,37.6184405],[41.8486499,37.6199244],[41.8380069,37.6200604],[41.8307972,37.6244113],[41.8300221,37.6280064],[41.8365342,37.6373397],[41.823759,37.64589],[41.8251997,37.6590003],[41.8196392,37.6681777],[41.8200623,37.6780356],[41.8140854,37.6854609],[41.8147588,37.6925785],[41.8124738,37.695317],[41.8083653,37.6717629],[41.7721926,37.6680122],[41.7482236,37.6737634],[41.7286096,37.6827811],[41.7133131,37.6571429],[41.7116838,37.6482288],[41.7039843,37.6349484],[41.6901116,37.6225511],[41.685617,37.6163418],[41.6830787,37.6205718],[41.6636835,37.6208368],[41.6688455,37.62504],[41.6702561,37.6303017],[41.6671465,37.6329567],[41.6607077,37.6335331],[41.6559673,37.6302173],[41.6510082,37.6196985],[41.6481163,37.6091187],[41.6484048,37.6032556],[41.6415936,37.6037331],[41.6312641,37.6005315],[41.6263281,37.590868],[41.6220804,37.5867085],[41.6215141,37.5819779],[41.6178263,37.5801181],[41.6177534,37.5756951],[41.6097505,37.5746861],[41.6033899,37.5703859],[41.5988331,37.5693662],[41.6003141,37.5649846],[41.5950963,37.5658268],[41.5978868,37.5629829],[41.6007124,37.5638342],[41.6015511,37.5602559],[41.5981167,37.5598636],[41.5980561,37.5564893],[41.5839143,37.556468],[41.5772367,37.5442073],[41.5763162,37.5383854],[41.5677345,37.533514],[41.5686029,37.5264439],[41.5660357,37.5257054],[41.549146,37.5295005]]]}},{"type":"Feature","properties":{"code":"47-03","provinceCode":"47","name":"Derik"},"geometry":{"type":"Polygon","coordinates":[[[40.0956053,37.1353953],[40.1006815,37.1357018],[40.1070993,37.1384797],[40.1087766,37.1376896],[40.1055937,37.1315188],[40.1122372,37.1281066],[40.11764,37.1204865],[40.1168972,37.116468],[40.1249722,37.1166652],[40.1282349,37.1095526],[40.1335485,37.1129073],[40.1355268,37.1124219],[40.136821,37.1109041],[40.1347767,37.1088663],[40.1357973,37.1063665],[40.131868,37.103129],[40.1321417,37.0982501],[40.1268498,37.0942549],[40.1265665,37.0921077],[40.1277893,37.088332],[40.134087,37.0887629],[40.1435971,37.0857263],[40.1645406,37.0919531],[40.1896861,37.0939987],[40.2038399,37.096571],[40.2158438,37.106002],[40.2303559,37.1135746],[40.2384182,37.1245748],[40.2446889,37.1284317],[40.247018,37.1348594],[40.2559761,37.1431431],[40.2565136,37.1495695],[40.260276,37.1544247],[40.2951851,37.1659261],[40.3086497,37.1865465],[40.3181453,37.1898293],[40.337674,37.2058131],[40.3468112,37.2095231],[40.3523653,37.2163719],[40.36204,37.2223641],[40.3823024,37.2244992],[40.3950807,37.2275103],[40.3966378,37.2333853],[40.4060635,37.2372724],[40.4090834,37.245479],[40.4014196,37.2637328],[40.4022452,37.2730768],[40.4084829,37.2891341],[40.4198454,37.2967056],[40.3911882,37.2995977],[40.3519282,37.3124791],[40.3375364,37.3287517],[40.3205842,37.3565462],[40.3175772,37.3691344],[40.3157907,37.3817953],[40.3228261,37.3959695],[40.3228261,37.4085444],[40.3137806,37.4225141],[40.3049863,37.4292984],[40.2693068,37.4350845],[40.2378387,37.4352178],[40.215968,37.4457304],[40.2196383,37.4558007],[40.2366425,37.4644074],[40.2471956,37.4723844],[40.2489545,37.4783666],[40.2479494,37.4833514],[40.2411653,37.4847471],[40.2258979,37.4826179],[40.1815638,37.4648203],[40.1787814,37.4742754],[40.1878798,37.4846996],[40.2044529,37.4945986],[40.2329359,37.5187796],[40.2160496,37.5233073],[40.1576037,37.5486211],[40.1453815,37.5611677],[40.1226432,37.5624414],[40.1019724,37.5553075],[40.0805414,37.5372528],[40.0189499,37.518531],[39.9951303,37.5128299],[39.9463905,37.5371285],[39.9220156,37.5269653],[39.8952659,37.5064402],[39.8847598,37.4908088],[39.886114,37.4817777],[39.8913479,37.4707294],[39.9037793,37.4552337],[39.9518591,37.4034536],[39.9493452,37.3866351],[39.9588753,37.3734156],[39.9622312,37.3722979],[39.9625593,37.3678993],[39.9663663,37.3660954],[39.9683253,37.3628029],[39.9667627,37.353995],[39.9689336,37.3517478],[39.9659039,37.3469403],[39.9692572,37.3458097],[39.9702415,37.3411487],[39.9793145,37.3301847],[39.9775307,37.328423],[39.9778056,37.3228976],[39.9843599,37.3165198],[39.983758,37.3106667],[39.9869529,37.3057934],[39.9838499,37.3009149],[39.9871139,37.2959445],[39.9932397,37.2954495],[39.9936026,37.290782],[39.9967156,37.2883616],[40.000272,37.2786048],[40.0088874,37.270628],[40.0077438,37.2649279],[40.0112119,37.2626439],[40.012197,37.2577972],[40.0039496,37.2516606],[40.0102871,37.2474393],[40.0131394,37.2386401],[40.0119812,37.234475],[40.0131164,37.2320416],[40.0202496,37.2289253],[40.0179706,37.2254836],[40.0118066,37.224502],[40.0120806,37.2210699],[40.0158827,37.218455],[40.0210982,37.2179664],[40.0237877,37.2138704],[40.0202266,37.2080756],[40.0190095,37.2019532],[40.0219763,37.1986179],[40.0323103,37.1924617],[40.0317963,37.1858443],[40.0350112,37.1864579],[40.0429969,37.1932901],[40.0503935,37.1887687],[40.0499619,37.1845106],[40.0468809,37.1806998],[40.0550956,37.179684],[40.0596846,37.1769102],[40.0613733,37.1743466],[40.0591462,37.1725097],[40.0597259,37.1699671],[40.0692963,37.1687206],[40.072919,37.1620807],[40.081589,37.1637447],[40.0823769,37.1611054],[40.0785372,37.1577493],[40.0802162,37.1557016],[40.087157,37.1566851],[40.0903229,37.1586348],[40.0913871,37.1613421],[40.0899337,37.1667713],[40.0926026,37.1685437],[40.1009139,37.1674362],[40.1022767,37.1656866],[40.100082,37.1637045],[40.1026156,37.1584849],[40.1034205,37.1507127],[40.0956053,37.1353953]]]}},{"type":"Feature","properties":{"code":"47-04","provinceCode":"47","name":"İdil"},"geometry":{"type":"Polygon","coordinates":[[[41.6645674,37.1183115],[41.6942184,37.1143952],[41.7942375,37.1284094],[41.8070752,37.1345251],[41.8154183,37.1348495],[41.8246581,37.1383424],[41.8573373,37.1416627],[41.874227,37.1449069],[41.9299215,37.1587179],[41.960356,37.1920256],[42.00757,37.1946319],[42.0279567,37.2099741],[42.0315146,37.2321675],[42.012539,37.2524665],[42.013725,37.272288],[42.0433744,37.2803096],[42.0457464,37.3284209],[42.064129,37.3486939],[42.0552342,37.3746164],[42.0830199,37.3858725],[42.1000726,37.3904111],[42.0829576,37.395313],[42.0773827,37.3978495],[42.0713565,37.4031311],[42.0619251,37.4046939],[42.0437308,37.4131075],[42.0402279,37.4167471],[42.0298554,37.4180774],[42.0256264,37.4216202],[42.0140774,37.4254774],[41.9915906,37.4236028],[41.9710916,37.430213],[41.9600502,37.4248023],[41.9525351,37.4265592],[41.9440081,37.4340605],[41.9368024,37.4349484],[41.9438589,37.4203774],[41.9379896,37.4134559],[41.9109751,37.4122339],[41.906116,37.4112688],[41.8934439,37.4047556],[41.8880915,37.405717],[41.8854178,37.4088218],[41.8861506,37.4131548],[41.8846851,37.4159032],[41.8815097,37.4167762],[41.8742919,37.4155659],[41.8810567,37.4105837],[41.874459,37.4117675],[41.8729914,37.4109144],[41.8720038,37.4074522],[41.8753365,37.4032793],[41.8667439,37.3975903],[41.865667,37.4001585],[41.8690252,37.4035015],[41.8617035,37.4070355],[41.8595025,37.4053072],[41.8632022,37.400211],[41.8601998,37.3975132],[41.8561641,37.3986427],[41.853675,37.4032111],[41.8406287,37.3993928],[41.8388263,37.4013702],[41.8426887,37.4120743],[41.8417445,37.4148012],[41.8363804,37.4087311],[41.8337143,37.4077552],[41.8223997,37.4128133],[41.820633,37.4095667],[41.8219793,37.4033198],[41.8203817,37.4031802],[41.8054893,37.411784],[41.7845294,37.4172303],[41.7800322,37.4201999],[41.7695213,37.4196224],[41.7679897,37.4134262],[41.7613332,37.4124955],[41.7587642,37.4101916],[41.7519837,37.418285],[41.7359869,37.4212873],[41.7066721,37.4369035],[41.6964251,37.4402932],[41.70159,37.4337798],[41.6908758,37.4273349],[41.69816,37.41816],[41.6921297,37.4154782],[41.6894455,37.4158039],[41.6912456,37.4140083],[41.6894636,37.4106953],[41.6826595,37.4101004],[41.6794912,37.4129436],[41.6773809,37.4115823],[41.6740148,37.4118281],[41.6689421,37.4153576],[41.6656983,37.4150483],[41.661339,37.4119085],[41.6612002,37.407066],[41.6555125,37.4093722],[41.6520103,37.4045227],[41.6472368,37.4042443],[41.6361401,37.4101375],[41.6384326,37.4121993],[41.6334064,37.4131961],[41.6333508,37.4176921],[41.6280166,37.4202454],[41.6343805,37.4227195],[41.6301008,37.4273903],[41.6322365,37.4294786],[41.6264032,37.4292228],[41.618004,37.4375636],[41.6174264,37.4403211],[41.6181189,37.4424178],[41.6208633,37.443572],[41.621276,37.4491089],[41.6181535,37.4494692],[41.6156747,37.4535659],[41.6118284,37.4533391],[41.610461,37.4581254],[41.6051401,37.4555656],[41.6047352,37.4582712],[41.5995147,37.4563336],[41.5991608,37.4531317],[41.6037745,37.4529719],[41.601181,37.4502813],[41.6040428,37.4486648],[41.6060277,37.4446052],[41.6048837,37.4438369],[41.6033643,37.4454439],[41.6005596,37.4442452],[41.6019322,37.4430048],[41.6002938,37.4406727],[41.5975278,37.4429077],[41.5971975,37.4416981],[41.5938813,37.4421602],[41.591341,37.44115],[41.5914222,37.4395116],[41.5894929,37.4396931],[41.5892219,37.4301378],[41.5929458,37.4321375],[41.5937707,37.4305525],[41.6011402,37.4298509],[41.6022467,37.4274231],[41.6070606,37.425986],[41.6062261,37.4243655],[41.6041941,37.4255559],[41.6008275,37.4196045],[41.6008892,37.4117733],[41.6054812,37.4101416],[41.6062885,37.4112096],[41.6109706,37.4066997],[41.608816,37.4035909],[41.6035707,37.4016967],[41.6005462,37.4037424],[41.5938542,37.4026363],[41.5914647,37.4043839],[41.5871833,37.3987484],[41.5903983,37.3950658],[41.590381,37.3915813],[41.5985873,37.3812045],[41.5912868,37.3808064],[41.5896415,37.3837221],[41.5806759,37.3877169],[41.5768013,37.3851231],[41.5744503,37.3860022],[41.575154,37.3801301],[41.5729974,37.3786665],[41.575524,37.3761741],[41.5738346,37.3726279],[41.5715401,37.37267],[41.569846,37.3682144],[41.5719574,37.3671432],[41.5696316,37.3642484],[41.564611,37.3646203],[41.5637116,37.3636019],[41.5662815,37.362722],[41.5665651,37.3603728],[41.5640213,37.360003],[41.5639368,37.3554908],[41.5685776,37.3519761],[41.5711835,37.3474923],[41.5707335,37.3424983],[41.5631112,37.3370518],[41.5644303,37.3324858],[41.5691728,37.331446],[41.5726015,37.3282789],[41.5747057,37.3229456],[41.5767946,37.3231051],[41.5758754,37.3149771],[41.5786745,37.3161465],[41.5781049,37.3085293],[41.5745818,37.302996],[41.5765084,37.2943185],[41.5672488,37.2919732],[41.5641877,37.2895375],[41.5563486,37.2878495],[41.5501455,37.2844397],[41.5454871,37.275755],[41.5473679,37.2725842],[41.5497238,37.2730821],[41.5522503,37.270646],[41.5513149,37.2683304],[41.5634882,37.2657187],[41.5627112,37.2617275],[41.5642027,37.2623419],[41.5665831,37.2496506],[41.5642971,37.24668],[41.5641866,37.24098],[41.5678231,37.2381074],[41.5776149,37.2416376],[41.5850622,37.2479658],[41.5941825,37.2499543],[41.6014409,37.2498335],[41.6053691,37.2578078],[41.6097603,37.2588174],[41.6152777,37.2635889],[41.6238678,37.2675532],[41.6267011,37.2685123],[41.6310476,37.2675981],[41.638308,37.2725609],[41.649983,37.2643362],[41.6578595,37.2627253],[41.6579555,37.2600824],[41.6474429,37.2469321],[41.6524618,37.236669],[41.6661835,37.222453],[41.6729848,37.2115132],[41.6778963,37.1933009],[41.6797084,37.1771001],[41.6679663,37.1594007],[41.6645674,37.1183115]]]}},{"type":"Feature","properties":{"code":"47-05","provinceCode":"47","name":"Kızıltepe"},"geometry":{"type":"Polygon","coordinates":[[[40.1435971,37.0857263],[40.1451203,37.0830068],[40.1506392,37.0808069],[40.1518932,37.0779234],[40.1495014,37.0725371],[40.1507013,37.0703972],[40.1575246,37.0708716],[40.1612567,37.0690645],[40.1552243,37.0647895],[40.1547952,37.0626782],[40.1567242,37.0586876],[40.1632705,37.0550306],[40.1638123,37.0537337],[40.1584957,37.0488218],[40.1584241,37.0460808],[40.1660445,37.0394224],[40.1659704,37.0371747],[40.1589327,37.0303253],[40.1592929,37.0233782],[40.1624222,37.0200263],[40.1599594,37.0171497],[40.1612234,37.0150191],[40.1666879,37.0131338],[40.1675041,37.0105268],[40.1660251,37.0090645],[40.174745,37.0065845],[40.1763322,37.0003948],[40.1844575,36.9983152],[40.1871257,36.992754],[40.1804173,36.9928845],[40.1777018,36.9908708],[40.1743818,36.9847772],[40.1774296,36.9787576],[40.1820018,36.9760798],[40.1854792,36.9763113],[40.2079093,36.9706395],[40.214334,36.9647689],[40.2198151,36.9647737],[40.2384707,36.9559114],[40.2384707,36.9535944],[40.2352079,36.9507002],[40.2345199,36.9450064],[40.219567,36.9420262],[40.2132582,36.9355656],[40.2179618,36.9233483],[40.2253816,36.9174225],[40.2332533,36.9168637],[40.2333992,36.9114341],[40.2392089,36.9155554],[40.2667186,36.9218312],[40.3072408,36.9396534],[40.3382928,36.9582132],[40.3573529,36.963048],[40.3792011,36.9796666],[40.3830693,36.9914056],[40.3983833,37.0077839],[40.4121452,37.0147303],[40.4153428,37.0157543],[40.4160701,37.0117121],[40.419546,37.0118956],[40.4191106,37.0162703],[40.5297442,37.0280266],[40.5706947,37.0491324],[40.5898018,37.0621956],[40.6176415,37.0640516],[40.6309427,37.0722132],[40.6776753,37.0921055],[40.6960685,37.1039552],[40.7117729,37.1040503],[40.7226471,37.1084048],[40.7346408,37.1096285],[40.7268218,37.1323133],[40.7226194,37.1597392],[40.7136226,37.1791112],[40.6859562,37.192648],[40.6950441,37.2218345],[40.7035892,37.2343153],[40.7202556,37.2507384],[40.7186797,37.2584735],[40.7063352,37.2735233],[40.6887376,37.2862715],[40.6520422,37.2978622],[40.6523118,37.3322799],[40.639667,37.3414299],[40.6105161,37.3475406],[40.5934022,37.3390452],[40.5834164,37.3302083],[40.5671373,37.3230398],[40.535188,37.3164996],[40.4675335,37.314144],[40.437523,37.3099354],[40.4247635,37.3032996],[40.4198454,37.2967056],[40.4084829,37.2891341],[40.4022452,37.2730768],[40.4014196,37.2637328],[40.4090834,37.245479],[40.4060635,37.2372724],[40.3966378,37.2333853],[40.3950807,37.2275103],[40.3823024,37.2244992],[40.36204,37.2223641],[40.3523653,37.2163719],[40.3468112,37.2095231],[40.337674,37.2058131],[40.3181453,37.1898293],[40.3086497,37.1865465],[40.2951851,37.1659261],[40.260276,37.1544247],[40.2565136,37.1495695],[40.2559761,37.1431431],[40.247018,37.1348594],[40.2446889,37.1284317],[40.2384182,37.1245748],[40.2303559,37.1135746],[40.2158438,37.106002],[40.2038399,37.096571],[40.1896861,37.0939987],[40.1645406,37.0919531],[40.1435971,37.0857263]]]}},{"type":"Feature","properties":{"code":"47-06","provinceCode":"47","name":"Mazıdağı"},"geometry":{"type":"Polygon","coordinates":[[[40.2329359,37.5187796],[40.2044529,37.4945986],[40.1878798,37.4846996],[40.1787814,37.4742754],[40.1815638,37.4648203],[40.2258979,37.4826179],[40.2411653,37.4847471],[40.2479494,37.4833514],[40.2489545,37.4783666],[40.2471956,37.4723844],[40.2366425,37.4644074],[40.2196383,37.4558007],[40.215968,37.4457304],[40.2378387,37.4352178],[40.2693068,37.4350845],[40.3049863,37.4292984],[40.3137806,37.4225141],[40.3228261,37.4085444],[40.3228261,37.3959695],[40.3157907,37.3817953],[40.3175772,37.3691344],[40.3205842,37.3565462],[40.3375364,37.3287517],[40.3519282,37.3124791],[40.3911882,37.2995977],[40.4198454,37.2967056],[40.4247635,37.3032996],[40.437523,37.3099354],[40.4675335,37.314144],[40.535188,37.3164996],[40.5268869,37.3264518],[40.5273964,37.3395336],[40.5448121,37.3711969],[40.5513783,37.3766238],[40.5519036,37.3864329],[40.5631975,37.3956147],[40.5663493,37.4012484],[40.5721276,37.4029176],[40.5779059,37.4070903],[40.5805324,37.4156438],[40.6093157,37.4398529],[40.6130065,37.4566838],[40.6219114,37.4608739],[40.6461578,37.4641817],[40.6529549,37.4910537],[40.6686559,37.525137],[40.6741784,37.5336622],[40.6614195,37.5342234],[40.6489568,37.5382082],[40.6238419,37.5502306],[40.5887134,37.5571468],[40.5624147,37.5651833],[40.5432752,37.585174],[40.5223701,37.5927797],[40.4984705,37.5933207],[40.4468276,37.603916],[40.4393525,37.6026541],[40.4351313,37.599469],[40.4346722,37.5891907],[40.4398045,37.581737],[40.4517521,37.5738571],[40.4518152,37.5658575],[40.4435827,37.5549843],[40.4073275,37.5464176],[40.3911182,37.5494521],[40.3569159,37.5325572],[40.3208668,37.5217962],[40.2672943,37.5175731],[40.2329359,37.5187796]]]}},{"type":"Feature","properties":{"code":"47-07","provinceCode":"47","name":"Midyat"},"geometry":{"type":"Polygon","coordinates":[[[41.5513149,37.2683304],[41.5522503,37.270646],[41.5497238,37.2730821],[41.5473679,37.2725842],[41.5454871,37.275755],[41.5501455,37.2844397],[41.5563486,37.2878495],[41.5641877,37.2895375],[41.5672488,37.2919732],[41.5765084,37.2943185],[41.5745818,37.302996],[41.5781049,37.3085293],[41.5786745,37.3161465],[41.5758754,37.3149771],[41.5767946,37.3231051],[41.5747057,37.3229456],[41.5726015,37.3282789],[41.5691728,37.331446],[41.5644303,37.3324858],[41.5631112,37.3370518],[41.5707335,37.3424983],[41.5711835,37.3474923],[41.5685776,37.3519761],[41.5639368,37.3554908],[41.5640213,37.360003],[41.5665651,37.3603728],[41.5662815,37.362722],[41.5637116,37.3636019],[41.564611,37.3646203],[41.5696316,37.3642484],[41.5719574,37.3671432],[41.569846,37.3682144],[41.5715401,37.37267],[41.5738346,37.3726279],[41.575524,37.3761741],[41.5729974,37.3786665],[41.575154,37.3801301],[41.5744503,37.3860022],[41.5768013,37.3851231],[41.5806759,37.3877169],[41.5896415,37.3837221],[41.5912868,37.3808064],[41.5985873,37.3812045],[41.590381,37.3915813],[41.5903983,37.3950658],[41.5871833,37.3987484],[41.5914647,37.4043839],[41.5938542,37.4026363],[41.6005462,37.4037424],[41.6035707,37.4016967],[41.608816,37.4035909],[41.6109706,37.4066997],[41.6062885,37.4112096],[41.6054812,37.4101416],[41.6008892,37.4117733],[41.6008275,37.4196045],[41.6041941,37.4255559],[41.6062261,37.4243655],[41.6070606,37.425986],[41.6022467,37.4274231],[41.6011402,37.4298509],[41.5937707,37.4305525],[41.5929458,37.4321375],[41.5892219,37.4301378],[41.5894929,37.4396931],[41.5914222,37.4395116],[41.591341,37.44115],[41.5938813,37.4421602],[41.5971975,37.4416981],[41.5975278,37.4429077],[41.6002938,37.4406727],[41.6019322,37.4430048],[41.6005596,37.4442452],[41.6033643,37.4454439],[41.6048837,37.4438369],[41.6060277,37.4446052],[41.6040428,37.4486648],[41.601181,37.4502813],[41.6037745,37.4529719],[41.5991608,37.4531317],[41.5995147,37.4563336],[41.6047352,37.4582712],[41.6051401,37.4555656],[41.610461,37.4581254],[41.6118284,37.4533391],[41.6156747,37.4535659],[41.6181535,37.4494692],[41.621276,37.4491089],[41.6208633,37.443572],[41.6181189,37.4424178],[41.6174264,37.4403211],[41.618004,37.4375636],[41.6264032,37.4292228],[41.6322365,37.4294786],[41.6301008,37.4273903],[41.6343805,37.4227195],[41.6280166,37.4202454],[41.6333508,37.4176921],[41.6334064,37.4131961],[41.6384326,37.4121993],[41.6361401,37.4101375],[41.6472368,37.4042443],[41.6520103,37.4045227],[41.6555125,37.4093722],[41.6612002,37.407066],[41.661339,37.4119085],[41.6656983,37.4150483],[41.6689421,37.4153576],[41.6740148,37.4118281],[41.6773809,37.4115823],[41.6794912,37.4129436],[41.6826595,37.4101004],[41.6894636,37.4106953],[41.6912456,37.4140083],[41.6894455,37.4158039],[41.6921297,37.4154782],[41.69816,37.41816],[41.6908758,37.4273349],[41.70159,37.4337798],[41.6964251,37.4402932],[41.6811796,37.4486121],[41.6765326,37.4540036],[41.6828055,37.4610936],[41.6861496,37.4709576],[41.6918208,37.4780396],[41.6920614,37.4822291],[41.6951722,37.4828714],[41.6988423,37.4913483],[41.6800975,37.4991026],[41.6643172,37.5011512],[41.6448069,37.500696],[41.6228099,37.4948555],[41.6169761,37.4902246],[41.6040649,37.4838499],[41.579964,37.4840776],[41.5670314,37.4880876],[41.5522218,37.509128],[41.5485037,37.5193999],[41.549146,37.5295005],[41.5344902,37.5285518],[41.5199689,37.5127688],[41.4914641,37.504236],[41.4344667,37.5049665],[41.3999704,37.4982517],[41.3655623,37.4998244],[41.3596923,37.5002389],[41.3170737,37.5137713],[41.2471696,37.5098745],[41.2212331,37.4936438],[41.1867533,37.4958758],[41.1283717,37.5413721],[41.1259552,37.5202703],[41.1214799,37.5139597],[41.1204853,37.4925258],[41.1140209,37.4863444],[41.0942017,37.4847095],[41.0816277,37.4741264],[41.0723402,37.4515954],[41.07172,37.4410096],[41.0738906,37.4299298],[41.0810224,37.4215573],[41.1056817,37.4070186],[41.1118814,37.4053229],[41.1241238,37.4075191],[41.1393178,37.4053022],[41.1535816,37.3996368],[41.1628841,37.3818986],[41.1653647,37.3685922],[41.1828285,37.3356511],[41.1608083,37.3206588],[41.1688553,37.2945216],[41.1954199,37.2765225],[41.2071349,37.2669465],[41.2220007,37.2515434],[41.2339448,37.242863],[41.2666424,37.2273037],[41.3056667,37.2136055],[41.3258134,37.2128856],[41.3377502,37.2152846],[41.3443718,37.2208304],[41.3531977,37.2406703],[41.3653695,37.2590382],[41.3781931,37.2707141],[41.3890137,37.2749846],[41.4271561,37.2740214],[41.4719993,37.2877949],[41.5140634,37.2881304],[41.5237061,37.2874688],[41.5513149,37.2683304]]]}},{"type":"Feature","properties":{"code":"47-08","provinceCode":"47","name":"Nusaybin"},"geometry":{"type":"Polygon","coordinates":[[[40.9871313,37.2608453],[40.9944056,37.2562816],[41.0167012,37.2513704],[41.0211521,37.2485734],[41.0216206,37.2450303],[41.0274771,37.2401816],[41.0270086,37.2286181],[41.0220892,37.2103367],[41.0134216,37.1955965],[41.0127189,37.1886918],[41.0162327,37.1808534],[41.0225577,37.1726407],[41.0752655,37.1308172],[41.0676924,37.1055157],[41.0875092,37.1020906],[41.0890283,37.0996105],[41.0921944,37.0992118],[41.0908405,37.1016041],[41.0948956,37.1009088],[41.1064493,37.0975179],[41.1050172,37.0952335],[41.1061238,37.0947921],[41.1097592,37.096634],[41.118998,37.0943677],[41.1271409,37.0973593],[41.1342172,37.0949646],[41.1448851,37.0977271],[41.1635811,37.0947431],[41.1680729,37.0925497],[41.1678624,37.0881383],[41.170004,37.0878397],[41.1727184,37.0902281],[41.1795647,37.0864112],[41.1981737,37.0802425],[41.1981582,37.0638689],[41.2180554,37.0618831],[41.222821,37.0675819],[41.2214245,37.0697477],[41.2292269,37.0728832],[41.2370203,37.075738],[41.265687,37.0796389],[41.2725373,37.0785974],[41.2927437,37.0808636],[41.3477474,37.0791607],[41.3705902,37.0754487],[41.3784424,37.0790893],[41.3875082,37.0792559],[41.4745965,37.0798983],[41.5175457,37.0779472],[41.523542,37.0836341],[41.5540942,37.0869177],[41.6062996,37.1081663],[41.6201514,37.1105239],[41.6303004,37.1088272],[41.6357937,37.114559],[41.6526332,37.1180388],[41.6645674,37.1183115],[41.6679663,37.1594007],[41.6797084,37.1771001],[41.6778963,37.1933009],[41.6729848,37.2115132],[41.6661835,37.222453],[41.6524618,37.236669],[41.6474429,37.2469321],[41.6579555,37.2600824],[41.6578595,37.2627253],[41.649983,37.2643362],[41.638308,37.2725609],[41.6310476,37.2675981],[41.6267011,37.2685123],[41.6238678,37.2675532],[41.6152777,37.2635889],[41.6097603,37.2588174],[41.6053691,37.2578078],[41.6014409,37.2498335],[41.5941825,37.2499543],[41.5850622,37.2479658],[41.5776149,37.2416376],[41.5678231,37.2381074],[41.5641866,37.24098],[41.5642971,37.24668],[41.5665831,37.2496506],[41.5642027,37.2623419],[41.5627112,37.2617275],[41.5634882,37.2657187],[41.5513149,37.2683304],[41.5237061,37.2874688],[41.5140634,37.2881304],[41.4719993,37.2877949],[41.4271561,37.2740214],[41.3890137,37.2749846],[41.3781931,37.2707141],[41.3653695,37.2590382],[41.3531977,37.2406703],[41.3443718,37.2208304],[41.3377502,37.2152846],[41.3258134,37.2128856],[41.3056667,37.2136055],[41.2666424,37.2273037],[41.2339448,37.242863],[41.2220007,37.2515434],[41.2071349,37.2669465],[41.1954199,37.2765225],[41.1688553,37.2945216],[41.1608083,37.3206588],[41.1354464,37.3221988],[41.0955095,37.3061388],[41.0828085,37.3042446],[41.068123,37.308033],[41.039536,37.3234116],[41.0284226,37.3221491],[41.0037286,37.2939639],[40.9871313,37.2608453]]]}},{"type":"Feature","properties":{"code":"47-09","provinceCode":"47","name":"Ömerli"},"geometry":{"type":"Polygon","coordinates":[[[41.1608083,37.3206588],[41.1828285,37.3356511],[41.1653647,37.3685922],[41.1628841,37.3818986],[41.1535816,37.3996368],[41.1393178,37.4053022],[41.1241238,37.4075191],[41.1118814,37.4053229],[41.1056817,37.4070186],[41.0810224,37.4215573],[41.0738906,37.4299298],[41.07172,37.4410096],[41.0723402,37.4515954],[41.0816277,37.4741264],[41.0942017,37.4847095],[41.0379364,37.486322],[41.0275217,37.480678],[41.0226953,37.4745296],[40.9929751,37.4729168],[40.9754478,37.4668686],[40.9421713,37.4673726],[40.9280732,37.4698928],[40.9142292,37.4696911],[40.8980989,37.4663645],[40.8879382,37.4599125],[40.8718141,37.4599117],[40.8634476,37.4445318],[40.8810513,37.4214871],[40.8744357,37.4081105],[40.8603771,37.392637],[40.8576991,37.3800485],[40.8602878,37.3767016],[40.8592473,37.3697429],[40.8741741,37.3540824],[40.8792545,37.3537038],[40.8943369,37.3567325],[40.896242,37.3533252],[40.8948132,37.3415875],[40.8838586,37.313541],[40.8955982,37.2971784],[40.9005595,37.2837582],[40.9015518,37.2754682],[40.9072573,37.2701383],[40.925389,37.2595529],[40.9320438,37.2582394],[40.9707819,37.259187],[40.9764971,37.261729],[40.9871313,37.2608453],[41.0037286,37.2939639],[41.0284226,37.3221491],[41.039536,37.3234116],[41.068123,37.308033],[41.0828085,37.3042446],[41.0955095,37.3061388],[41.1354464,37.3221988],[41.1608083,37.3206588]]]}},{"type":"Feature","properties":{"code":"47-10","provinceCode":"47","name":"Savur"},"geometry":{"type":"Polygon","coordinates":[[[40.6741784,37.5336622],[40.696665,37.533138],[40.7046878,37.5285295],[40.7316496,37.5018439],[40.7453408,37.4768444],[40.7492806,37.4601675],[40.768103,37.450766],[40.7796953,37.4498845],[40.7900123,37.437047],[40.828477,37.443648],[40.8634476,37.4445318],[40.8718141,37.4599117],[40.8879382,37.4599125],[40.8980989,37.4663645],[40.9142292,37.4696911],[40.9280732,37.4698928],[40.9421713,37.4673726],[40.9754478,37.4668686],[40.9929751,37.4729168],[41.0226953,37.4745296],[41.0275217,37.480678],[41.0379364,37.486322],[41.0942017,37.4847095],[41.1140209,37.4863444],[41.1204853,37.4925258],[41.1214799,37.5139597],[41.1259552,37.5202703],[41.1283717,37.5413721],[41.117367,37.5596059],[41.1082262,37.5836622],[41.1143153,37.5954855],[41.1054615,37.6086128],[41.1026848,37.6077944],[41.09831,37.6127108],[41.0944601,37.6260649],[41.0854051,37.6348621],[41.0845399,37.6385547],[41.0776032,37.6425704],[41.0791083,37.6525101],[41.055469,37.712926],[41.0548687,37.7226264],[41.0431902,37.7363747],[41.013565,37.7194149],[40.9906407,37.7041992],[40.9574579,37.6748126],[40.9149282,37.655657],[40.8966389,37.6579836],[40.8910935,37.655382],[40.8852398,37.6476124],[40.8694903,37.6374514],[40.857956,37.6409801],[40.8472957,37.6488694],[40.8009372,37.6513834],[40.764933,37.6568453],[40.7320331,37.6774547],[40.7109988,37.6808894],[40.6826743,37.7054679],[40.6728245,37.7247198],[40.6740502,37.7297831],[40.6754549,37.7299322],[40.6751951,37.735029],[40.6645833,37.7307092],[40.6599583,37.7136955],[40.6597225,37.6843515],[40.6486013,37.6557038],[40.6725379,37.6256953],[40.6821494,37.6060271],[40.6780604,37.5941436],[40.6841379,37.5834841],[40.6733064,37.5505531],[40.6741784,37.5336622]]]}},{"type":"Feature","properties":{"code":"47-11","provinceCode":"47","name":"Yeşilli"},"geometry":{"type":"Polygon","coordinates":[[[40.7900123,37.437047],[40.7907275,37.4310651],[40.7841381,37.4261101],[40.7823092,37.4191042],[40.7930779,37.3972341],[40.8065255,37.3802455],[40.8261872,37.3633614],[40.8100097,37.3392545],[40.8085294,37.3302381],[40.8098828,37.3233033],[40.8205044,37.3045276],[40.8200685,37.2962038],[40.8118526,37.2754315],[40.8035697,37.2618646],[40.8065524,37.2408558],[40.8095781,37.2334953],[40.8183191,37.2243941],[40.8273963,37.217969],[40.8526106,37.2120789],[40.8736226,37.2131498],[40.8907683,37.2163627],[40.9048884,37.2218509],[40.914806,37.2297479],[40.9267408,37.2427293],[40.9320438,37.2582394],[40.925389,37.2595529],[40.9072573,37.2701383],[40.9015518,37.2754682],[40.9005595,37.2837582],[40.8955982,37.2971784],[40.8838586,37.313541],[40.8948132,37.3415875],[40.896242,37.3533252],[40.8943369,37.3567325],[40.8792545,37.3537038],[40.8741741,37.3540824],[40.8592473,37.3697429],[40.8602878,37.3767016],[40.8576991,37.3800485],[40.8603771,37.392637],[40.8744357,37.4081105],[40.8810513,37.4214871],[40.8634476,37.4445318],[40.828477,37.443648],[40.7900123,37.437047]]]}}]}