{"type":"FeatureCollection","features":[{"type":"Feature","properties":{"code":"78-01","provinceCode":"78","name":"Eflani"},"geometry":{"type":"Polygon","coordinates":[[[32.803857,41.5205344],[32.8212279,41.5248515],[32.8271417,41.5249335],[32.83426,41.5238676],[32.8410498,41.5206699],[32.8436782,41.514684],[32.839226,41.5020407],[32.8448449,41.4841327],[32.843699,41.4739707],[32.825499,41.4569289],[32.8183806,41.4443702],[32.817395,41.4384594],[32.825718,41.4098828],[32.8156428,41.3927966],[32.8167379,41.3867989],[32.8201328,41.3816224],[32.8387501,41.3663369],[32.846197,41.3383864],[32.8517821,41.3311502],[32.8826649,41.3184027],[32.8909879,41.312974],[32.8951494,41.3075448],[32.9032534,41.3042541],[32.9136571,41.3020329],[32.9691804,41.2969319],[32.9812197,41.2942522],[32.9915858,41.2982136],[33.0025623,41.3069164],[33.0062525,41.3148404],[33.0109529,41.31742],[33.0257268,41.3152007],[33.0684359,41.3188589],[33.0946633,41.3396257],[33.1229849,41.3495407],[33.1256154,41.3558948],[33.1373224,41.3722961],[33.1341362,41.3787301],[33.1240476,41.3882609],[33.1301986,41.3976686],[33.1284202,41.4174845],[33.1245706,41.4263101],[33.125254,41.4349434],[33.1133587,41.4439909],[33.1083529,41.4525498],[33.0991397,41.4578823],[33.0996655,41.4630903],[33.1076688,41.4754454],[33.1045537,41.4778904],[33.0648854,41.484002],[33.0591627,41.4880029],[33.0593584,41.4925629],[33.0526119,41.5062312],[33.0392853,41.5128326],[33.0533017,41.5227828],[33.0588636,41.536908],[33.0553341,41.5498587],[33.0509378,41.5547525],[33.0540714,41.5618782],[33.0470898,41.5850604],[33.0439238,41.5852756],[33.0394359,41.5817129],[33.0255037,41.5789247],[33.0158229,41.5786781],[33.0077315,41.5739471],[33.0052127,41.5683742],[33.002662,41.568402],[32.9953761,41.5705767],[32.9893828,41.5705275],[32.9877099,41.5727846],[32.9872677,41.5754399],[32.9962874,41.5855335],[32.9909658,41.5878589],[32.9795297,41.5873962],[32.9734091,41.5848451],[32.9567583,41.5862025],[32.9380078,41.5748339],[32.9318324,41.5653099],[32.9226084,41.5604876],[32.9123914,41.5598015],[32.903294,41.5610722],[32.8984251,41.5637408],[32.898387,41.5710408],[32.8894955,41.5773606],[32.8748333,41.575564],[32.8529897,41.5663539],[32.847477,41.5611771],[32.8320584,41.5557806],[32.8128105,41.5542615],[32.7937915,41.5497446],[32.7770984,41.5542918],[32.7711299,41.5542918],[32.7681787,41.551408],[32.7677905,41.5463047],[32.7878533,41.5382446],[32.7962648,41.5313819],[32.803857,41.5205344]]]}},{"type":"Feature","properties":{"code":"78-02","provinceCode":"78","name":"Eskipazar"},"geometry":{"type":"Polygon","coordinates":[[[32.833881,40.9644154],[32.8208188,40.9732555],[32.8043099,41.0005159],[32.7967434,40.9976606],[32.7867692,40.9966223],[32.7382744,41.0058369],[32.7210776,41.0155692],[32.7002695,41.0358079],[32.6822129,41.0446279],[32.665876,41.0498156],[32.6541822,41.0511125],[32.6466156,41.0495563],[32.6438911,41.0508734],[32.6416963,41.0496903],[32.6351532,41.0395237],[32.6365547,41.0285312],[32.6291101,41.0212905],[32.6262787,41.0112492],[32.6222785,41.0055837],[32.6162282,41.0017255],[32.6051343,40.9996303],[32.5965809,41.0016343],[32.5831459,41.0101888],[32.5667721,41.0269776],[32.5512379,41.0481951],[32.5415815,41.0519945],[32.4377524,41.0548959],[32.3358939,41.0474752],[32.2812903,41.0373394],[32.2754958,41.0324993],[32.3277459,41.0265578],[32.3719363,41.0083656],[32.3567494,40.9952609],[32.3550951,40.9822194],[32.3447444,40.9669523],[32.3519259,40.9500069],[32.3666336,40.9485383],[32.4009229,40.9624034],[32.4043355,40.9352765],[32.4029218,40.9266786],[32.3904813,40.9216309],[32.3827721,40.9103679],[32.3533141,40.8986111],[32.3260693,40.8799904],[32.3310133,40.8686125],[32.3394831,40.8667807],[32.3756699,40.8589537],[32.3868852,40.8552108],[32.4193772,40.8537081],[32.4351305,40.8583712],[32.4757831,40.8770369],[32.4924578,40.8826503],[32.5134906,40.8817926],[32.5197195,40.8791511],[32.5221081,40.873436],[32.5224766,40.8657254],[32.5349025,40.8466225],[32.5523314,40.838704],[32.5719835,40.8254243],[32.6218816,40.8420007],[32.6761303,40.8557487],[32.7334484,40.8733015],[32.7501079,40.8770764],[32.7569285,40.9003897],[32.7735173,40.9156004],[32.7783177,40.9262898],[32.7825116,40.9311031],[32.7861535,40.9530729],[32.7964889,40.9565459],[32.7989589,40.9522684],[32.8013555,40.9516651],[32.8058911,40.9541756],[32.8184373,40.9532421],[32.8244193,40.9542949],[32.833881,40.9644154]]]}},{"type":"Feature","properties":{"code":"78-03","provinceCode":"78","name":"Merkez"},"geometry":{"type":"Polygon","coordinates":[[[32.4786283,41.3601099],[32.4758134,41.3532157],[32.466025,41.339893],[32.4646044,41.3085478],[32.4667977,41.3014298],[32.5138201,41.2559955],[32.5198658,41.2405912],[32.522217,41.2279619],[32.5188582,41.2176042],[32.5097896,41.2059813],[32.4849349,41.1804542],[32.4582526,41.142643],[32.4434925,41.0987841],[32.4377524,41.0548959],[32.5415815,41.0519945],[32.5512379,41.0481951],[32.5667721,41.0269776],[32.5831459,41.0101888],[32.5965809,41.0016343],[32.6051343,40.9996303],[32.6162282,41.0017255],[32.6222785,41.0055837],[32.6262787,41.0112492],[32.6291101,41.0212905],[32.6365547,41.0285312],[32.6351532,41.0395237],[32.6416963,41.0496903],[32.6438911,41.0508734],[32.6466156,41.0495563],[32.6541822,41.0511125],[32.665876,41.0498156],[32.6822129,41.0446279],[32.7002695,41.0358079],[32.7210776,41.0155692],[32.7382744,41.0058369],[32.7867692,40.9966223],[32.7967434,40.9976606],[32.8043099,41.0005159],[32.8065455,41.0025925],[32.8077493,41.0145312],[32.8163477,41.0317866],[32.8161757,41.0381427],[32.8053258,41.04821],[32.8030647,41.058172],[32.8046563,41.0597198],[32.8047068,41.0653597],[32.8133999,41.0758],[32.8147645,41.0879909],[32.8111761,41.0935141],[32.7840442,41.1121565],[32.7831064,41.1169844],[32.7774797,41.125815],[32.7773878,41.1298523],[32.7760558,41.1556488],[32.7725787,41.1630801],[32.7651759,41.1695818],[32.7553055,41.1740565],[32.7439133,41.1830802],[32.7363686,41.1861692],[32.7330402,41.1898832],[32.7011303,41.1906866],[32.683072,41.199633],[32.6697141,41.2099259],[32.6755698,41.2147608],[32.673848,41.2183968],[32.6752803,41.2203175],[32.6706371,41.2283655],[32.6714346,41.2332757],[32.6676502,41.2434387],[32.6604912,41.250619],[32.6609418,41.2546681],[32.6539252,41.2687656],[32.6543758,41.2765873],[32.6509278,41.2821646],[32.6172786,41.2966604],[32.6092028,41.302559],[32.6037068,41.3095523],[32.6025852,41.3178085],[32.5905627,41.3256651],[32.5671557,41.3307689],[32.5371838,41.3429741],[32.4786283,41.3601099]]]}},{"type":"Feature","properties":{"code":"78-04","provinceCode":"78","name":"Ovacık"},"geometry":{"type":"Polygon","coordinates":[[[33.0528018,40.9920657],[33.0469138,40.9938993],[33.0448238,40.997593],[33.0457412,41.0172271],[33.0400983,41.0268783],[33.0403731,41.0339098],[33.0454897,41.0400211],[33.0634616,41.0450167],[33.0701929,41.0513817],[33.0708203,41.059924],[33.0739217,41.0627029],[33.0587111,41.0742073],[33.0597411,41.0797717],[33.0552779,41.0853355],[33.0614577,41.102671],[33.0595694,41.1095264],[33.050128,41.1121131],[33.0473814,41.1175449],[33.0387984,41.1265969],[33.0305586,41.1337083],[33.0206023,41.1393969],[33.0159674,41.145602],[33.0101309,41.1494799],[32.996913,41.1479288],[32.9912482,41.1485751],[32.9785452,41.1543916],[32.966876,41.1512636],[32.960361,41.1523619],[32.9565973,41.1571046],[32.9534613,41.1597319],[32.938844,41.162906],[32.924233,41.1634368],[32.9196825,41.160942],[32.9117689,41.1473559],[32.8958683,41.1398921],[32.8934137,41.1414682],[32.8836165,41.1399874],[32.8770261,41.1443798],[32.8714578,41.1432662],[32.8659916,41.1444324],[32.8573723,41.1429181],[32.8522477,41.1400145],[32.8386412,41.1368847],[32.8343497,41.1345574],[32.8305731,41.1340403],[32.8125487,41.1376604],[32.8115187,41.1346867],[32.8084288,41.1336524],[32.8020116,41.1365675],[32.7992533,41.1313342],[32.7947449,41.1327415],[32.7891544,41.1309864],[32.7860815,41.1280411],[32.7773878,41.1298523],[32.7774797,41.125815],[32.7831064,41.1169844],[32.7840442,41.1121565],[32.8111761,41.0935141],[32.8147645,41.0879909],[32.8133999,41.0758],[32.8047068,41.0653597],[32.8046563,41.0597198],[32.8030647,41.058172],[32.8053258,41.04821],[32.8161757,41.0381427],[32.8163477,41.0317866],[32.8077493,41.0145312],[32.8065455,41.0025925],[32.8043099,41.0005159],[32.8208188,40.9732555],[32.833881,40.9644154],[32.848898,40.9532054],[32.8613619,40.9504048],[32.8928141,40.9482323],[32.9723478,40.9633933],[32.9981359,40.9706855],[32.9990569,40.9839917],[33.0225211,40.9923056],[33.036925,40.9908498],[33.0528018,40.9920657]]]}},{"type":"Feature","properties":{"code":"78-05","provinceCode":"78","name":"Safranbolu"},"geometry":{"type":"Polygon","coordinates":[[[32.5905627,41.3256651],[32.6025852,41.3178085],[32.6037068,41.3095523],[32.6092028,41.302559],[32.6172786,41.2966604],[32.6509278,41.2821646],[32.6543758,41.2765873],[32.6539252,41.2687656],[32.6609418,41.2546681],[32.6604912,41.250619],[32.6676502,41.2434387],[32.6714346,41.2332757],[32.6706371,41.2283655],[32.6752803,41.2203175],[32.673848,41.2183968],[32.6755698,41.2147608],[32.6697141,41.2099259],[32.683072,41.199633],[32.7011303,41.1906866],[32.7330402,41.1898832],[32.7363686,41.1861692],[32.7439133,41.1830802],[32.7553055,41.1740565],[32.7651759,41.1695818],[32.7725787,41.1630801],[32.7760558,41.1556488],[32.7773878,41.1298523],[32.7860815,41.1280411],[32.7891544,41.1309864],[32.7947449,41.1327415],[32.7992533,41.1313342],[32.8020116,41.1365675],[32.8084288,41.1336524],[32.8115187,41.1346867],[32.8125487,41.1376604],[32.8305731,41.1340403],[32.8343497,41.1345574],[32.8386412,41.1368847],[32.8522477,41.1400145],[32.8573723,41.1429181],[32.8659916,41.1444324],[32.8714578,41.1432662],[32.8770261,41.1443798],[32.8836165,41.1399874],[32.8934137,41.1414682],[32.8958683,41.1398921],[32.9117689,41.1473559],[32.9196825,41.160942],[32.924233,41.1634368],[32.938844,41.162906],[32.9534613,41.1597319],[32.9565973,41.1571046],[32.9635674,41.1594639],[32.9662371,41.1641693],[32.9581486,41.1717697],[32.9265796,41.1871737],[32.9252716,41.1984532],[32.9304576,41.209084],[32.9334646,41.2287615],[32.9405948,41.2374177],[32.9350706,41.2443366],[32.9352245,41.2484171],[32.9386852,41.2546015],[32.9676233,41.2770893],[32.9708384,41.2815992],[32.9707028,41.2891809],[32.9812197,41.2942522],[32.9691804,41.2969319],[32.9136571,41.3020329],[32.9032534,41.3042541],[32.8951494,41.3075448],[32.8909879,41.312974],[32.8826649,41.3184027],[32.8517821,41.3311502],[32.846197,41.3383864],[32.8387501,41.3663369],[32.8201328,41.3816224],[32.8167379,41.3867989],[32.8156428,41.3927966],[32.825718,41.4098828],[32.817395,41.4384594],[32.8183806,41.4443702],[32.825499,41.4569289],[32.843699,41.4739707],[32.8448449,41.4841327],[32.839226,41.5020407],[32.8436782,41.514684],[32.8410498,41.5206699],[32.83426,41.5238676],[32.8271417,41.5249335],[32.8212279,41.5248515],[32.803857,41.5205344],[32.8057731,41.5163982],[32.8021249,41.5129918],[32.7743458,41.5045749],[32.7615045,41.503269],[32.7344237,41.5050655],[32.7232824,41.5238495],[32.7188994,41.5262748],[32.6964464,41.5295066],[32.6838922,41.5137173],[32.6641871,41.5063788],[32.6479547,41.4962348],[32.6423475,41.4892958],[32.6483434,41.4788553],[32.6571877,41.469744],[32.6448437,41.4548179],[32.6507966,41.4420556],[32.6652712,41.4222824],[32.6750383,41.3981301],[32.6935507,41.3729471],[32.696525,41.3594072],[32.6964576,41.3380215],[32.6806999,41.3266072],[32.6474495,41.324073],[32.6322356,41.3285861],[32.6157751,41.3302538],[32.5905627,41.3256651]]]}},{"type":"Feature","properties":{"code":"78-06","provinceCode":"78","name":"Yenice"},"geometry":{"type":"Polygon","coordinates":[[[32.2754958,41.0324993],[32.2812903,41.0373394],[32.3358939,41.0474752],[32.4377524,41.0548959],[32.4434925,41.0987841],[32.4582526,41.142643],[32.4849349,41.1804542],[32.5097896,41.2059813],[32.5188582,41.2176042],[32.522217,41.2279619],[32.5198658,41.2405912],[32.5138201,41.2559955],[32.4667977,41.3014298],[32.4646044,41.3085478],[32.432835,41.3029432],[32.4198764,41.3133353],[32.3908244,41.3138714],[32.3640763,41.3112227],[32.3407921,41.3153476],[32.3173308,41.3085833],[32.3024,41.3073911],[32.2915781,41.3133488],[32.2841299,41.3203363],[32.2790763,41.3081334],[32.2728862,41.3025202],[32.257877,41.2923226],[32.2418749,41.2863193],[32.2401232,41.2798399],[32.2459159,41.2711443],[32.2489923,41.2556622],[32.2418732,41.2511626],[32.2162027,41.2537944],[32.1744023,41.2473788],[32.1452709,41.2291915],[32.1284628,41.2186362],[32.1203673,41.2087863],[32.1023168,41.1807811],[32.0963617,41.1638951],[32.089687,41.1603353],[32.0610933,41.1616799],[32.0573316,41.1572716],[32.0533011,41.1410656],[32.0459309,41.1273674],[32.0332379,41.1184847],[32.0240841,41.1078845],[31.9919155,41.0846393],[31.9800751,41.0727432],[31.973824,41.0574457],[31.9809328,41.0463319],[32.0067072,41.0286536],[32.0278735,41.0200991],[32.0373227,41.0192435],[32.0437481,41.0226655],[32.0590446,41.0126351],[32.0839072,41.0078012],[32.1009902,41.0076183],[32.1136929,41.0106196],[32.1188127,41.0292884],[32.1570076,41.0304104],[32.1713391,41.048679],[32.2359168,41.030299],[32.2754958,41.0324993]]]}}]}