{"type":"FeatureCollection","features":[{"type":"Feature","properties":{"code":"60-01","provinceCode":"60","name":"Almus"},"geometry":{"type":"Polygon","coordinates":[[[36.9075996,40.4629971],[36.9008554,40.4553621],[36.8902317,40.4510207],[36.8756733,40.4502722],[36.8447858,40.4432354],[36.8340845,40.4314735],[36.8193516,40.4263001],[36.8103858,40.4210768],[36.7732242,40.4101998],[36.769154,40.4012919],[36.7637816,40.3763663],[36.7637816,40.339766],[36.7575375,40.3214584],[36.7575375,40.2954531],[36.7700256,40.2738354],[36.7733878,40.2551434],[36.7869798,40.2275142],[36.8097771,40.2254173],[36.8247515,40.2260713],[36.8692756,40.2359102],[36.8932886,40.2271336],[36.9042053,40.2068102],[36.9193501,40.2043258],[36.9279327,40.2140766],[36.9439775,40.2092394],[36.9689393,40.2142681],[37.0047559,40.2258202],[37.0199056,40.2151341],[37.0353494,40.2094967],[37.0457459,40.2076501],[37.0527236,40.1998349],[37.0627994,40.1935747],[37.0760474,40.1962835],[37.0818327,40.2227201],[37.0805525,40.2356591],[37.0947184,40.2464769],[37.125556,40.2358216],[37.1405964,40.2332245],[37.1724771,40.2319148],[37.1933645,40.2347709],[37.2226922,40.2195989],[37.2946105,40.2091818],[37.3097362,40.2051156],[37.3483438,40.2036418],[37.3569532,40.1958399],[37.3648355,40.1742246],[37.3805478,40.1703027],[37.4034154,40.1675203],[37.4216583,40.1730154],[37.4455616,40.1687115],[37.452334,40.1785773],[37.4603898,40.1967598],[37.4491795,40.2039421],[37.4327826,40.2232998],[37.4442331,40.2303873],[37.4362568,40.2390468],[37.4429961,40.2513711],[37.4035387,40.2647691],[37.3816342,40.2741663],[37.3709375,40.2758134],[37.3517066,40.282458],[37.3277768,40.2875369],[37.2968788,40.3030981],[37.280577,40.3059425],[37.2611933,40.3121267],[37.2508659,40.3170444],[37.2294095,40.3145224],[37.2100951,40.3165798],[37.2038463,40.3192869],[37.1987337,40.3247008],[37.1733835,40.3301142],[37.1536785,40.3402632],[37.1464001,40.3508166],[37.1332634,40.363262],[37.1232597,40.3942465],[37.0163677,40.4218002],[36.9834843,40.4404767],[36.9693192,40.4439419],[36.9549011,40.4449044],[36.9316298,40.4518341],[36.9075996,40.4629971]]]}},{"type":"Feature","properties":{"code":"60-02","provinceCode":"60","name":"Artova"},"geometry":{"type":"Polygon","coordinates":[[[36.0455475,40.0997084],[36.0640588,40.0667478],[36.1176176,40.0609254],[36.1327109,40.056615],[36.1516267,40.0569135],[36.181658,40.0694502],[36.2095442,40.0701964],[36.2231948,40.0622867],[36.2309951,40.0600479],[36.2460108,40.0618389],[36.2536161,40.0609434],[36.2838034,40.046972],[36.3023752,40.0439089],[36.3522903,40.0413588],[36.3661749,40.0443446],[36.3695562,40.0594905],[36.381641,40.0729779],[36.4012787,40.0866552],[36.4060623,40.096478],[36.4090834,40.1093804],[36.4083282,40.1361402],[36.4126082,40.1536535],[36.4123564,40.1650058],[36.3846622,40.2040511],[36.377361,40.2082813],[36.366848,40.2115574],[36.34288,40.2089425],[36.2687602,40.1852505],[36.2536542,40.1861737],[36.1912163,40.1987898],[36.1497254,40.2038664],[36.1305912,40.2092502],[36.1155052,40.2106188],[36.1156636,40.1855108],[36.0999235,40.1386232],[36.093236,40.1253894],[36.0802543,40.1133566],[36.0664859,40.1055341],[36.0455475,40.0997084]]]}},{"type":"Feature","properties":{"code":"60-03","provinceCode":"60","name":"Başçiftlik"},"geometry":{"type":"Polygon","coordinates":[[[37.140756,40.4302261],[37.1378346,40.4424618],[37.1569627,40.453659],[37.1736054,40.4891087],[37.188251,40.5063204],[37.2164897,40.5194176],[37.2126089,40.5261619],[37.2134255,40.5284144],[37.2092937,40.5277117],[37.2109132,40.5291948],[37.2100398,40.5309235],[37.2137939,40.5326279],[37.2153072,40.5356128],[37.233031,40.5360688],[37.2345455,40.5389841],[37.2388678,40.5410481],[37.2368106,40.5431423],[37.2456533,40.5458355],[37.2420684,40.5556963],[37.243284,40.5581417],[37.2456708,40.5577921],[37.2465658,40.5616881],[37.2456472,40.5634237],[37.244091,40.5621295],[37.2393127,40.562176],[37.2386836,40.5720561],[37.2606851,40.5793209],[37.2722817,40.5971168],[37.2688103,40.6027358],[37.2662203,40.6037844],[37.2643646,40.608839],[37.2602671,40.6108578],[37.2570479,40.6082093],[37.2492832,40.6103437],[37.2484893,40.6127261],[37.2408106,40.613663],[37.2315838,40.6085237],[37.2085646,40.6059216],[37.2089468,40.6102099],[37.2111377,40.612109],[37.2109661,40.6139415],[37.2090778,40.6142673],[37.1959907,40.6073579],[37.1888813,40.6070056],[37.1806279,40.6021259],[37.17287,40.5932256],[37.1652112,40.5924946],[37.1658624,40.5904305],[37.1705766,40.5886674],[37.1721935,40.5837628],[37.1690355,40.5843727],[37.1563025,40.5808714],[37.1476622,40.5828901],[37.1422012,40.5803723],[37.1404693,40.5832205],[37.1320544,40.5880857],[37.1296775,40.5933226],[37.1101245,40.6078036],[37.0916323,40.6039657],[37.0846978,40.604808],[37.0711063,40.5997537],[37.0383756,40.5643624],[37.0359269,40.5546513],[37.0290821,40.5481446],[37.0331806,40.5418809],[37.0306293,40.536694],[37.0354187,40.5321213],[37.0492022,40.5297592],[37.0668325,40.54056],[37.0745991,40.5518091],[37.0830992,40.5576556],[37.1036344,40.5535948],[37.1011026,40.5452587],[37.1108076,40.5409833],[37.1143239,40.5316835],[37.0992742,40.5233446],[37.1025092,40.5153255],[37.097727,40.5125453],[37.0850683,40.5131869],[37.0795297,40.5121312],[37.0625036,40.5154789],[37.0297769,40.5063899],[36.9895659,40.4987497],[36.9913943,40.4885882],[37.0106636,40.4845232],[37.0275971,40.486642],[37.0529007,40.4953421],[37.0772865,40.4955799],[37.1244298,40.5069584],[37.1456086,40.5004023],[37.1495815,40.4904048],[37.1437795,40.4768574],[37.1315748,40.4715823],[37.1182607,40.4709493],[37.0906269,40.4739076],[37.0810993,40.4749423],[37.076969,40.4780407],[37.0704409,40.4782237],[37.0615417,40.4763639],[37.0519672,40.4698942],[37.0428137,40.467151],[37.0413837,40.4646801],[37.0417866,40.4588052],[37.0517134,40.4591956],[37.0573897,40.4542716],[37.0654522,40.4540603],[37.067053,40.4512414],[37.0740762,40.451408],[37.0763598,40.4504137],[37.0766829,40.4475303],[37.0790951,40.4455185],[37.0862387,40.4475454],[37.0958394,40.446359],[37.0990932,40.4448908],[37.0978682,40.4421199],[37.1029043,40.4405576],[37.1045,40.4380991],[37.109068,40.4372905],[37.1114907,40.4401151],[37.1161761,40.4405066],[37.1192694,40.437574],[37.140756,40.4302261]]]}},{"type":"Feature","properties":{"code":"60-04","provinceCode":"60","name":"Erbaa"},"geometry":{"type":"Polygon","coordinates":[[[36.4110341,40.5103496],[36.4534085,40.5149944],[36.4942885,40.5131912],[36.5285585,40.5307008],[36.5766629,40.5431841],[36.6069607,40.5430888],[36.6642915,40.5503107],[36.6940299,40.5579977],[36.6974023,40.5801219],[36.7108919,40.6054975],[36.7348052,40.6329574],[36.7502591,40.6414221],[36.8098035,40.6499058],[36.8117844,40.6592273],[36.8066094,40.6968354],[36.8126769,40.7073683],[36.8349039,40.7060774],[36.8407347,40.7120804],[36.8564444,40.7424856],[36.8508867,40.7667095],[36.8127917,40.7809501],[36.7776361,40.8008443],[36.769625,40.8099788],[36.7696262,40.8311759],[36.725347,40.8358521],[36.7125932,40.8394149],[36.7047447,40.8523282],[36.7025563,40.8612301],[36.6971444,40.864693],[36.6996568,40.8655671],[36.699836,40.8671482],[36.6928733,40.868132],[36.6919399,40.8692582],[36.6950339,40.8705829],[36.6900622,40.8720779],[36.6909013,40.8761373],[36.695294,40.8787737],[36.6920944,40.8810123],[36.6906915,40.8846946],[36.6833326,40.8822904],[36.68241,40.886852],[36.6822411,40.8895893],[36.6774037,40.8938526],[36.6577932,40.9014434],[36.6425674,40.9047188],[36.6402235,40.9098219],[36.635111,40.910309],[36.6329778,40.9057712],[36.6259697,40.9070276],[36.6238612,40.8976286],[36.6147279,40.8933348],[36.607576,40.8992907],[36.6062039,40.9050842],[36.5978529,40.9085181],[36.5930405,40.9080504],[36.591319,40.9063509],[36.5876862,40.8964513],[36.5794511,40.8948547],[36.5696461,40.8988854],[36.5369417,40.8898662],[36.5194186,40.8789903],[36.5124128,40.8785536],[36.507468,40.8762593],[36.4984532,40.8767103],[36.4947055,40.8734],[36.487865,40.8730157],[36.484645,40.876224],[36.4796712,40.8765117],[36.4728234,40.8733291],[36.4684662,40.8752761],[36.4616186,40.8822774],[36.4513473,40.8816302],[36.4489351,40.8772177],[36.4505512,40.8713019],[36.4486954,40.8699524],[36.4366546,40.8753297],[36.4326949,40.8734355],[36.4269888,40.8653593],[36.4288007,40.8593053],[36.4266585,40.8574312],[36.4192124,40.8574903],[36.4151125,40.8553924],[36.4143344,40.85052],[36.4191666,40.8427654],[36.4155837,40.8396396],[36.4110293,40.8384207],[36.4131011,40.8309431],[36.4129818,40.8228476],[36.4111095,40.8191523],[36.4153869,40.8126561],[36.4257468,40.8112302],[36.4258198,40.805137],[36.4418258,40.7955669],[36.4638772,40.788042],[36.4733276,40.7863843],[36.4805272,40.782189],[36.4782959,40.7776802],[36.4822529,40.7745552],[36.4897869,40.7780056],[36.4975457,40.775773],[36.5036377,40.7785948],[36.5041656,40.7744373],[36.5122462,40.7704818],[36.5105924,40.7672633],[36.5054177,40.7645275],[36.485232,40.7621866],[36.4759665,40.7579637],[36.4672708,40.7578091],[36.4539151,40.7615049],[36.4466007,40.7605619],[36.4404534,40.7570254],[36.433695,40.7467985],[36.4215448,40.7382792],[36.3969527,40.7328425],[36.3986773,40.6757843],[36.3827442,40.6533913],[36.3698399,40.6455649],[36.3205036,40.6021425],[36.3096237,40.5929216],[36.344786,40.5789199],[36.3545579,40.5695217],[36.3625113,40.540992],[36.3784104,40.5304202],[36.3959254,40.5268732],[36.4110341,40.5103496]]]}},{"type":"Feature","properties":{"code":"60-05","provinceCode":"60","name":"Niksar"},"geometry":{"type":"Polygon","coordinates":[[[36.6940299,40.5579977],[36.7139039,40.557808],[36.7278161,40.5554057],[36.75153,40.5537721],[36.7892194,40.5455074],[36.7978197,40.5422397],[36.8104672,40.5355116],[36.8137555,40.528206],[36.821344,40.5270524],[36.8241264,40.511477],[36.8350032,40.507823],[36.8395563,40.4953209],[36.8466389,40.4912813],[36.8489154,40.48551],[36.8562509,40.4776217],[36.8683925,40.4745431],[36.8805341,40.4755052],[36.8901461,40.4737735],[36.9010229,40.4645367],[36.9075996,40.4629971],[36.9316298,40.4518341],[36.9549011,40.4449044],[36.9693192,40.4439419],[36.9834843,40.4404767],[37.0163677,40.4218002],[37.1232597,40.3942465],[37.1179077,40.409067],[37.1338848,40.4224139],[37.140756,40.4302261],[37.1192694,40.437574],[37.1161761,40.4405066],[37.1114907,40.4401151],[37.109068,40.4372905],[37.1045,40.4380991],[37.1029043,40.4405576],[37.0978682,40.4421199],[37.0990932,40.4448908],[37.0958394,40.446359],[37.0862387,40.4475454],[37.0790951,40.4455185],[37.0766829,40.4475303],[37.0763598,40.4504137],[37.0740762,40.451408],[37.067053,40.4512414],[37.0654522,40.4540603],[37.0573897,40.4542716],[37.0517134,40.4591956],[37.0417866,40.4588052],[37.0413837,40.4646801],[37.0428137,40.467151],[37.0519672,40.4698942],[37.0615417,40.4763639],[37.0704409,40.4782237],[37.076969,40.4780407],[37.0810993,40.4749423],[37.0906269,40.4739076],[37.1182607,40.4709493],[37.1315748,40.4715823],[37.1437795,40.4768574],[37.1495815,40.4904048],[37.1456086,40.5004023],[37.1244298,40.5069584],[37.0772865,40.4955799],[37.0529007,40.4953421],[37.0275971,40.486642],[37.0106636,40.4845232],[36.9913943,40.4885882],[36.9895659,40.4987497],[37.0297769,40.5063899],[37.0625036,40.5154789],[37.0795297,40.5121312],[37.0850683,40.5131869],[37.097727,40.5125453],[37.1025092,40.5153255],[37.0992742,40.5233446],[37.1143239,40.5316835],[37.1108076,40.5409833],[37.1011026,40.5452587],[37.1036344,40.5535948],[37.0830992,40.5576556],[37.0745991,40.5518091],[37.0668325,40.54056],[37.0492022,40.5297592],[37.0354187,40.5321213],[37.0306293,40.536694],[37.0331806,40.5418809],[37.0290821,40.5481446],[37.0359269,40.5546513],[37.0383756,40.5643624],[37.0711063,40.5997537],[37.0846978,40.604808],[37.0916323,40.6039657],[37.1101245,40.6078036],[37.1296775,40.5933226],[37.1320544,40.5880857],[37.1404693,40.5832205],[37.1422012,40.5803723],[37.1476622,40.5828901],[37.1563025,40.5808714],[37.1690355,40.5843727],[37.1721935,40.5837628],[37.1705766,40.5886674],[37.1658624,40.5904305],[37.1652112,40.5924946],[37.17287,40.5932256],[37.1806279,40.6021259],[37.1888813,40.6070056],[37.1959907,40.6073579],[37.2090778,40.6142673],[37.2109661,40.6139415],[37.2111377,40.612109],[37.2089468,40.6102099],[37.2085646,40.6059216],[37.2315838,40.6085237],[37.2408106,40.613663],[37.2464173,40.6224666],[37.23953,40.6273735],[37.2393044,40.6344971],[37.2425937,40.635444],[37.2422534,40.6414689],[37.2447488,40.642932],[37.2410058,40.6469769],[37.230117,40.6494726],[37.2277351,40.656787],[37.2327258,40.6598846],[37.2381701,40.6671979],[37.2250639,40.6671704],[37.2219105,40.6737158],[37.2151827,40.6729736],[37.2032353,40.6788114],[37.1977972,40.7079382],[37.1972584,40.7227888],[37.1870258,40.7310666],[37.1723316,40.7295566],[37.1591604,40.7203094],[37.1342375,40.7206306],[37.106879,40.721658],[37.0885937,40.7075159],[37.0510103,40.7058677],[37.0347135,40.6997144],[37.0294415,40.7005543],[36.9940851,40.686089],[36.9787574,40.691907],[36.9713663,40.6965309],[36.9650303,40.7032293],[36.9644316,40.7080533],[36.9580535,40.7166593],[36.9427239,40.7196839],[36.9172135,40.7223081],[36.8918799,40.715578],[36.8662126,40.7046123],[36.8407347,40.7120804],[36.8349039,40.7060774],[36.8126769,40.7073683],[36.8066094,40.6968354],[36.8117844,40.6592273],[36.8098035,40.6499058],[36.7502591,40.6414221],[36.7348052,40.6329574],[36.7108919,40.6054975],[36.6974023,40.5801219],[36.6940299,40.5579977]]]}},{"type":"Feature","properties":{"code":"60-06","provinceCode":"60","name":"Pazar"},"geometry":{"type":"Polygon","coordinates":[[[36.1155052,40.2106188],[36.1305912,40.2092502],[36.1497254,40.2038664],[36.1912163,40.1987898],[36.2536542,40.1861737],[36.2687602,40.1852505],[36.34288,40.2089425],[36.366848,40.2115574],[36.3569788,40.2691508],[36.3411881,40.2984054],[36.3345962,40.3017945],[36.3093779,40.3048997],[36.2790289,40.3128997],[36.2566522,40.3142065],[36.2229749,40.3222813],[36.1937369,40.3210304],[36.163707,40.3091108],[36.1489967,40.2978318],[36.1389248,40.2842076],[36.1310755,40.2803186],[36.1257882,40.2708266],[36.1188124,40.2652417],[36.1197696,40.2594947],[36.1242989,40.25331],[36.1251498,40.2329017],[36.1155052,40.2106188]]]}},{"type":"Feature","properties":{"code":"60-07","provinceCode":"60","name":"Reşadiye"},"geometry":{"type":"Polygon","coordinates":[[[37.6440868,40.3861683],[37.6436298,40.3963382],[37.6653888,40.4109411],[37.6609809,40.4201457],[37.6358061,40.4345833],[37.6405777,40.4469655],[37.6375561,40.4567376],[37.6292465,40.4561629],[37.6216924,40.4532888],[37.6137605,40.4578872],[37.6090001,40.4791511],[37.6197426,40.488239],[37.6280211,40.4990197],[37.6134899,40.5054847],[37.6211512,40.5098889],[37.6197414,40.513121],[37.6221279,40.5165228],[37.619642,40.5206048],[37.6219291,40.5257447],[37.6169572,40.5285413],[37.6136757,40.5280122],[37.6137752,40.5247621],[37.6042291,40.520756],[37.6022404,40.5222678],[37.6061185,40.528768],[37.613278,40.5351165],[37.6102948,40.5371569],[37.6129797,40.5487939],[37.6009357,40.5399547],[37.5945837,40.5416155],[37.5897112,40.5410865],[37.5803641,40.5447136],[37.5712158,40.5449403],[37.566529,40.5471405],[37.554742,40.5383182],[37.5525099,40.5343424],[37.5440002,40.5307375],[37.5292128,40.5341304],[37.5255857,40.5361978],[37.5217494,40.5324339],[37.5178433,40.5321159],[37.516518,40.5348195],[37.5095428,40.5349256],[37.5067527,40.5392724],[37.5047997,40.5377351],[37.497127,40.5413397],[37.4926125,40.5415699],[37.4920268,40.5433949],[37.4876925,40.5454868],[37.4841782,40.5411248],[37.4818939,40.5413474],[37.4778524,40.5466885],[37.4708238,40.5491395],[37.4630338,40.5489615],[37.4509094,40.55626],[37.4457551,40.5646257],[37.4422408,40.5652486],[37.436735,40.5636468],[37.4315221,40.5588411],[37.4282421,40.5487835],[37.4168206,40.543487],[37.4113149,40.5453611],[37.4078267,40.544898],[37.4025205,40.5472675],[37.3933965,40.5439936],[37.3858879,40.5495095],[37.3849361,40.5521686],[37.3875083,40.5560538],[37.386636,40.5572794],[37.3824867,40.5569371],[37.3815702,40.5585256],[37.3754474,40.5551777],[37.3708476,40.5784483],[37.366907,40.5851042],[37.3617045,40.5816208],[37.3469581,40.5870028],[37.3404622,40.5990599],[37.335557,40.5950187],[37.3288746,40.59741],[37.3252268,40.5963509],[37.3232827,40.5992674],[37.3210653,40.5954907],[37.3163178,40.5953537],[37.3054898,40.6006954],[37.2986472,40.6074912],[37.2885907,40.6100927],[37.278794,40.6007553],[37.2688103,40.6027358],[37.2722817,40.5971168],[37.2606851,40.5793209],[37.2386836,40.5720561],[37.2393127,40.562176],[37.244091,40.5621295],[37.2456472,40.5634237],[37.2465658,40.5616881],[37.2456708,40.5577921],[37.243284,40.5581417],[37.2420684,40.5556963],[37.2456533,40.5458355],[37.2368106,40.5431423],[37.2388678,40.5410481],[37.2345455,40.5389841],[37.233031,40.5360688],[37.2153072,40.5356128],[37.2137939,40.5326279],[37.2100398,40.5309235],[37.2109132,40.5291948],[37.2092937,40.5277117],[37.2134255,40.5284144],[37.2126089,40.5261619],[37.2164897,40.5194176],[37.188251,40.5063204],[37.1736054,40.4891087],[37.1569627,40.453659],[37.1378346,40.4424618],[37.140756,40.4302261],[37.1338848,40.4224139],[37.1179077,40.409067],[37.1232597,40.3942465],[37.1332634,40.363262],[37.1464001,40.3508166],[37.1536785,40.3402632],[37.1733835,40.3301142],[37.1987337,40.3247008],[37.2038463,40.3192869],[37.2100951,40.3165798],[37.2294095,40.3145224],[37.2508659,40.3170444],[37.2611933,40.3121267],[37.280577,40.3059425],[37.2968788,40.3030981],[37.3277768,40.2875369],[37.3517066,40.282458],[37.3709375,40.2758134],[37.3816342,40.2741663],[37.4035387,40.2647691],[37.4429961,40.2513711],[37.4362568,40.2390468],[37.4442331,40.2303873],[37.4542153,40.2407238],[37.4777402,40.2501451],[37.4927277,40.247441],[37.5073318,40.254277],[37.5175875,40.2568707],[37.5245417,40.2630942],[37.543413,40.2876302],[37.5587775,40.2990064],[37.5927281,40.3203424],[37.5947343,40.3289],[37.5941064,40.3441967],[37.6213147,40.3883027],[37.6440868,40.3861683]]]}},{"type":"Feature","properties":{"code":"60-08","provinceCode":"60","name":"Sulusaray"},"geometry":{"type":"Polygon","coordinates":[[[36.1548292,39.9370059],[36.1414756,39.9441573],[36.13388,39.9522199],[36.1261383,39.9676985],[36.1221823,40.0140948],[36.1157917,40.0252811],[36.1124443,40.0429891],[36.1176176,40.0609254],[36.0640588,40.0667478],[36.0455475,40.0997084],[36.0332621,40.0908665],[36.0273387,40.0827019],[35.9873451,40.0758825],[35.9439168,40.0510847],[35.941992,40.0167163],[35.9617422,39.9965348],[35.9600083,39.9793022],[35.9768753,39.9567729],[35.9780086,39.9517475],[35.9838327,39.9464834],[35.9917874,39.9437132],[35.9925295,39.9404195],[36.0086885,39.9267841],[36.0283245,39.9239324],[36.066895,39.931737],[36.079553,39.9202989],[36.0807593,39.9007437],[36.1011514,39.8940367],[36.1239694,39.8932047],[36.150843,39.8949755],[36.1499996,39.9028427],[36.1522457,39.9100608],[36.1345075,39.9301803],[36.1548292,39.9370059]]]}},{"type":"Feature","properties":{"code":"60-09","provinceCode":"60","name":"Tokat merkez"},"geometry":{"type":"Polygon","coordinates":[[[36.3345962,40.3017945],[36.3411881,40.2984054],[36.3569788,40.2691508],[36.366848,40.2115574],[36.377361,40.2082813],[36.3846622,40.2040511],[36.4123564,40.1650058],[36.4126082,40.1536535],[36.4083282,40.1361402],[36.4090834,40.1093804],[36.4060623,40.096478],[36.4012787,40.0866552],[36.381641,40.0729779],[36.3695562,40.0594905],[36.3661749,40.0443446],[36.3781874,40.0212906],[36.3978443,39.9899821],[36.4120712,39.9754374],[36.4400156,39.9667178],[36.481356,39.960368],[36.5121913,39.9572156],[36.5544204,39.966924],[36.5765687,39.9743328],[36.5923397,39.9817946],[36.6248346,39.9894222],[36.6481977,39.9775765],[36.6464116,39.9944898],[36.6584126,40.0022799],[36.6611582,40.0271273],[36.660117,40.0418212],[36.6392143,40.0599704],[36.6478693,40.0780203],[36.6560539,40.0844396],[36.6822551,40.0953568],[36.7012281,40.1229744],[36.7151848,40.1314778],[36.7249309,40.1346343],[36.7424225,40.1460403],[36.7528035,40.1677666],[36.7622988,40.2049622],[36.7695531,40.2214591],[36.7869798,40.2275142],[36.7733878,40.2551434],[36.7700256,40.2738354],[36.7575375,40.2954531],[36.7575375,40.3214584],[36.7637816,40.339766],[36.7637816,40.3763663],[36.769154,40.4012919],[36.7732242,40.4101998],[36.8103858,40.4210768],[36.8193516,40.4263001],[36.8340845,40.4314735],[36.8447858,40.4432354],[36.8756733,40.4502722],[36.8902317,40.4510207],[36.9008554,40.4553621],[36.9075996,40.4629971],[36.9010229,40.4645367],[36.8901461,40.4737735],[36.8805341,40.4755052],[36.8683925,40.4745431],[36.8562509,40.4776217],[36.8489154,40.48551],[36.8466389,40.4912813],[36.8395563,40.4953209],[36.8350032,40.507823],[36.8241264,40.511477],[36.821344,40.5270524],[36.8137555,40.528206],[36.8104672,40.5355116],[36.7978197,40.5422397],[36.7892194,40.5455074],[36.75153,40.5537721],[36.7278161,40.5554057],[36.7139039,40.557808],[36.6940299,40.5579977],[36.6642915,40.5503107],[36.6069607,40.5430888],[36.5766629,40.5431841],[36.5285585,40.5307008],[36.4942885,40.5131912],[36.4534085,40.5149944],[36.4110341,40.5103496],[36.4014675,40.500947],[36.4079213,40.47689],[36.4039333,40.4573488],[36.3879412,40.4346405],[36.3711549,40.3968261],[36.3385261,40.3717914],[36.3352532,40.3403273],[36.3349309,40.3209197],[36.3370256,40.3098622],[36.3345962,40.3017945]]]}},{"type":"Feature","properties":{"code":"60-10","provinceCode":"60","name":"Turhal"},"geometry":{"type":"Polygon","coordinates":[[[36.3096237,40.5929216],[36.2976594,40.5803931],[36.2849545,40.5628586],[36.2928296,40.5454163],[36.2719476,40.5300297],[36.2682053,40.5238869],[36.2453493,40.5146312],[36.241922,40.5082918],[36.2417037,40.5038405],[36.2336215,40.5001585],[36.2293063,40.5003653],[36.2235537,40.4953372],[36.2207668,40.4960259],[36.2162728,40.4952312],[36.2135556,40.4931118],[36.2099674,40.4931648],[36.1955547,40.4852858],[36.1838049,40.4851105],[36.1672338,40.4796775],[36.1631119,40.480871],[36.1593495,40.4785392],[36.1595585,40.4771877],[36.1467038,40.4736632],[36.138061,40.4730751],[36.1104017,40.456228],[36.1087974,40.4436776],[36.1068423,40.4413691],[36.1005705,40.4433207],[36.0965478,40.4478685],[36.0909307,40.4477916],[36.0828443,40.4527707],[36.0781471,40.4524853],[36.0718014,40.4559481],[36.0701561,40.4591055],[36.0622462,40.457755],[36.0471967,40.4590566],[36.0387222,40.4629686],[36.0337413,40.4617747],[36.0321079,40.4635377],[36.0264229,40.4632635],[36.0139618,40.4679814],[36.0144078,40.4712659],[36.009084,40.4758778],[36.0113818,40.4802094],[36.0172761,40.4794495],[36.0196738,40.4818811],[36.017269,40.484542],[36.0114677,40.488548],[36.0026285,40.4913341],[36.000213,40.4954735],[35.9957968,40.494342],[35.9887036,40.4954816],[35.9806114,40.4976848],[35.9776553,40.5014782],[35.9736032,40.4966716],[35.9704212,40.4957095],[35.9676527,40.4986305],[35.9554356,40.4977607],[35.9524527,40.5006036],[35.94703,40.4993827],[35.9416489,40.4946459],[35.9376528,40.4957855],[35.9324578,40.4941141],[35.9252469,40.4978658],[35.9135759,40.4954816],[35.9141804,40.4980159],[35.9085807,40.4999638],[35.9047844,40.4982925],[35.9044847,40.4954816],[35.9003886,40.49419],[35.8979909,40.4953296],[35.8775107,40.4940381],[35.874677,40.4970806],[35.8700179,40.4916069],[35.8628248,40.4923666],[35.8607268,40.491303],[35.8554219,40.4963463],[35.84704,40.4928225],[35.8440211,40.4952688],[35.8401035,40.495691],[35.8296975,40.4932891],[35.8266149,40.4972796],[35.8250989,40.4968063],[35.8234499,40.4956632],[35.8301864,40.4815718],[35.832782,40.4697193],[35.8246007,40.445868],[35.8716822,40.4177325],[35.8789205,40.4043136],[35.8795499,40.3851392],[35.9157412,40.3709946],[35.9406031,40.3654797],[35.9843473,40.3587655],[36.012671,40.3458146],[36.0258887,40.3340607],[36.0306093,40.3285428],[36.0177063,40.3201453],[36.0431976,40.307667],[36.0520094,40.2879849],[36.0526388,40.2776616],[36.0478818,40.2633024],[36.0334416,40.2430788],[36.0302946,40.2317876],[36.0353299,40.223378],[36.0574381,40.2155682],[36.1155052,40.2106188],[36.1251498,40.2329017],[36.1242989,40.25331],[36.1197696,40.2594947],[36.1188124,40.2652417],[36.1257882,40.2708266],[36.1310755,40.2803186],[36.1389248,40.2842076],[36.1489967,40.2978318],[36.163707,40.3091108],[36.1937369,40.3210304],[36.2229749,40.3222813],[36.2566522,40.3142065],[36.2790289,40.3128997],[36.3093779,40.3048997],[36.3345962,40.3017945],[36.3370256,40.3098622],[36.3349309,40.3209197],[36.3352532,40.3403273],[36.3385261,40.3717914],[36.3711549,40.3968261],[36.3879412,40.4346405],[36.4039333,40.4573488],[36.4079213,40.47689],[36.4014675,40.500947],[36.4110341,40.5103496],[36.3959254,40.5268732],[36.3784104,40.5304202],[36.3625113,40.540992],[36.3545579,40.5695217],[36.344786,40.5789199],[36.3096237,40.5929216]]]}},{"type":"Feature","properties":{"code":"60-11","provinceCode":"60","name":"Yeşilyurt"},"geometry":{"type":"Polygon","coordinates":[[[36.4120712,39.9754374],[36.3978443,39.9899821],[36.3781874,40.0212906],[36.3661749,40.0443446],[36.3522903,40.0413588],[36.3023752,40.0439089],[36.2838034,40.046972],[36.2536161,40.0609434],[36.2460108,40.0618389],[36.2309951,40.0600479],[36.2231948,40.0622867],[36.2095442,40.0701964],[36.181658,40.0694502],[36.1516267,40.0569135],[36.1327109,40.056615],[36.1176176,40.0609254],[36.1124443,40.0429891],[36.1157917,40.0252811],[36.1221823,40.0140948],[36.1261383,39.9676985],[36.13388,39.9522199],[36.1414756,39.9441573],[36.1548292,39.9370059],[36.1782918,39.9334344],[36.1889054,39.9366836],[36.21808,39.9350212],[36.2259531,39.9520845],[36.2565918,39.9583213],[36.2986079,39.9718067],[36.3136099,39.9745896],[36.3607683,39.979091],[36.3928852,39.9789572],[36.4120712,39.9754374]]]}},{"type":"Feature","properties":{"code":"60-12","provinceCode":"60","name":"Zile"},"geometry":{"type":"Polygon","coordinates":[[[35.8246007,40.445868],[35.8057686,40.4245388],[35.7976406,40.4214539],[35.7795065,40.4189028],[35.7705687,40.4247017],[35.756221,40.4274591],[35.7388242,40.4261143],[35.7262745,40.4047791],[35.7139828,40.3885201],[35.7088316,40.3740186],[35.7084469,40.3641556],[35.686546,40.3610429],[35.6606217,40.3551078],[35.6260642,40.3395949],[35.5594425,40.3220017],[35.5217415,40.3105135],[35.5112796,40.2991068],[35.4739371,40.2794504],[35.4446793,40.2599435],[35.4404737,40.2549045],[35.4412705,40.2480634],[35.4325569,40.2427259],[35.460232,40.2191659],[35.4909959,40.2077504],[35.4993112,40.2005117],[35.5027627,40.1948345],[35.5013963,40.1839589],[35.5095288,40.1756026],[35.5060965,40.1647586],[35.4943232,40.1541863],[35.4947323,40.1458988],[35.489122,40.1398804],[35.5136187,40.1305357],[35.5371373,40.1292588],[35.5701044,40.1192723],[35.5929221,40.1217516],[35.6442085,40.1136678],[35.6538027,40.0956801],[35.6681326,40.0909126],[35.6773546,40.0786804],[35.6992902,40.0687799],[35.7281957,40.0660633],[35.7595805,40.0755586],[35.7671945,40.0962856],[35.7786025,40.0995426],[35.8016306,40.1017701],[35.8147934,40.1010271],[35.8239635,40.0950034],[35.8366956,40.093518],[35.852953,40.097307],[35.9155817,40.1064586],[35.9274882,40.1072312],[35.943771,40.1014932],[35.9866635,40.1074904],[36.0056058,40.1074106],[36.0192169,40.109906],[36.0250458,40.1093488],[36.0375429,40.1046253],[36.0455475,40.0997084],[36.0664859,40.1055341],[36.0802543,40.1133566],[36.093236,40.1253894],[36.0999235,40.1386232],[36.1156636,40.1855108],[36.1155052,40.2106188],[36.0574381,40.2155682],[36.0353299,40.223378],[36.0302946,40.2317876],[36.0334416,40.2430788],[36.0478818,40.2633024],[36.0526388,40.2776616],[36.0520094,40.2879849],[36.0431976,40.307667],[36.0177063,40.3201453],[36.0306093,40.3285428],[36.0258887,40.3340607],[36.012671,40.3458146],[35.9843473,40.3587655],[35.9406031,40.3654797],[35.9157412,40.3709946],[35.8795499,40.3851392],[35.8789205,40.4043136],[35.8716822,40.4177325],[35.8246007,40.445868]]]}}]}