{"type":"FeatureCollection","features":[{"type":"Feature","properties":{"code":"64-01","provinceCode":"64","name":"Banaz"},"geometry":{"type":"Polygon","coordinates":[[[29.8412572,38.5528528],[29.8652359,38.5835913],[29.8939324,38.6282212],[29.9013106,38.6354056],[29.9214856,38.6345156],[29.9277482,38.6378255],[29.9109934,38.6513137],[29.9021089,38.6562369],[29.898182,38.6606367],[29.9010441,38.6722458],[29.9077963,38.6847746],[29.9039324,38.7088157],[29.9119095,38.7125043],[29.9257955,38.7125043],[29.9387952,38.7178065],[29.9509086,38.7316362],[29.9606583,38.7362456],[29.9786806,38.7394719],[29.9967029,38.7360151],[30.0026118,38.7420068],[30.0029073,38.7551407],[30.0076345,38.7638953],[30.0094071,38.7779465],[30.0156115,38.7873892],[30.0156115,38.7924555],[30.0070436,38.801666],[30.0070436,38.8060406],[30.0340791,38.8220466],[29.9929407,38.8294618],[29.9515917,38.8320446],[29.9366182,38.841906],[29.9183778,38.8984669],[29.9046793,38.9111268],[29.8790458,38.9160175],[29.8209779,38.9078462],[29.7657018,38.918823],[29.7495236,38.9154051],[29.7059538,38.9176928],[29.6399272,38.9354133],[29.6109014,38.9266729],[29.6020498,38.91828],[29.5567727,38.9016901],[29.5445774,38.8884722],[29.5238598,38.8483701],[29.5229966,38.8288709],[29.5287515,38.8190072],[29.5396857,38.8102633],[29.5883144,38.801294],[29.6087442,38.7947906],[29.620254,38.7887352],[29.6288863,38.7793146],[29.6343534,38.7703414],[29.6352167,38.7602453],[29.6332025,38.7496989],[29.6235406,38.7181872],[29.6192244,38.6937118],[29.6200876,38.6734964],[29.6235406,38.6620385],[29.6393665,38.6290024],[29.6759099,38.6312502],[29.7118779,38.6366448],[29.7389258,38.6368695],[29.7461194,38.6337228],[29.7536007,38.6276537],[29.7625208,38.6177622],[29.7679879,38.6069699],[29.774606,38.5990995],[29.8412572,38.5528528]]]}},{"type":"Feature","properties":{"code":"64-02","provinceCode":"64","name":"Eşme"},"geometry":{"type":"Polygon","coordinates":[[[28.7672683,38.3815709],[28.757373,38.3741582],[28.7543641,38.3677855],[28.7548545,38.3596905],[28.7580641,38.3559671],[28.774683,38.3493645],[28.787521,38.3377739],[28.797302,38.3289421],[28.8207232,38.3199705],[28.834444,38.3090161],[28.844554,38.2795442],[28.8611634,38.2562983],[28.8695194,38.2325753],[28.8953543,38.2443507],[28.9103625,38.2480927],[28.9177068,38.2435176],[28.9249304,38.241404],[28.9309058,38.2363345],[28.938165,38.2353409],[28.9415249,38.2313094],[28.9446199,38.2304193],[28.9500007,38.2303899],[28.9526939,38.2342967],[28.9609321,38.2353664],[28.9659122,38.2316947],[28.9752602,38.2312245],[28.9725214,38.2361753],[28.971686,38.2427168],[28.9731993,38.2435505],[28.97805,38.2406045],[28.9948492,38.2431847],[29.0018603,38.2400142],[29.0086108,38.2394832],[29.0118459,38.2373442],[29.0115626,38.2304463],[29.0183758,38.2351019],[29.0231063,38.2342291],[29.0356564,38.2359585],[29.0336876,38.2285874],[29.0450495,38.2192873],[29.0621006,38.2292134],[29.0776589,38.23402],[29.0820627,38.2378242],[29.0948904,38.230268],[29.1038339,38.2365224],[29.1147668,38.2345744],[29.1248364,38.2350592],[29.1366263,38.2261646],[29.1456082,38.2275337],[29.1548907,38.2266301],[29.1597515,38.2223179],[29.1647677,38.2230191],[29.1604776,38.2379364],[29.1311277,38.2725073],[29.1250506,38.3380249],[29.1230248,38.3491463],[29.1162111,38.3630096],[29.1155662,38.3795745],[29.1217358,38.3887075],[29.1209991,38.4003984],[29.1093973,38.4302667],[29.1082924,38.4533449],[29.112528,38.4658905],[29.1169477,38.4718021],[29.1250506,38.4756948],[29.1600402,38.4787223],[29.1666698,38.4816055],[29.1681431,38.4853536],[29.1663015,38.4901104],[29.1386781,38.5104315],[29.1262363,38.5305679],[29.1289178,38.5366531],[29.1344425,38.5414066],[29.1454919,38.5450075],[29.1731153,38.5507685],[29.1823231,38.5563851],[29.1898735,38.567185],[29.183428,38.5716484],[29.1742202,38.5746719],[29.1434662,38.5766875],[29.1121596,38.5830218],[29.0981638,38.588348],[29.0858253,38.607778],[29.110762,38.6194865],[29.1164435,38.627732],[29.1136424,38.6408602],[29.1132223,38.6579234],[29.1038387,38.6614231],[29.0843712,38.6613137],[29.0309468,38.6561429],[29.0212234,38.6578686],[29.0107634,38.6552225],[29.0035444,38.6487795],[28.9951469,38.646018],[28.9717223,38.6479741],[28.9684811,38.6446372],[28.960167,38.6427937],[28.9541449,38.6368824],[28.9544936,38.6336166],[28.9422269,38.6281167],[28.944993,38.628054],[28.9471411,38.6238417],[28.945012,38.6218926],[28.9394217,38.62064],[28.9421735,38.617459],[28.9411439,38.6157019],[28.9357166,38.6146285],[28.9356507,38.6120585],[28.9318196,38.6119196],[28.9239899,38.6153896],[28.9070584,38.6151409],[28.9083106,38.606759],[28.906141,38.6059692],[28.90077,38.607325],[28.8910911,38.6004177],[28.8899235,38.5884326],[28.8837919,38.5797423],[28.8740536,38.5796523],[28.8529169,38.5825803],[28.8268161,38.5792389],[28.8250365,38.578909],[28.8269912,38.5767431],[28.8230479,38.574617],[28.8220915,38.5708305],[28.8156542,38.5655406],[28.8136256,38.5556813],[28.8111781,38.5545647],[28.8118579,38.5520658],[28.8081186,38.5452598],[28.8087985,38.5436114],[28.803664,38.5391572],[28.8047872,38.5331882],[28.8101776,38.5228575],[28.808749,38.5019436],[28.8259796,38.4694922],[28.8263713,38.4585015],[28.8218142,38.4448851],[28.8110315,38.4289767],[28.7996101,38.4164911],[28.788424,38.4072841],[28.7672683,38.3815709]]]}},{"type":"Feature","properties":{"code":"64-03","provinceCode":"64","name":"Karahallı"},"geometry":{"type":"Polygon","coordinates":[[[29.5133203,38.4691249],[29.4955953,38.4711074],[29.4859271,38.470747],[29.4705041,38.4611944],[29.4601453,38.4568682],[29.4518583,38.443708],[29.4470242,38.4321684],[29.4463336,38.3933887],[29.4412693,38.3805778],[29.4251487,38.3546121],[29.4202487,38.3197366],[29.4264085,38.302715],[29.4352464,38.296725],[29.4448877,38.295569],[29.4564038,38.2830617],[29.4704641,38.2759137],[29.4787664,38.2759137],[29.4821141,38.27276],[29.4971118,38.277911],[29.509833,38.276124],[29.5244289,38.2883171],[29.5307226,38.2890528],[29.546122,38.2718138],[29.5793311,38.264139],[29.5899098,38.2598282],[29.5893742,38.2454218],[29.6061127,38.2472096],[29.6144149,38.2440546],[29.6136115,38.2488922],[29.6078535,38.2546759],[29.6185661,38.2870558],[29.6239224,38.2895784],[29.6319569,38.2909447],[29.6249936,38.3004031],[29.624458,38.3073385],[29.6174948,38.3226782],[29.6249936,38.3270903],[29.624458,38.3325526],[29.6264666,38.336439],[29.6145488,38.3423207],[29.6150845,38.3457865],[29.6228511,38.3527176],[29.6298143,38.3552378],[29.6399913,38.361748],[29.6457493,38.363323],[29.6484275,38.3746616],[29.6367775,38.3748716],[29.622985,38.3840042],[29.6189678,38.3836893],[29.6137454,38.3886225],[29.6117368,38.3959693],[29.6166914,38.4012165],[29.612808,38.4096113],[29.5932124,38.4183837],[29.5780051,38.4289225],[29.5678765,38.4404627],[29.5538346,38.4514602],[29.5391022,38.4602931],[29.5133203,38.4691249]]]}},{"type":"Feature","properties":{"code":"64-04","provinceCode":"64","name":"Sivaslı"},"geometry":{"type":"Polygon","coordinates":[[[29.6393665,38.6290024],[29.6195122,38.6236073],[29.5861339,38.6105675],[29.5740486,38.6074196],[29.5648408,38.6013483],[29.5461375,38.5833562],[29.5248445,38.5691842],[29.5021127,38.5484836],[29.500674,38.5325041],[29.5052779,38.5187723],[29.5158525,38.5033604],[29.5133203,38.4691249],[29.5391022,38.4602931],[29.5538346,38.4514602],[29.5678765,38.4404627],[29.5780051,38.4289225],[29.5932124,38.4183837],[29.612808,38.4096113],[29.6182983,38.4209427],[29.6268684,38.4233557],[29.6469545,38.4226213],[29.6544534,38.4251391],[29.6662372,38.41811],[29.6702545,38.420628],[29.6690493,38.4254538],[29.6565959,38.4344751],[29.6762803,38.4592255],[29.7126339,38.4644082],[29.7297074,38.4636949],[29.7406878,38.4655822],[29.7535417,38.4620955],[29.7571448,38.4579464],[29.7840622,38.459938],[29.797203,38.4594401],[29.804445,38.4671142],[29.8142623,38.4740857],[29.8118339,38.4848797],[29.8281553,38.5091365],[29.8319991,38.5403535],[29.8412572,38.5528528],[29.774606,38.5990995],[29.7679879,38.6069699],[29.7625208,38.6177622],[29.7536007,38.6276537],[29.7461194,38.6337228],[29.7389258,38.6368695],[29.7118779,38.6366448],[29.6759099,38.6312502],[29.6393665,38.6290024]]]}},{"type":"Feature","properties":{"code":"64-05","provinceCode":"64","name":"Ulubey"},"geometry":{"type":"Polygon","coordinates":[[[29.2067923,38.1658584],[29.2101278,38.1671882],[29.2119702,38.1786413],[29.2208672,38.193141],[29.216209,38.199114],[29.2210856,38.204195],[29.2194078,38.2113879],[29.2117344,38.2134377],[29.2041605,38.2269914],[29.2072859,38.227998],[29.2137978,38.22503],[29.2172999,38.2250096],[29.2192545,38.2268055],[29.2134596,38.2312045],[29.2149209,38.2407363],[29.2193962,38.2401415],[29.2215027,38.2377979],[29.2308665,38.2368164],[29.2347858,38.2417726],[29.2417222,38.242056],[29.2425794,38.2432242],[29.2452749,38.2424807],[29.2477756,38.251416],[29.2598273,38.2624568],[29.2741554,38.2700266],[29.277637,38.2804338],[29.2843324,38.2845332],[29.2862071,38.2906294],[29.2981249,38.2991421],[29.3206214,38.3057624],[29.3374937,38.3063928],[29.3455282,38.3160594],[29.3538305,38.3221529],[29.3602581,38.3234135],[29.3698994,38.3216276],[29.3826206,38.32646],[29.4156959,38.3226782],[29.4202487,38.3197366],[29.4251487,38.3546121],[29.4412693,38.3805778],[29.4463336,38.3933887],[29.4470242,38.4321684],[29.4518583,38.443708],[29.4601453,38.4568682],[29.4371258,38.4642585],[29.4309105,38.4736305],[29.426767,38.4855239],[29.4244409,38.5097281],[29.4120345,38.520292],[29.400755,38.5276758],[29.390166,38.5300168],[29.3406741,38.5332581],[29.3204169,38.5471221],[29.3137413,38.5572033],[29.3001598,38.568543],[29.2829844,38.5752429],[29.2700042,38.5868987],[29.2619852,38.5890727],[29.2460639,38.5867188],[29.2377769,38.5843796],[29.2198217,38.575382],[29.1898735,38.567185],[29.1823231,38.5563851],[29.1731153,38.5507685],[29.1454919,38.5450075],[29.1344425,38.5414066],[29.1289178,38.5366531],[29.1262363,38.5305679],[29.1386781,38.5104315],[29.1663015,38.4901104],[29.1681431,38.4853536],[29.1666698,38.4816055],[29.1600402,38.4787223],[29.1250506,38.4756948],[29.1169477,38.4718021],[29.112528,38.4658905],[29.1082924,38.4533449],[29.1093973,38.4302667],[29.1209991,38.4003984],[29.1217358,38.3887075],[29.1155662,38.3795745],[29.1162111,38.3630096],[29.1230248,38.3491463],[29.1250506,38.3380249],[29.1311277,38.2725073],[29.1604776,38.2379364],[29.1647677,38.2230191],[29.1728207,38.214522],[29.1819836,38.2147799],[29.1833375,38.1964974],[29.1854453,38.1930518],[29.1825774,38.1858313],[29.1880917,38.1772316],[29.2067923,38.1658584]]]}},{"type":"Feature","properties":{"code":"64-06","provinceCode":"64","name":"Uşak merkez"},"geometry":{"type":"Polygon","coordinates":[[[29.6393665,38.6290024],[29.6235406,38.6620385],[29.6200876,38.6734964],[29.6192244,38.6937118],[29.6235406,38.7181872],[29.6332025,38.7496989],[29.6352167,38.7602453],[29.6343534,38.7703414],[29.6288863,38.7793146],[29.620254,38.7887352],[29.6087442,38.7947906],[29.5883144,38.801294],[29.5396857,38.8102633],[29.5287515,38.8190072],[29.5229966,38.8288709],[29.5238598,38.8483701],[29.5445774,38.8884722],[29.5567727,38.9016901],[29.519617,38.9046768],[29.5073216,38.8994689],[29.504625,38.893406],[29.5122306,38.8830173],[29.5058235,38.8679826],[29.4965352,38.8595839],[29.4778983,38.8507698],[29.4575844,38.8500175],[29.4445386,38.8526042],[29.4094549,38.8682682],[29.3970641,38.8714766],[29.3751825,38.8624823],[29.3378403,38.8299811],[29.3276438,38.8160793],[29.3087076,38.8052964],[29.2733842,38.792106],[29.2573613,38.7913898],[29.247068,38.7928845],[29.2169952,38.8123081],[29.1870068,38.8458442],[29.1747984,38.8461198],[29.1516947,38.8596975],[29.1356264,38.8654145],[29.042872,38.7480631],[29.0294232,38.7370773],[28.9969267,38.7211156],[28.9367479,38.7047746],[28.8717548,38.6987632],[28.8642745,38.6937548],[28.8571051,38.6850836],[28.837814,38.6487737],[28.836504,38.6366625],[28.8276679,38.6134726],[28.8290138,38.6104198],[28.8268382,38.608733],[28.8282659,38.6072985],[28.8234033,38.6004964],[28.8252264,38.6004686],[28.826563,38.598319],[28.8230989,38.5961141],[28.822334,38.5912519],[28.8258577,38.585818],[28.8247476,38.5837056],[28.8268161,38.5792389],[28.8529169,38.5825803],[28.8740536,38.5796523],[28.8837919,38.5797423],[28.8899235,38.5884326],[28.8910911,38.6004177],[28.90077,38.607325],[28.906141,38.6059692],[28.9083106,38.606759],[28.9070584,38.6151409],[28.9239899,38.6153896],[28.9318196,38.6119196],[28.9356507,38.6120585],[28.9357166,38.6146285],[28.9411439,38.6157019],[28.9421735,38.617459],[28.9394217,38.62064],[28.945012,38.6218926],[28.9471411,38.6238417],[28.944993,38.628054],[28.9422269,38.6281167],[28.9544936,38.6336166],[28.9541449,38.6368824],[28.960167,38.6427937],[28.9684811,38.6446372],[28.9717223,38.6479741],[28.9951469,38.646018],[29.0035444,38.6487795],[29.0107634,38.6552225],[29.0212234,38.6578686],[29.0309468,38.6561429],[29.0843712,38.6613137],[29.1038387,38.6614231],[29.1132223,38.6579234],[29.1136424,38.6408602],[29.1164435,38.627732],[29.110762,38.6194865],[29.0858253,38.607778],[29.0981638,38.588348],[29.1121596,38.5830218],[29.1434662,38.5766875],[29.1742202,38.5746719],[29.183428,38.5716484],[29.1898735,38.567185],[29.2198217,38.575382],[29.2377769,38.5843796],[29.2460639,38.5867188],[29.2619852,38.5890727],[29.2700042,38.5868987],[29.2829844,38.5752429],[29.3001598,38.568543],[29.3137413,38.5572033],[29.3204169,38.5471221],[29.3406741,38.5332581],[29.390166,38.5300168],[29.400755,38.5276758],[29.4120345,38.520292],[29.4244409,38.5097281],[29.426767,38.4855239],[29.4309105,38.4736305],[29.4371258,38.4642585],[29.4601453,38.4568682],[29.4705041,38.4611944],[29.4859271,38.470747],[29.4955953,38.4711074],[29.5133203,38.4691249],[29.5158525,38.5033604],[29.5052779,38.5187723],[29.500674,38.5325041],[29.5021127,38.5484836],[29.5248445,38.5691842],[29.5461375,38.5833562],[29.5648408,38.6013483],[29.5740486,38.6074196],[29.5861339,38.6105675],[29.6195122,38.6236073],[29.6393665,38.6290024]]]}}]}