{"type":"FeatureCollection","features":[{"type":"Feature","properties":{"code":"59-01","provinceCode":"59","name":"Çerkezköy"},"geometry":{"type":"Polygon","coordinates":[[[27.9982633,41.2226434],[27.9988287,41.236309],[28.0039147,41.2440889],[28.0155317,41.2522807],[28.0301426,41.2561208],[28.0458562,41.2653249],[28.0578519,41.2680061],[28.063118,41.277723],[28.0675243,41.2790025],[28.0718148,41.2825662],[28.0721357,41.2849863],[28.0767309,41.2879246],[28.0758984,41.2948375],[28.0802787,41.2968555],[28.0811,41.2987607],[28.0788167,41.2970434],[28.0770884,41.2998688],[28.0783645,41.3010962],[28.0764326,41.3021638],[28.0778702,41.321122],[28.0850459,41.3381136],[28.0730509,41.3262301],[28.0642474,41.327005],[28.0617815,41.3292857],[28.0560069,41.3237896],[28.0476988,41.3235494],[28.0297143,41.3190449],[28.0270318,41.3221533],[28.0290882,41.3274976],[28.0263337,41.3286881],[28.0183282,41.323838],[28.0091003,41.3095813],[28.0035395,41.3141488],[27.9997972,41.3149116],[27.9994431,41.3116136],[27.9949042,41.311908],[27.9939485,41.3099679],[27.9879219,41.3131044],[27.9833759,41.3188384],[27.9796371,41.3132988],[27.9794105,41.3093358],[27.9726624,41.3040413],[27.9584672,41.2858469],[27.9558741,41.2796157],[27.9497187,41.2733375],[27.9492696,41.2657848],[27.9429959,41.2674378],[27.9388788,41.2649717],[27.9349764,41.2654022],[27.9286809,41.2600402],[27.9294081,41.2584981],[27.9277622,41.2572623],[27.9232004,41.2582454],[27.9184764,41.2543555],[27.9060349,41.2617365],[27.9022614,41.2617856],[27.8960252,41.2611947],[27.8963685,41.2572105],[27.8906361,41.2535074],[27.901454,41.2391817],[27.9101765,41.223593],[27.9101229,41.2216482],[27.9074322,41.2209012],[27.9283024,41.1955958],[27.957517,41.1875867],[27.964562,41.1943525],[27.9703331,41.1969175],[27.9743905,41.1954343],[27.9874724,41.2105714],[27.9944928,41.225566],[27.9982633,41.2226434]]]}},{"type":"Feature","properties":{"code":"59-02","provinceCode":"59","name":"Çorlu"},"geometry":{"type":"Polygon","coordinates":[[[27.6978077,41.0026102],[27.7067022,41.0040652],[27.7292835,41.011533],[27.731668,41.016929],[27.730349,41.0236148],[27.734758,41.0281465],[27.7379999,41.0398294],[27.7512595,41.0509085],[27.7621132,41.070261],[27.7660717,41.0722825],[27.7742439,41.07209],[27.7770531,41.0694908],[27.7716964,41.0637154],[27.7815807,41.0591619],[27.7832346,41.0565863],[27.7860439,41.0582599],[27.7849281,41.060788],[27.7928996,41.0628346],[27.7971375,41.0675425],[27.7995385,41.0669813],[27.8148293,41.0719265],[27.8229177,41.0713521],[27.8289527,41.0732145],[27.8332883,41.075732],[27.8426915,41.0868943],[27.8456392,41.0856981],[27.8421892,41.0769314],[27.8425647,41.0732531],[27.8517274,41.069541],[27.8649443,41.058783],[27.8776681,41.0573012],[27.8799319,41.054502],[27.8794491,41.0481102],[27.8843491,41.0458008],[27.8868778,41.0403673],[27.894929,41.0372686],[27.9118731,41.0356306],[27.9138521,41.0388732],[27.8929134,41.0404862],[27.8928709,41.0426079],[27.8960037,41.0445338],[27.8950596,41.0468641],[27.8987074,41.0501168],[27.8983426,41.0524632],[27.9016685,41.0548903],[27.9031371,41.0596911],[27.9053593,41.0601165],[27.9052384,41.0625968],[27.9031219,41.0676223],[27.8979453,41.0685966],[27.8971195,41.0724603],[27.886908,41.085661],[27.8631608,41.102657],[27.8675616,41.1142309],[27.8716385,41.118927],[27.8795957,41.1140214],[27.8915083,41.1097527],[27.9014081,41.1014415],[27.9117731,41.0955902],[27.9125566,41.0883565],[27.9148481,41.0852046],[27.9188561,41.0838153],[27.92616,41.0744736],[27.9288662,41.0675021],[27.9414157,41.0636714],[27.9460537,41.0659732],[27.9484068,41.0656065],[27.9489738,41.0633226],[27.9617715,41.0665476],[27.9757529,41.0661404],[27.9799765,41.0676367],[27.9839896,41.0716475],[27.9810834,41.072064],[27.9810104,41.076032],[27.9753971,41.0756632],[27.9750011,41.0796342],[27.9789505,41.0835969],[27.9747685,41.0876566],[27.9779506,41.0989925],[27.9708481,41.0998253],[27.9756868,41.1065596],[27.972873,41.1088861],[27.9773618,41.1114299],[27.9724038,41.1117251],[27.9756439,41.1195252],[27.9758237,41.1233733],[27.9733564,41.1229912],[27.9807079,41.1437923],[27.978605,41.1513704],[27.9799676,41.1557407],[27.9850101,41.1621463],[28.0136239,41.1623401],[28.0129557,41.1669367],[28.0167889,41.1670086],[28.0169606,41.171499],[28.0203509,41.1722904],[28.0231833,41.1790739],[28.0183983,41.1970466],[27.9982633,41.2226434],[27.9944928,41.225566],[27.9874724,41.2105714],[27.9743905,41.1954343],[27.9703331,41.1969175],[27.964562,41.1943525],[27.957517,41.1875867],[27.9588425,41.18601],[27.9547441,41.1712648],[27.9499054,41.1708852],[27.9489827,41.17309],[27.9465151,41.1700937],[27.9370858,41.1692569],[27.9274607,41.1771358],[27.9191887,41.1710306],[27.909801,41.1688662],[27.9017758,41.1699161],[27.897892,41.181343],[27.8946519,41.1853278],[27.8814876,41.1921058],[27.868351,41.1938309],[27.8610438,41.1910756],[27.8546655,41.1863249],[27.8489953,41.1853722],[27.8353081,41.1790407],[27.8278327,41.1877864],[27.826674,41.1964654],[27.8232729,41.1937367],[27.8190458,41.196861],[27.8198842,41.2003486],[27.8175437,41.1968044],[27.8080004,41.1895505],[27.7931575,41.184121],[27.7840631,41.1777501],[27.7760199,41.1780034],[27.7771147,41.17978],[27.7713595,41.1804385],[27.7696783,41.1767994],[27.7674499,41.1758917],[27.7433347,41.1714994],[27.73741,41.1723712],[27.7241501,41.179873],[27.6963186,41.1901843],[27.6700115,41.1945601],[27.6608077,41.1947799],[27.6571369,41.1875199],[27.6585746,41.1855175],[27.6406653,41.1629414],[27.6275946,41.1576847],[27.6186418,41.1484136],[27.6132774,41.1451415],[27.6131195,41.1422613],[27.6214742,41.1413522],[27.6210558,41.1342174],[27.6351213,41.1192746],[27.6349711,41.1106904],[27.6382971,41.1106905],[27.6355719,41.1073114],[27.6383614,41.1074893],[27.6425634,41.1007694],[27.6342576,41.1016587],[27.6322245,41.100084],[27.6390159,41.0936239],[27.6384902,41.0879637],[27.6374644,41.0858667],[27.6332974,41.0876645],[27.6290273,41.0782836],[27.6240277,41.0773778],[27.6233326,41.0757557],[27.6251006,41.0704059],[27.6307869,41.0684808],[27.6415801,41.0587412],[27.654444,41.0549227],[27.6743352,41.056921],[27.6771033,41.0553919],[27.6785409,41.0567592],[27.6812982,41.0557883],[27.6836157,41.0517916],[27.6902919,41.0688935],[27.7025628,41.0642017],[27.7016186,41.0630854],[27.7072351,41.0575666],[27.7026164,41.0533693],[27.7063393,41.0531913],[27.7000093,41.0461197],[27.7006541,41.0452973],[27.7057258,41.0469514],[27.7086353,41.0383029],[27.7056956,41.0292549],[27.7031582,41.0089815],[27.6978099,41.0079573],[27.6978077,41.0026102]]]}},{"type":"Feature","properties":{"code":"59-03","provinceCode":"59","name":"Ergene"},"geometry":{"type":"Polygon","coordinates":[[[27.957517,41.1875867],[27.9283024,41.1955958],[27.9074322,41.2209012],[27.9101229,41.2216482],[27.9101765,41.223593],[27.901454,41.2391817],[27.8906361,41.2535074],[27.8963685,41.2572105],[27.8960252,41.2611947],[27.9022614,41.2617856],[27.9094423,41.271422],[27.9038679,41.2742022],[27.9025846,41.273418],[27.9013359,41.2751215],[27.897141,41.2742909],[27.8956497,41.2757988],[27.893182,41.2752263],[27.890237,41.2765607],[27.8900868,41.2752505],[27.8884077,41.2754762],[27.8894102,41.2762293],[27.8863048,41.2783064],[27.8807044,41.2795884],[27.8721857,41.2848692],[27.8705549,41.2877151],[27.8649974,41.2911009],[27.8624414,41.2892724],[27.8664694,41.2993564],[27.86165,41.3049407],[27.8693104,41.31084],[27.8692674,41.3125888],[27.8593111,41.3164004],[27.8523213,41.3214124],[27.8381071,41.3165331],[27.8364801,41.3177219],[27.8375745,41.3206227],[27.8352678,41.3216219],[27.8317702,41.3197122],[27.8296137,41.3216299],[27.8267813,41.3205905],[27.824068,41.321422],[27.822243,41.3224679],[27.8235197,41.3253363],[27.8149474,41.3289699],[27.81057,41.3283495],[27.8085961,41.3263056],[27.8092933,41.3284784],[27.8040576,41.341827],[27.8030276,41.3395151],[27.8019977,41.3401596],[27.7990307,41.3381347],[27.7911362,41.3416875],[27.7654123,41.3225323],[27.7658844,41.3213721],[27.7622366,41.3197767],[27.7548551,41.3110415],[27.7507675,41.3096312],[27.7509498,41.3079549],[27.7468514,41.3054726],[27.7472591,41.3025389],[27.7451455,41.3030386],[27.744534,41.2988393],[27.7419698,41.2981219],[27.7399206,41.2948977],[27.7397811,41.2916088],[27.7379465,41.2913266],[27.735393,41.2870137],[27.7320135,41.2860946],[27.7277673,41.2778182],[27.7072835,41.3194302],[27.6983249,41.328986],[27.699548,41.3330786],[27.6982713,41.3394588],[27.6953208,41.3403771],[27.6867056,41.3382585],[27.6806438,41.3348026],[27.6748502,41.3260533],[27.6694375,41.3260211],[27.6662135,41.3229433],[27.6622546,41.3232656],[27.6598669,41.3214571],[27.6590788,41.3304523],[27.6608383,41.3315117],[27.656976,41.3346173],[27.6589072,41.3356888],[27.6546264,41.3416175],[27.6588642,41.3457013],[27.6428032,41.3543513],[27.6414196,41.3567613],[27.6453261,41.3666964],[27.6490688,41.371189],[27.6470732,41.3735077],[27.6507425,41.3759552],[27.6493048,41.3790466],[27.6544118,41.3830395],[27.6523089,41.3842792],[27.6554555,41.3867179],[27.6534891,41.3880142],[27.6566648,41.3905416],[27.6522016,41.3921514],[27.6387155,41.3810029],[27.6354647,41.3832971],[27.6407432,41.3854062],[27.6473307,41.3929724],[27.6448631,41.3940831],[27.6402975,41.3932182],[27.6336891,41.3962489],[27.6281521,41.3945285],[27.6273943,41.3998513],[27.6288986,41.4019863],[27.6273107,41.4036279],[27.6296496,41.4103874],[27.6267528,41.4120771],[27.6306563,41.4203571],[27.6176762,41.4233812],[27.6153452,41.425077],[27.6115393,41.4185139],[27.6090288,41.418353],[27.6092648,41.414314],[27.606883,41.4116587],[27.6044369,41.4126404],[27.5997161,41.4059456],[27.5917983,41.400763],[27.5942445,41.39991],[27.5924635,41.3965942],[27.5885831,41.3942691],[27.5822067,41.3953064],[27.5872493,41.3925699],[27.5857472,41.3896562],[27.5900173,41.3863721],[27.5911669,41.3870231],[27.6062178,41.3691761],[27.5964331,41.3593201],[27.5931716,41.3584343],[27.5887298,41.35415],[27.5875054,41.3498506],[27.5778618,41.3413353],[27.5883865,41.3366393],[27.5841808,41.3312902],[27.5705552,41.3207678],[27.5826788,41.3171981],[27.5804171,41.3129687],[27.5840413,41.3083014],[27.5823247,41.3054323],[27.5881934,41.2929308],[27.5915837,41.2896579],[27.590849,41.285886],[27.5964761,41.2809348],[27.5881076,41.2770244],[27.5871961,41.2732111],[27.5911331,41.2718719],[27.5866484,41.2695011],[27.5870132,41.2674529],[27.5828934,41.2619851],[27.576499,41.2577912],[27.5787091,41.2556619],[27.5879788,41.2620819],[27.596004,41.2580332],[27.60257,41.2613883],[27.6042974,41.2606302],[27.6035187,41.2593896],[27.6285767,41.2349299],[27.627957,41.2231514],[27.6208949,41.2227618],[27.6173714,41.2208017],[27.6182985,41.218856],[27.6147365,41.2193241],[27.6155734,41.2178068],[27.6139855,41.2166286],[27.6161313,41.2128676],[27.6144361,41.2122058],[27.616024,41.2097522],[27.6106041,41.1992777],[27.6417303,41.1947055],[27.6608077,41.1947799],[27.6700115,41.1945601],[27.6963186,41.1901843],[27.7241501,41.179873],[27.73741,41.1723712],[27.7433347,41.1714994],[27.7674499,41.1758917],[27.7696783,41.1767994],[27.7713595,41.1804385],[27.7771147,41.17978],[27.7760199,41.1780034],[27.7840631,41.1777501],[27.7931575,41.184121],[27.8080004,41.1895505],[27.8175437,41.1968044],[27.8198842,41.2003486],[27.8190458,41.196861],[27.8232729,41.1937367],[27.826674,41.1964654],[27.8278327,41.1877864],[27.8353081,41.1790407],[27.8489953,41.1853722],[27.8546655,41.1863249],[27.8610438,41.1910756],[27.868351,41.1938309],[27.8814876,41.1921058],[27.8946519,41.1853278],[27.897892,41.181343],[27.9017758,41.1699161],[27.909801,41.1688662],[27.9191887,41.1710306],[27.9274607,41.1771358],[27.9370858,41.1692569],[27.9465151,41.1700937],[27.9489827,41.17309],[27.9499054,41.1708852],[27.9547441,41.1712648],[27.9588425,41.18601],[27.957517,41.1875867]]]}},{"type":"Feature","properties":{"code":"59-04","provinceCode":"59","name":"Hayrabolu"},"geometry":{"type":"Polygon","coordinates":[[[27.330768,41.159499],[27.3251428,41.1644663],[27.3251782,41.1682155],[27.3220699,41.1718049],[27.3190323,41.1726823],[27.3039503,41.1854428],[27.3003829,41.1782653],[27.2962503,41.183077],[27.2961797,41.1858149],[27.2873848,41.1890844],[27.2792393,41.194713],[27.2735597,41.1948028],[27.2753024,41.1977751],[27.2813551,41.1975424],[27.2817794,41.2033914],[27.2853809,41.203457],[27.2869784,41.2061229],[27.3063102,41.2143172],[27.3092399,41.2119196],[27.3165861,41.2156209],[27.3227417,41.2126931],[27.317243,41.208898],[27.3189857,41.2075214],[27.3213673,41.2068003],[27.3241556,41.2083736],[27.3257821,41.2064944],[27.3299355,41.206254],[27.3340018,41.2040251],[27.3460844,41.207587],[27.3470138,41.209772],[27.3455097,41.2114368],[27.349744,41.2136613],[27.3482918,41.2156714],[27.3660079,41.2252169],[27.3583007,41.2288587],[27.3561847,41.2279337],[27.3448015,41.2364001],[27.3392562,41.2386271],[27.3433999,41.2488814],[27.3349538,41.2550182],[27.3192332,41.2588578],[27.3105262,41.2634873],[27.3065942,41.2631655],[27.3007573,41.269021],[27.2986604,41.2685952],[27.2959436,41.2721601],[27.2915547,41.273437],[27.2885108,41.2774271],[27.274005,41.2861187],[27.2715384,41.2903744],[27.266951,41.293647],[27.2575944,41.3118312],[27.2506362,41.3125645],[27.2430245,41.3209992],[27.2332864,41.3203753],[27.2347413,41.32114],[27.2328043,41.3257413],[27.2282304,41.3248887],[27.2230948,41.3271816],[27.220098,41.3309622],[27.2141012,41.3319061],[27.2094726,41.3374511],[27.2037627,41.3401243],[27.1998017,41.340043],[27.194193,41.345005],[27.1905247,41.3426438],[27.1887267,41.3484032],[27.1840606,41.3529943],[27.1806517,41.3524039],[27.1745585,41.3553898],[27.1614366,41.3560109],[27.1607709,41.3516916],[27.1650516,41.349777],[27.1677049,41.3494313],[27.16991,41.3513],[27.1774405,41.3508158],[27.1717077,41.3467655],[27.1664572,41.3484072],[27.1657534,41.3473937],[27.1695738,41.3454634],[27.176359,41.345015],[27.1779305,41.3431748],[27.1768336,41.3410727],[27.1806112,41.3354524],[27.1855267,41.3351753],[27.1866771,41.3330039],[27.1768815,41.3296311],[27.1746039,41.3255354],[27.1688239,41.3272958],[27.1666019,41.3174803],[27.175484,41.3113323],[27.1740247,41.3102018],[27.1712123,41.3127045],[27.1662831,41.311062],[27.1667626,41.3091937],[27.1642453,41.3080906],[27.1638254,41.3057607],[27.1523685,41.3032393],[27.1470244,41.3005741],[27.1338944,41.3128642],[27.1327462,41.3156229],[27.128042,41.3185832],[27.1298965,41.3213322],[27.1277453,41.323453],[27.1268977,41.3333825],[27.1191703,41.3307552],[27.1155033,41.3207021],[27.1120662,41.31658],[27.1129059,41.3138958],[27.1188768,41.3134158],[27.1213264,41.3118271],[27.1226721,41.3075439],[27.1185294,41.300896],[27.1209603,41.2952146],[27.1195561,41.291107],[27.1227072,41.2863184],[27.1239201,41.2799764],[27.1319277,41.2790502],[27.1296779,41.2761639],[27.1244263,41.2761837],[27.1218806,41.2718755],[27.1222117,41.2676116],[27.1190588,41.2637641],[27.1111648,41.2602725],[27.1108717,41.2695198],[27.0962273,41.2694625],[27.0964094,41.2743079],[27.0918306,41.2759438],[27.0886148,41.2735269],[27.084722,41.2741629],[27.0743418,41.2725148],[27.0711817,41.2693926],[27.0624842,41.2692588],[27.062719,41.275435],[27.0568836,41.2838575],[27.0588261,41.2858647],[27.0568797,41.2874545],[27.0596724,41.2903795],[27.0756369,41.2876575],[27.0848912,41.2886627],[27.0893907,41.2907123],[27.0978391,41.2871365],[27.1057754,41.2868752],[27.1065446,41.2980728],[27.1118557,41.3025321],[27.1086398,41.3061325],[27.1081636,41.3113597],[27.0983624,41.3186558],[27.1017057,41.3238538],[27.1001241,41.3267409],[27.0966719,41.3265873],[27.0948615,41.3237902],[27.0904766,41.3282026],[27.0833874,41.3249664],[27.0812384,41.3274152],[27.0840409,41.3338645],[27.0824944,41.3393112],[27.0758023,41.3426874],[27.0669032,41.3435729],[27.0630908,41.3418808],[27.0411874,41.3411011],[27.0214154,41.3460102],[27.0159285,41.3460772],[27.0145369,41.3476628],[27.0087498,41.3472448],[27.0038623,41.3581477],[27.0028615,41.361426],[26.994077,41.3633656],[26.9917607,41.3634812],[26.9874233,41.3601205],[26.9838306,41.3603087],[26.9802855,41.3629166],[26.9726845,41.3608473],[26.9731187,41.3568548],[26.9700736,41.3573864],[26.9739641,41.3528552],[26.9695778,41.3488279],[26.9704158,41.3455941],[26.9730195,41.3443924],[26.9695916,41.3375553],[26.9680328,41.319617],[26.9428804,41.3229942],[26.9337032,41.3093915],[26.9286057,41.307243],[26.9239046,41.3009939],[26.9275286,41.29563],[26.9221522,41.2890693],[26.9243552,41.288505],[26.9236352,41.2864653],[26.9265082,41.2851942],[26.9231035,41.2789485],[26.9311645,41.275675],[26.9304797,41.2735986],[26.9341199,41.2664719],[26.9541958,41.2563311],[26.957187,41.2445154],[26.962179,41.237571],[26.9598546,41.2299906],[26.9412125,41.2253697],[26.9299805,41.2199253],[26.9352221,41.2118517],[26.9302301,41.2065939],[26.9444573,41.1990821],[26.9462045,41.1870615],[26.9516957,41.1776688],[26.9357213,41.1678989],[26.9132572,41.159631],[26.906518,41.1530535],[26.896534,41.1492947],[26.8897948,41.135949],[26.8665819,41.127113],[26.8580955,41.1205322],[26.8667131,41.1105988],[26.8654661,41.1014377],[26.8701423,41.0946248],[26.8788712,41.089221],[26.8885353,41.0913356],[26.9044343,41.097444],[26.9225156,41.088986],[26.9309327,41.078412],[26.9446495,41.0685414],[26.962419,41.080762],[26.9686539,41.0727718],[26.9861117,41.0680713],[26.9942171,41.0640756],[26.9942171,41.0537327],[26.9970228,41.0457393],[26.9917231,41.0377449],[26.9711479,41.0245756],[26.9776945,41.0128151],[26.9733301,41.0022288],[26.9773828,40.9956409],[26.9829942,40.9916408],[26.9892291,40.9906996],[26.9923466,40.9991702],[27.0001402,41.0064635],[27.0020107,41.0146969],[27.0116748,41.02387],[27.0213389,41.0278682],[27.0285091,41.0241052],[27.0447199,41.0233997],[27.0590601,41.0146969],[27.0593719,41.0076398],[27.0546957,41.0005819],[27.0599954,40.9946998],[27.0584367,40.9881111],[27.0696595,40.9739904],[27.0799471,40.9730489],[27.0945991,40.978933],[27.0946089,40.9849144],[27.0979558,40.9862832],[27.1018753,40.9908265],[27.1113204,40.9922176],[27.1313803,41.0075654],[27.1719072,41.0296752],[27.1809478,41.0379057],[27.181883,41.0447244],[27.1921706,41.0409624],[27.200276,41.0409624],[27.2061992,41.0463702],[27.2127459,41.0416678],[27.2280214,41.0423732],[27.2283331,41.0475458],[27.2208512,41.05883],[27.1940411,41.0832724],[27.2068227,41.0865621],[27.2264627,41.1044172],[27.2287253,41.1002532],[27.233562,41.1015269],[27.2545701,41.1154321],[27.2688601,41.1041823],[27.2838239,41.102303],[27.2866296,41.107236],[27.2825769,41.1124035],[27.2900588,41.1171008],[27.2881883,41.121563],[27.2913261,41.1293603],[27.3017105,41.1329252],[27.2969235,41.1349097],[27.3004909,41.14023],[27.301162,41.1452838],[27.3070253,41.1524118],[27.3101335,41.1499384],[27.319317,41.161161],[27.3287476,41.1582891],[27.330768,41.159499]]]}},{"type":"Feature","properties":{"code":"59-05","provinceCode":"59","name":"Kapaklı"},"geometry":{"type":"Polygon","coordinates":[[[27.9022614,41.2617856],[27.9060349,41.2617365],[27.9184764,41.2543555],[27.9232004,41.2582454],[27.9277622,41.2572623],[27.9294081,41.2584981],[27.9286809,41.2600402],[27.9349764,41.2654022],[27.9388788,41.2649717],[27.9429959,41.2674378],[27.9492696,41.2657848],[27.9497187,41.2733375],[27.9558741,41.2796157],[27.9584672,41.2858469],[27.9726624,41.3040413],[27.9794105,41.3093358],[27.9796371,41.3132988],[27.9833759,41.3188384],[27.9879219,41.3131044],[27.9939485,41.3099679],[27.9949042,41.311908],[27.9994431,41.3116136],[27.9997972,41.3149116],[28.0035395,41.3141488],[28.0091003,41.3095813],[28.0183282,41.323838],[28.0263337,41.3286881],[28.0290882,41.3274976],[28.0270318,41.3221533],[28.0297143,41.3190449],[28.0476988,41.3235494],[28.0560069,41.3237896],[28.0617815,41.3292857],[28.0642474,41.327005],[28.0730509,41.3262301],[28.0850459,41.3381136],[28.0890466,41.3478713],[28.0876529,41.3524829],[28.0892932,41.3697686],[28.0962607,41.3802792],[28.0985784,41.388244],[28.0980561,41.3931746],[28.0741552,41.3953123],[28.0656021,41.4032202],[28.0576457,41.3996394],[28.048098,41.3987441],[28.0471034,41.3909849],[28.039346,41.3891941],[28.0315885,41.3782995],[28.0222397,41.381583],[28.0093106,41.3811353],[27.9987684,41.3771054],[27.9770872,41.3766577],[27.9629646,41.3685972],[27.96197,41.3636709],[27.955406,41.3571019],[27.9550082,41.3487404],[27.9603788,41.3390338],[27.9345205,41.3224544],[27.9231826,41.3233507],[27.9028938,41.3375403],[27.9116458,41.3508309],[27.9116458,41.3560568],[27.8985178,41.3672537],[27.9032916,41.3824785],[27.8929483,41.3862095],[27.8762399,41.3869557],[27.8569504,41.3827006],[27.8447294,41.3899594],[27.8316936,41.3904178],[27.8269071,41.379644],[27.8133621,41.3681805],[27.7908551,41.3606899],[27.7803654,41.3518224],[27.7807727,41.3458591],[27.7911362,41.3416875],[27.7990307,41.3381347],[27.8019977,41.3401596],[27.8030276,41.3395151],[27.8040576,41.341827],[27.8092933,41.3284784],[27.8085961,41.3263056],[27.81057,41.3283495],[27.8149474,41.3289699],[27.8235197,41.3253363],[27.822243,41.3224679],[27.824068,41.321422],[27.8267813,41.3205905],[27.8296137,41.3216299],[27.8317702,41.3197122],[27.8352678,41.3216219],[27.8375745,41.3206227],[27.8364801,41.3177219],[27.8381071,41.3165331],[27.8523213,41.3214124],[27.8593111,41.3164004],[27.8692674,41.3125888],[27.8693104,41.31084],[27.86165,41.3049407],[27.8664694,41.2993564],[27.8624414,41.2892724],[27.8649974,41.2911009],[27.8705549,41.2877151],[27.8721857,41.2848692],[27.8807044,41.2795884],[27.8863048,41.2783064],[27.8894102,41.2762293],[27.8884077,41.2754762],[27.8900868,41.2752505],[27.890237,41.2765607],[27.893182,41.2752263],[27.8956497,41.2757988],[27.897141,41.2742909],[27.9013359,41.2751215],[27.9025846,41.273418],[27.9038679,41.2742022],[27.9094423,41.271422],[27.9022614,41.2617856]]]}},{"type":"Feature","properties":{"code":"59-06","provinceCode":"59","name":"Malkara"},"geometry":{"type":"Polygon","coordinates":[[[27.0979558,40.9862832],[27.0946089,40.9849144],[27.0945991,40.978933],[27.0799471,40.9730489],[27.0696595,40.9739904],[27.0584367,40.9881111],[27.0599954,40.9946998],[27.0546957,41.0005819],[27.0593719,41.0076398],[27.0590601,41.0146969],[27.0447199,41.0233997],[27.0285091,41.0241052],[27.0213389,41.0278682],[27.0116748,41.02387],[27.0020107,41.0146969],[27.0001402,41.0064635],[26.9923466,40.9991702],[26.9892291,40.9906996],[26.9829942,40.9916408],[26.9773828,40.9956409],[26.9733301,41.0022288],[26.9776945,41.0128151],[26.9711479,41.0245756],[26.9917231,41.0377449],[26.9970228,41.0457393],[26.9942171,41.0537327],[26.9942171,41.0640756],[26.9861117,41.0680713],[26.9686539,41.0727718],[26.962419,41.080762],[26.9446495,41.0685414],[26.9309327,41.078412],[26.9225156,41.088986],[26.9044343,41.097444],[26.8885353,41.0913356],[26.8788712,41.089221],[26.8701423,41.0946248],[26.8654661,41.1014377],[26.8667131,41.1105988],[26.8580955,41.1205322],[26.8376283,41.1084971],[26.823401,41.1116942],[26.8106714,41.1071807],[26.8139162,41.1011622],[26.8126682,41.0947669],[26.8061786,41.0870542],[26.8064282,41.0815982],[26.797193,41.0718141],[26.7944474,41.0659806],[26.7974426,41.0618403],[26.7867097,41.0618403],[26.7844633,41.0580762],[26.7762265,41.0659806],[26.7714841,41.0650396],[26.7694873,41.0599583],[26.7644953,41.0584526],[26.7575065,41.0656042],[26.7572569,41.0697442],[26.7492697,41.0721904],[26.7455256,41.0750129],[26.739036,41.0755774],[26.7320472,41.0712496],[26.72406,41.0718141],[26.7239672,41.0696353],[26.7207369,41.0676058],[26.707836,41.0746366],[26.705856,41.0691928],[26.6995991,41.0652278],[26.6995991,41.0595819],[26.6932929,41.0475675],[26.6976191,41.0443418],[26.6981,41.0416],[26.703,41.035],[26.7139,41.0291],[26.7168,41.0304],[26.723,41.0266],[26.7283,41.0254],[26.7361,41.0259],[26.7396,41.023],[26.7379615,41.0201907],[26.7444,41.0184],[26.74,40.999],[26.7327,40.9912],[26.7337,40.9825],[26.7378,40.9741],[26.7304,40.9678],[26.7189,40.9623],[26.7196,40.9593],[26.7239,40.9585],[26.7265,40.9525],[26.7316,40.9498],[26.7369,40.9433],[26.744,40.9435],[26.7515,40.9496],[26.7551,40.9503],[26.7598,40.9498],[26.7641,40.9446],[26.7514,40.9388],[26.7503,40.9331],[26.7428,40.9282],[26.7371,40.9217],[26.7224,40.9169],[26.7148,40.9181],[26.7141,40.9168],[26.7201,40.9075],[26.7163,40.9044],[26.7186,40.8983],[26.7167,40.8955],[26.7177,40.8941],[26.7133,40.8892],[26.7153,40.8878],[26.7139,40.8877],[26.7141,40.8813],[26.7117,40.88],[26.7119,40.8778],[26.715,40.8733],[26.7420489,40.8608479],[26.7368,40.8472],[26.7462,40.8416],[26.749,40.8349],[26.7496,40.821],[26.7538,40.8135],[26.7644,40.8042],[26.7718,40.8032],[26.7749,40.7954],[26.7735,40.7885],[26.7814,40.7861],[26.7848,40.7824],[26.7867,40.7764],[26.7907,40.7746],[26.7915,40.7714],[26.8001,40.766],[26.8006,40.7594],[26.8041,40.7567],[26.8037,40.7535],[26.8111,40.7521],[26.8099,40.7385],[26.807,40.7281],[26.8049,40.7266],[26.8086,40.7281],[26.812,40.7233],[26.8176,40.7249],[26.8239,40.723],[26.8283,40.7255],[26.8414,40.7246],[26.8563,40.7292],[26.8549,40.7369],[26.8576,40.7422],[26.86,40.7431],[26.8753,40.7452],[26.8887,40.7499],[26.9035,40.7491],[26.9072,40.754],[26.9129,40.7519],[26.9229,40.7553],[26.9302,40.7509],[26.9344,40.7536],[26.9556,40.7581],[26.9613,40.762],[26.9677,40.7607],[26.9737,40.754],[26.9792,40.7526],[26.9804,40.7506],[26.9932,40.7523],[27.0102,40.7505],[27.0202,40.7528],[27.0252,40.7489],[27.0334,40.7492],[27.0343,40.7476],[27.0406,40.7454],[27.048,40.7476],[27.0499,40.7449],[27.0549837,40.7459104],[27.0604946,40.7533113],[27.0690114,40.7557781],[27.0775282,40.7553986],[27.085544,40.751983],[27.0943114,40.7555884],[27.0978183,40.7601422],[27.1080886,40.7620396],[27.1158539,40.7561576],[27.1327214,40.7621953],[27.1354608,40.7719307],[27.1334238,40.7761595],[27.1360228,40.7785531],[27.1395699,40.7776222],[27.140812,40.780448],[27.1437141,40.7799094],[27.1444526,40.7781187],[27.146875,40.7810263],[27.1511339,40.7818043],[27.1553039,40.7746169],[27.1661913,40.7709731],[27.1758699,40.764765],[27.176025,40.7616899],[27.1799585,40.7559172],[27.1844827,40.7534373],[27.1933043,40.7561566],[27.2014905,40.7607912],[27.2079491,40.7617077],[27.2087791,40.7629128],[27.2015506,40.7712688],[27.1979537,40.7711378],[27.1942876,40.7745428],[27.1855373,40.7779476],[27.1820441,40.7832378],[27.1749886,40.7872706],[27.1749886,40.7887894],[27.1701811,40.7889466],[27.1686939,40.7920364],[27.1648895,40.7916698],[27.1650278,40.7946548],[27.1614655,40.8004411],[27.1614309,40.8042897],[27.1657887,40.8067243],[27.1766833,40.8188178],[27.1818366,40.8210688],[27.1919998,40.8216311],[27.1905886,40.8230189],[27.1962624,40.8332338],[27.1970939,40.842337],[27.2015907,40.8475018],[27.1956419,40.8489408],[27.1925638,40.8516092],[27.19246,40.8556641],[27.1828105,40.8577306],[27.1762232,40.8675287],[27.1738265,40.8673808],[27.17412,40.8733727],[27.1700416,40.8769466],[27.1740943,40.8840178],[27.1837584,40.8906168],[27.1806409,40.9002784],[27.1691063,40.8993359],[27.1634949,40.9014566],[27.1616245,40.9075826],[27.1525838,40.9101743],[27.1566365,40.9148861],[27.1538308,40.9219531],[27.1494664,40.9268996],[27.1382435,40.9226598],[27.1366848,40.9278417],[27.1432315,40.9367915],[27.1435432,40.9473882],[27.1366848,40.9476237],[27.1391788,40.9544518],[27.1332556,40.9565707],[27.138867,40.9721074],[27.1282677,40.975638],[27.1282677,40.9824632],[27.1201623,40.9834046],[27.1139483,40.9881232],[27.1080215,40.9852837],[27.1008536,40.9845463],[27.0979558,40.9862832]]]}},{"type":"Feature","properties":{"code":"59-07","provinceCode":"59","name":"Marmaraereğlisi"},"geometry":{"type":"Polygon","coordinates":[[[27.7292835,41.011533],[27.7471975,41.0136244],[27.7609591,41.0133194],[27.761058,41.010331],[27.7626677,41.0102526],[27.7627389,41.0051737],[27.7629154,41.0103063],[27.7612073,41.0115306],[27.7639235,41.0120723],[27.76412,41.0102395],[27.7642329,41.0125255],[27.7693175,41.0126168],[27.7904766,41.0070135],[27.8070937,41.0005078],[27.8239082,40.9976068],[27.8497669,40.9876585],[27.8572888,40.9810338],[27.8579849,40.9769809],[27.8622918,40.9743205],[27.864641,40.9699453],[27.873507,40.9683358],[27.8778487,40.9659904],[27.8903375,40.9651012],[27.903231,40.968828],[27.923573,40.970208],[27.92998,40.968231],[27.932476,40.96513],[27.931929,40.962311],[27.932967,40.963842],[27.938401,40.964953],[27.9552915,40.9640733],[27.9633724,40.9658102],[27.9677137,40.9698108],[27.9664354,40.9706126],[27.9614984,40.9688224],[27.9605949,40.9707691],[27.9599365,40.9695072],[27.9570393,40.9706106],[27.9563947,40.9762548],[27.9585716,40.9783146],[27.9615068,40.9779887],[27.9584925,40.9786673],[27.9591342,40.9799675],[27.967446,40.9835227],[27.9713431,40.98193],[27.9763903,40.9824936],[27.9784021,40.9843483],[27.9780017,40.9824037],[27.9790985,40.9834884],[27.9830775,40.9920989],[27.9847409,40.9926489],[27.983354,40.992948],[27.9832445,41.0055364],[27.9902515,41.0180898],[28.0134334,41.0342521],[28.0133454,41.0352477],[28.0075828,41.0320583],[28.0057192,41.0335015],[28.0048617,41.0401329],[27.9953149,41.0381139],[27.9922982,41.042841],[27.9859367,41.0440022],[27.9816423,41.0401277],[27.9803968,41.0436561],[27.9765689,41.0438713],[27.9768929,41.0420891],[27.9742494,41.0425888],[27.9790307,41.0492227],[27.9785725,41.0522824],[27.9771603,41.0522032],[27.9787474,41.0582346],[27.9757529,41.0661404],[27.9617715,41.0665476],[27.9489738,41.0633226],[27.9484068,41.0656065],[27.9460537,41.0659732],[27.9414157,41.0636714],[27.9288662,41.0675021],[27.92616,41.0744736],[27.9188561,41.0838153],[27.9148481,41.0852046],[27.9125566,41.0883565],[27.9117731,41.0955902],[27.9014081,41.1014415],[27.8915083,41.1097527],[27.8795957,41.1140214],[27.8716385,41.118927],[27.8675616,41.1142309],[27.8631608,41.102657],[27.886908,41.085661],[27.8971195,41.0724603],[27.8979453,41.0685966],[27.9031219,41.0676223],[27.9052384,41.0625968],[27.9053593,41.0601165],[27.9031371,41.0596911],[27.9016685,41.0548903],[27.8983426,41.0524632],[27.8987074,41.0501168],[27.8950596,41.0468641],[27.8960037,41.0445338],[27.8928709,41.0426079],[27.8929134,41.0404862],[27.9138521,41.0388732],[27.9118731,41.0356306],[27.894929,41.0372686],[27.8868778,41.0403673],[27.8843491,41.0458008],[27.8794491,41.0481102],[27.8799319,41.054502],[27.8776681,41.0573012],[27.8649443,41.058783],[27.8517274,41.069541],[27.8425647,41.0732531],[27.8421892,41.0769314],[27.8456392,41.0856981],[27.8426915,41.0868943],[27.8332883,41.075732],[27.8289527,41.0732145],[27.8229177,41.0713521],[27.8148293,41.0719265],[27.7995385,41.0669813],[27.7971375,41.0675425],[27.7928996,41.0628346],[27.7849281,41.060788],[27.7860439,41.0582599],[27.7832346,41.0565863],[27.7815807,41.0591619],[27.7716964,41.0637154],[27.7770531,41.0694908],[27.7742439,41.07209],[27.7660717,41.0722825],[27.7621132,41.070261],[27.7512595,41.0509085],[27.7379999,41.0398294],[27.734758,41.0281465],[27.730349,41.0236148],[27.731668,41.016929],[27.7292835,41.011533]]]}},{"type":"Feature","properties":{"code":"59-08","provinceCode":"59","name":"Muratlı"},"geometry":{"type":"Polygon","coordinates":[[[27.6233326,41.0757557],[27.6240277,41.0773778],[27.6290273,41.0782836],[27.6332974,41.0876645],[27.6374644,41.0858667],[27.6384902,41.0879637],[27.6390159,41.0936239],[27.6322245,41.100084],[27.6342576,41.1016587],[27.6425634,41.1007694],[27.6383614,41.1074893],[27.6355719,41.1073114],[27.6382971,41.1106905],[27.6349711,41.1106904],[27.6351213,41.1192746],[27.6210558,41.1342174],[27.6214742,41.1413522],[27.6131195,41.1422613],[27.6132774,41.1451415],[27.6186418,41.1484136],[27.6275946,41.1576847],[27.6406653,41.1629414],[27.6585746,41.1855175],[27.6571369,41.1875199],[27.6608077,41.1947799],[27.6417303,41.1947055],[27.6106041,41.1992777],[27.616024,41.2097522],[27.6144361,41.2122058],[27.6161313,41.2128676],[27.6139855,41.2166286],[27.6155734,41.2178068],[27.6147365,41.2193241],[27.6182985,41.218856],[27.6173714,41.2208017],[27.6208949,41.2227618],[27.627957,41.2231514],[27.6285767,41.2349299],[27.6035187,41.2593896],[27.6042974,41.2606302],[27.60257,41.2613883],[27.596004,41.2580332],[27.5879788,41.2620819],[27.5787091,41.2556619],[27.576499,41.2577912],[27.5692951,41.2489609],[27.5637041,41.2498617],[27.5615076,41.2545155],[27.5523223,41.2566171],[27.5443351,41.2518133],[27.5379453,41.2548157],[27.5285603,41.2500118],[27.5205731,41.2543654],[27.4945763,41.2361255],[27.4762555,41.2404553],[27.4615679,41.2356427],[27.4439832,41.22434],[27.4396893,41.2171114],[27.4270119,41.2244938],[27.4155615,41.2285691],[27.4101941,41.227262],[27.3923027,41.2271659],[27.3885966,41.2213987],[27.3820791,41.2238978],[27.369843,41.2224878],[27.3660079,41.2252169],[27.3482918,41.2156714],[27.349744,41.2136613],[27.3455097,41.2114368],[27.3470138,41.209772],[27.3460844,41.207587],[27.3340018,41.2040251],[27.3299355,41.206254],[27.3257821,41.2064944],[27.3241556,41.2083736],[27.3213673,41.2068003],[27.3189857,41.2075214],[27.317243,41.208898],[27.3227417,41.2126931],[27.3165861,41.2156209],[27.3092399,41.2119196],[27.3063102,41.2143172],[27.2869784,41.2061229],[27.2853809,41.203457],[27.2817794,41.2033914],[27.2813551,41.1975424],[27.2753024,41.1977751],[27.2735597,41.1948028],[27.2792393,41.194713],[27.2873848,41.1890844],[27.2961797,41.1858149],[27.2962503,41.183077],[27.3003829,41.1782653],[27.3039503,41.1854428],[27.3190323,41.1726823],[27.3220699,41.1718049],[27.3251782,41.1682155],[27.3251428,41.1644663],[27.330768,41.159499],[27.3321854,41.1606807],[27.3318308,41.1584463],[27.3347953,41.1588861],[27.3475393,41.1667651],[27.3486162,41.1691969],[27.352385,41.1671704],[27.3740381,41.1765394],[27.3842059,41.1732081],[27.3842059,41.1621782],[27.3907526,41.1476254],[27.400105,41.140113],[27.4144453,41.1471559],[27.4241094,41.1363564],[27.4166275,41.1300168],[27.4057164,41.1307212],[27.4022872,41.124381],[27.4022872,41.1182751],[27.4085221,41.10935],[27.4125748,41.0954902],[27.4075869,41.0907914],[27.4256681,41.0694072],[27.4396967,41.0722274],[27.4484255,41.0703473],[27.4462433,41.0621208],[27.4683772,41.0602404],[27.469936,41.0696422],[27.4752357,41.0729325],[27.4708712,41.0830374],[27.4727417,41.086797],[27.4814706,41.0877369],[27.485835,41.0912613],[27.4989283,41.0950204],[27.5082807,41.0893816],[27.5142039,41.0940806],[27.5207505,41.0898515],[27.5223092,41.1008936],[27.5310381,41.0966649],[27.5316616,41.0914962],[27.5254267,41.0842123],[27.5382083,41.0785727],[27.5472489,41.087032],[27.5572247,41.0832724],[27.5634597,41.087267],[27.572812,41.0806876],[27.5749942,41.0722274],[27.5862171,41.0623559],[27.5933872,41.0649414],[27.6049218,41.0647064],[27.6233326,41.0757557]]]}},{"type":"Feature","properties":{"code":"59-09","provinceCode":"59","name":"Saray"},"geometry":{"type":"Polygon","coordinates":[[[27.7911362,41.3416875],[27.7807727,41.3458591],[27.7803654,41.3518224],[27.7908551,41.3606899],[27.8133621,41.3681805],[27.8269071,41.379644],[27.8316936,41.3904178],[27.8447294,41.3899594],[27.8569504,41.3827006],[27.8762399,41.3869557],[27.8929483,41.3862095],[27.9032916,41.3824785],[27.8985178,41.3672537],[27.9116458,41.3560568],[27.9116458,41.3508309],[27.9028938,41.3375403],[27.9231826,41.3233507],[27.9345205,41.3224544],[27.9603788,41.3390338],[27.9550082,41.3487404],[27.955406,41.3571019],[27.96197,41.3636709],[27.9629646,41.3685972],[27.9770872,41.3766577],[27.9987684,41.3771054],[28.0093106,41.3811353],[28.0222397,41.381583],[28.0315885,41.3782995],[28.039346,41.3891941],[28.0471034,41.3909849],[28.048098,41.3987441],[28.0576457,41.3996394],[28.0656021,41.4032202],[28.0741552,41.3953123],[28.0980561,41.3931746],[28.1007546,41.4038833],[28.1087631,41.4041772],[28.1129849,41.4075396],[28.1221685,41.4099226],[28.1152482,41.4180175],[28.1102429,41.428559],[28.1136378,41.4447433],[28.111331,41.4539104],[28.1112004,41.4658485],[28.1061952,41.4692404],[28.1046718,41.4762192],[28.0994924,41.4763497],[28.0991443,41.4778823],[28.0927897,41.4805236],[28.0853471,41.4900769],[28.0786008,41.4931414],[28.0708971,41.4940543],[28.0734215,41.5003785],[28.0702877,41.5088859],[28.0757282,41.5128947],[28.077034,41.5167078],[28.0920933,41.5176203],[28.0976209,41.5227365],[28.10502,41.5230298],[28.1195136,41.5342384],[28.1211675,41.5403633],[28.1154658,41.5445004],[28.120297,41.5449891],[28.122038,41.5488654],[28.1186866,41.5512106],[28.1204711,41.5529695],[28.1231261,41.552774],[28.1247365,41.5569104],[28.1222991,41.5599718],[28.117642,41.5608837],[28.1179902,41.5633913],[28.1240508,41.5663215],[28.1231071,41.5670807],[28.1281749,41.5737464],[28.1322661,41.5748209],[28.1368031,41.581617],[28.1411625,41.5830051],[28.1431756,41.586131],[28.1419558,41.5897459],[28.1443132,41.5905908],[28.1338461,41.5948986],[28.0999416,41.5910939],[28.0863952,41.5783807],[28.0637831,41.582163],[28.0617072,41.5908085],[28.0533206,41.5952886],[28.0523222,41.6029041],[28.0460761,41.6093358],[28.0416551,41.6097413],[28.043301,41.602979],[28.0396057,41.602793],[28.035451,41.5990744],[28.0379789,41.5978029],[28.0382631,41.5956373],[28.036149,41.5936974],[28.0357404,41.5952254],[28.0295578,41.5947737],[28.0276932,41.5959019],[28.0270596,41.5933851],[28.0195221,41.591694],[28.0189043,41.5887424],[28.0148991,41.5885747],[28.0105664,41.584702],[28.0138941,41.5839893],[28.0128891,41.5781632],[28.0157031,41.5788022],[28.0133916,41.5741786],[28.0145976,41.5722238],[28.0119847,41.571423],[28.0124037,41.5614008],[28.0096322,41.5614008],[28.0092232,41.5590073],[28.0026018,41.5557036],[27.9920187,41.5615308],[27.9906209,41.566013],[27.9822344,41.5715405],[27.9832328,41.5849839],[27.9732487,41.588867],[27.9648622,41.5855813],[27.9590714,41.5882696],[27.9588717,41.5824448],[27.9504852,41.5755738],[27.9482887,41.5712417],[27.9520826,41.5643696],[27.9432967,41.5510713],[27.9432967,41.5437486],[27.9305171,41.534482],[27.9311162,41.5283534],[27.9201337,41.5148982],[27.9111481,41.5084686],[27.9061561,41.4941119],[27.8969708,41.4921676],[27.8959724,41.4887274],[27.8833925,41.4807993],[27.8766034,41.4813976],[27.8688158,41.4797521],[27.8548382,41.4813976],[27.8516433,41.4866332],[27.851843,41.4985988],[27.8422583,41.5006925],[27.8378654,41.4968041],[27.8278814,41.5068238],[27.8182967,41.5032348],[27.7961322,41.4867828],[27.7755651,41.4836415],[27.7751657,41.4770592],[27.7621865,41.4603013],[27.7498063,41.4598524],[27.7436162,41.4561112],[27.7364277,41.4562608],[27.7300379,41.4592538],[27.7172584,41.4583559],[27.7110683,41.460451],[27.702482,41.4577574],[27.6920986,41.4499751],[27.6773223,41.4487778],[27.6707328,41.4526691],[27.6565555,41.4393479],[27.6489676,41.4240775],[27.6423782,41.4228797],[27.6325938,41.4267725],[27.6237799,41.426414],[27.6186162,41.4287189],[27.6153452,41.425077],[27.6176762,41.4233812],[27.6306563,41.4203571],[27.6267528,41.4120771],[27.6296496,41.4103874],[27.6273107,41.4036279],[27.6288986,41.4019863],[27.6273943,41.3998513],[27.6281521,41.3945285],[27.6336891,41.3962489],[27.6402975,41.3932182],[27.6448631,41.3940831],[27.6473307,41.3929724],[27.6407432,41.3854062],[27.6354647,41.3832971],[27.6387155,41.3810029],[27.6522016,41.3921514],[27.6566648,41.3905416],[27.6534891,41.3880142],[27.6554555,41.3867179],[27.6523089,41.3842792],[27.6544118,41.3830395],[27.6493048,41.3790466],[27.6507425,41.3759552],[27.6470732,41.3735077],[27.6490688,41.371189],[27.6453261,41.3666964],[27.6414196,41.3567613],[27.6428032,41.3543513],[27.6588642,41.3457013],[27.6546264,41.3416175],[27.6589072,41.3356888],[27.656976,41.3346173],[27.6608383,41.3315117],[27.6590788,41.3304523],[27.6598669,41.3214571],[27.6622546,41.3232656],[27.6662135,41.3229433],[27.6694375,41.3260211],[27.6748502,41.3260533],[27.6806438,41.3348026],[27.6867056,41.3382585],[27.6953208,41.3403771],[27.6982713,41.3394588],[27.699548,41.3330786],[27.6983249,41.328986],[27.7072835,41.3194302],[27.7277673,41.2778182],[27.7320135,41.2860946],[27.735393,41.2870137],[27.7379465,41.2913266],[27.7397811,41.2916088],[27.7399206,41.2948977],[27.7419698,41.2981219],[27.744534,41.2988393],[27.7451455,41.3030386],[27.7472591,41.3025389],[27.7468514,41.3054726],[27.7509498,41.3079549],[27.7507675,41.3096312],[27.7548551,41.3110415],[27.7622366,41.3197767],[27.7658844,41.3213721],[27.7654123,41.3225323],[27.7911362,41.3416875]]]}},{"type":"Feature","properties":{"code":"59-10","provinceCode":"59","name":"Süleymanpaşa"},"geometry":{"type":"Polygon","coordinates":[[[27.0979558,40.9862832],[27.1008536,40.9845463],[27.1080215,40.9852837],[27.1139483,40.9881232],[27.1201623,40.9834046],[27.1282677,40.9824632],[27.1282677,40.975638],[27.138867,40.9721074],[27.1332556,40.9565707],[27.1391788,40.9544518],[27.1366848,40.9476237],[27.1435432,40.9473882],[27.1432315,40.9367915],[27.1366848,40.9278417],[27.1382435,40.9226598],[27.1494664,40.9268996],[27.1538308,40.9219531],[27.1566365,40.9148861],[27.1525838,40.9101743],[27.1616245,40.9075826],[27.1634949,40.9014566],[27.1691063,40.8993359],[27.1806409,40.9002784],[27.1837584,40.8906168],[27.1740943,40.8840178],[27.1700416,40.8769466],[27.17412,40.8733727],[27.1738265,40.8673808],[27.1762232,40.8675287],[27.1828105,40.8577306],[27.19246,40.8556641],[27.1925638,40.8516092],[27.1956419,40.8489408],[27.2015907,40.8475018],[27.1970939,40.842337],[27.1962624,40.8332338],[27.1905886,40.8230189],[27.1919998,40.8216311],[27.1906702,40.8096964],[27.1919697,40.8085534],[27.1952008,40.8092179],[27.2003635,40.8064932],[27.1984318,40.7996476],[27.1994503,40.7954202],[27.2047009,40.7933729],[27.2083885,40.7941972],[27.206931,40.791751],[27.2110577,40.789318],[27.2103728,40.7864861],[27.2077388,40.784731],[27.2103377,40.78392],[27.2125152,40.778189],[27.2153073,40.7774178],[27.2169404,40.7726704],[27.2218748,40.771181],[27.2254959,40.7647449],[27.2498196,40.7751964],[27.2509914,40.7780007],[27.2565714,40.7813654],[27.2729764,40.7811805],[27.2801121,40.7827063],[27.2812519,40.7844786],[27.2848545,40.7826292],[27.2907977,40.7834923],[27.295764,40.7865282],[27.2992852,40.7865745],[27.3022772,40.7908893],[27.3184512,40.7956889],[27.3187679,40.7982711],[27.3150403,40.8019862],[27.3118596,40.8025418],[27.3115668,40.8045359],[27.3287351,40.8156444],[27.3585735,40.8194337],[27.3742547,40.815776],[27.3846973,40.8169086],[27.3884547,40.8134962],[27.3983895,40.8139096],[27.4041062,40.8125924],[27.4321404,40.8280365],[27.4492888,40.8431649],[27.4541766,40.8446872],[27.456138,40.847075],[27.4598116,40.8650483],[27.4612029,40.8656631],[27.4601377,40.8667745],[27.4621572,40.8655986],[27.4598183,40.8694589],[27.4624775,40.8940914],[27.4646347,40.896451],[27.4684948,40.8944873],[27.4730517,40.9028115],[27.4715561,40.9032689],[27.4700583,40.9005372],[27.4669792,40.9023101],[27.4681295,40.9046781],[27.4689294,40.9022873],[27.4694988,40.9035307],[27.4686022,40.9073456],[27.4704039,40.9140786],[27.4811316,40.9253436],[27.4902367,40.9476407],[27.4993514,40.961938],[27.5049489,40.9614649],[27.5016033,40.9632524],[27.5028524,40.9651849],[27.5025434,40.9641366],[27.5077662,40.9619782],[27.5106764,40.9642481],[27.5074807,40.9625324],[27.5062547,40.9631016],[27.5073788,40.9644897],[27.5042771,40.9662176],[27.5030661,40.9654601],[27.5110934,40.9739333],[27.5156061,40.9756332],[27.5141925,40.9740618],[27.5161733,40.9749925],[27.5164985,40.9726342],[27.5162528,40.9750504],[27.522801,40.9765964],[27.5235598,40.9750438],[27.5231952,40.9767315],[27.5258527,40.9767962],[27.5259575,40.9750652],[27.5226405,40.9738384],[27.5260619,40.9748792],[27.5263116,40.9774233],[27.5292292,40.978252],[27.5507099,40.9772906],[27.5606093,40.9814016],[27.5681859,40.9807487],[27.5781781,40.9846387],[27.5852544,40.9827597],[27.5976584,40.9865708],[27.6060146,40.9856641],[27.606059,40.9868326],[27.6149708,40.9903992],[27.622084,40.9903179],[27.648117,40.996988],[27.6687626,40.9995824],[27.6818469,41.003983],[27.6978077,41.0026102],[27.6978099,41.0079573],[27.7031582,41.0089815],[27.7056956,41.0292549],[27.7086353,41.0383029],[27.7057258,41.0469514],[27.7006541,41.0452973],[27.7000093,41.0461197],[27.7063393,41.0531913],[27.7026164,41.0533693],[27.7072351,41.0575666],[27.7016186,41.0630854],[27.7025628,41.0642017],[27.6902919,41.0688935],[27.6836157,41.0517916],[27.6812982,41.0557883],[27.6785409,41.0567592],[27.6771033,41.0553919],[27.6743352,41.056921],[27.654444,41.0549227],[27.6415801,41.0587412],[27.6307869,41.0684808],[27.6251006,41.0704059],[27.6233326,41.0757557],[27.6049218,41.0647064],[27.5933872,41.0649414],[27.5862171,41.0623559],[27.5749942,41.0722274],[27.572812,41.0806876],[27.5634597,41.087267],[27.5572247,41.0832724],[27.5472489,41.087032],[27.5382083,41.0785727],[27.5254267,41.0842123],[27.5316616,41.0914962],[27.5310381,41.0966649],[27.5223092,41.1008936],[27.5207505,41.0898515],[27.5142039,41.0940806],[27.5082807,41.0893816],[27.4989283,41.0950204],[27.485835,41.0912613],[27.4814706,41.0877369],[27.4727417,41.086797],[27.4708712,41.0830374],[27.4752357,41.0729325],[27.469936,41.0696422],[27.4683772,41.0602404],[27.4462433,41.0621208],[27.4484255,41.0703473],[27.4396967,41.0722274],[27.4256681,41.0694072],[27.4075869,41.0907914],[27.4125748,41.0954902],[27.4085221,41.10935],[27.4022872,41.1182751],[27.4022872,41.124381],[27.4057164,41.1307212],[27.4166275,41.1300168],[27.4241094,41.1363564],[27.4144453,41.1471559],[27.400105,41.140113],[27.3907526,41.1476254],[27.3842059,41.1621782],[27.3842059,41.1732081],[27.3740381,41.1765394],[27.352385,41.1671704],[27.3486162,41.1691969],[27.3475393,41.1667651],[27.3347953,41.1588861],[27.3318308,41.1584463],[27.3321854,41.1606807],[27.330768,41.159499],[27.3287476,41.1582891],[27.319317,41.161161],[27.3101335,41.1499384],[27.3070253,41.1524118],[27.301162,41.1452838],[27.3004909,41.14023],[27.2969235,41.1349097],[27.3017105,41.1329252],[27.2913261,41.1293603],[27.2881883,41.121563],[27.2900588,41.1171008],[27.2825769,41.1124035],[27.2866296,41.107236],[27.2838239,41.102303],[27.2688601,41.1041823],[27.2545701,41.1154321],[27.233562,41.1015269],[27.2287253,41.1002532],[27.2264627,41.1044172],[27.2068227,41.0865621],[27.1940411,41.0832724],[27.2208512,41.05883],[27.2283331,41.0475458],[27.2280214,41.0423732],[27.2127459,41.0416678],[27.2061992,41.0463702],[27.200276,41.0409624],[27.1921706,41.0409624],[27.181883,41.0447244],[27.1809478,41.0379057],[27.1719072,41.0296752],[27.1313803,41.0075654],[27.1113204,40.9922176],[27.1018753,40.9908265],[27.0979558,40.9862832]]]}},{"type":"Feature","properties":{"code":"59-11","provinceCode":"59","name":"Şarköy"},"geometry":{"type":"Polygon","coordinates":[[[27.1919998,40.8216311],[27.1818366,40.8210688],[27.1766833,40.8188178],[27.1657887,40.8067243],[27.1614309,40.8042897],[27.1614655,40.8004411],[27.1650278,40.7946548],[27.1648895,40.7916698],[27.1686939,40.7920364],[27.1701811,40.7889466],[27.1749886,40.7887894],[27.1749886,40.7872706],[27.1820441,40.7832378],[27.1855373,40.7779476],[27.1942876,40.7745428],[27.1979537,40.7711378],[27.2015506,40.7712688],[27.2087791,40.7629128],[27.2079491,40.7617077],[27.2014905,40.7607912],[27.1933043,40.7561566],[27.1844827,40.7534373],[27.1799585,40.7559172],[27.176025,40.7616899],[27.1758699,40.764765],[27.1661913,40.7709731],[27.1553039,40.7746169],[27.1511339,40.7818043],[27.146875,40.7810263],[27.1444526,40.7781187],[27.1437141,40.7799094],[27.140812,40.780448],[27.1395699,40.7776222],[27.1360228,40.7785531],[27.1334238,40.7761595],[27.1354608,40.7719307],[27.1327214,40.7621953],[27.1158539,40.7561576],[27.1080886,40.7620396],[27.0978183,40.7601422],[27.0943114,40.7555884],[27.085544,40.751983],[27.0775282,40.7553986],[27.0690114,40.7557781],[27.0604946,40.7533113],[27.0549837,40.7459104],[27.0499,40.7449],[27.0418,40.74],[27.0422,40.7332],[27.0355,40.7331],[27.0351,40.7284],[27.0394,40.7268],[27.0396,40.7228],[27.0329,40.7192],[27.0341,40.7129],[27.0295,40.7063],[27.0305,40.7002],[27.0228,40.702],[27.0241,40.6918],[27.0145,40.6839],[27.0123,40.687],[27.0092,40.687],[27.0058,40.6812],[26.9987,40.6826],[26.989375,40.6763012],[26.9825319,40.6803308],[26.9805842,40.6797585],[26.9778009,40.6738515],[26.9678074,40.670665],[26.9602372,40.6612933],[26.9519036,40.6618669],[26.9511886,40.6593152],[26.948546,40.6587331],[26.9488506,40.6546465],[26.942598,40.6530036],[26.9440768,40.6483158],[26.9409824,40.6460711],[26.9359592,40.647271],[26.9372148,40.64398],[26.9345603,40.6412071],[26.926721,40.6408014],[26.9239598,40.6389471],[26.922632,40.6425316],[26.925102,40.6443321],[26.9242512,40.6458043],[26.9217481,40.6460882],[26.9182615,40.6433654],[26.9147026,40.6454483],[26.9134728,40.6403744],[26.9194,40.6326],[26.9112604,40.6266117],[26.918,40.6198],[26.9193,40.616],[26.9138,40.611],[26.9152,40.6062],[26.9092,40.5975],[26.9089,40.5943],[26.9077,40.5947],[26.9074,40.5932],[26.9068,40.5953],[26.9033,40.5898],[26.9114,40.5749],[26.9096,40.5685],[26.9118,40.5614],[26.9076,40.5516],[26.9086,40.5452],[26.9068,40.5425],[26.907088,40.5382581],[26.9132617,40.5407122],[26.9629657,40.5507381],[26.9693146,40.5540502],[26.9768435,40.5557546],[26.9956214,40.5559255],[26.9981769,40.5587678],[27.00148,40.5693466],[27.0056564,40.5702721],[27.0136535,40.5791809],[27.0331452,40.5935399],[27.0375331,40.5941578],[27.0424334,40.5981386],[27.0600007,40.6021003],[27.0656592,40.605112],[27.0814884,40.6051976],[27.102567,40.6078613],[27.1098543,40.6101319],[27.1107033,40.6087632],[27.1119899,40.6102383],[27.1123662,40.6081586],[27.1101796,40.607886],[27.1125695,40.6079586],[27.1150094,40.610225],[27.116401,40.6082582],[27.1195606,40.6108296],[27.1273676,40.6108097],[27.1326277,40.6134142],[27.1465175,40.6154738],[27.1690064,40.6264746],[27.1786876,40.6276151],[27.1870587,40.6394614],[27.2020826,40.6448501],[27.2095418,40.6514081],[27.2156904,40.6526875],[27.2297409,40.6596424],[27.2410672,40.660275],[27.2514204,40.6721101],[27.2638149,40.6773908],[27.2653621,40.6761953],[27.2644566,40.6772109],[27.2661655,40.678592],[27.2676516,40.6772203],[27.265157,40.6749349],[27.267796,40.6769766],[27.2675238,40.6798295],[27.297698,40.6952558],[27.3003815,40.6984456],[27.3090668,40.7027257],[27.310789,40.7090354],[27.314822,40.7112915],[27.3136938,40.7085597],[27.3185329,40.7143061],[27.3188827,40.7207638],[27.3244149,40.7291513],[27.3313648,40.7351024],[27.3368434,40.7575887],[27.344547,40.766202],[27.3642368,40.7796072],[27.3669502,40.7836642],[27.375859,40.790368],[27.38316,40.7997039],[27.3900887,40.802181],[27.3927676,40.8069629],[27.4041062,40.8125924],[27.3983895,40.8139096],[27.3884547,40.8134962],[27.3846973,40.8169086],[27.3742547,40.815776],[27.3585735,40.8194337],[27.3287351,40.8156444],[27.3115668,40.8045359],[27.3118596,40.8025418],[27.3150403,40.8019862],[27.3187679,40.7982711],[27.3184512,40.7956889],[27.3022772,40.7908893],[27.2992852,40.7865745],[27.295764,40.7865282],[27.2907977,40.7834923],[27.2848545,40.7826292],[27.2812519,40.7844786],[27.2801121,40.7827063],[27.2729764,40.7811805],[27.2565714,40.7813654],[27.2509914,40.7780007],[27.2498196,40.7751964],[27.2254959,40.7647449],[27.2218748,40.771181],[27.2169404,40.7726704],[27.2153073,40.7774178],[27.2125152,40.778189],[27.2103377,40.78392],[27.2077388,40.784731],[27.2103728,40.7864861],[27.2110577,40.789318],[27.206931,40.791751],[27.2083885,40.7941972],[27.2047009,40.7933729],[27.1994503,40.7954202],[27.1984318,40.7996476],[27.2003635,40.8064932],[27.1952008,40.8092179],[27.1919697,40.8085534],[27.1906702,40.8096964],[27.1919998,40.8216311]]]}}]}