{"type":"FeatureCollection","features":[{"type":"Feature","properties":{"code":"63-01","provinceCode":"63","name":"Akçakale"},"geometry":{"type":"Polygon","coordinates":[[[38.6115173,36.9366149],[38.6076689,36.9325651],[38.608732,36.9277149],[38.6042556,36.9252959],[38.6048814,36.9204946],[38.5967184,36.9190784],[38.5960228,36.9073069],[38.599746,36.9061715],[38.5951012,36.9026593],[38.6001591,36.9036131],[38.6108401,36.9012266],[38.6126427,36.8792859],[38.6063162,36.8765063],[38.6065608,36.8695402],[38.599332,36.8606687],[38.5883786,36.8688925],[38.5760976,36.8657499],[38.5773334,36.8282667],[38.5803117,36.8260021],[38.5857954,36.8270809],[38.5903471,36.8246159],[38.5909398,36.8142685],[38.5952854,36.8052278],[38.6367863,36.7787849],[38.6912139,36.7347935],[38.7310514,36.7111573],[38.7462818,36.7068899],[38.8906568,36.7007281],[38.9253672,36.7044109],[38.9537303,36.7046753],[39.0205754,36.7107218],[39.0652855,36.7051555],[39.1286029,36.6867844],[39.212182,36.6691026],[39.2640528,36.675106],[39.3611952,36.692043],[39.3850646,36.6936087],[39.3892765,36.6926888],[39.3923698,36.6940925],[39.4912328,36.7003474],[39.5454369,36.7138865],[39.5948991,36.7229961],[39.6261994,36.7237884],[39.618495,36.7440771],[39.6114323,36.795698],[39.6114323,36.8201724],[39.5758505,36.8101141],[39.536538,36.7835602],[39.4400602,36.7799756],[39.4172068,36.7729606],[39.3982622,36.7629864],[39.3884449,36.7596157],[39.3122438,36.7560575],[39.2720396,36.7476297],[39.2213167,36.7453821],[39.1881249,36.7508137],[39.1451156,36.7528738],[39.1196374,36.7573685],[39.1013729,36.7667417],[39.0736317,36.7728368],[39.0727421,36.7809822],[39.0609191,36.7787105],[39.0603212,36.7799968],[39.0567165,36.7787608],[39.0558565,36.7801509],[39.0526969,36.7787667],[39.0503265,36.7827344],[39.0477967,36.7815378],[39.0457537,36.7828456],[39.0439758,36.7811836],[39.0380685,36.7825292],[39.0289263,36.7821398],[39.0285869,36.7833792],[39.0228856,36.7801765],[39.0218094,36.7833115],[39.0100816,36.7810002],[39.0088514,36.7845304],[39.0116159,36.7859848],[39.0079598,36.7867269],[39.0111895,36.7933711],[38.9948102,36.7971444],[38.9943719,36.795785],[38.9790986,36.7962446],[38.9793609,36.8084211],[38.966018,36.8067099],[38.9627561,36.8097457],[38.9654826,36.8113475],[38.9657847,36.8138026],[38.9613281,36.8131805],[38.9568115,36.8206803],[38.9476871,36.8211355],[38.943323,36.8238784],[38.9417132,36.8346759],[38.9380096,36.8350367],[38.9375129,36.8404906],[38.9345685,36.839913],[38.9324035,36.8438788],[38.9359871,36.8449065],[38.9322534,36.8548482],[38.929902,36.8544808],[38.9289479,36.856326],[38.9390704,36.8580934],[38.9335151,36.8640695],[38.9321172,36.8704321],[38.9284525,36.8733872],[38.9234963,36.873825],[38.9236393,36.8773029],[38.9320331,36.8895056],[38.9320331,36.89474],[38.9396999,36.9010208],[38.9421309,36.9081982],[38.934838,36.9200095],[38.934838,36.9297264],[38.9411959,36.9397409],[38.9391389,36.9542371],[38.9477408,36.9630531],[38.9271712,36.9667884],[38.9000567,36.9499035],[38.8753731,36.9508001],[38.828998,36.9478113],[38.8097373,36.910142],[38.7859888,36.9146274],[38.7538254,36.917169],[38.7224099,36.9221025],[38.6908075,36.9337622],[38.6706119,36.9376484],[38.6466763,36.9388441],[38.6115173,36.9366149]]]}},{"type":"Feature","properties":{"code":"63-02","provinceCode":"63","name":"Birecik"},"geometry":{"type":"Polygon","coordinates":[[[38.0081182,36.9535596],[38.0071948,36.9305308],[38.0099414,36.9169448],[38.0214427,36.8986891],[38.0386045,36.8833234],[38.0370639,36.8738379],[38.0305408,36.8673835],[38.0241893,36.8558466],[38.0214361,36.8373447],[38.0250356,36.83034],[38.029846,36.8340043],[38.0319758,36.8381684],[38.0284499,36.8466706],[38.0287024,36.8530312],[38.0363807,36.8607418],[38.0457415,36.8645651],[38.0553215,36.8660093],[38.0660152,36.8637865],[38.068697,36.8654492],[38.0717509,36.8709624],[38.0794411,36.8762027],[38.0886986,36.8778096],[38.0978557,36.8762784],[38.1036067,36.8803052],[38.1120471,36.8809467],[38.1223679,36.8903611],[38.1295231,36.89209],[38.1337142,36.8950523],[38.1433374,36.8937058],[38.1611675,36.8987508],[38.164184,36.901743],[38.1639651,36.9078003],[38.1679546,36.9106222],[38.1739146,36.9119358],[38.1835235,36.9090409],[38.1919892,36.9097707],[38.2114746,36.9081895],[38.2184225,36.9102277],[38.2169599,36.9184815],[38.2180517,36.9227866],[38.2157269,36.9279732],[38.2123993,36.9294],[38.2128494,36.9370186],[38.1998136,36.9419856],[38.2006195,36.9431252],[38.1926223,36.94407],[38.1888378,36.9392],[38.1823592,36.9371184],[38.1710601,36.9442361],[38.1739012,36.9493932],[38.1797115,36.9498346],[38.1773852,36.954826],[38.1808134,36.9602905],[38.1785055,36.9621873],[38.1747109,36.9731422],[38.1711991,36.974242],[38.1668265,36.9915152],[38.1611677,36.9897975],[38.1604201,36.9929435],[38.1606888,36.995481],[38.1644927,36.995564],[38.1732082,36.9909263],[38.1704107,37.0033751],[38.1789509,37.0130039],[38.1938482,37.0111506],[38.1963666,37.0126076],[38.2047485,37.0118723],[38.204937,37.0132262],[38.2148309,37.0082911],[38.2169364,37.0110259],[38.2105451,37.0167205],[38.2175095,37.0174615],[38.2158228,37.0228999],[38.2190613,37.0247184],[38.2059034,37.0390201],[38.2019266,37.040673],[38.2009024,37.037147],[38.198357,37.0360063],[38.1948057,37.0449905],[38.1917963,37.0478684],[38.1914464,37.0580275],[38.1878451,37.0643709],[38.1909261,37.0673887],[38.198933,37.0686089],[38.2001227,37.0744308],[38.2035127,37.0738775],[38.2052215,37.0760884],[38.2048402,37.0823447],[38.2095176,37.0833932],[38.2070805,37.0939743],[38.2084308,37.0929595],[38.2118735,37.0946038],[38.2130098,37.097701],[38.2153317,37.0944531],[38.2168855,37.0952082],[38.2196789,37.0924412],[38.2342751,37.0864402],[38.23623,37.0816869],[38.2442682,37.0815561],[38.2435055,37.0801667],[38.2463826,37.0802002],[38.2483865,37.0756838],[38.2526754,37.0770587],[38.2519203,37.080561],[38.254045,37.0808793],[38.2535597,37.0835661],[38.255405,37.0819491],[38.260624,37.0855799],[38.2592845,37.1038338],[38.2681138,37.1058548],[38.2676576,37.1083905],[38.2705024,37.1081294],[38.26911,37.1136498],[38.2647997,37.1135793],[38.2670711,37.1214575],[38.2947959,37.1203018],[38.2994337,37.1370146],[38.3070313,37.1359399],[38.3065557,37.1325046],[38.3108591,37.1309363],[38.3202226,37.1342479],[38.3260111,37.1325454],[38.326639,37.1339372],[38.3283772,37.1336233],[38.3310399,37.1242458],[38.3383339,37.1250761],[38.3372933,37.1330535],[38.3474657,37.1376099],[38.3464114,37.1413848],[38.3519204,37.14648],[38.3502328,37.1463352],[38.3501445,37.1501599],[38.3464704,37.1521708],[38.3335772,37.1504079],[38.3223885,37.1524318],[38.3196325,37.1501931],[38.3171823,37.1546767],[38.3151655,37.1548175],[38.314384,37.1589842],[38.3090286,37.1579671],[38.3081973,37.1629301],[38.3016318,37.1637142],[38.3034393,37.1702423],[38.3074632,37.1748809],[38.3030836,37.1802799],[38.296805,37.1770579],[38.2929944,37.172462],[38.287524,37.1722229],[38.2864529,37.1754803],[38.2783348,37.1792275],[38.2785182,37.1860402],[38.2751325,37.1874668],[38.2761796,37.1957293],[38.2666559,37.198499],[38.2453983,37.1978698],[38.2400313,37.2000044],[38.2388111,37.2015653],[38.2401073,37.2039908],[38.2375441,37.2056053],[38.2379792,37.209641],[38.2405377,37.2127628],[38.2574471,37.2197304],[38.2562783,37.2264065],[38.2598299,37.2276195],[38.2574974,37.231922],[38.258342,37.2337366],[38.2608214,37.2332979],[38.2550667,37.2391316],[38.2491126,37.2493886],[38.2497641,37.2504426],[38.2549379,37.2491284],[38.2580947,37.2520762],[38.251992,37.2568284],[38.2532596,37.260335],[38.2496392,37.2618855],[38.249199,37.2647863],[38.2464262,37.2663273],[38.22803,37.2648243],[38.2247392,37.2599769],[38.225454,37.2428236],[38.2236476,37.2443581],[38.2212036,37.2391048],[38.2093097,37.248055],[38.2060083,37.2478226],[38.2053226,37.2463771],[38.2019722,37.2458098],[38.1915551,37.2458048],[38.1875965,37.2429788],[38.1785859,37.2439496],[38.1786847,37.2406931],[38.175077,37.2422893],[38.1721526,37.2413994],[38.1674722,37.2351455],[38.1676603,37.2316532],[38.1718745,37.2296153],[38.1792899,37.2196475],[38.1799388,37.2229185],[38.1828421,37.2222185],[38.1849762,37.2272615],[38.1938625,37.2244592],[38.1996511,37.2143962],[38.1995824,37.2050575],[38.1982366,37.2037837],[38.2058336,37.1992113],[38.2051485,37.197384],[38.2137529,37.194598],[38.2189096,37.1978408],[38.2201039,37.1949118],[38.2142089,37.1924184],[38.2153575,37.1804639],[38.2125674,37.1795219],[38.214996,37.1762808],[38.2157393,37.1682671],[38.2075091,37.1682842],[38.196153,37.1708226],[38.1946503,37.1717154],[38.194637,37.1771287],[38.1959435,37.177163],[38.1938161,37.1808241],[38.186572,37.1783392],[38.1864554,37.179388],[38.1828762,37.1794615],[38.1839361,37.182067],[38.174956,37.183401],[38.1784274,37.1948885],[38.1728759,37.1960193],[38.170952,37.1997968],[38.1727671,37.2021619],[38.1687794,37.2021343],[38.1707238,37.20371],[38.1715985,37.2084725],[38.1593652,37.2156447],[38.1543089,37.2130268],[38.1492213,37.2149978],[38.1494983,37.2168791],[38.1434214,37.2115646],[38.1464337,37.2095039],[38.1462791,37.2059016],[38.1439737,37.2041645],[38.1448256,37.2020266],[38.1498748,37.1956632],[38.15333,37.1941246],[38.1528088,37.1806095],[38.1479824,37.1767022],[38.1172435,37.178094],[38.1104341,37.1896574],[38.1049134,37.1884903],[38.0996829,37.1845147],[38.0961241,37.1838686],[38.0943161,37.1850871],[38.0918593,37.1830485],[38.0985353,37.193679],[38.0953615,37.196049],[38.0910933,37.1960254],[38.0909105,37.1993295],[38.0885408,37.1972862],[38.0755808,37.1976352],[38.0710465,37.1851941],[38.0651609,37.1831046],[38.0697098,37.1694969],[38.0596589,37.1690451],[38.0564951,37.1669702],[38.056242,37.1623379],[38.0529057,37.1595811],[38.0480741,37.1611546],[38.0338347,37.1567726],[38.0295495,37.1584967],[38.0262645,37.1561193],[38.0062243,37.1540527],[37.9895332,37.1495089],[37.9829622,37.1510851],[37.9789709,37.1583397],[37.9754227,37.1786628],[37.9770853,37.1791219],[37.9773854,37.182835],[37.9799917,37.185476],[37.9764366,37.1843347],[37.9697089,37.1851901],[37.9658693,37.1823891],[37.9647445,37.1858286],[37.9541255,37.1870555],[37.9471449,37.1907341],[37.9447011,37.1823863],[37.9313603,37.1817923],[37.9082507,37.1723605],[37.9067259,37.1618732],[37.9035303,37.159673],[37.8958963,37.157784],[37.8876143,37.1578694],[37.8835585,37.1539724],[37.880072,37.1538716],[37.8795004,37.1591486],[37.8633426,37.1544183],[37.8757022,37.1405986],[37.8783186,37.1263883],[37.8743289,37.1069283],[37.8691791,37.0961123],[37.8666536,37.0786054],[37.8695224,37.0705036],[37.8741573,37.0643398],[37.8949283,37.0509147],[37.9021381,37.0489967],[37.9133225,37.0419383],[37.9227675,37.0402753],[37.9335521,37.0403648],[37.9398238,37.0425424],[37.9441951,37.0444753],[37.9526065,37.0525588],[37.9602975,37.0556319],[37.9721759,37.0568056],[37.9776691,37.0535177],[37.981274,37.0470786],[37.9805873,37.0400907],[37.9763196,37.0320384],[37.9670876,37.0366557],[37.9651482,37.0358529],[37.9571853,37.0376901],[37.9535226,37.0372189],[37.9549976,37.0339315],[37.9516241,37.0335671],[37.9521196,37.0317278],[37.9539027,37.0282923],[37.9583322,37.0251352],[37.9601872,37.0202857],[37.9654806,37.0219183],[37.969974,37.0187121],[37.9636937,37.0061989],[37.9623912,36.9995212],[37.9663846,36.9869314],[37.9780425,36.9733273],[37.990887,36.9663368],[38.0041049,36.9623592],[38.0074337,36.9581199],[38.0081182,36.9535596]]]}},{"type":"Feature","properties":{"code":"63-03","provinceCode":"63","name":"Bozova"},"geometry":{"type":"Polygon","coordinates":[[[38.4630506,37.4883193],[38.4108276,37.4897153],[38.3927685,37.4819333],[38.3830416,37.4811094],[38.3411026,37.4874873],[38.3274486,37.4901505],[38.3101696,37.4874974],[38.3106396,37.4814756],[38.3087372,37.4748725],[38.3054565,37.4725949],[38.2796493,37.477298],[38.271172,37.4757463],[38.2669315,37.472109],[38.2541297,37.4513387],[38.2474349,37.4435024],[38.2383369,37.4430935],[38.2315562,37.4450016],[38.2170509,37.4522245],[38.1990397,37.4511083],[38.1946158,37.4475157],[38.1903575,37.4365512],[38.1905292,37.4293949],[38.1933616,37.4233286],[38.1864427,37.4134593],[38.1810878,37.41024],[38.1749938,37.4096946],[38.1701873,37.4116716],[38.1724189,37.4167846],[38.1641087,37.4218001],[38.1504462,37.4178753],[38.1343458,37.4221932],[38.1178306,37.4276909],[38.0974029,37.4469096],[38.0911372,37.4488175],[38.0809598,37.4479079],[38.0750869,37.4441157],[38.066933,37.430281],[38.0626414,37.4291223],[38.0596487,37.4299799],[38.0579876,37.4249966],[38.0555798,37.4237756],[38.0557108,37.4213568],[38.0515155,37.4231331],[38.052931,37.4187804],[38.0483663,37.4186486],[38.0477768,37.4135806],[38.0418191,37.4118016],[38.0341832,37.4020624],[38.0392056,37.3984973],[38.0410119,37.3901851],[38.0462009,37.3914479],[38.0495115,37.3939937],[38.058609,37.3901173],[38.060476,37.3934518],[38.0622019,37.3929397],[38.0620813,37.3886518],[38.0666744,37.388658],[38.0627709,37.3710266],[38.0580223,37.3701297],[38.0593743,37.3687506],[38.0573028,37.3621885],[38.0693477,37.360217],[38.0735704,37.357143],[38.0731222,37.3548742],[38.0790705,37.3531389],[38.0758244,37.3472406],[38.0758318,37.3430973],[38.0850591,37.345669],[38.0877826,37.3490779],[38.0900801,37.3486154],[38.09437,37.3466515],[38.0905667,37.3438345],[38.1003389,37.3318951],[38.1093158,37.3338136],[38.1141743,37.3314878],[38.1164578,37.3287827],[38.1174069,37.3196793],[38.1160814,37.309485],[38.1279101,37.3064685],[38.1285848,37.3079912],[38.1314652,37.3077177],[38.1389161,37.3051121],[38.1439281,37.3066714],[38.1476533,37.3052529],[38.15426,37.3055248],[38.1609969,37.3081829],[38.1691835,37.3035915],[38.1787369,37.3042744],[38.1812416,37.3014185],[38.1843175,37.3017457],[38.1869045,37.2997452],[38.1903928,37.3021695],[38.1883495,37.2972518],[38.1921788,37.2931112],[38.1877842,37.2825676],[38.1942953,37.2822477],[38.1933971,37.2784036],[38.2212039,37.266579],[38.222227,37.2609036],[38.2247392,37.2599769],[38.22803,37.2648243],[38.2464262,37.2663273],[38.249199,37.2647863],[38.2496392,37.2618855],[38.2532596,37.260335],[38.251992,37.2568284],[38.2580947,37.2520762],[38.2549379,37.2491284],[38.2497641,37.2504426],[38.2491126,37.2493886],[38.2550667,37.2391316],[38.2608214,37.2332979],[38.258342,37.2337366],[38.2574974,37.231922],[38.2598299,37.2276195],[38.2562783,37.2264065],[38.2574471,37.2197304],[38.2405377,37.2127628],[38.2379792,37.209641],[38.2375441,37.2056053],[38.2401073,37.2039908],[38.2388111,37.2015653],[38.2400313,37.2000044],[38.2453983,37.1978698],[38.2666559,37.198499],[38.2761796,37.1957293],[38.2751325,37.1874668],[38.2785182,37.1860402],[38.2783348,37.1792275],[38.2864529,37.1754803],[38.287524,37.1722229],[38.2929944,37.172462],[38.296805,37.1770579],[38.3030836,37.1802799],[38.3074632,37.1748809],[38.3034393,37.1702423],[38.3016318,37.1637142],[38.3081973,37.1629301],[38.3090286,37.1579671],[38.314384,37.1589842],[38.3151655,37.1548175],[38.3171823,37.1546767],[38.3196325,37.1501931],[38.3223885,37.1524318],[38.3335772,37.1504079],[38.3464704,37.1521708],[38.3501445,37.1501599],[38.3502328,37.1463352],[38.3519204,37.14648],[38.358336,37.1461163],[38.3606453,37.143005],[38.356748,37.1415117],[38.3603648,37.1376623],[38.3604452,37.1334925],[38.3657315,37.1303109],[38.3635752,37.1250983],[38.3707453,37.1207558],[38.3740265,37.1220273],[38.373181,37.1163041],[38.3847602,37.1175128],[38.3901883,37.1091256],[38.3844702,37.1042697],[38.3874257,37.0898851],[38.3943853,37.0869678],[38.4091847,37.0903992],[38.4136873,37.0764908],[38.4181183,37.0748258],[38.4188559,37.0769899],[38.4278827,37.0821001],[38.4287938,37.0902882],[38.4264014,37.0947801],[38.4290111,37.102935],[38.4198395,37.10687],[38.4241048,37.1188361],[38.4272788,37.1186957],[38.4265818,37.1227533],[38.4292998,37.125636],[38.4329738,37.1259956],[38.4360346,37.1288907],[38.4388539,37.1291799],[38.4443312,37.1377478],[38.4459941,37.141289],[38.4441459,37.1397192],[38.4410562,37.1435247],[38.4441421,37.1499122],[38.4471988,37.1508388],[38.4498803,37.1552248],[38.4543723,37.1550184],[38.4527082,37.1659477],[38.4536058,37.1708684],[38.454255,37.173848],[38.4572778,37.1748788],[38.4594265,37.1794649],[38.4576833,37.1823029],[38.4564094,37.1820138],[38.4567188,37.184661],[38.4500007,37.1879779],[38.4509432,37.1887728],[38.4487652,37.188375],[38.4382938,37.1923789],[38.4302936,37.1969293],[38.4369141,37.2038545],[38.4411375,37.2017457],[38.443951,37.2033694],[38.4384747,37.2178002],[38.4481342,37.2197899],[38.4450122,37.2223347],[38.4498943,37.2276734],[38.4506568,37.2339742],[38.4570367,37.2339523],[38.459624,37.2361427],[38.4660018,37.2341135],[38.4730396,37.2350553],[38.4745827,37.2336958],[38.4689193,37.2224476],[38.4682816,37.2193698],[38.4709939,37.2120225],[38.468777,37.2117267],[38.4683497,37.209194],[38.4702889,37.2069561],[38.4722561,37.2071923],[38.4768488,37.1955437],[38.4918923,37.1933555],[38.4939068,37.1912992],[38.5149365,37.2004921],[38.5145265,37.2063225],[38.5224661,37.2056371],[38.5236922,37.2075729],[38.5281216,37.2085512],[38.5276195,37.2121268],[38.5304258,37.2175978],[38.5294231,37.2200167],[38.5358721,37.2232305],[38.5395534,37.2221265],[38.5399959,37.2241065],[38.5462518,37.2113614],[38.5491281,37.2122068],[38.5488928,37.2133475],[38.5588613,37.21514],[38.5590661,37.2191996],[38.5629216,37.219388],[38.5632245,37.2159784],[38.5613213,37.2165306],[38.5612388,37.214329],[38.566182,37.2146303],[38.5698939,37.2182984],[38.5676228,37.2254079],[38.5791884,37.2257093],[38.5849561,37.2272528],[38.5956501,37.2258851],[38.5965661,37.2227295],[38.6080011,37.2240183],[38.6110208,37.221906],[38.6155579,37.2248247],[38.6201072,37.223251],[38.6235312,37.224992],[38.6139787,37.2350164],[38.6232084,37.2388263],[38.6253169,37.2422435],[38.6225356,37.2449596],[38.6259332,37.2434946],[38.6239828,37.2464247],[38.6266254,37.2452852],[38.6253355,37.2471759],[38.6282269,37.2500001],[38.6377811,37.2496076],[38.6372073,37.2473565],[38.6387619,37.246768],[38.6418133,37.2492319],[38.643474,37.2475658],[38.6449398,37.2487927],[38.6453633,37.2473709],[38.6480503,37.2492743],[38.6505067,37.2486742],[38.6503214,37.2527767],[38.6531803,37.2529086],[38.682476,37.2422785],[38.6827056,37.2448353],[38.6867438,37.2454683],[38.6954754,37.2436721],[38.6954324,37.2487692],[38.6817669,37.2492686],[38.6800734,37.2514803],[38.6740418,37.252228],[38.6739123,37.2569126],[38.6646582,37.2603549],[38.6657173,37.2636503],[38.6626022,37.2634936],[38.6579285,37.2681141],[38.6586884,37.2710776],[38.6561743,37.2749055],[38.6494429,37.2772378],[38.6465084,37.2839827],[38.6409126,37.2871451],[38.6346186,37.2947282],[38.6340997,37.2925981],[38.6101105,37.3019233],[38.6112549,37.3052421],[38.6155941,37.3065696],[38.61681,37.3111777],[38.6227943,37.316999],[38.6224452,37.3191878],[38.6174729,37.324299],[38.5948784,37.3294645],[38.5996131,37.3334919],[38.6001007,37.3432468],[38.6037815,37.3477236],[38.6029635,37.3492116],[38.6060221,37.3506704],[38.6067731,37.3490405],[38.6098129,37.3491353],[38.6113269,37.3504241],[38.6175735,37.3675081],[38.6152608,37.3715914],[38.6188005,37.3828336],[38.6260527,37.3754475],[38.627497,37.3713931],[38.6297753,37.3705358],[38.6284484,37.3632769],[38.6220362,37.3545511],[38.621159,37.3488691],[38.6237406,37.3386934],[38.6288454,37.3342659],[38.63491,37.3344327],[38.6363538,37.3317273],[38.6412992,37.3341963],[38.6467353,37.3308342],[38.6567754,37.3350367],[38.6562795,37.3375849],[38.6659643,37.3377634],[38.6694772,37.3417067],[38.6664435,37.3500821],[38.6583082,37.3584823],[38.6429069,37.3664942],[38.6481311,37.3769872],[38.6533605,37.3808829],[38.6561815,37.38846],[38.6582188,37.3890329],[38.6593635,37.3875115],[38.6666573,37.3921224],[38.6691742,37.3904177],[38.6774523,37.3990414],[38.679175,37.4034542],[38.6911926,37.4047629],[38.7116888,37.4034203],[38.703033,37.4109257],[38.7030833,37.4139117],[38.6957269,37.4203801],[38.6934697,37.4256234],[38.6854123,37.4277219],[38.6847489,37.4335047],[38.6801452,37.4343739],[38.6769128,37.42893],[38.6757252,37.4296078],[38.6726279,37.426036],[38.6619182,37.4238021],[38.6550709,37.4191448],[38.6426361,37.4145357],[38.6353126,37.4144517],[38.6304859,37.4094738],[38.615459,37.4083176],[38.6029246,37.4003812],[38.6013233,37.3962707],[38.5982587,37.3938862],[38.5876235,37.3880477],[38.5717037,37.3858457],[38.572275,37.3918659],[38.5672742,37.3972627],[38.5628319,37.3955335],[38.5621801,37.3968018],[38.5656242,37.4031335],[38.5630429,37.4076142],[38.5340048,37.4241532],[38.488432,37.4595679],[38.4630506,37.4883193]]]}},{"type":"Feature","properties":{"code":"63-04","provinceCode":"63","name":"Ceylanpınar"},"geometry":{"type":"Polygon","coordinates":[[[39.5897437,36.8995943],[39.6008622,36.881355],[39.6076992,36.8636769],[39.6114323,36.8375383],[39.6114323,36.8201724],[39.6114323,36.795698],[39.618495,36.7440771],[39.6261994,36.7237884],[39.6417694,36.7251532],[39.6824388,36.7382702],[39.7117255,36.7502328],[39.8207742,36.7567011],[39.8367186,36.7632722],[39.8478084,36.7725969],[39.8608939,36.7786197],[39.9305835,36.7973563],[39.9991406,36.8225446],[40.0311682,36.8267086],[40.0523273,36.8426299],[40.0588489,36.8535645],[40.0622753,36.8561105],[40.0776717,36.8582132],[40.1107449,36.8675319],[40.1446284,36.8696259],[40.1828902,36.8776922],[40.1956964,36.887732],[40.2206046,36.9010347],[40.2333992,36.9114341],[40.2332533,36.9168637],[40.2253816,36.9174225],[40.2179618,36.9233483],[40.2132582,36.9355656],[40.219567,36.9420262],[40.2345199,36.9450064],[40.2352079,36.9507002],[40.2384707,36.9535944],[40.2384707,36.9559114],[40.2198151,36.9647737],[40.214334,36.9647689],[40.2079093,36.9706395],[40.1854792,36.9763113],[40.1820018,36.9760798],[40.1774296,36.9787576],[40.1743818,36.9847772],[40.1777018,36.9908708],[40.1804173,36.9928845],[40.1871257,36.992754],[40.1844575,36.9983152],[40.1763322,37.0003948],[40.174745,37.0065845],[40.1660251,37.0090645],[40.1675041,37.0105268],[40.1666879,37.0131338],[40.1612234,37.0150191],[40.1599594,37.0171497],[40.1624222,37.0200263],[40.1592929,37.0233782],[40.1589327,37.0303253],[40.1659704,37.0371747],[40.1660445,37.0394224],[40.1584241,37.0460808],[40.1584957,37.0488218],[40.1638123,37.0537337],[40.1632705,37.0550306],[40.1567242,37.0586876],[40.1547952,37.0626782],[40.1552243,37.0647895],[40.1612567,37.0690645],[40.1575246,37.0708716],[40.1507013,37.0703972],[40.1495014,37.0725371],[40.1518932,37.0779234],[40.1506392,37.0808069],[40.1451203,37.0830068],[40.1435971,37.0857263],[40.134087,37.0887629],[40.1277893,37.088332],[40.1265665,37.0921077],[40.1268498,37.0942549],[40.1321417,37.0982501],[40.131868,37.103129],[40.1357973,37.1063665],[40.1347767,37.1088663],[40.136821,37.1109041],[40.1355268,37.1124219],[40.1335485,37.1129073],[40.1282349,37.1095526],[40.1249722,37.1166652],[40.1168972,37.116468],[40.11764,37.1204865],[40.1122372,37.1281066],[40.1055937,37.1315188],[40.1087766,37.1376896],[40.1070993,37.1384797],[40.1006815,37.1357018],[40.0956053,37.1353953],[40.0843407,37.1343598],[40.0256619,37.1357076],[40.0011384,37.1340157],[39.9818026,37.1319478],[39.9473755,37.1238637],[39.9093395,37.1395609],[39.9004559,37.151506],[39.8884017,37.1485082],[39.8725926,37.1483914],[39.8828912,37.153172],[39.8787264,37.155541],[39.8747513,37.1606099],[39.8766312,37.1628862],[39.8740625,37.1635363],[39.8712691,37.1620693],[39.8681639,37.1637995],[39.8579879,37.1651573],[39.8535049,37.1538624],[39.8335784,37.1203762],[39.8355106,37.1168426],[39.8339847,37.1165636],[39.8334829,37.1129213],[39.8313562,37.1119961],[39.8298816,37.1132962],[39.8257484,37.1117393],[39.8281162,37.1100748],[39.832457,37.1105302],[39.8331527,37.1090313],[39.8261815,37.1030259],[39.8281273,37.1004467],[39.8279218,37.0964029],[39.833074,37.0966324],[39.8342935,37.0938891],[39.8341428,37.0908286],[39.8305664,37.0886534],[39.8305116,37.0863689],[39.8368795,37.0799382],[39.8439605,37.0803757],[39.8519475,37.07193],[39.8495157,37.0688292],[39.8478706,37.0613525],[39.8230989,37.063997],[39.803477,37.0746882],[39.7967775,37.0746312],[39.7859771,37.0685058],[39.7546029,37.0354379],[39.7099225,37.0343167],[39.6934163,37.0305519],[39.6585175,37.016997],[39.6490854,37.0111602],[39.6316361,36.9985436],[39.6115929,36.9782019],[39.5903744,36.953451],[39.5668089,36.9201331],[39.5645155,36.9148766],[39.5668089,36.9087641],[39.5703256,36.9066857],[39.5775118,36.9061966],[39.5850038,36.9033846],[39.5897437,36.8995943]]]}},{"type":"Feature","properties":{"code":"63-05","provinceCode":"63","name":"Eyyübiye"},"geometry":{"type":"Polygon","coordinates":[[[38.4850537,37.0479723],[38.489193,37.0482086],[38.4882785,37.0410285],[38.4843351,37.0390299],[38.4839322,37.0274265],[38.4861376,37.025339],[38.4954838,37.0242917],[38.4956376,37.0253508],[38.4995167,37.0253735],[38.4999153,37.0285102],[38.511039,37.0341256],[38.5183557,37.0363439],[38.5243813,37.0352783],[38.5263804,37.0366067],[38.530057,37.0348232],[38.5355295,37.0229808],[38.5387747,37.0225609],[38.5431193,37.014328],[38.5424145,37.0086492],[38.5485514,37.0104316],[38.5651819,37.009888],[38.5816584,37.015139],[38.5879821,37.0080151],[38.5872109,36.9993165],[38.5485247,36.9871017],[38.5508072,36.9863801],[38.5492794,36.9852677],[38.5499704,36.9791048],[38.5539872,36.9789208],[38.5564057,36.9765894],[38.5542234,36.9760795],[38.5517852,36.9723133],[38.5448514,36.9576881],[38.5473671,36.9592608],[38.5635008,36.9623612],[38.5660722,36.9586887],[38.5738674,36.9583636],[38.5756045,36.9570283],[38.5755681,36.955252],[38.5725401,36.9536649],[38.5783317,36.9530301],[38.6039388,36.9362252],[38.6115173,36.9366149],[38.6466763,36.9388441],[38.6706119,36.9376484],[38.6908075,36.9337622],[38.7224099,36.9221025],[38.7538254,36.917169],[38.7859888,36.9146274],[38.8097373,36.910142],[38.828998,36.9478113],[38.8753731,36.9508001],[38.9000567,36.9499035],[38.9271712,36.9667884],[38.9477408,36.9630531],[39.0229135,36.9556508],[39.1791517,36.9225043],[39.2649864,36.901684],[39.3035637,36.8870294],[39.3315323,36.8661994],[39.3604653,36.886258],[39.3855406,36.8854866],[39.4144736,36.8777723],[39.4164025,36.8685141],[39.4135092,36.8577115],[39.4212246,36.8530814],[39.466553,36.8708288],[39.5012726,36.8553965],[39.5244191,36.8731434],[39.5367638,36.8709831],[39.5375354,36.8530814],[39.6076992,36.8636769],[39.6008622,36.881355],[39.5897437,36.8995943],[39.5582466,36.9003279],[39.5504488,36.8993497],[39.5423452,36.8964152],[39.5410808,36.8894881],[39.5235387,36.8888337],[39.5177286,36.8918908],[39.5198691,36.9017951],[39.5189518,36.9203775],[39.5145177,36.9356557],[39.5004511,36.9547186],[39.4984634,36.9643704],[39.498131,37.0047099],[39.4237708,37.0148096],[39.3773159,37.0101362],[39.190343,37.0426287],[39.0858047,37.0507557],[39.0437179,37.0567149],[39.0170176,37.0644792],[39.0075141,37.0865039],[38.9980106,37.0922798],[38.9498089,37.0954538],[38.9226561,37.0954538],[38.8979923,37.1077256],[38.8909787,37.1011424],[38.8828221,37.0965594],[38.8803045,37.0981659],[38.8763628,37.0945062],[38.8716456,37.0978787],[38.8739405,37.0998547],[38.8746454,37.106329],[38.8719871,37.1072102],[38.8734196,37.1109517],[38.8699709,37.1120288],[38.8705828,37.1137363],[38.8669046,37.1146269],[38.8678117,37.1179235],[38.8654822,37.1190878],[38.8630717,37.11472],[38.8664218,37.113962],[38.8662282,37.1127138],[38.858079,37.1157895],[38.8473946,37.113245],[38.8459824,37.1159413],[38.8436459,37.1143823],[38.8416826,37.1232008],[38.8366065,37.1269385],[38.8317299,37.1281306],[38.8257495,37.1343929],[38.8207321,37.1335943],[38.8220518,37.1385838],[38.8162486,37.1422016],[38.8097377,37.1448832],[38.8084226,37.1414347],[38.7986127,37.1464356],[38.7978604,37.1516467],[38.7934362,37.1565445],[38.7834032,37.1562405],[38.7819155,37.1618697],[38.779803,37.1589479],[38.7734902,37.1618848],[38.7697793,37.1617987],[38.7689165,37.1647417],[38.7665711,37.1658044],[38.7578584,37.1667262],[38.7537347,37.1693567],[38.7488923,37.1691408],[38.7471215,37.1702782],[38.7479489,37.1711976],[38.7411619,37.1730248],[38.7374763,37.178177],[38.7355429,37.1777883],[38.7332662,37.1845112],[38.7293634,37.1842233],[38.7286406,37.1817328],[38.7242861,37.183633],[38.7163185,37.1825468],[38.7121061,37.1794266],[38.7067277,37.1789806],[38.7073485,37.1779073],[38.7023765,37.1805034],[38.6982616,37.1790894],[38.6929584,37.1822394],[38.6896308,37.1811744],[38.6854055,37.182314],[38.6848236,37.180659],[38.6869983,37.1787506],[38.6772174,37.1767844],[38.675829,37.1725949],[38.6713893,37.1699652],[38.6762147,37.164496],[38.6756448,37.1621748],[38.6716555,37.1604217],[38.675361,37.1585967],[38.674681,37.1545679],[38.6694548,37.1494425],[38.6803009,37.1432567],[38.68326,37.139009],[38.6894279,37.1380745],[38.692353,37.1347357],[38.6853053,37.1306479],[38.678083,37.1229892],[38.6710758,37.1191143],[38.6632942,37.1207332],[38.655561,37.1187031],[38.6531293,37.124067],[38.6493931,37.1244987],[38.646029,37.1208421],[38.6447212,37.1219522],[38.6424682,37.1203661],[38.6356403,37.1194603],[38.6349169,37.1181477],[38.6369811,37.1176521],[38.6330842,37.1104622],[38.6269956,37.1075035],[38.6331804,37.105141],[38.6315461,37.1046905],[38.6346376,37.0992087],[38.6281845,37.0990772],[38.6254938,37.096914],[38.6098559,37.0981794],[38.6041778,37.0923662],[38.5951054,37.0908114],[38.5932989,37.0839201],[38.5777225,37.0799475],[38.5701183,37.0759355],[38.5730656,37.0702175],[38.5713538,37.0696586],[38.5683363,37.071572],[38.5675846,37.0690747],[38.5648699,37.0682892],[38.546083,37.0674372],[38.5462033,37.0664048],[38.539143,37.0642574],[38.5442828,37.0557314],[38.5483476,37.0535672],[38.5450758,37.049466],[38.5293141,37.0497148],[38.5313558,37.0552666],[38.5308115,37.0624059],[38.5252472,37.0674994],[38.5082027,37.0606091],[38.5085897,37.0595991],[38.493454,37.0601642],[38.492769,37.0614741],[38.4888491,37.0588106],[38.4898969,37.0545857],[38.4848962,37.0521283],[38.4850537,37.0479723]]]}},{"type":"Feature","properties":{"code":"63-06","provinceCode":"63","name":"Halfeti"},"geometry":{"type":"Polygon","coordinates":[[[37.8633426,37.1544183],[37.8795004,37.1591486],[37.880072,37.1538716],[37.8835585,37.1539724],[37.8876143,37.1578694],[37.8958963,37.157784],[37.9035303,37.159673],[37.9067259,37.1618732],[37.9082507,37.1723605],[37.9313603,37.1817923],[37.9447011,37.1823863],[37.9471449,37.1907341],[37.9541255,37.1870555],[37.9647445,37.1858286],[37.9658693,37.1823891],[37.9697089,37.1851901],[37.9764366,37.1843347],[37.9799917,37.185476],[37.9773854,37.182835],[37.9770853,37.1791219],[37.9754227,37.1786628],[37.9789709,37.1583397],[37.9829622,37.1510851],[37.9895332,37.1495089],[38.0062243,37.1540527],[38.0262645,37.1561193],[38.0295495,37.1584967],[38.0338347,37.1567726],[38.0480741,37.1611546],[38.0529057,37.1595811],[38.056242,37.1623379],[38.0564951,37.1669702],[38.0596589,37.1690451],[38.0697098,37.1694969],[38.0651609,37.1831046],[38.0710465,37.1851941],[38.0755808,37.1976352],[38.0885408,37.1972862],[38.0909105,37.1993295],[38.0910933,37.1960254],[38.0953615,37.196049],[38.0985353,37.193679],[38.0918593,37.1830485],[38.0943161,37.1850871],[38.0961241,37.1838686],[38.0996829,37.1845147],[38.1049134,37.1884903],[38.1104341,37.1896574],[38.1172435,37.178094],[38.1479824,37.1767022],[38.1528088,37.1806095],[38.15333,37.1941246],[38.1498748,37.1956632],[38.1448256,37.2020266],[38.1439737,37.2041645],[38.1462791,37.2059016],[38.1464337,37.2095039],[38.1434214,37.2115646],[38.1494983,37.2168791],[38.1492213,37.2149978],[38.1543089,37.2130268],[38.1593652,37.2156447],[38.1715985,37.2084725],[38.1707238,37.20371],[38.1687794,37.2021343],[38.1727671,37.2021619],[38.170952,37.1997968],[38.1728759,37.1960193],[38.1784274,37.1948885],[38.174956,37.183401],[38.1839361,37.182067],[38.1828762,37.1794615],[38.1864554,37.179388],[38.186572,37.1783392],[38.1938161,37.1808241],[38.1959435,37.177163],[38.194637,37.1771287],[38.1946503,37.1717154],[38.196153,37.1708226],[38.2075091,37.1682842],[38.2157393,37.1682671],[38.214996,37.1762808],[38.2125674,37.1795219],[38.2153575,37.1804639],[38.2142089,37.1924184],[38.2201039,37.1949118],[38.2189096,37.1978408],[38.2137529,37.194598],[38.2051485,37.197384],[38.2058336,37.1992113],[38.1982366,37.2037837],[38.1995824,37.2050575],[38.1996511,37.2143962],[38.1938625,37.2244592],[38.1849762,37.2272615],[38.1828421,37.2222185],[38.1799388,37.2229185],[38.1792899,37.2196475],[38.1718745,37.2296153],[38.1676603,37.2316532],[38.1674722,37.2351455],[38.1721526,37.2413994],[38.175077,37.2422893],[38.1786847,37.2406931],[38.1785859,37.2439496],[38.1875965,37.2429788],[38.1915551,37.2458048],[38.2019722,37.2458098],[38.2053226,37.2463771],[38.2060083,37.2478226],[38.2093097,37.248055],[38.2212036,37.2391048],[38.2236476,37.2443581],[38.225454,37.2428236],[38.2247392,37.2599769],[38.222227,37.2609036],[38.2212039,37.266579],[38.1933971,37.2784036],[38.1942953,37.2822477],[38.1877842,37.2825676],[38.1921788,37.2931112],[38.1883495,37.2972518],[38.1903928,37.3021695],[38.1869045,37.2997452],[38.1843175,37.3017457],[38.1812416,37.3014185],[38.1787369,37.3042744],[38.1691835,37.3035915],[38.1609969,37.3081829],[38.15426,37.3055248],[38.1476533,37.3052529],[38.1439281,37.3066714],[38.1389161,37.3051121],[38.1314652,37.3077177],[38.1285848,37.3079912],[38.1279101,37.3064685],[38.1160814,37.309485],[38.1174069,37.3196793],[38.1164578,37.3287827],[38.1141743,37.3314878],[38.1093158,37.3338136],[38.1003389,37.3318951],[38.0905667,37.3438345],[38.09437,37.3466515],[38.0900801,37.3486154],[38.0877826,37.3490779],[38.0850591,37.345669],[38.0758318,37.3430973],[38.0758244,37.3472406],[38.0790705,37.3531389],[38.0731222,37.3548742],[38.0735704,37.357143],[38.0693477,37.360217],[38.0573028,37.3621885],[38.0593743,37.3687506],[38.0580223,37.3701297],[38.0627709,37.3710266],[38.0666744,37.388658],[38.0620813,37.3886518],[38.0622019,37.3929397],[38.060476,37.3934518],[38.058609,37.3901173],[38.0495115,37.3939937],[38.0462009,37.3914479],[38.0410119,37.3901851],[38.0392056,37.3984973],[38.0341832,37.4020624],[38.0418191,37.4118016],[38.0477768,37.4135806],[38.0483663,37.4186486],[38.052931,37.4187804],[38.0515155,37.4231331],[38.0557108,37.4213568],[38.0555798,37.4237756],[38.0579876,37.4249966],[38.0596487,37.4299799],[38.0450225,37.4397497],[38.0371689,37.4426835],[38.0283092,37.4424802],[38.0104564,37.4353926],[37.9895137,37.4403676],[37.9811095,37.4380413],[37.9750941,37.4349837],[37.9697726,37.4281681],[37.9683135,37.4212155],[37.9634212,37.4150121],[37.9496883,37.4077856],[37.9398177,37.3995356],[37.9338954,37.3863064],[37.9215358,37.3787361],[37.9035114,37.3595],[37.8741573,37.3426473],[37.8738785,37.3369374],[37.8856586,37.3307048],[37.887976,37.3266098],[37.8854869,37.3232654],[37.8791656,37.3205413],[37.8663467,37.3184191],[37.8615401,37.3150743],[37.8533004,37.287423],[37.849953,37.2803208],[37.8430865,37.2720567],[37.8408549,37.2677536],[37.8412419,37.2638532],[37.8488372,37.2498555],[37.8640017,37.2441194],[37.8810237,37.2251191],[37.882397,37.2176009],[37.8786205,37.2134997],[37.8747176,37.2119373],[37.8697125,37.2130503],[37.8564761,37.2230687],[37.8484081,37.224709],[37.8402613,37.2238914],[37.8363918,37.213363],[37.8351901,37.2066639],[37.8441616,37.1791533],[37.8502963,37.1693298],[37.8633426,37.1544183]]]}},{"type":"Feature","properties":{"code":"63-07","provinceCode":"63","name":"Haliliye"},"geometry":{"type":"Polygon","coordinates":[[[38.7374763,37.178177],[38.7411619,37.1730248],[38.7479489,37.1711976],[38.7471215,37.1702782],[38.7488923,37.1691408],[38.7537347,37.1693567],[38.7578584,37.1667262],[38.7665711,37.1658044],[38.7689165,37.1647417],[38.7697793,37.1617987],[38.7734902,37.1618848],[38.779803,37.1589479],[38.7819155,37.1618697],[38.7834032,37.1562405],[38.7934362,37.1565445],[38.7978604,37.1516467],[38.7986127,37.1464356],[38.8084226,37.1414347],[38.8097377,37.1448832],[38.8162486,37.1422016],[38.8220518,37.1385838],[38.8207321,37.1335943],[38.8257495,37.1343929],[38.8317299,37.1281306],[38.8366065,37.1269385],[38.8416826,37.1232008],[38.8436459,37.1143823],[38.8459824,37.1159413],[38.8473946,37.113245],[38.858079,37.1157895],[38.8662282,37.1127138],[38.8664218,37.113962],[38.8630717,37.11472],[38.8654822,37.1190878],[38.8678117,37.1179235],[38.8669046,37.1146269],[38.8705828,37.1137363],[38.8699709,37.1120288],[38.8734196,37.1109517],[38.8719871,37.1072102],[38.8746454,37.106329],[38.8739405,37.0998547],[38.8716456,37.0978787],[38.8763628,37.0945062],[38.8803045,37.0981659],[38.8828221,37.0965594],[38.8909787,37.1011424],[38.8979923,37.1077256],[38.9226561,37.0954538],[38.9498089,37.0954538],[38.9980106,37.0922798],[39.0075141,37.0865039],[39.0170176,37.0644792],[39.0437179,37.0567149],[39.0858047,37.0507557],[39.190343,37.0426287],[39.3773159,37.0101362],[39.4237708,37.0148096],[39.498131,37.0047099],[39.4987692,37.0497174],[39.4969344,37.0709477],[39.4934177,37.0764373],[39.4639084,37.0999772],[39.4477011,37.1198523],[39.4551932,37.135578],[39.4643671,37.1497161],[39.4649787,37.1538596],[39.4564163,37.1816391],[39.4500275,37.1858748],[39.4461722,37.2092867],[39.4472424,37.2135486],[39.4516765,37.2189061],[39.4665436,37.2330789],[39.4500397,37.2340308],[39.4437049,37.2361205],[39.4414265,37.241133],[39.4419437,37.2488179],[39.4471154,37.2552672],[39.4693536,37.2654203],[39.4731462,37.2689872],[39.4728014,37.2790013],[39.4681469,37.2810588],[39.4534938,37.27955],[39.4452191,37.2768065],[39.4395302,37.2728284],[39.4350481,37.2659691],[39.4224637,37.2541695],[39.4200502,37.2497785],[39.421257,37.2357805],[39.4124651,37.2241135],[39.4047076,37.2212308],[39.393847,37.2224662],[39.3826417,37.2256234],[39.3669543,37.2359177],[39.3535079,37.2463479],[39.3478191,37.2534834],[39.3454056,37.2614415],[39.345578,37.2796871],[39.3438541,37.287231],[39.3142031,37.3287773],[39.3095486,37.3324784],[39.3042045,37.3334379],[39.2904134,37.3322042],[39.2819663,37.3335749],[39.2674856,37.3450879],[39.2611072,37.3464584],[39.2545564,37.3456361],[39.2517981,37.3405652],[39.250419,37.3323413],[39.2440406,37.3287773],[39.238007,37.3324784],[39.2240478,37.3481711],[39.2164859,37.353059],[39.2026672,37.4009831],[39.1995642,37.421933],[39.2000813,37.4323374],[39.1573415,37.4371927],[39.142187,37.432126],[39.1218481,37.420408],[39.0719978,37.3982338],[39.0233439,37.3865104],[38.9734937,37.387461],[38.9460247,37.3934087],[38.9116046,37.3577363],[38.8901497,37.3414461],[38.8593428,37.3075424],[38.851641,37.2815028],[38.8527838,37.2742196],[38.8617683,37.2722275],[38.867115,37.2727385],[38.8709657,37.2702963],[38.8662209,37.2587982],[38.8457704,37.2524331],[38.8368272,37.2515837],[38.8329093,37.248054],[38.8338632,37.2406543],[38.83229,37.227022],[38.8224453,37.2110806],[38.8248605,37.2070835],[38.8214476,37.2066605],[38.8242555,37.1997243],[38.8300951,37.193984],[38.8261711,37.1860123],[38.8105114,37.186055],[38.810562,37.1828445],[38.8077832,37.1828916],[38.8072639,37.1801814],[38.8019634,37.180336],[38.799668,37.1809472],[38.8000531,37.183993],[38.797733,37.18759],[38.7893562,37.1873922],[38.7681243,37.181313],[38.7609485,37.1914303],[38.7593263,37.188621],[38.7514034,37.1899826],[38.7490841,37.1877091],[38.7503488,37.1855937],[38.7461454,37.1814103],[38.7374763,37.178177]]]}},{"type":"Feature","properties":{"code":"63-08","provinceCode":"63","name":"Harran"},"geometry":{"type":"Polygon","coordinates":[[[39.6114323,36.8201724],[39.6114323,36.8375383],[39.6076992,36.8636769],[39.5375354,36.8530814],[39.5367638,36.8709831],[39.5244191,36.8731434],[39.5012726,36.8553965],[39.466553,36.8708288],[39.4212246,36.8530814],[39.4135092,36.8577115],[39.4164025,36.8685141],[39.4144736,36.8777723],[39.3855406,36.8854866],[39.3604653,36.886258],[39.3315323,36.8661994],[39.3035637,36.8870294],[39.2649864,36.901684],[39.1791517,36.9225043],[39.0229135,36.9556508],[38.9477408,36.9630531],[38.9391389,36.9542371],[38.9411959,36.9397409],[38.934838,36.9297264],[38.934838,36.9200095],[38.9421309,36.9081982],[38.9396999,36.9010208],[38.9320331,36.89474],[38.9320331,36.8895056],[38.9236393,36.8773029],[38.9234963,36.873825],[38.9284525,36.8733872],[38.9321172,36.8704321],[38.9335151,36.8640695],[38.9390704,36.8580934],[38.9289479,36.856326],[38.929902,36.8544808],[38.9322534,36.8548482],[38.9359871,36.8449065],[38.9324035,36.8438788],[38.9345685,36.839913],[38.9375129,36.8404906],[38.9380096,36.8350367],[38.9417132,36.8346759],[38.943323,36.8238784],[38.9476871,36.8211355],[38.9568115,36.8206803],[38.9613281,36.8131805],[38.9657847,36.8138026],[38.9654826,36.8113475],[38.9627561,36.8097457],[38.966018,36.8067099],[38.9793609,36.8084211],[38.9790986,36.7962446],[38.9943719,36.795785],[38.9948102,36.7971444],[39.0111895,36.7933711],[39.0079598,36.7867269],[39.0116159,36.7859848],[39.0088514,36.7845304],[39.0100816,36.7810002],[39.0218094,36.7833115],[39.0228856,36.7801765],[39.0285869,36.7833792],[39.0289263,36.7821398],[39.0380685,36.7825292],[39.0439758,36.7811836],[39.0457537,36.7828456],[39.0477967,36.7815378],[39.0503265,36.7827344],[39.0526969,36.7787667],[39.0558565,36.7801509],[39.0567165,36.7787608],[39.0603212,36.7799968],[39.0609191,36.7787105],[39.0727421,36.7809822],[39.0736317,36.7728368],[39.1013729,36.7667417],[39.1196374,36.7573685],[39.1451156,36.7528738],[39.1881249,36.7508137],[39.2213167,36.7453821],[39.2720396,36.7476297],[39.3122438,36.7560575],[39.3884449,36.7596157],[39.3982622,36.7629864],[39.4172068,36.7729606],[39.4400602,36.7799756],[39.536538,36.7835602],[39.5758505,36.8101141],[39.6114323,36.8201724]]]}},{"type":"Feature","properties":{"code":"63-09","provinceCode":"63","name":"Hilvan"},"geometry":{"type":"Polygon","coordinates":[[[38.9460247,37.3934087],[38.9734937,37.387461],[39.0233439,37.3865104],[39.0719978,37.3982338],[39.1218481,37.420408],[39.142187,37.432126],[39.1573415,37.4371927],[39.2000813,37.4323374],[39.2040463,37.437539],[39.2209404,37.4468463],[39.2271465,37.4527311],[39.2226643,37.4590261],[39.2135073,37.460624],[39.2106675,37.4655187],[39.2121933,37.4719591],[39.2348929,37.4883387],[39.2459204,37.5151382],[39.2562803,37.5283721],[39.2595557,37.5503798],[39.2609348,37.5809884],[39.2586937,37.5921901],[39.2511086,37.6028439],[39.2295599,37.6139058],[39.1919098,37.6259414],[39.1665853,37.6279925],[39.1602434,37.6328582],[39.1519196,37.6261874],[39.1456767,37.6272077],[39.1379126,37.622618],[39.1262546,37.6228126],[39.1138228,37.6209417],[39.1111925,37.6229696],[39.1092106,37.6289343],[39.0988059,37.633486],[39.0948421,37.6367818],[39.0915721,37.6363895],[39.0922657,37.6385082],[39.0965891,37.6401513],[39.0864539,37.6449232],[39.084514,37.6521146],[39.0821874,37.6545999],[39.0822352,37.6581189],[39.0792002,37.6600297],[39.0758067,37.658346],[39.0703342,37.6584595],[39.0674187,37.6614675],[39.063846,37.660252],[39.0588275,37.6615054],[39.0541973,37.6612689],[39.0509712,37.6585493],[39.0485515,37.658573],[39.0426369,37.6612689],[39.0376781,37.6577216],[39.0253933,37.6579707],[39.0201423,37.6620814],[39.018217,37.668732],[39.0145997,37.6708563],[39.0004805,37.6733039],[38.9971681,37.6713891],[38.9923661,37.6548422],[38.9873758,37.6514877],[38.9818206,37.6514877],[38.978996,37.6542458],[38.9773012,37.6624453],[38.9650609,37.6647558],[38.960259,37.6707183],[38.95122,37.6704202],[38.9501843,37.6730286],[38.9603531,37.6777236],[38.9606356,37.6807044],[38.9505609,37.6833869],[38.9442525,37.689944],[38.939168,37.689795],[38.9332362,37.6801082],[38.9241973,37.6772019],[38.9191128,37.6775],[38.9134635,37.6832379],[38.9123336,37.6913596],[38.9085674,37.6929243],[38.8983044,37.6886028],[38.8915252,37.690242],[38.8716212,37.7010565],[38.8583646,37.6926169],[38.8494686,37.6911084],[38.8269346,37.6977764],[38.8102501,37.6935729],[38.8058315,37.6819304],[38.8169457,37.6695586],[38.8472135,37.6627653],[38.8570346,37.6550031],[38.8568563,37.6509608],[38.8474031,37.6476226],[38.8216626,37.6430433],[38.8011015,37.6433253],[38.7830505,37.6405484],[38.7682036,37.6349943],[38.7579495,37.6292034],[38.7497176,37.6272123],[38.7213745,37.6258314],[38.6941525,37.6274944],[38.6513745,37.6241604],[38.6444395,37.6208264],[38.6260986,37.5969314],[38.6149975,37.5869373],[38.5994416,37.5819394],[38.5794295,37.5705414],[38.5722196,37.5566633],[38.5994091,37.5412669],[38.601998,37.5346978],[38.6111383,37.5260347],[38.6484428,37.5119662],[38.6922223,37.4886567],[38.709472,37.4869004],[38.7289651,37.4874953],[38.7552058,37.4916595],[38.7588076,37.4895977],[38.766382,37.4751316],[38.773113,37.4716787],[38.8030984,37.4695644],[38.830679,37.4632987],[38.8481728,37.4636954],[38.8566698,37.4662741],[38.8714145,37.476588],[38.8819108,37.475993],[38.8971554,37.4627036],[38.9049954,37.4620815],[38.9188977,37.4654807],[38.9413897,37.475993],[38.9606328,37.4888834],[38.9671305,37.4869004],[38.9836247,37.4627036],[38.9838746,37.4541733],[38.9766272,37.4430627],[38.9393131,37.4130346],[38.9323929,37.4035669],[38.9460247,37.3934087]]]}},{"type":"Feature","properties":{"code":"63-10","provinceCode":"63","name":"Karaköprü"},"geometry":{"type":"Polygon","coordinates":[[[38.4630506,37.4883193],[38.488432,37.4595679],[38.5340048,37.4241532],[38.5630429,37.4076142],[38.5656242,37.4031335],[38.5621801,37.3968018],[38.5628319,37.3955335],[38.5672742,37.3972627],[38.572275,37.3918659],[38.5717037,37.3858457],[38.5876235,37.3880477],[38.5982587,37.3938862],[38.6013233,37.3962707],[38.6029246,37.4003812],[38.615459,37.4083176],[38.6304859,37.4094738],[38.6353126,37.4144517],[38.6426361,37.4145357],[38.6550709,37.4191448],[38.6619182,37.4238021],[38.6726279,37.426036],[38.6757252,37.4296078],[38.6769128,37.42893],[38.6801452,37.4343739],[38.6847489,37.4335047],[38.6854123,37.4277219],[38.6934697,37.4256234],[38.6957269,37.4203801],[38.7030833,37.4139117],[38.703033,37.4109257],[38.7116888,37.4034203],[38.6911926,37.4047629],[38.679175,37.4034542],[38.6774523,37.3990414],[38.6691742,37.3904177],[38.6666573,37.3921224],[38.6593635,37.3875115],[38.6582188,37.3890329],[38.6561815,37.38846],[38.6533605,37.3808829],[38.6481311,37.3769872],[38.6429069,37.3664942],[38.6583082,37.3584823],[38.6664435,37.3500821],[38.6694772,37.3417067],[38.6659643,37.3377634],[38.6562795,37.3375849],[38.6567754,37.3350367],[38.6467353,37.3308342],[38.6412992,37.3341963],[38.6363538,37.3317273],[38.63491,37.3344327],[38.6288454,37.3342659],[38.6237406,37.3386934],[38.621159,37.3488691],[38.6220362,37.3545511],[38.6284484,37.3632769],[38.6297753,37.3705358],[38.627497,37.3713931],[38.6260527,37.3754475],[38.6188005,37.3828336],[38.6152608,37.3715914],[38.6175735,37.3675081],[38.6113269,37.3504241],[38.6098129,37.3491353],[38.6067731,37.3490405],[38.6060221,37.3506704],[38.6029635,37.3492116],[38.6037815,37.3477236],[38.6001007,37.3432468],[38.5996131,37.3334919],[38.5948784,37.3294645],[38.6174729,37.324299],[38.6224452,37.3191878],[38.6227943,37.316999],[38.61681,37.3111777],[38.6155941,37.3065696],[38.6112549,37.3052421],[38.6101105,37.3019233],[38.6340997,37.2925981],[38.6346186,37.2947282],[38.6409126,37.2871451],[38.6465084,37.2839827],[38.6494429,37.2772378],[38.6561743,37.2749055],[38.6586884,37.2710776],[38.6579285,37.2681141],[38.6626022,37.2634936],[38.6657173,37.2636503],[38.6646582,37.2603549],[38.6739123,37.2569126],[38.6740418,37.252228],[38.6800734,37.2514803],[38.6817669,37.2492686],[38.6954324,37.2487692],[38.6954754,37.2436721],[38.6867438,37.2454683],[38.6827056,37.2448353],[38.682476,37.2422785],[38.6531803,37.2529086],[38.6503214,37.2527767],[38.6505067,37.2486742],[38.6480503,37.2492743],[38.6453633,37.2473709],[38.6449398,37.2487927],[38.643474,37.2475658],[38.6418133,37.2492319],[38.6387619,37.246768],[38.6372073,37.2473565],[38.6377811,37.2496076],[38.6282269,37.2500001],[38.6253355,37.2471759],[38.6266254,37.2452852],[38.6239828,37.2464247],[38.6259332,37.2434946],[38.6225356,37.2449596],[38.6253169,37.2422435],[38.6232084,37.2388263],[38.6139787,37.2350164],[38.6235312,37.224992],[38.6201072,37.223251],[38.6155579,37.2248247],[38.6110208,37.221906],[38.6080011,37.2240183],[38.5965661,37.2227295],[38.5956501,37.2258851],[38.5849561,37.2272528],[38.5791884,37.2257093],[38.5676228,37.2254079],[38.5698939,37.2182984],[38.566182,37.2146303],[38.5612388,37.214329],[38.5613213,37.2165306],[38.5632245,37.2159784],[38.5629216,37.219388],[38.5590661,37.2191996],[38.5588613,37.21514],[38.5488928,37.2133475],[38.5491281,37.2122068],[38.5462518,37.2113614],[38.5399959,37.2241065],[38.5395534,37.2221265],[38.5358721,37.2232305],[38.5294231,37.2200167],[38.5304258,37.2175978],[38.5276195,37.2121268],[38.5281216,37.2085512],[38.5236922,37.2075729],[38.5224661,37.2056371],[38.5145265,37.2063225],[38.5149365,37.2004921],[38.4939068,37.1912992],[38.4918923,37.1933555],[38.4768488,37.1955437],[38.4722561,37.2071923],[38.4702889,37.2069561],[38.4683497,37.209194],[38.468777,37.2117267],[38.4709939,37.2120225],[38.4682816,37.2193698],[38.4689193,37.2224476],[38.4745827,37.2336958],[38.4730396,37.2350553],[38.4660018,37.2341135],[38.459624,37.2361427],[38.4570367,37.2339523],[38.4506568,37.2339742],[38.4498943,37.2276734],[38.4450122,37.2223347],[38.4481342,37.2197899],[38.4384747,37.2178002],[38.443951,37.2033694],[38.4411375,37.2017457],[38.4369141,37.2038545],[38.4302936,37.1969293],[38.4382938,37.1923789],[38.4487652,37.188375],[38.4509432,37.1887728],[38.4500007,37.1879779],[38.4567188,37.184661],[38.4564094,37.1820138],[38.4576833,37.1823029],[38.4594265,37.1794649],[38.4572778,37.1748788],[38.454255,37.173848],[38.4536058,37.1708684],[38.4527082,37.1659477],[38.4543723,37.1550184],[38.4498803,37.1552248],[38.4471988,37.1508388],[38.4441421,37.1499122],[38.4410562,37.1435247],[38.4441459,37.1397192],[38.4459941,37.141289],[38.4443312,37.1377478],[38.4388539,37.1291799],[38.4360346,37.1288907],[38.4329738,37.1259956],[38.4292998,37.125636],[38.4265818,37.1227533],[38.4272788,37.1186957],[38.4241048,37.1188361],[38.4198395,37.10687],[38.4290111,37.102935],[38.4264014,37.0947801],[38.4287938,37.0902882],[38.4278827,37.0821001],[38.4355384,37.0796653],[38.4340095,37.0746839],[38.4377874,37.0741753],[38.4372501,37.0712028],[38.4400083,37.0689703],[38.4366431,37.0674961],[38.4386884,37.064129],[38.4414873,37.0635069],[38.4408773,37.0437957],[38.4446519,37.0415999],[38.4518409,37.0410773],[38.4555798,37.0381103],[38.462594,37.0412137],[38.4633335,37.0367646],[38.4681075,37.0381392],[38.4718348,37.037396],[38.4815892,37.0476337],[38.4850537,37.0479723],[38.4848962,37.0521283],[38.4898969,37.0545857],[38.4888491,37.0588106],[38.492769,37.0614741],[38.493454,37.0601642],[38.5085897,37.0595991],[38.5082027,37.0606091],[38.5252472,37.0674994],[38.5308115,37.0624059],[38.5313558,37.0552666],[38.5293141,37.0497148],[38.5450758,37.049466],[38.5483476,37.0535672],[38.5442828,37.0557314],[38.539143,37.0642574],[38.5462033,37.0664048],[38.546083,37.0674372],[38.5648699,37.0682892],[38.5675846,37.0690747],[38.5683363,37.071572],[38.5713538,37.0696586],[38.5730656,37.0702175],[38.5701183,37.0759355],[38.5777225,37.0799475],[38.5932989,37.0839201],[38.5951054,37.0908114],[38.6041778,37.0923662],[38.6098559,37.0981794],[38.6254938,37.096914],[38.6281845,37.0990772],[38.6346376,37.0992087],[38.6315461,37.1046905],[38.6331804,37.105141],[38.6269956,37.1075035],[38.6330842,37.1104622],[38.6369811,37.1176521],[38.6349169,37.1181477],[38.6356403,37.1194603],[38.6424682,37.1203661],[38.6447212,37.1219522],[38.646029,37.1208421],[38.6493931,37.1244987],[38.6531293,37.124067],[38.655561,37.1187031],[38.6632942,37.1207332],[38.6710758,37.1191143],[38.678083,37.1229892],[38.6853053,37.1306479],[38.692353,37.1347357],[38.6894279,37.1380745],[38.68326,37.139009],[38.6803009,37.1432567],[38.6694548,37.1494425],[38.674681,37.1545679],[38.675361,37.1585967],[38.6716555,37.1604217],[38.6756448,37.1621748],[38.6762147,37.164496],[38.6713893,37.1699652],[38.675829,37.1725949],[38.6772174,37.1767844],[38.6869983,37.1787506],[38.6848236,37.180659],[38.6854055,37.182314],[38.6896308,37.1811744],[38.6929584,37.1822394],[38.6982616,37.1790894],[38.7023765,37.1805034],[38.7073485,37.1779073],[38.7067277,37.1789806],[38.7121061,37.1794266],[38.7163185,37.1825468],[38.7242861,37.183633],[38.7286406,37.1817328],[38.7293634,37.1842233],[38.7332662,37.1845112],[38.7355429,37.1777883],[38.7374763,37.178177],[38.7461454,37.1814103],[38.7503488,37.1855937],[38.7490841,37.1877091],[38.7514034,37.1899826],[38.7593263,37.188621],[38.7609485,37.1914303],[38.7681243,37.181313],[38.7893562,37.1873922],[38.797733,37.18759],[38.8000531,37.183993],[38.799668,37.1809472],[38.8019634,37.180336],[38.8072639,37.1801814],[38.8077832,37.1828916],[38.810562,37.1828445],[38.8105114,37.186055],[38.8261711,37.1860123],[38.8300951,37.193984],[38.8242555,37.1997243],[38.8214476,37.2066605],[38.8248605,37.2070835],[38.8224453,37.2110806],[38.83229,37.227022],[38.8338632,37.2406543],[38.8329093,37.248054],[38.8368272,37.2515837],[38.8457704,37.2524331],[38.8662209,37.2587982],[38.8709657,37.2702963],[38.867115,37.2727385],[38.8617683,37.2722275],[38.8527838,37.2742196],[38.851641,37.2815028],[38.8593428,37.3075424],[38.8901497,37.3414461],[38.9116046,37.3577363],[38.9460247,37.3934087],[38.9323929,37.4035669],[38.9393131,37.4130346],[38.9766272,37.4430627],[38.9838746,37.4541733],[38.9836247,37.4627036],[38.9671305,37.4869004],[38.9606328,37.4888834],[38.9413897,37.475993],[38.9188977,37.4654807],[38.9049954,37.4620815],[38.8971554,37.4627036],[38.8819108,37.475993],[38.8714145,37.476588],[38.8566698,37.4662741],[38.8481728,37.4636954],[38.830679,37.4632987],[38.8030984,37.4695644],[38.773113,37.4716787],[38.766382,37.4751316],[38.7588076,37.4895977],[38.7552058,37.4916595],[38.7289651,37.4874953],[38.709472,37.4869004],[38.6922223,37.4886567],[38.6484428,37.5119662],[38.6111383,37.5260347],[38.601998,37.5346978],[38.5994091,37.5412669],[38.5722196,37.5566633],[38.5616605,37.5463864],[38.5419385,37.5347134],[38.5091625,37.5044323],[38.4994355,37.4986033],[38.4763795,37.4905544],[38.4630506,37.4883193]]]}},{"type":"Feature","properties":{"code":"63-11","provinceCode":"63","name":"Siverek"},"geometry":{"type":"Polygon","coordinates":[[[38.8716212,37.7010565],[38.8915252,37.690242],[38.8983044,37.6886028],[38.9085674,37.6929243],[38.9123336,37.6913596],[38.9134635,37.6832379],[38.9191128,37.6775],[38.9241973,37.6772019],[38.9332362,37.6801082],[38.939168,37.689795],[38.9442525,37.689944],[38.9505609,37.6833869],[38.9606356,37.6807044],[38.9603531,37.6777236],[38.9501843,37.6730286],[38.95122,37.6704202],[38.960259,37.6707183],[38.9650609,37.6647558],[38.9773012,37.6624453],[38.978996,37.6542458],[38.9818206,37.6514877],[38.9873758,37.6514877],[38.9923661,37.6548422],[38.9971681,37.6713891],[39.0004805,37.6733039],[39.0145997,37.6708563],[39.018217,37.668732],[39.0201423,37.6620814],[39.0253933,37.6579707],[39.0376781,37.6577216],[39.0426369,37.6612689],[39.0485515,37.658573],[39.0509712,37.6585493],[39.0541973,37.6612689],[39.0588275,37.6615054],[39.063846,37.660252],[39.0674187,37.6614675],[39.0703342,37.6584595],[39.0758067,37.658346],[39.0792002,37.6600297],[39.0822352,37.6581189],[39.0821874,37.6545999],[39.084514,37.6521146],[39.0864539,37.6449232],[39.0965891,37.6401513],[39.0922657,37.6385082],[39.0915721,37.6363895],[39.0948421,37.6367818],[39.0988059,37.633486],[39.1092106,37.6289343],[39.1111925,37.6229696],[39.1138228,37.6209417],[39.1262546,37.6228126],[39.1379126,37.622618],[39.1456767,37.6272077],[39.1519196,37.6261874],[39.1602434,37.6328582],[39.1665853,37.6279925],[39.1919098,37.6259414],[39.2295599,37.6139058],[39.2511086,37.6028439],[39.2586937,37.5921901],[39.2609348,37.5809884],[39.2595557,37.5503798],[39.2562803,37.5283721],[39.2459204,37.5151382],[39.2348929,37.4883387],[39.2121933,37.4719591],[39.2106675,37.4655187],[39.2135073,37.460624],[39.2226643,37.4590261],[39.2271465,37.4527311],[39.2209404,37.4468463],[39.2040463,37.437539],[39.2000813,37.4323374],[39.1995642,37.421933],[39.2026672,37.4009831],[39.2164859,37.353059],[39.2240478,37.3481711],[39.238007,37.3324784],[39.2440406,37.3287773],[39.250419,37.3323413],[39.2517981,37.3405652],[39.2545564,37.3456361],[39.2611072,37.3464584],[39.2674856,37.3450879],[39.2819663,37.3335749],[39.2904134,37.3322042],[39.3042045,37.3334379],[39.3095486,37.3324784],[39.3142031,37.3287773],[39.3438541,37.287231],[39.345578,37.2796871],[39.3454056,37.2614415],[39.3478191,37.2534834],[39.3535079,37.2463479],[39.3669543,37.2359177],[39.3826417,37.2256234],[39.393847,37.2224662],[39.4047076,37.2212308],[39.4124651,37.2241135],[39.421257,37.2357805],[39.4200502,37.2497785],[39.4224637,37.2541695],[39.4350481,37.2659691],[39.4395302,37.2728284],[39.4452191,37.2768065],[39.4534938,37.27955],[39.4681469,37.2810588],[39.4728014,37.2790013],[39.4731462,37.2689872],[39.4693536,37.2654203],[39.4471154,37.2552672],[39.4419437,37.2488179],[39.4414265,37.241133],[39.4437049,37.2361205],[39.4500397,37.2340308],[39.4665436,37.2330789],[39.4879895,37.2380908],[39.4994278,37.2451252],[39.5004559,37.2513836],[39.4841791,37.2643227],[39.4852824,37.2762588],[39.4927763,37.2806022],[39.5090232,37.2837022],[39.5237909,37.2802668],[39.5357054,37.2701887],[39.5429335,37.2686833],[39.5462313,37.2732062],[39.5474159,37.2800951],[39.5632027,37.2758429],[39.5702808,37.2776656],[39.5715991,37.2811076],[39.5760749,37.2821717],[39.5811137,37.2963086],[39.5743689,37.3019922],[39.5694107,37.3008876],[39.5674154,37.305642],[39.5407228,37.3112292],[39.5305519,37.3157537],[39.5274489,37.3212376],[39.5324481,37.3382352],[39.5306136,37.3493448],[39.5519346,37.3583696],[39.5674723,37.3619158],[39.5953903,37.37845],[39.6067963,37.3908802],[39.6173633,37.4156227],[39.6144633,37.4229065],[39.6161063,37.4293128],[39.6160281,37.4545712],[39.6216238,37.4556213],[39.651224,37.4745824],[39.6511247,37.4849085],[39.6496347,37.4860119],[39.6541045,37.4888493],[39.6577301,37.4958241],[39.6620941,37.4958364],[39.6637892,37.5002373],[39.667961,37.5017739],[39.6735731,37.5007101],[39.6768014,37.5019315],[39.6815692,37.5103234],[39.6912041,37.5146568],[39.6967169,37.5146174],[39.7018821,37.5169417],[39.70709,37.5161856],[39.7393056,37.5309678],[39.8067828,37.5455425],[39.8558939,37.5625958],[39.8353712,37.5806071],[39.8332353,37.6170247],[39.8370386,37.6337177],[39.8310306,37.6623314],[39.8286969,37.713606],[39.8444885,37.7309706],[39.8418687,37.741524],[39.8292254,37.7593106],[39.8122933,37.8020111],[39.8106279,37.8318945],[39.8078691,37.8485295],[39.7990138,37.8589128],[39.7739051,37.8650527],[39.7448511,37.8566912],[39.7094473,37.8413953],[39.7019394,37.8367497],[39.6956157,37.829349],[39.68677,37.8052844],[39.6753893,37.7959223],[39.6629039,37.7943011],[39.6440646,37.7964233],[39.6260857,37.8021106],[39.6035297,37.8455877],[39.5867344,37.8565372],[39.5678471,37.8559185],[39.5508594,37.8498828],[39.5429063,37.8515275],[39.5402553,37.8593021],[39.5324652,37.8683802],[39.5221382,37.8755035],[39.5256302,37.8821988],[39.521843,37.8874615],[39.516075,37.8891502],[39.508676,37.8972506],[39.4935028,37.9028937],[39.4891095,37.9096529],[39.4777325,37.9116525],[39.4690683,37.9170581],[39.4027275,37.9338141],[39.3856692,37.932771],[39.3751753,37.9491197],[39.3514498,37.9601781],[39.3212038,37.9586012],[39.3038682,37.960275],[39.2696561,37.9703489],[39.2511345,37.9865104],[39.2234424,37.9972289],[39.1911003,38.0017107],[39.1787943,38.0060165],[39.1553642,37.9958804],[39.1455627,37.9969035],[39.1332706,38.0021332],[39.1315154,38.0100855],[39.1375295,38.0179549],[39.1279016,38.0205169],[39.1120023,38.0179779],[39.0971422,38.0127193],[39.0883244,38.0074307],[39.0813825,37.9988784],[39.0672145,37.9922104],[39.0591654,37.9844434],[39.0555495,37.9716564],[39.0572125,37.9647214],[39.0464809,37.9524619],[39.0442508,37.944294],[39.0391529,37.9369998],[39.0393376,37.9305379],[39.0314332,37.9257469],[39.0248664,37.9166177],[39.0100759,37.9162385],[38.9960629,37.9126714],[38.9736968,37.9000874],[38.9772185,37.8938823],[38.9924007,37.8851362],[38.9835528,37.8698434],[38.9738656,37.8599719],[38.9791565,37.8319393],[38.9766615,37.8238753],[38.9680406,37.8222204],[38.9413755,37.8286148],[38.9207979,37.826398],[38.8981651,37.8045723],[38.8968009,37.793864],[38.9016074,37.7916936],[38.9211768,37.80146],[38.9413307,37.8078404],[38.9507782,37.8050392],[38.9541625,37.7986073],[38.9552593,37.7726932],[38.9645243,37.76372],[38.9586119,37.7529806],[38.924183,37.7479293],[38.9053399,37.7411986],[38.9030795,37.7320202],[38.9148326,37.7250537],[38.9126325,37.7129402],[38.8958757,37.7125281],[38.8800766,37.7065895],[38.8716212,37.7010565]]]}},{"type":"Feature","properties":{"code":"63-12","provinceCode":"63","name":"Suruç"},"geometry":{"type":"Polygon","coordinates":[[[38.4278827,37.0821001],[38.4188559,37.0769899],[38.4181183,37.0748258],[38.4136873,37.0764908],[38.4091847,37.0903992],[38.3943853,37.0869678],[38.3874257,37.0898851],[38.3844702,37.1042697],[38.3901883,37.1091256],[38.3847602,37.1175128],[38.373181,37.1163041],[38.3740265,37.1220273],[38.3707453,37.1207558],[38.3635752,37.1250983],[38.3657315,37.1303109],[38.3604452,37.1334925],[38.3603648,37.1376623],[38.356748,37.1415117],[38.3606453,37.143005],[38.358336,37.1461163],[38.3519204,37.14648],[38.3464114,37.1413848],[38.3474657,37.1376099],[38.3372933,37.1330535],[38.3383339,37.1250761],[38.3310399,37.1242458],[38.3283772,37.1336233],[38.326639,37.1339372],[38.3260111,37.1325454],[38.3202226,37.1342479],[38.3108591,37.1309363],[38.3065557,37.1325046],[38.3070313,37.1359399],[38.2994337,37.1370146],[38.2947959,37.1203018],[38.2670711,37.1214575],[38.2647997,37.1135793],[38.26911,37.1136498],[38.2705024,37.1081294],[38.2676576,37.1083905],[38.2681138,37.1058548],[38.2592845,37.1038338],[38.260624,37.0855799],[38.255405,37.0819491],[38.2535597,37.0835661],[38.254045,37.0808793],[38.2519203,37.080561],[38.2526754,37.0770587],[38.2483865,37.0756838],[38.2463826,37.0802002],[38.2435055,37.0801667],[38.2442682,37.0815561],[38.23623,37.0816869],[38.2342751,37.0864402],[38.2196789,37.0924412],[38.2168855,37.0952082],[38.2153317,37.0944531],[38.2130098,37.097701],[38.2118735,37.0946038],[38.2084308,37.0929595],[38.2070805,37.0939743],[38.2095176,37.0833932],[38.2048402,37.0823447],[38.2052215,37.0760884],[38.2035127,37.0738775],[38.2001227,37.0744308],[38.198933,37.0686089],[38.1909261,37.0673887],[38.1878451,37.0643709],[38.1914464,37.0580275],[38.1917963,37.0478684],[38.1948057,37.0449905],[38.198357,37.0360063],[38.2009024,37.037147],[38.2019266,37.040673],[38.2059034,37.0390201],[38.2190613,37.0247184],[38.2158228,37.0228999],[38.2175095,37.0174615],[38.2105451,37.0167205],[38.2169364,37.0110259],[38.2148309,37.0082911],[38.204937,37.0132262],[38.2047485,37.0118723],[38.1963666,37.0126076],[38.1938482,37.0111506],[38.1789509,37.0130039],[38.1704107,37.0033751],[38.1732082,36.9909263],[38.1644927,36.995564],[38.1606888,36.995481],[38.1604201,36.9929435],[38.1611677,36.9897975],[38.1668265,36.9915152],[38.1711991,36.974242],[38.1747109,36.9731422],[38.1785055,36.9621873],[38.1808134,36.9602905],[38.1773852,36.954826],[38.1797115,36.9498346],[38.1739012,36.9493932],[38.1710601,36.9442361],[38.1823592,36.9371184],[38.1888378,36.9392],[38.1926223,36.94407],[38.2006195,36.9431252],[38.1998136,36.9419856],[38.2128494,36.9370186],[38.2123993,36.9294],[38.2157269,36.9279732],[38.2180517,36.9227866],[38.2169599,36.9184815],[38.2184225,36.9102277],[38.2368678,36.9230168],[38.2420287,36.924099],[38.2554326,36.9200122],[38.2654794,36.9146603],[38.2954982,36.9075327],[38.3395291,36.9000645],[38.3499865,36.899544],[38.382514,36.9026917],[38.390712,36.9023268],[38.5524532,36.8456302],[38.5589173,36.8413526],[38.5683515,36.8257643],[38.5743415,36.8241887],[38.5803117,36.8260021],[38.5773334,36.8282667],[38.5760976,36.8657499],[38.5883786,36.8688925],[38.599332,36.8606687],[38.6065608,36.8695402],[38.6063162,36.8765063],[38.6126427,36.8792859],[38.6108401,36.9012266],[38.6001591,36.9036131],[38.5951012,36.9026593],[38.599746,36.9061715],[38.5960228,36.9073069],[38.5967184,36.9190784],[38.6048814,36.9204946],[38.6042556,36.9252959],[38.608732,36.9277149],[38.6076689,36.9325651],[38.6115173,36.9366149],[38.6039388,36.9362252],[38.5783317,36.9530301],[38.5725401,36.9536649],[38.5755681,36.955252],[38.5756045,36.9570283],[38.5738674,36.9583636],[38.5660722,36.9586887],[38.5635008,36.9623612],[38.5473671,36.9592608],[38.5448514,36.9576881],[38.5517852,36.9723133],[38.5542234,36.9760795],[38.5564057,36.9765894],[38.5539872,36.9789208],[38.5499704,36.9791048],[38.5492794,36.9852677],[38.5508072,36.9863801],[38.5485247,36.9871017],[38.5872109,36.9993165],[38.5879821,37.0080151],[38.5816584,37.015139],[38.5651819,37.009888],[38.5485514,37.0104316],[38.5424145,37.0086492],[38.5431193,37.014328],[38.5387747,37.0225609],[38.5355295,37.0229808],[38.530057,37.0348232],[38.5263804,37.0366067],[38.5243813,37.0352783],[38.5183557,37.0363439],[38.511039,37.0341256],[38.4999153,37.0285102],[38.4995167,37.0253735],[38.4956376,37.0253508],[38.4954838,37.0242917],[38.4861376,37.025339],[38.4839322,37.0274265],[38.4843351,37.0390299],[38.4882785,37.0410285],[38.489193,37.0482086],[38.4850537,37.0479723],[38.4815892,37.0476337],[38.4718348,37.037396],[38.4681075,37.0381392],[38.4633335,37.0367646],[38.462594,37.0412137],[38.4555798,37.0381103],[38.4518409,37.0410773],[38.4446519,37.0415999],[38.4408773,37.0437957],[38.4414873,37.0635069],[38.4386884,37.064129],[38.4366431,37.0674961],[38.4400083,37.0689703],[38.4372501,37.0712028],[38.4377874,37.0741753],[38.4340095,37.0746839],[38.4355384,37.0796653],[38.4278827,37.0821001]]]}},{"type":"Feature","properties":{"code":"63-13","provinceCode":"63","name":"Viranşehir"},"geometry":{"type":"Polygon","coordinates":[[[39.4665436,37.2330789],[39.4516765,37.2189061],[39.4472424,37.2135486],[39.4461722,37.2092867],[39.4500275,37.1858748],[39.4564163,37.1816391],[39.4649787,37.1538596],[39.4643671,37.1497161],[39.4551932,37.135578],[39.4477011,37.1198523],[39.4639084,37.0999772],[39.4934177,37.0764373],[39.4969344,37.0709477],[39.4987692,37.0497174],[39.498131,37.0047099],[39.4984634,36.9643704],[39.5004511,36.9547186],[39.5145177,36.9356557],[39.5189518,36.9203775],[39.5198691,36.9017951],[39.5177286,36.8918908],[39.5235387,36.8888337],[39.5410808,36.8894881],[39.5423452,36.8964152],[39.5504488,36.8993497],[39.5582466,36.9003279],[39.5897437,36.8995943],[39.5850038,36.9033846],[39.5775118,36.9061966],[39.5703256,36.9066857],[39.5668089,36.9087641],[39.5645155,36.9148766],[39.5668089,36.9201331],[39.5903744,36.953451],[39.6115929,36.9782019],[39.6316361,36.9985436],[39.6490854,37.0111602],[39.6585175,37.016997],[39.6934163,37.0305519],[39.7099225,37.0343167],[39.7546029,37.0354379],[39.7859771,37.0685058],[39.7967775,37.0746312],[39.803477,37.0746882],[39.8230989,37.063997],[39.8478706,37.0613525],[39.8495157,37.0688292],[39.8519475,37.07193],[39.8439605,37.0803757],[39.8368795,37.0799382],[39.8305116,37.0863689],[39.8305664,37.0886534],[39.8341428,37.0908286],[39.8342935,37.0938891],[39.833074,37.0966324],[39.8279218,37.0964029],[39.8281273,37.1004467],[39.8261815,37.1030259],[39.8331527,37.1090313],[39.832457,37.1105302],[39.8281162,37.1100748],[39.8257484,37.1117393],[39.8298816,37.1132962],[39.8313562,37.1119961],[39.8334829,37.1129213],[39.8339847,37.1165636],[39.8355106,37.1168426],[39.8335784,37.1203762],[39.8535049,37.1538624],[39.8579879,37.1651573],[39.8681639,37.1637995],[39.8712691,37.1620693],[39.8740625,37.1635363],[39.8766312,37.1628862],[39.8747513,37.1606099],[39.8787264,37.155541],[39.8828912,37.153172],[39.8725926,37.1483914],[39.8884017,37.1485082],[39.9004559,37.151506],[39.9093395,37.1395609],[39.9473755,37.1238637],[39.9818026,37.1319478],[40.0011384,37.1340157],[40.0256619,37.1357076],[40.0843407,37.1343598],[40.0956053,37.1353953],[40.1034205,37.1507127],[40.1026156,37.1584849],[40.100082,37.1637045],[40.1022767,37.1656866],[40.1009139,37.1674362],[40.0926026,37.1685437],[40.0899337,37.1667713],[40.0913871,37.1613421],[40.0903229,37.1586348],[40.087157,37.1566851],[40.0802162,37.1557016],[40.0785372,37.1577493],[40.0823769,37.1611054],[40.081589,37.1637447],[40.072919,37.1620807],[40.0692963,37.1687206],[40.0597259,37.1699671],[40.0591462,37.1725097],[40.0613733,37.1743466],[40.0596846,37.1769102],[40.0550956,37.179684],[40.0468809,37.1806998],[40.0499619,37.1845106],[40.0503935,37.1887687],[40.0429969,37.1932901],[40.0350112,37.1864579],[40.0317963,37.1858443],[40.0323103,37.1924617],[40.0219763,37.1986179],[40.0190095,37.2019532],[40.0202266,37.2080756],[40.0237877,37.2138704],[40.0210982,37.2179664],[40.0158827,37.218455],[40.0120806,37.2210699],[40.0118066,37.224502],[40.0179706,37.2254836],[40.0202496,37.2289253],[40.0131164,37.2320416],[40.0119812,37.234475],[40.0131394,37.2386401],[40.0102871,37.2474393],[40.0039496,37.2516606],[40.012197,37.2577972],[40.0112119,37.2626439],[40.0077438,37.2649279],[40.0088874,37.270628],[40.000272,37.2786048],[39.9967156,37.2883616],[39.9936026,37.290782],[39.9932397,37.2954495],[39.9871139,37.2959445],[39.9838499,37.3009149],[39.9869529,37.3057934],[39.983758,37.3106667],[39.9843599,37.3165198],[39.9778056,37.3228976],[39.9775307,37.328423],[39.9793145,37.3301847],[39.9702415,37.3411487],[39.9692572,37.3458097],[39.9659039,37.3469403],[39.9689336,37.3517478],[39.9667627,37.353995],[39.9683253,37.3628029],[39.9663663,37.3660954],[39.9625593,37.3678993],[39.9622312,37.3722979],[39.9588753,37.3734156],[39.9493452,37.3866351],[39.9518591,37.4034536],[39.9037793,37.4552337],[39.8913479,37.4707294],[39.886114,37.4817777],[39.8847598,37.4908088],[39.8952659,37.5064402],[39.8954362,37.5176252],[39.8939797,37.5210911],[39.8663046,37.5295625],[39.8621776,37.5341829],[39.8616921,37.5480423],[39.8558939,37.5625958],[39.8067828,37.5455425],[39.7393056,37.5309678],[39.70709,37.5161856],[39.7018821,37.5169417],[39.6967169,37.5146174],[39.6912041,37.5146568],[39.6815692,37.5103234],[39.6768014,37.5019315],[39.6735731,37.5007101],[39.667961,37.5017739],[39.6637892,37.5002373],[39.6620941,37.4958364],[39.6577301,37.4958241],[39.6541045,37.4888493],[39.6496347,37.4860119],[39.6511247,37.4849085],[39.651224,37.4745824],[39.6216238,37.4556213],[39.6160281,37.4545712],[39.6161063,37.4293128],[39.6144633,37.4229065],[39.6173633,37.4156227],[39.6067963,37.3908802],[39.5953903,37.37845],[39.5674723,37.3619158],[39.5519346,37.3583696],[39.5306136,37.3493448],[39.5324481,37.3382352],[39.5274489,37.3212376],[39.5305519,37.3157537],[39.5407228,37.3112292],[39.5674154,37.305642],[39.5694107,37.3008876],[39.5743689,37.3019922],[39.5811137,37.2963086],[39.5760749,37.2821717],[39.5715991,37.2811076],[39.5702808,37.2776656],[39.5632027,37.2758429],[39.5474159,37.2800951],[39.5462313,37.2732062],[39.5429335,37.2686833],[39.5357054,37.2701887],[39.5237909,37.2802668],[39.5090232,37.2837022],[39.4927763,37.2806022],[39.4852824,37.2762588],[39.4841791,37.2643227],[39.5004559,37.2513836],[39.4994278,37.2451252],[39.4879895,37.2380908],[39.4665436,37.2330789]]]}}]}