{"type":"FeatureCollection","attribution":"© OpenStreetMap katkıda bulunanlar (ODbL)","note":"Görsel keşif amaçlı, sadeleştirilmiş sınırlar. Resmî idari sınır verisi değildir.","provinceCode":"35","features":[{"type":"Feature","properties":{"code":"35-01","provinceCode":"35","name":"Aliağa","center":[27.0437,38.8019]},"geometry":{"type":"Polygon","coordinates":[[[26.8915,38.8206],[26.8985,38.8092],[26.9049,38.8067],[26.9164,38.7859],[26.9252,38.78],[26.9232,38.7756],[26.9264,38.7808],[26.9329,38.7807],[26.9283,38.7724],[26.9338,38.7719],[26.938,38.7679],[26.9351,38.7679],[26.9351,38.7676],[26.9304,38.7676],[26.9304,38.7673],[26.934,38.7672],[26.9355,38.7672],[26.9355,38.7665],[26.9356,38.7652],[26.9316,38.7652],[26.9315,38.7647],[26.9394,38.7653],[26.9343,38.7576],[26.9301,38.7563],[26.9295,38.7617],[26.9292,38.7617],[26.9295,38.7585],[26.9282,38.7586],[26.9277,38.7585],[26.9273,38.7621],[26.9269,38.7621],[26.9272,38.7568],[26.9237,38.7616],[26.9253,38.7575],[26.9247,38.7573],[26.9219,38.7591],[26.9222,38.7642],[26.9217,38.7591],[26.9195,38.7655],[26.9188,38.7619],[26.9141,38.7675],[26.9138,38.7674],[26.9161,38.7633],[26.9156,38.7632],[26.9133,38.7638],[26.9119,38.7665],[26.9073,38.7664],[26.9054,38.7637],[26.9072,38.7604],[26.904,38.7591],[26.9072,38.7537],[26.9041,38.7512],[26.8978,38.7515],[26.8966,38.749],[26.901,38.7454],[26.8959,38.7452],[26.8973,38.7428],[26.8964,38.7448],[26.9008,38.7446],[26.8997,38.74],[26.8972,38.7353],[26.8964,38.7346],[26.8955,38.7341],[26.8927,38.7331],[26.9101,38.7372],[26.9154,38.7357],[26.9061,38.7324],[26.9126,38.7312],[26.9127,38.727],[26.9236,38.7223],[26.9218,38.7162],[26.9426,38.7093],[26.9527,38.7013],[26.9528,38.6973],[26.9568,38.6983],[26.955,38.6906],[26.9495,38.6847],[26.953,38.6845],[26.9555,38.6822],[26.9542,38.6801],[26.9548,38.6798],[26.9602,38.6761],[26.963,38.668],[26.9633,38.6676],[26.9636,38.6638],[26.9717,38.6689],[26.976,38.6646],[26.9799,38.667],[26.98,38.6661],[26.9804,38.6652],[26.9805,38.6644],[26.9879,38.6639],[26.9913,38.6763],[26.9984,38.6879],[27.0031,38.6911],[27.0054,38.6884],[27.0109,38.6896],[27.0126,38.6928],[27.0206,38.6929],[27.0415,38.7012],[27.0382,38.7079],[27.0381,38.7101],[27.0394,38.7122],[27.041,38.7156],[27.0412,38.7187],[27.0399,38.7196],[27.046,38.725],[27.0462,38.7277],[27.0472,38.7283],[27.0519,38.7281],[27.0547,38.7296],[27.0653,38.7276],[27.0709,38.7254],[27.084,38.7259],[27.0942,38.7286],[27.108,38.7373],[27.1219,38.7381],[27.1359,38.7357],[27.1474,38.745],[27.1438,38.7501],[27.1455,38.7524],[27.1402,38.7593],[27.1395,38.7677],[27.1129,38.7954],[27.1127,38.8002],[27.1247,38.8014],[27.1246,38.8027],[27.1241,38.8031],[27.1251,38.8062],[27.1268,38.8073],[27.1326,38.8111],[27.1372,38.8107],[27.1391,38.8105],[27.1448,38.8087],[27.1459,38.8069],[27.1467,38.8061],[27.1481,38.8059],[27.152,38.8086],[27.1567,38.8103],[27.1632,38.8108],[27.1652,38.812],[27.1658,38.8147],[27.1659,38.8171],[27.169,38.8172],[27.1721,38.8181],[27.1757,38.817],[27.1779,38.819],[27.1846,38.8212],[27.1837,38.8228],[27.1784,38.8292],[27.1765,38.8381],[27.1728,38.8409],[27.1719,38.8456],[27.1611,38.8505],[27.1586,38.8549],[27.1646,38.8605],[27.1634,38.8645],[27.1631,38.8685],[27.1687,38.8744],[27.1741,38.8768],[27.1793,38.8754],[27.1818,38.8787],[27.1886,38.8803],[27.1882,38.8826],[27.1873,38.8859],[27.1776,38.8874],[27.1735,38.8922],[27.1659,38.8911],[27.1676,38.8957],[27.151,38.9042],[27.1435,38.9124],[27.1254,38.913],[27.1249,38.9111],[27.1166,38.9147],[27.1191,38.919],[27.1098,38.9238],[27.1079,38.9283],[27.104,38.932],[27.0943,38.9309],[27.0925,38.9325],[27.092,38.9326],[27.0898,38.9351],[27.0921,38.9374],[27.0892,38.9412],[27.098,38.9498],[27.0936,38.9501],[27.0834,38.9462],[27.0735,38.9383],[27.0613,38.9365],[27.0611,38.9376],[27.0609,38.9388],[27.0602,38.9392],[27.0541,38.9381],[27.0506,38.9353],[27.0537,38.9289],[27.0474,38.93],[27.0537,38.9246],[27.0571,38.9135],[27.0445,38.9097],[27.0421,38.8985],[27.037,38.8954],[27.038,38.8928],[27.0442,38.8909],[27.0494,38.8938],[27.0597,38.8885],[27.0658,38.8894],[27.06,38.8883],[27.066,38.8792],[27.065,38.8759],[27.0631,38.8786],[27.0605,38.8767],[27.0635,38.8715],[27.0591,38.866],[27.0549,38.8697],[27.051,38.8677],[27.0438,38.8684],[27.0383,38.8621],[27.0283,38.8635],[27.0266,38.8555],[27.0274,38.8633],[27.0196,38.8654],[27.0263,38.8702],[27.0269,38.8722],[27.0239,38.8723],[27.012,38.866],[27.0076,38.8669],[27.006,38.8594],[27.0025,38.8571],[26.9907,38.8563],[26.9874,38.8528],[26.9887,38.8489],[26.987,38.8471],[26.979,38.8488],[26.9738,38.8444],[26.9697,38.8463],[26.9695,38.8422],[26.9621,38.8303],[26.9641,38.8331],[26.9641,38.8307],[26.9772,38.8298],[26.9839,38.8252],[26.9761,38.807],[26.9553,38.8027],[26.9559,38.8043],[26.9505,38.8048],[26.9488,38.8096],[26.9422,38.8123],[26.9421,38.8165],[26.9452,38.8167],[26.9452,38.8169],[26.9433,38.8168],[26.9462,38.8305],[26.9445,38.836],[26.9366,38.8345],[26.934,38.8306],[26.9245,38.8279],[26.9169,38.8227],[26.9172,38.8192],[26.9148,38.8176],[26.8985,38.8216],[26.8959,38.8253],[26.8926,38.8242],[26.8915,38.8206]]]}},{"type":"Feature","properties":{"code":"35-02","provinceCode":"35","name":"Balçova","center":[27.0545,38.3863]},"geometry":{"type":"MultiPolygon","coordinates":[[[[27.0153,38.4133],[27.0174,38.413],[27.0242,38.4],[27.0232,38.3928],[27.0285,38.3928],[27.0344,38.3871],[27.0319,38.3826],[27.0376,38.3801],[27.0396,38.3699],[27.0476,38.3671],[27.0554,38.3664],[27.0559,38.3666],[27.0559,38.367],[27.0579,38.3686],[27.0593,38.3681],[27.0644,38.3664],[27.067,38.366],[27.0753,38.3558],[27.076,38.3482],[27.0698,38.3457],[27.0722,38.3429],[27.0821,38.3481],[27.0784,38.36],[27.0881,38.3622],[27.0952,38.3679],[27.0838,38.3771],[27.076,38.3793],[27.0733,38.3858],[27.0717,38.3828],[27.0666,38.3868],[27.0677,38.3881],[27.0674,38.3892],[27.0678,38.3901],[27.0677,38.3904],[27.0658,38.3899],[27.0638,38.3959],[27.0693,38.3975],[27.0689,38.4022],[27.0723,38.4034],[27.0699,38.4045],[27.0715,38.4057],[27.0715,38.4057],[27.0685,38.4057],[27.0593,38.4154],[27.0519,38.413],[27.0575,38.4124],[27.0584,38.4066],[27.0536,38.4057],[27.046,38.4091],[27.0458,38.4117],[27.0485,38.4129],[27.0355,38.4108],[27.0329,38.4127],[27.0345,38.4136],[27.022,38.414],[27.0176,38.4181],[27.0153,38.4133]]]]}},{"type":"Feature","properties":{"code":"35-03","provinceCode":"35","name":"Bayındır","center":[27.6409,38.2394]},"geometry":{"type":"Polygon","coordinates":[[[27.4302,38.1236],[27.4388,38.1321],[27.4511,38.1357],[27.4688,38.1368],[27.474,38.1325],[27.4778,38.1208],[27.4795,38.1209],[27.485,38.1241],[27.4907,38.1235],[27.4906,38.13],[27.5088,38.1311],[27.5091,38.1343],[27.5147,38.1337],[27.5236,38.14],[27.5339,38.1376],[27.5384,38.1394],[27.5473,38.1371],[27.557,38.1381],[27.5568,38.1431],[27.5606,38.149],[27.5658,38.1499],[27.5658,38.1491],[27.5653,38.149],[27.5653,38.1472],[27.576,38.146],[27.5855,38.1479],[27.5882,38.1512],[27.6033,38.1561],[27.6034,38.1564],[27.603,38.1583],[27.6074,38.1579],[27.6071,38.1548],[27.617,38.1569],[27.62,38.1505],[27.636,38.1487],[27.6451,38.1436],[27.6588,38.1436],[27.6608,38.1509],[27.6884,38.1486],[27.6905,38.1536],[27.6999,38.1588],[27.7121,38.1563],[27.7163,38.1502],[27.7171,38.1557],[27.7172,38.1556],[27.7211,38.1554],[27.722,38.1554],[27.722,38.1541],[27.722,38.1531],[27.7291,38.1529],[27.7346,38.1482],[27.7514,38.1494],[27.7562,38.1459],[27.7618,38.1683],[27.7622,38.1683],[27.7634,38.1682],[27.7642,38.1682],[27.7653,38.1783],[27.7699,38.1868],[27.7757,38.2095],[27.7764,38.2165],[27.7772,38.219],[27.7938,38.2386],[27.7995,38.2511],[27.8165,38.2513],[27.8186,38.2524],[27.8202,38.254],[27.8213,38.2543],[27.8226,38.2537],[27.8248,38.2537],[27.8257,38.2536],[27.8265,38.2508],[27.8286,38.2545],[27.8269,38.257],[27.827,38.2582],[27.8297,38.2596],[27.8281,38.2648],[27.8317,38.2669],[27.8324,38.2691],[27.8322,38.2719],[27.8335,38.2721],[27.8317,38.2774],[27.8234,38.2809],[27.8192,38.282],[27.8154,38.2814],[27.8129,38.28],[27.8097,38.2795],[27.8032,38.2917],[27.8021,38.2939],[27.802,38.2952],[27.8032,38.2997],[27.8132,38.3109],[27.8115,38.3128],[27.8073,38.3236],[27.8039,38.3297],[27.7994,38.3281],[27.7958,38.332],[27.7973,38.3344],[27.7946,38.3374],[27.7962,38.3388],[27.7909,38.3416],[27.788,38.3414],[27.7747,38.3376],[27.7613,38.3367],[27.755,38.3287],[27.7489,38.3306],[27.7501,38.3356],[27.7399,38.3454],[27.74,38.3529],[27.7396,38.3586],[27.7357,38.3627],[27.7293,38.3645],[27.7277,38.3647],[27.7237,38.3654],[27.7124,38.3639],[27.7092,38.3654],[27.7011,38.3554],[27.7025,38.354],[27.7007,38.3504],[27.6974,38.3479],[27.6946,38.3464],[27.6943,38.3458],[27.6944,38.3454],[27.6955,38.3435],[27.6954,38.3423],[27.6914,38.3358],[27.691,38.3286],[27.6903,38.3277],[27.6891,38.326],[27.6859,38.3237],[27.6719,38.3378],[27.6612,38.3376],[27.6541,38.3435],[27.6211,38.3255],[27.6201,38.3242],[27.618,38.3226],[27.617,38.3212],[27.6033,38.3212],[27.6038,38.3231],[27.5992,38.3238],[27.5976,38.3202],[27.5971,38.3201],[27.5937,38.3214],[27.5916,38.3238],[27.5919,38.3247],[27.591,38.3273],[27.5603,38.328],[27.5501,38.3325],[27.5492,38.3203],[27.5446,38.3107],[27.541,38.3098],[27.5392,38.3095],[27.5079,38.3178],[27.5002,38.3031],[27.501,38.3007],[27.5012,38.2998],[27.4958,38.2938],[27.4932,38.2889],[27.492,38.2875],[27.4914,38.2836],[27.5033,38.2719],[27.5056,38.2679],[27.5062,38.2655],[27.5072,38.2635],[27.51,38.2642],[27.5117,38.2654],[27.5127,38.2649],[27.5164,38.2631],[27.5157,38.261],[27.5164,38.2592],[27.5171,38.2545],[27.5228,38.2514],[27.5219,38.2409],[27.5197,38.2359],[27.4972,38.2146],[27.4867,38.2113],[27.4858,38.2146],[27.4838,38.2163],[27.481,38.2164],[27.4735,38.2091],[27.4678,38.2088],[27.4687,38.1988],[27.4653,38.1971],[27.4628,38.1873],[27.4597,38.1836],[27.4607,38.1816],[27.4607,38.1794],[27.4567,38.1743],[27.4584,38.1656],[27.4541,38.1559],[27.4531,38.1564],[27.4515,38.156],[27.4511,38.1565],[27.4519,38.1598],[27.4489,38.1599],[27.4477,38.1606],[27.4455,38.1574],[27.4453,38.157],[27.4454,38.1533],[27.4454,38.153],[27.4302,38.1236]]]}},{"type":"Feature","properties":{"code":"35-04","provinceCode":"35","name":"Bayraklı","center":[27.1592,38.4828]},"geometry":{"type":"Polygon","coordinates":[[[27.1116,38.4699],[27.1163,38.4675],[27.1246,38.4685],[27.1345,38.4651],[27.1505,38.4636],[27.1538,38.4669],[27.1553,38.4652],[27.1556,38.4675],[27.1589,38.4671],[27.1712,38.4471],[27.1793,38.4508],[27.1808,38.448],[27.2034,38.4566],[27.1986,38.4598],[27.2019,38.4611],[27.2023,38.4656],[27.1907,38.4733],[27.1883,38.4799],[27.1845,38.4813],[27.1844,38.4857],[27.1785,38.4879],[27.183,38.4905],[27.1841,38.4945],[27.175,38.5087],[27.1787,38.512],[27.1791,38.5131],[27.1862,38.5252],[27.1784,38.5255],[27.1659,38.5202],[27.1628,38.5151],[27.1554,38.5134],[27.1509,38.5056],[27.1428,38.4997],[27.1395,38.5049],[27.1193,38.4955],[27.1175,38.4863],[27.1163,38.4863],[27.1142,38.4866],[27.1154,38.4758],[27.1116,38.4699]]]}},{"type":"Feature","properties":{"code":"35-05","provinceCode":"35","name":"Bergama","center":[27.1922,39.1639]},"geometry":{"type":"Polygon","coordinates":[[[26.8873,39.2439],[26.8876,39.2435],[26.8896,39.2383],[26.8922,39.2371],[26.8958,39.2405],[26.9006,39.2376],[26.901,39.2381],[26.901,39.2394],[26.9018,39.24],[26.9034,39.2401],[26.9044,39.2388],[26.9051,39.2384],[26.9209,39.2422],[26.9257,39.2378],[26.9251,39.2406],[26.9261,39.2416],[26.9276,39.2425],[26.9283,39.2425],[26.9303,39.2423],[26.9323,39.242],[26.9499,39.2224],[26.9517,39.2221],[26.9529,39.2224],[26.9665,39.2127],[26.9676,39.2144],[26.9694,39.215],[26.9818,39.2134],[26.982,39.2128],[26.9829,39.2084],[26.9841,39.2104],[26.9911,39.2083],[26.9966,39.2124],[26.9988,39.2121],[27.011,39.1993],[27.0159,39.1972],[27.0235,39.198],[27.0284,39.1985],[27.0352,39.1957],[27.0508,39.1961],[27.0521,39.194],[27.0538,39.1927],[27.056,39.1887],[27.0564,39.187],[27.0548,39.1869],[27.0546,39.1852],[27.0728,39.1737],[27.0771,39.1659],[27.071,39.1631],[27.0698,39.1605],[27.0676,39.1602],[27.0674,39.1582],[27.0711,39.1503],[27.0712,39.1499],[27.0645,39.1475],[27.0636,39.1459],[27.0646,39.1387],[27.0514,39.1386],[27.0497,39.1318],[27.0476,39.1268],[27.0449,39.1276],[27.0412,39.1252],[27.0405,39.1212],[27.0364,39.1176],[27.0415,39.1142],[27.0395,39.113],[27.0368,39.1102],[27.0267,39.1088],[27.0137,39.0959],[27.0088,39.0934],[27.0056,39.0935],[27.0032,39.092],[27.005,39.0894],[27.0025,39.0904],[26.9963,39.0882],[26.9932,39.0894],[26.9895,39.0899],[26.9856,39.0918],[26.9721,39.0847],[26.9757,39.0725],[26.9748,39.0701],[26.975,39.0697],[26.9745,39.0677],[26.9813,39.0548],[26.9802,39.0497],[26.987,39.0317],[26.9854,39.0305],[26.9874,39.0239],[26.9795,39.0152],[26.9804,39.0087],[26.9781,39.005],[26.9811,39.0008],[26.9864,39.0008],[26.9975,38.9922],[27.0027,38.9814],[27.0096,38.9775],[27.0085,38.9732],[27.013,38.9646],[27.0112,38.9564],[27.0059,38.9476],[27.0091,38.9455],[27.0098,38.9405],[27.0038,38.9386],[27.0018,38.9415],[26.9967,38.942],[26.9959,38.9362],[26.9994,38.9272],[26.9948,38.9235],[26.9889,38.9244],[26.9827,38.9208],[26.9947,38.9154],[26.9951,38.9086],[26.9977,38.9068],[27.0014,38.9067],[27.0014,38.9069],[26.9978,38.907],[26.9953,38.9087],[26.9952,38.916],[26.9996,38.9136],[27.0191,38.9134],[27.0168,38.918],[27.008,38.9158],[27.0029,38.9176],[27.0065,38.917],[27.0083,38.9194],[27.0122,38.9176],[27.0095,38.9217],[27.0123,38.9198],[27.0138,38.9212],[27.0117,38.9227],[27.0163,38.9238],[27.0081,38.9229],[27.0164,38.9251],[27.0197,38.9293],[27.0273,38.9298],[27.0319,38.937],[27.0355,38.9375],[27.0355,38.9408],[27.0408,38.9394],[27.0435,38.9412],[27.0506,38.9353],[27.0602,38.9392],[27.0609,38.9388],[27.0611,38.9376],[27.0613,38.9365],[27.0681,38.9367],[27.0763,38.9396],[27.0859,38.9474],[27.0979,38.9502],[27.0892,38.9412],[27.0921,38.9374],[27.0898,38.9351],[27.092,38.9326],[27.0925,38.9325],[27.0943,38.9309],[27.104,38.932],[27.1079,38.9283],[27.1098,38.9238],[27.1191,38.919],[27.1166,38.9147],[27.1249,38.9111],[27.1254,38.913],[27.1435,38.9124],[27.151,38.9042],[27.1676,38.8957],[27.1659,38.8911],[27.1735,38.8922],[27.1776,38.8874],[27.1873,38.8859],[27.1882,38.8805],[27.1964,38.8695],[27.2056,38.8676],[27.2215,38.8515],[27.2279,38.8541],[27.2254,38.8621],[27.2353,38.8686],[27.2286,38.877],[27.2292,38.8787],[27.23,38.8802],[27.2323,38.8829],[27.2317,38.8849],[27.2308,38.8858],[27.2325,38.8894],[27.234,38.8953],[27.2304,38.9032],[27.2341,38.9057],[27.2355,38.9067],[27.2444,38.9049],[27.2487,38.9067],[27.2526,38.9041],[27.2544,38.9074],[27.2584,38.9043],[27.2628,38.9058],[27.2664,38.9035],[27.2734,38.9221],[27.2869,38.9206],[27.297,38.9273],[27.2991,38.9275],[27.3013,38.9281],[27.3055,38.9285],[27.3139,38.9266],[27.3138,38.9254],[27.3146,38.9245],[27.3157,38.9241],[27.3137,38.9218],[27.319,38.9144],[27.3177,38.9108],[27.3211,38.9148],[27.3338,38.9171],[27.3378,38.941],[27.3463,38.9447],[27.346,38.9457],[27.3453,38.9468],[27.3453,38.9492],[27.3409,38.9526],[27.3188,38.9443],[27.3118,38.9523],[27.3083,38.9648],[27.3065,38.9629],[27.2941,38.963],[27.2911,38.9589],[27.2849,38.9639],[27.2825,38.9844],[27.2735,38.9853],[27.2718,38.9897],[27.2679,38.9925],[27.2539,38.9952],[27.2451,38.9931],[27.244,38.9919],[27.243,38.9901],[27.2424,38.989],[27.2351,38.9886],[27.2214,39.0086],[27.2246,39.0137],[27.2216,39.0178],[27.227,39.0227],[27.2309,39.0358],[27.2242,39.0414],[27.224,39.0418],[27.2237,39.0423],[27.233,39.0454],[27.2355,39.0519],[27.2465,39.0532],[27.2465,39.0638],[27.2498,39.0749],[27.2472,39.084],[27.2553,39.0971],[27.2483,39.1039],[27.2585,39.1082],[27.2613,39.1153],[27.2604,39.1158],[27.2576,39.1169],[27.252,39.1294],[27.2735,39.1421],[27.2831,39.1356],[27.2937,39.1401],[27.2898,39.1322],[27.2859,39.1243],[27.287,39.1249],[27.2958,39.1228],[27.3043,39.1168],[27.3072,39.117],[27.3126,39.1188],[27.3149,39.1278],[27.3169,39.1281],[27.3182,39.1283],[27.32,39.1288],[27.3204,39.1344],[27.3277,39.1359],[27.3274,39.1366],[27.3295,39.1369],[27.3286,39.1408],[27.3329,39.1414],[27.3319,39.1438],[27.3311,39.1458],[27.3205,39.1464],[27.3189,39.1506],[27.3286,39.1492],[27.3412,39.1548],[27.3465,39.1505],[27.3577,39.1529],[27.366,39.1488],[27.3689,39.1544],[27.3739,39.1523],[27.3755,39.1551],[27.3797,39.1557],[27.387,39.1522],[27.3945,39.1545],[27.3941,39.1571],[27.3907,39.1582],[27.3932,39.1611],[27.4065,39.16],[27.4135,39.1623],[27.4154,39.1594],[27.4381,39.1666],[27.4432,39.1653],[27.4454,39.1693],[27.4521,39.1699],[27.4553,39.1735],[27.4538,39.1766],[27.4498,39.1772],[27.4485,39.1856],[27.4632,39.1871],[27.4656,39.1911],[27.4637,39.1921],[27.4796,39.1999],[27.4696,39.224],[27.4718,39.2281],[27.4709,39.2335],[27.4756,39.2368],[27.4732,39.2426],[27.4761,39.2445],[27.4781,39.255],[27.4763,39.2582],[27.4804,39.2681],[27.4769,39.2732],[27.4707,39.2748],[27.4664,39.2826],[27.467,39.2831],[27.4677,39.2837],[27.4679,39.2841],[27.4619,39.2909],[27.4682,39.2975],[27.4647,39.3056],[27.4586,39.306],[27.4529,39.3098],[27.4417,39.31],[27.4396,39.3114],[27.439,39.3184],[27.4228,39.3206],[27.413,39.3283],[27.4079,39.3288],[27.4096,39.3366],[27.4076,39.337],[27.4081,39.3376],[27.4088,39.3382],[27.4091,39.339],[27.4042,39.3534],[27.4063,39.3552],[27.4001,39.3584],[27.404,39.3635],[27.4019,39.3706],[27.3893,39.3727],[27.3861,39.3746],[27.3778,39.3843],[27.3765,39.3855],[27.3622,39.3842],[27.3553,39.3797],[27.3552,39.377],[27.3535,39.3753],[27.3373,39.3804],[27.3369,39.3801],[27.3368,39.3797],[27.3355,39.3789],[27.3288,39.3831],[27.3142,39.3748],[27.3017,39.3781],[27.2937,39.3765],[27.2834,39.3716],[27.2739,39.3561],[27.2664,39.3529],[27.2563,39.353],[27.2382,39.3513],[27.2336,39.3444],[27.2305,39.3431],[27.2291,39.3439],[27.2263,39.3404],[27.2248,39.3399],[27.2247,39.3421],[27.2233,39.3444],[27.2222,39.3448],[27.2188,39.344],[27.2179,39.3451],[27.2194,39.3466],[27.2196,39.35],[27.2206,39.3573],[27.2177,39.368],[27.21,39.3685],[27.1783,39.3794],[27.1747,39.3798],[27.1427,39.3659],[27.1309,39.3668],[27.1209,39.364],[27.1124,39.3669],[27.1116,39.3661],[27.1058,39.3652],[27.0788,39.3508],[27.0788,39.3322],[27.0665,39.3243],[27.0614,39.3224],[27.0517,39.3188],[27.0486,39.3202],[27.0468,39.3206],[27.0448,39.3194],[27.0416,39.3158],[27.0293,39.3156],[27.0109,39.3086],[27.013,39.2991],[27.0147,39.2984],[27.015,39.2973],[27.0171,39.296],[27.0165,39.2924],[27,39.2839],[26.9987,39.2777],[26.994,39.2821],[26.9892,39.283],[26.9891,39.2873],[26.9703,39.293],[26.9573,39.2935],[26.9408,39.2898],[26.9315,39.2916],[26.9318,39.2894],[26.9257,39.2849],[26.9089,39.2781],[26.9108,39.2735],[26.9059,39.2728],[26.9059,39.2636],[26.8993,39.2643],[26.8978,39.2668],[26.8957,39.2642],[26.8991,39.2602],[26.8987,39.2595],[26.898,39.2585],[26.8978,39.2585],[26.8929,39.2601],[26.888,39.2528],[26.8873,39.2439]]]}},{"type":"Feature","properties":{"code":"35-06","provinceCode":"35","name":"Beydağ","center":[28.2302,38.0929]},"geometry":{"type":"Polygon","coordinates":[[[28.1199,38.0792],[28.1219,38.0775],[28.1218,38.0749],[28.1315,38.0667],[28.1461,38.062],[28.148,38.0629],[28.1489,38.0639],[28.1509,38.0644],[28.1495,38.0578],[28.155,38.056],[28.1529,38.0469],[28.1582,38.0493],[28.1706,38.0437],[28.1777,38.0457],[28.1822,38.0393],[28.1894,38.0371],[28.1999,38.0391],[28.1965,38.0444],[28.1998,38.0445],[28.2003,38.0425],[28.204,38.0393],[28.2048,38.0398],[28.2094,38.0439],[28.2115,38.0445],[28.235,38.0354],[28.2488,38.0369],[28.2564,38.0356],[28.256,38.0341],[28.2793,38.0332],[28.2854,38.0396],[28.2929,38.0548],[28.3098,38.0548],[28.3012,38.078],[28.3092,38.0922],[28.323,38.0959],[28.3318,38.101],[28.3295,38.1095],[28.3308,38.1212],[28.2977,38.1409],[28.2895,38.143],[28.2737,38.1541],[28.26,38.1528],[28.25,38.1551],[28.2503,38.1563],[28.2499,38.1567],[28.2496,38.1569],[28.2412,38.1554],[28.2395,38.1531],[28.2248,38.1532],[28.224,38.1498],[28.225,38.1491],[28.226,38.1489],[28.2268,38.1483],[28.2277,38.1436],[28.2217,38.1414],[28.2008,38.1523],[28.1996,38.1522],[28.1963,38.1522],[28.194,38.1513],[28.1929,38.1513],[28.1928,38.1511],[28.1949,38.1446],[28.1959,38.1408],[28.1965,38.1369],[28.1926,38.1275],[28.1896,38.1285],[28.1871,38.1264],[28.1828,38.124],[28.1709,38.121],[28.1612,38.1276],[28.1593,38.1219],[28.1518,38.1176],[28.1357,38.117],[28.1372,38.1099],[28.1336,38.0974],[28.1253,38.0916],[28.1245,38.0887],[28.1217,38.0831],[28.1199,38.0792]]]}},{"type":"Feature","properties":{"code":"35-07","provinceCode":"35","name":"Bornova","center":[27.2606,38.4747]},"geometry":{"type":"Polygon","coordinates":[[[27.175,38.5087],[27.1841,38.4945],[27.183,38.4905],[27.1785,38.4879],[27.1844,38.4857],[27.1845,38.4813],[27.1883,38.4799],[27.1907,38.4733],[27.2023,38.4656],[27.2019,38.4611],[27.1986,38.4598],[27.2034,38.4566],[27.1808,38.448],[27.1787,38.4205],[27.1868,38.4171],[27.186,38.4085],[27.1896,38.4081],[27.1867,38.4064],[27.1881,38.4053],[27.1884,38.4052],[27.1941,38.4071],[27.1924,38.4076],[27.1905,38.4081],[27.1987,38.4091],[27.2106,38.4066],[27.211,38.4054],[27.2116,38.4049],[27.2125,38.4028],[27.2104,38.398],[27.2171,38.3896],[27.2147,38.3854],[27.2208,38.3825],[27.2257,38.3832],[27.23,38.3714],[27.2376,38.364],[27.2409,38.3646],[27.2403,38.3649],[27.2397,38.3655],[27.2395,38.3662],[27.2418,38.3677],[27.2474,38.3679],[27.2458,38.3702],[27.259,38.3789],[27.2574,38.3804],[27.2646,38.4011],[27.2972,38.4078],[27.3018,38.4169],[27.3144,38.4145],[27.3232,38.4065],[27.3232,38.4034],[27.328,38.3983],[27.337,38.3933],[27.3395,38.4141],[27.3455,38.4232],[27.3424,38.4309],[27.3343,38.4392],[27.3365,38.4443],[27.3397,38.4512],[27.3331,38.4523],[27.3207,38.4614],[27.3218,38.4664],[27.3229,38.481],[27.3318,38.4895],[27.3334,38.494],[27.344,38.4961],[27.348,38.5007],[27.3527,38.5155],[27.3501,38.5235],[27.354,38.5349],[27.3471,38.5349],[27.334,38.5425],[27.3054,38.5429],[27.3048,38.5433],[27.3042,38.5438],[27.3019,38.5451],[27.3022,38.5466],[27.3026,38.5478],[27.2922,38.5503],[27.2903,38.5581],[27.2861,38.5515],[27.2831,38.5564],[27.2817,38.5566],[27.2781,38.5541],[27.2756,38.5536],[27.2749,38.5543],[27.2732,38.5559],[27.2608,38.5673],[27.2498,38.573],[27.2363,38.5716],[27.2244,38.5724],[27.2243,38.5721],[27.2361,38.5625],[27.2296,38.5514],[27.2218,38.5498],[27.2198,38.5504],[27.2155,38.544],[27.2028,38.5411],[27.199,38.538],[27.1943,38.5357],[27.191,38.5356],[27.1886,38.5362],[27.1864,38.534],[27.1862,38.5252],[27.1791,38.5131],[27.1787,38.512],[27.175,38.5087]]]}},{"type":"Feature","properties":{"code":"35-08","provinceCode":"35","name":"Buca","center":[27.2587,38.3457]},"geometry":{"type":"Polygon","coordinates":[[[27.1358,38.3717],[27.1407,38.3622],[27.1381,38.359],[27.1367,38.3462],[27.1743,38.3476],[27.1826,38.3356],[27.179,38.3306],[27.1823,38.3161],[27.1948,38.3132],[27.1952,38.3171],[27.2021,38.3179],[27.2016,38.3146],[27.2015,38.3143],[27.202,38.3141],[27.2044,38.3122],[27.21,38.3133],[27.2119,38.3051],[27.2274,38.3048],[27.2207,38.2968],[27.2185,38.288],[27.2084,38.2817],[27.2289,38.272],[27.2406,38.2714],[27.2545,38.2759],[27.2545,38.2756],[27.256,38.2751],[27.2549,38.2737],[27.2647,38.2745],[27.2743,38.2823],[27.2774,38.2809],[27.2787,38.2837],[27.2822,38.2829],[27.2829,38.285],[27.2883,38.2858],[27.2892,38.2885],[27.2914,38.2871],[27.2949,38.2902],[27.2996,38.2896],[27.3083,38.2929],[27.3211,38.2873],[27.3202,38.2848],[27.3246,38.2877],[27.3413,38.2833],[27.3538,38.2861],[27.3559,38.288],[27.3531,38.2896],[27.3538,38.2902],[27.3554,38.2918],[27.3556,38.2926],[27.3579,38.2918],[27.3573,38.2939],[27.3621,38.2936],[27.3682,38.2972],[27.3659,38.2991],[27.3584,38.2986],[27.3641,38.3108],[27.3554,38.3206],[27.3528,38.32],[27.3515,38.3197],[27.3496,38.3191],[27.3487,38.3197],[27.3469,38.324],[27.3469,38.3242],[27.3485,38.332],[27.3538,38.3357],[27.3475,38.3403],[27.3491,38.345],[27.3697,38.3621],[27.363,38.3698],[27.352,38.373],[27.3404,38.3724],[27.3408,38.3739],[27.3467,38.3768],[27.335,38.3914],[27.337,38.3933],[27.328,38.3983],[27.3232,38.4034],[27.3232,38.4065],[27.3134,38.4151],[27.3018,38.4169],[27.2972,38.4078],[27.2646,38.4011],[27.2574,38.3804],[27.259,38.3789],[27.2458,38.3702],[27.2474,38.3679],[27.2395,38.3662],[27.2402,38.3641],[27.2397,38.3642],[27.2382,38.3637],[27.2376,38.364],[27.23,38.3714],[27.2257,38.3832],[27.2208,38.3825],[27.2147,38.3854],[27.2171,38.3896],[27.2104,38.398],[27.2125,38.4028],[27.2116,38.4049],[27.211,38.4054],[27.2106,38.4066],[27.1987,38.4091],[27.1905,38.4081],[27.1924,38.4076],[27.1941,38.4071],[27.1889,38.405],[27.1775,38.4085],[27.1538,38.4031],[27.1454,38.406],[27.1376,38.3933],[27.1427,38.3835],[27.1418,38.3805],[27.1379,38.3805],[27.1358,38.3717]]]}},{"type":"Feature","properties":{"code":"35-09","provinceCode":"35","name":"Çeşme","center":[26.4058,38.3015]},"geometry":{"type":"MultiPolygon","coordinates":[[[[26.2077,38.2966],[26.2106,38.2907],[26.2099,38.2975],[26.2077,38.2966]]],[[[26.2303,38.2737],[26.2324,38.2669],[26.2395,38.2636],[26.2442,38.2645],[26.2489,38.2689],[26.2514,38.2676],[26.2604,38.2699],[26.2899,38.2633],[26.2923,38.2597],[26.3025,38.2557],[26.3017,38.249],[26.3063,38.2465],[26.3071,38.2407],[26.3236,38.2309],[26.329,38.2312],[26.3354,38.2259],[26.3433,38.2293],[26.3545,38.2274],[26.3553,38.2297],[26.3588,38.2279],[26.3609,38.2296],[26.3666,38.2276],[26.3675,38.2332],[26.3741,38.2373],[26.3738,38.2404],[26.377,38.2408],[26.3794,38.2454],[26.3862,38.2461],[26.3846,38.2512],[26.3866,38.2535],[26.3839,38.253],[26.3824,38.2553],[26.3854,38.2553],[26.3805,38.2573],[26.3822,38.2581],[26.3793,38.2612],[26.3911,38.2611],[26.3999,38.2529],[26.4022,38.2443],[26.3999,38.241],[26.3946,38.2409],[26.3896,38.2366],[26.3922,38.2297],[26.3916,38.2277],[26.3895,38.2255],[26.3893,38.224],[26.4098,38.2137],[26.4112,38.2091],[26.4149,38.2104],[26.4179,38.206],[26.4308,38.1984],[26.4293,38.2071],[26.4195,38.2215],[26.4282,38.2224],[26.4404,38.2193],[26.444,38.217],[26.4431,38.2161],[26.4413,38.2149],[26.4414,38.2145],[26.4541,38.2187],[26.4595,38.2228],[26.4651,38.2228],[26.4627,38.2248],[26.4599,38.227],[26.4577,38.2355],[26.4595,38.2399],[26.4582,38.2395],[26.4551,38.2389],[26.4561,38.2456],[26.4582,38.2467],[26.4608,38.2481],[26.4627,38.2492],[26.4763,38.2494],[26.502,38.2629],[26.5109,38.2634],[26.5181,38.2679],[26.5214,38.268],[26.523,38.2677],[26.5262,38.2694],[26.5239,38.2796],[26.5169,38.2813],[26.5071,38.2907],[26.4985,38.2942],[26.4994,38.2995],[26.4974,38.303],[26.5108,38.3071],[26.5128,38.309],[26.5172,38.3104],[26.5125,38.3148],[26.5105,38.3249],[26.5003,38.3263],[26.4936,38.3332],[26.493,38.3379],[26.4994,38.3449],[26.5131,38.3509],[26.5145,38.3761],[26.5217,38.381],[26.5287,38.4055],[26.5344,38.414],[26.5424,38.4123],[26.5453,38.4152],[26.5512,38.4147],[26.5416,38.4305],[26.5421,38.4357],[26.5153,38.4314],[26.5154,38.427],[26.5099,38.4238],[26.5116,38.4206],[26.5114,38.4201],[26.5107,38.4192],[26.5099,38.4181],[26.5062,38.4142],[26.5013,38.4153],[26.5032,38.4065],[26.4968,38.4014],[26.4913,38.4007],[26.4848,38.4047],[26.4835,38.4137],[26.4695,38.4272],[26.4631,38.424],[26.451,38.4279],[26.4501,38.4246],[26.4528,38.4202],[26.4618,38.4183],[26.4597,38.4093],[26.467,38.4129],[26.4759,38.4018],[26.4727,38.3947],[26.4749,38.3904],[26.4731,38.387],[26.4757,38.381],[26.4832,38.376],[26.4724,38.3727],[26.468,38.3649],[26.4628,38.3636],[26.4618,38.3588],[26.4514,38.3528],[26.4508,38.348],[26.4445,38.3485],[26.4393,38.344],[26.4351,38.3461],[26.4304,38.341],[26.424,38.3411],[26.4241,38.3381],[26.4198,38.339],[26.4189,38.336],[26.4252,38.3362],[26.4229,38.3324],[26.4092,38.3319],[26.4087,38.328],[26.4064,38.3289],[26.4015,38.3259],[26.4028,38.3234],[26.3959,38.3233],[26.3962,38.3204],[26.3936,38.325],[26.4019,38.3325],[26.402,38.3329],[26.4017,38.3334],[26.4016,38.3348],[26.3946,38.3428],[26.3868,38.3373],[26.3885,38.3449],[26.3852,38.3493],[26.3825,38.3383],[26.3855,38.3315],[26.3886,38.332],[26.388,38.33],[26.3868,38.3294],[26.3857,38.3281],[26.3857,38.3222],[26.3832,38.3209],[26.3853,38.3176],[26.3819,38.311],[26.3783,38.3098],[26.3768,38.3093],[26.3753,38.3089],[26.3631,38.3077],[26.3579,38.3112],[26.3612,38.3133],[26.3523,38.3145],[26.3439,38.3199],[26.3457,38.3228],[26.3437,38.324],[26.3459,38.3239],[26.3446,38.3337],[26.3382,38.3246],[26.3263,38.3259],[26.3185,38.3303],[26.3165,38.3366],[26.3121,38.3394],[26.3174,38.3409],[26.3166,38.3475],[26.3231,38.3463],[26.3215,38.3508],[26.3244,38.353],[26.3229,38.357],[26.3187,38.3582],[26.3114,38.3528],[26.3173,38.3574],[26.316,38.3601],[26.3188,38.3617],[26.314,38.3645],[26.317,38.3745],[26.3153,38.3766],[26.3096,38.3751],[26.3095,38.3684],[26.302,38.3637],[26.3048,38.3577],[26.3014,38.3552],[26.2968,38.3571],[26.2958,38.3613],[26.2873,38.3692],[26.2849,38.3764],[26.2828,38.3738],[26.2838,38.3486],[26.2956,38.3283],[26.3024,38.3235],[26.2991,38.322],[26.298,38.3245],[26.2942,38.3251],[26.2941,38.325],[26.2963,38.3232],[26.2925,38.324],[26.2924,38.3239],[26.2942,38.3226],[26.2875,38.3171],[26.2836,38.3245],[26.2813,38.3229],[26.2795,38.3151],[26.2829,38.301],[26.28,38.2954],[26.2726,38.2904],[26.2492,38.2852],[26.2432,38.2893],[26.2449,38.292],[26.243,38.2941],[26.234,38.2938],[26.2334,38.2778],[26.2303,38.2737]]],[[[26.4461,38.3645],[26.4529,38.3598],[26.458,38.3617],[26.4536,38.3685],[26.4461,38.3645]]],[[[26.4477,38.3888],[26.45,38.3863],[26.4494,38.3898],[26.4477,38.3888]]],[[[26.4615,38.3749],[26.4664,38.3756],[26.4661,38.3822],[26.4615,38.3749]]],[[[26.462,38.3961],[26.4659,38.3874],[26.468,38.3914],[26.4651,38.4024],[26.4625,38.4014],[26.462,38.3961]]]]}},{"type":"Feature","properties":{"code":"35-10","provinceCode":"35","name":"Çiğli","center":[27.0015,38.4988]},"geometry":{"type":"Polygon","coordinates":[[[26.8838,38.504],[26.9044,38.4893],[26.9029,38.488],[26.903,38.4879],[26.9044,38.4893],[26.9036,38.4872],[26.9055,38.4886],[26.9113,38.4838],[26.9137,38.4774],[26.9227,38.4677],[26.924,38.4549],[26.9309,38.4549],[26.9391,38.4508],[26.9375,38.4496],[26.9383,38.4485],[26.9397,38.4497],[26.9404,38.4486],[26.9387,38.4475],[26.9395,38.4459],[26.9406,38.446],[26.9412,38.4468],[26.9431,38.4471],[26.9432,38.4465],[26.9415,38.4453],[26.9421,38.4446],[26.9452,38.4468],[26.9516,38.4443],[26.9516,38.4377],[26.9439,38.4279],[26.9529,38.4376],[26.9558,38.445],[26.961,38.4456],[26.9629,38.4431],[26.9633,38.4472],[26.9678,38.4499],[26.9669,38.4488],[26.9658,38.4481],[26.9701,38.4432],[26.972,38.4356],[26.9754,38.4399],[26.9725,38.4424],[26.9747,38.4471],[26.9706,38.4535],[26.9745,38.4514],[26.9749,38.4525],[26.974,38.4537],[26.9734,38.4545],[26.9755,38.4555],[26.9785,38.4496],[26.9807,38.4489],[26.9804,38.4535],[26.9843,38.4484],[26.9837,38.4523],[26.9866,38.4536],[26.9838,38.4551],[26.984,38.4557],[26.9849,38.4562],[26.9849,38.4569],[26.9887,38.4548],[26.9892,38.4583],[26.9909,38.454],[26.9877,38.4537],[26.989,38.4506],[26.9947,38.4536],[26.9952,38.4581],[26.9994,38.4574],[27.009,38.4613],[27.0102,38.4589],[27.0117,38.4608],[27.0095,38.4647],[27.0104,38.4682],[27.0118,38.4693],[27.0154,38.4692],[27.0159,38.4686],[27.0187,38.4696],[27.0242,38.4717],[27.0322,38.4657],[27.0309,38.4677],[27.0335,38.4695],[27.0335,38.467],[27.0365,38.468],[27.0375,38.4639],[27.0394,38.4662],[27.039,38.4592],[27.0405,38.4656],[27.0501,38.4685],[27.0509,38.4693],[27.0506,38.4699],[27.0484,38.4713],[27.0536,38.4729],[27.0588,38.4732],[27.0585,38.4724],[27.0577,38.4721],[27.0594,38.4711],[27.0579,38.4701],[27.0574,38.4691],[27.0564,38.469],[27.0594,38.4688],[27.0612,38.4709],[27.0595,38.4741],[27.0625,38.4717],[27.0653,38.4726],[27.0677,38.4646],[27.0654,38.4729],[27.0626,38.4745],[27.0805,38.482],[27.0814,38.4839],[27.0823,38.4849],[27.0835,38.4862],[27.082,38.4869],[27.0882,38.4894],[27.0872,38.4909],[27.087,38.4913],[27.0928,38.497],[27.0909,38.5052],[27.1189,38.5276],[27.1148,38.5367],[27.1127,38.5364],[27.1106,38.5376],[27.1109,38.5413],[27.104,38.5396],[27.1034,38.5407],[27.1008,38.5405],[27.0995,38.5417],[27.1005,38.5454],[27.085,38.5557],[27.069,38.5553],[27.0471,38.5426],[27.0385,38.5288],[27.0405,38.5277],[27.0399,38.5222],[27.0383,38.5222],[27.0359,38.5221],[27.031,38.5268],[27.0234,38.5214],[27.0147,38.5303],[27.0091,38.5298],[27.0086,38.5354],[27.0073,38.5354],[27.0078,38.5297],[27.0049,38.5295],[27.003,38.5202],[27.0015,38.5204],[26.9995,38.5208],[27.0009,38.523],[26.9968,38.5235],[26.9932,38.5294],[26.9804,38.5142],[26.9707,38.5179],[26.9675,38.5139],[26.9582,38.516],[26.9583,38.5209],[26.9478,38.5224],[26.9447,38.5265],[26.9451,38.5247],[26.9449,38.5235],[26.9446,38.5235],[26.9445,38.525],[26.9444,38.5261],[26.9413,38.5267],[26.939,38.5266],[26.939,38.5261],[26.939,38.5256],[26.9388,38.5245],[26.9276,38.5194],[26.9253,38.5192],[26.9236,38.5191],[26.9214,38.5188],[26.9012,38.5318],[26.9,38.5325],[26.8992,38.5325],[26.8909,38.523],[26.8897,38.5161],[26.8884,38.509],[26.8838,38.504]]]}},{"type":"Feature","properties":{"code":"35-11","provinceCode":"35","name":"Dikili","center":[26.917,39.087]},"geometry":{"type":"MultiPolygon","coordinates":[[[[26.7686,39.1667],[26.813,39.1567],[26.8361,39.1415],[26.8501,39.1284],[26.8538,39.1197],[26.8746,39.101],[26.8877,39.0754],[26.8872,39.0709],[26.8848,39.0717],[26.8866,39.068],[26.8813,39.0643],[26.8738,39.0627],[26.8701,39.0645],[26.8589,39.0567],[26.8511,39.0574],[26.8382,39.0449],[26.8305,39.0436],[26.8292,39.0405],[26.8201,39.0369],[26.8167,39.0373],[26.813,39.0415],[26.812,39.037],[26.8052,39.0378],[26.7991,39.0318],[26.7996,39.0283],[26.7954,39.0235],[26.7994,39.0219],[26.7993,39.0156],[26.8115,39.0198],[26.813,39.0254],[26.8165,39.0254],[26.8122,39.0152],[26.8099,39.0143],[26.8085,39.0165],[26.8015,39.0082],[26.7997,39.0026],[26.801,38.9988],[26.7972,38.996],[26.797,38.991],[26.7993,38.9896],[26.7962,38.9824],[26.8004,38.9745],[26.8005,38.9684],[26.8004,38.965],[26.7964,38.9625],[26.8021,38.9509],[26.8077,38.9538],[26.8123,38.952],[26.8162,38.9415],[26.8214,38.9365],[26.8303,38.9333],[26.8448,38.9351],[26.8467,38.9348],[26.8494,38.9339],[26.8505,38.9332],[26.8572,38.9222],[26.8525,38.9165],[26.859,38.9143],[26.8711,38.9187],[26.8778,38.916],[26.8805,38.9223],[26.8894,38.9243],[26.8941,38.9303],[26.9101,38.9346],[26.9191,38.9398],[26.9297,38.9366],[26.9335,38.9292],[26.9302,38.9301],[26.9369,38.9263],[26.9394,38.9261],[26.9393,38.929],[26.9355,38.9365],[26.9466,38.9392],[26.9506,38.9344],[26.9545,38.9385],[26.9614,38.9363],[26.9827,38.9208],[26.9985,38.9262],[26.9997,38.9283],[26.9956,38.9407],[27.0017,38.9415],[27.0039,38.9386],[27.0098,38.9405],[27.0091,38.9455],[27.0059,38.9476],[27.0112,38.9564],[27.013,38.9646],[27.0085,38.9732],[27.0096,38.9775],[27.0027,38.9814],[26.9975,38.9922],[26.9864,39.0008],[26.9811,39.0008],[26.9781,39.005],[26.9804,39.0087],[26.9795,39.0152],[26.9874,39.0239],[26.9854,39.0305],[26.987,39.0317],[26.9802,39.0497],[26.9813,39.0548],[26.9745,39.0677],[26.975,39.0697],[26.9748,39.0701],[26.9757,39.0725],[26.9721,39.0847],[26.9856,39.0918],[26.9895,39.0899],[26.9932,39.0894],[26.9963,39.0882],[27.0025,39.0904],[27.005,39.0894],[27.0032,39.092],[27.0056,39.0935],[27.0088,39.0934],[27.0137,39.0959],[27.0267,39.1088],[27.0368,39.1102],[27.0395,39.113],[27.0415,39.1142],[27.0364,39.1176],[27.0405,39.1212],[27.0412,39.1252],[27.0449,39.1276],[27.0476,39.1268],[27.0497,39.1318],[27.0514,39.1386],[27.0646,39.1387],[27.0636,39.1459],[27.0645,39.1475],[27.0712,39.1499],[27.0711,39.1503],[27.0674,39.1582],[27.0676,39.1602],[27.0698,39.1605],[27.071,39.1631],[27.0771,39.1659],[27.0728,39.1737],[27.0546,39.1852],[27.0548,39.1869],[27.0564,39.187],[27.056,39.1887],[27.0538,39.1927],[27.0521,39.194],[27.0508,39.1961],[27.0352,39.1957],[27.0284,39.1985],[27.0235,39.198],[27.0159,39.1972],[27.011,39.1993],[26.9988,39.2121],[26.9966,39.2124],[26.9911,39.2083],[26.9841,39.2104],[26.9829,39.2084],[26.982,39.2128],[26.9818,39.2134],[26.9694,39.215],[26.9676,39.2144],[26.9665,39.2127],[26.9529,39.2224],[26.9517,39.2221],[26.9499,39.2224],[26.9323,39.242],[26.9303,39.2423],[26.9283,39.2425],[26.9276,39.2425],[26.9261,39.2416],[26.9251,39.2406],[26.9257,39.2378],[26.9209,39.2422],[26.9051,39.2384],[26.9044,39.2388],[26.9034,39.2401],[26.9018,39.24],[26.901,39.2394],[26.901,39.2381],[26.9006,39.2376],[26.8958,39.2405],[26.8922,39.2371],[26.8896,39.2383],[26.8876,39.2435],[26.8848,39.2438],[26.8849,39.243],[26.882,39.2415],[26.8786,39.2361],[26.874,39.2354],[26.8701,39.234],[26.8629,39.2361],[26.8571,39.2371],[26.8481,39.2371],[26.8433,39.2371],[26.8388,39.237],[26.8377,39.2365],[26.837,39.2333],[26.8307,39.234],[26.8305,39.2332],[26.8324,39.2317],[26.8317,39.2307],[26.8267,39.2303],[26.8272,39.2274],[26.824,39.2235],[26.824,39.22],[26.8177,39.2181],[26.8155,39.2119],[26.7927,39.1977],[26.7906,39.1895],[26.7849,39.1865],[26.7809,39.1791],[26.7686,39.1667]]],[[[26.7913,38.9994],[26.7923,38.9969],[26.7967,38.9978],[26.7952,39.0015],[26.7989,39.0109],[26.7928,39.0081],[26.7939,39.0053],[26.7913,38.9994]]]]}},{"type":"Feature","properties":{"code":"35-12","provinceCode":"35","name":"Foça","center":[26.8381,38.6789]},"geometry":{"type":"Polygon","coordinates":[[[26.7227,38.6525],[26.7255,38.6502],[26.7268,38.6548],[26.7335,38.654],[26.7345,38.6532],[26.7349,38.6525],[26.7349,38.6517],[26.7331,38.6476],[26.7365,38.6446],[26.7429,38.6455],[26.7439,38.6373],[26.7495,38.6346],[26.7662,38.641],[26.7704,38.6354],[26.7686,38.6345],[26.7667,38.6372],[26.7639,38.6363],[26.7631,38.6337],[26.7631,38.6332],[26.7545,38.6284],[26.7573,38.6265],[26.7565,38.6234],[26.7591,38.6195],[26.7564,38.6161],[26.7651,38.6168],[26.7652,38.6147],[26.77,38.6164],[26.7747,38.6126],[26.7754,38.6163],[26.7794,38.6175],[26.7949,38.6092],[26.7965,38.6094],[26.7938,38.6112],[26.7998,38.6111],[26.8016,38.6096],[26.8022,38.6081],[26.8008,38.6066],[26.8016,38.6056],[26.8013,38.6046],[26.8035,38.6042],[26.8004,38.5995],[26.8049,38.6029],[26.8051,38.6027],[26.8053,38.6026],[26.801,38.5994],[26.8017,38.599],[26.8055,38.6021],[26.8076,38.5996],[26.8084,38.5978],[26.8105,38.5952],[26.8132,38.5956],[26.8165,38.5945],[26.8167,38.5924],[26.8151,38.5917],[26.8139,38.5904],[26.818,38.5903],[26.8182,38.5902],[26.8174,38.5892],[26.8165,38.5883],[26.8174,38.5875],[26.8191,38.5869],[26.8208,38.5882],[26.823,38.5882],[26.824,38.5898],[26.8238,38.591],[26.8273,38.591],[26.8256,38.588],[26.8305,38.5781],[26.8364,38.5893],[26.8381,38.5894],[26.8386,38.5885],[26.8402,38.5877],[26.8559,38.5891],[26.8489,38.602],[26.8524,38.6118],[26.8437,38.6197],[26.8426,38.6256],[26.833,38.636],[26.8343,38.6383],[26.8346,38.6386],[26.8404,38.6379],[26.8427,38.6402],[26.8443,38.6365],[26.8468,38.6396],[26.8453,38.6416],[26.8522,38.6431],[26.8558,38.6473],[26.8622,38.6478],[26.8668,38.643],[26.8667,38.6396],[26.8715,38.6374],[26.8637,38.6272],[26.8736,38.6253],[26.8741,38.6177],[26.8819,38.6226],[26.8806,38.6183],[26.8813,38.6172],[26.8843,38.6164],[26.8861,38.6162],[26.8907,38.6174],[26.8842,38.626],[26.8939,38.6221],[26.904,38.6264],[26.8996,38.6285],[26.8968,38.6357],[26.8967,38.6366],[26.8981,38.638],[26.9069,38.6397],[26.9157,38.6328],[26.9173,38.6331],[26.9193,38.6329],[26.9365,38.6397],[26.9373,38.6389],[26.9385,38.6375],[26.9388,38.6364],[26.9362,38.6291],[26.9415,38.627],[26.9428,38.6275],[26.9437,38.6286],[26.9408,38.6353],[26.9417,38.6411],[26.9473,38.6445],[26.957,38.6439],[26.9612,38.6515],[26.9675,38.654],[26.9602,38.6761],[26.9548,38.6798],[26.9542,38.6801],[26.9555,38.6822],[26.953,38.6845],[26.9495,38.6847],[26.955,38.6906],[26.9568,38.6983],[26.9528,38.6973],[26.9527,38.7013],[26.9426,38.7093],[26.9218,38.7162],[26.9236,38.7223],[26.9127,38.727],[26.9126,38.7312],[26.9061,38.7324],[26.9154,38.7357],[26.9101,38.7372],[26.8835,38.7327],[26.8756,38.7359],[26.8575,38.7529],[26.8386,38.7437],[26.8422,38.7449],[26.8386,38.7427],[26.84,38.7417],[26.8367,38.7422],[26.8329,38.7452],[26.8325,38.7505],[26.8381,38.7527],[26.8318,38.756],[26.8308,38.7613],[26.8236,38.7622],[26.8128,38.7514],[26.8017,38.7502],[26.7967,38.7463],[26.7911,38.7486],[26.7906,38.7458],[26.7872,38.747],[26.7868,38.7433],[26.7841,38.7426],[26.7849,38.7397],[26.7808,38.7364],[26.7793,38.7401],[26.7716,38.7387],[26.7728,38.7367],[26.7695,38.7348],[26.7683,38.7373],[26.7705,38.7417],[26.77,38.742],[26.7687,38.7422],[26.7674,38.7381],[26.764,38.7406],[26.7592,38.7391],[26.7581,38.736],[26.7488,38.7409],[26.7399,38.7415],[26.7396,38.7371],[26.7433,38.7326],[26.7294,38.7274],[26.7284,38.7262],[26.7286,38.7252],[26.7284,38.7243],[26.7285,38.724],[26.7291,38.7235],[26.7302,38.7234],[26.7268,38.7209],[26.7326,38.719],[26.7317,38.7156],[26.7286,38.7149],[26.7305,38.7109],[26.7283,38.708],[26.7327,38.7065],[26.7332,38.7038],[26.7303,38.7018],[26.7309,38.698],[26.7287,38.6952],[26.7366,38.6886],[26.7341,38.6862],[26.7362,38.6835],[26.7412,38.6816],[26.741,38.6795],[26.7367,38.6788],[26.7334,38.6752],[26.738,38.6758],[26.7396,38.6783],[26.7466,38.6784],[26.7536,38.6739],[26.7549,38.669],[26.7507,38.6694],[26.7534,38.666],[26.749,38.6635],[26.7449,38.6645],[26.7454,38.6687],[26.7424,38.6681],[26.741,38.6634],[26.7347,38.6669],[26.7344,38.6596],[26.7328,38.6585],[26.7325,38.6576],[26.7312,38.6564],[26.7237,38.656],[26.7227,38.6525]]]}},{"type":"Feature","properties":{"code":"35-13","provinceCode":"35","name":"Gaziemir","center":[27.1483,38.3167]},"geometry":{"type":"Polygon","coordinates":[[[27.0775,38.3161],[27.0908,38.3076],[27.094,38.3025],[27.1142,38.2972],[27.1243,38.3016],[27.1389,38.2912],[27.1466,38.2909],[27.1515,38.2844],[27.152,38.2826],[27.1534,38.2781],[27.1584,38.2753],[27.1619,38.2736],[27.1626,38.2805],[27.165,38.2815],[27.1642,38.2848],[27.1635,38.2857],[27.1671,38.283],[27.1686,38.2827],[27.1705,38.2821],[27.187,38.2845],[27.2154,38.2846],[27.2207,38.2968],[27.2274,38.3048],[27.2119,38.3051],[27.21,38.3133],[27.2044,38.3122],[27.202,38.3141],[27.2015,38.3143],[27.2016,38.3146],[27.2021,38.3179],[27.1952,38.3171],[27.1948,38.3132],[27.1823,38.3161],[27.179,38.3306],[27.1826,38.3356],[27.1743,38.3476],[27.1367,38.3462],[27.1395,38.3603],[27.1377,38.3623],[27.1289,38.3626],[27.1259,38.3571],[27.1063,38.3522],[27.0928,38.3375],[27.0933,38.3317],[27.0887,38.3246],[27.0786,38.3189],[27.0775,38.3161]]]}},{"type":"Feature","properties":{"code":"35-14","provinceCode":"35","name":"Güzelbahçe","center":[26.8836,38.3353]},"geometry":{"type":"Polygon","coordinates":[[[26.8098,38.311],[26.8107,38.3048],[26.8151,38.3042],[26.8144,38.3035],[26.8142,38.3031],[26.8136,38.3027],[26.8215,38.2981],[26.8281,38.2943],[26.8291,38.2935],[26.8349,38.2943],[26.8348,38.2954],[26.8345,38.2965],[26.8439,38.2918],[26.845,38.2856],[26.8482,38.2919],[26.8665,38.3037],[26.877,38.3043],[26.8776,38.3005],[26.8875,38.2968],[26.8912,38.3008],[26.89,38.3062],[26.8945,38.3067],[26.8971,38.302],[26.9043,38.3012],[26.9062,38.3016],[26.9095,38.3022],[26.9145,38.308],[26.9248,38.3014],[26.9254,38.304],[26.9257,38.304],[26.9277,38.3033],[26.9339,38.3086],[26.9393,38.3092],[26.9442,38.3315],[26.9525,38.3379],[26.9482,38.342],[26.9398,38.3439],[26.9457,38.3546],[26.9466,38.354],[26.9535,38.3539],[26.9524,38.359],[26.9498,38.363],[26.933,38.3632],[26.9267,38.3689],[26.9233,38.3758],[26.9255,38.3849],[26.9002,38.3789],[26.8935,38.3799],[26.8839,38.3774],[26.8857,38.3786],[26.8793,38.3798],[26.8773,38.3782],[26.8826,38.3799],[26.8834,38.3782],[26.8549,38.3735],[26.8583,38.3647],[26.8305,38.343],[26.8213,38.3301],[26.8142,38.3306],[26.8155,38.32],[26.8098,38.311]]]}},{"type":"Feature","properties":{"code":"35-15","provinceCode":"35","name":"Karabağlar","center":[27.045,38.3435]},"geometry":{"type":"Polygon","coordinates":[[[26.9391,38.3129],[26.9414,38.3014],[26.9479,38.2963],[26.9495,38.303],[26.9476,38.3068],[26.9487,38.3071],[26.9496,38.3073],[26.9593,38.3014],[26.9683,38.3045],[26.9723,38.3018],[26.972,38.2992],[26.9773,38.2985],[26.9854,38.302],[26.9848,38.3057],[26.9866,38.3069],[26.9873,38.3073],[26.9999,38.3078],[27.0063,38.3163],[27.012,38.3191],[27.0252,38.3139],[27.0297,38.3087],[27.036,38.3063],[27.0412,38.3077],[27.0505,38.3042],[27.0518,38.3037],[27.0551,38.2984],[27.0782,38.2949],[27.0807,38.29],[27.0814,38.2883],[27.0817,38.2892],[27.0826,38.2915],[27.0867,38.2905],[27.0859,38.2935],[27.094,38.3025],[27.0908,38.3076],[27.0802,38.3129],[27.078,38.3185],[27.0887,38.3246],[27.0933,38.3317],[27.0928,38.3375],[27.1063,38.3522],[27.1259,38.3571],[27.129,38.3626],[27.1407,38.3621],[27.1358,38.3717],[27.1379,38.3805],[27.1418,38.3805],[27.1426,38.384],[27.1375,38.3906],[27.1384,38.3944],[27.1315,38.3971],[27.1224,38.4062],[27.1112,38.4018],[27.0996,38.4014],[27.0872,38.393],[27.0699,38.3976],[27.0693,38.3975],[27.0642,38.3969],[27.0658,38.3899],[27.0677,38.3904],[27.0678,38.3901],[27.0674,38.3892],[27.0677,38.3881],[27.0666,38.3868],[27.0717,38.3828],[27.0733,38.3858],[27.076,38.3793],[27.0838,38.3771],[27.0952,38.3679],[27.0881,38.3622],[27.0784,38.36],[27.0819,38.348],[27.0722,38.3429],[27.0698,38.3457],[27.076,38.3482],[27.0753,38.3558],[27.067,38.366],[27.0644,38.3664],[27.0593,38.3681],[27.0579,38.3686],[27.0559,38.367],[27.0559,38.3666],[27.0554,38.3664],[27.0476,38.3671],[27.0396,38.3699],[27.0376,38.3801],[27.0347,38.38],[27.0335,38.3774],[27.0329,38.3772],[27.0256,38.3762],[27.0267,38.3743],[27.0224,38.3655],[27.0148,38.3604],[27.0159,38.3543],[27.0058,38.3424],[27.0041,38.3354],[26.999,38.333],[26.9931,38.3326],[26.992,38.3334],[26.9785,38.3439],[26.9667,38.3548],[26.9457,38.3546],[26.9398,38.3439],[26.9482,38.342],[26.9525,38.3379],[26.9442,38.3315],[26.9434,38.3221],[26.9391,38.3129]]]}},{"type":"Feature","properties":{"code":"35-16","provinceCode":"35","name":"Karaburun","center":[26.4811,38.5569]},"geometry":{"type":"MultiPolygon","coordinates":[[[[26.3085,38.4175],[26.312,38.4148],[26.3154,38.4161],[26.3131,38.4183],[26.3085,38.4175]]],[[[26.3532,38.638],[26.3568,38.6321],[26.3579,38.6221],[26.3549,38.614],[26.3602,38.6065],[26.3592,38.5987],[26.3631,38.5897],[26.3598,38.5783],[26.3628,38.5678],[26.3596,38.5667],[26.3705,38.5598],[26.3686,38.5559],[26.3747,38.5509],[26.3741,38.548],[26.3806,38.5445],[26.381,38.5237],[26.3788,38.5243],[26.3781,38.5296],[26.38,38.5307],[26.3753,38.5372],[26.375,38.5415],[26.3717,38.5308],[26.3754,38.5306],[26.377,38.5239],[26.3815,38.5192],[26.3849,38.5232],[26.3906,38.5211],[26.3917,38.5183],[26.3896,38.5169],[26.3934,38.5145],[26.3926,38.5099],[26.3949,38.5084],[26.3893,38.5057],[26.4008,38.5055],[26.4045,38.5015],[26.4034,38.4975],[26.4066,38.4985],[26.4121,38.494],[26.4086,38.4882],[26.4051,38.4872],[26.4036,38.4828],[26.4053,38.4785],[26.3913,38.4633],[26.3906,38.4584],[26.3949,38.4452],[26.3968,38.445],[26.396,38.4473],[26.4016,38.4471],[26.4048,38.4567],[26.4084,38.4553],[26.413,38.4579],[26.4153,38.4621],[26.4131,38.4664],[26.4146,38.4717],[26.4179,38.4727],[26.4193,38.4761],[26.4285,38.4777],[26.4401,38.4764],[26.4602,38.4637],[26.4645,38.4637],[26.4706,38.4578],[26.4742,38.4596],[26.4797,38.456],[26.4802,38.4571],[26.4801,38.4579],[26.482,38.4595],[26.4919,38.4605],[26.5074,38.4688],[26.5164,38.4692],[26.5275,38.4636],[26.5321,38.4662],[26.5389,38.4658],[26.5644,38.4558],[26.565,38.4499],[26.5679,38.4457],[26.5682,38.4453],[26.5689,38.4449],[26.5645,38.4402],[26.5738,38.4369],[26.5842,38.4425],[26.6029,38.4415],[26.5983,38.4457],[26.604,38.4515],[26.6025,38.4577],[26.601,38.4598],[26.599,38.4608],[26.5984,38.4614],[26.5972,38.4586],[26.5897,38.4599],[26.5883,38.4625],[26.5974,38.4673],[26.5864,38.4688],[26.5888,38.4705],[26.6031,38.4711],[26.6079,38.4692],[26.6177,38.473],[26.627,38.4702],[26.6307,38.463],[26.6395,38.4663],[26.6416,38.47],[26.6315,38.5002],[26.6314,38.5092],[26.6337,38.5115],[26.6298,38.5152],[26.6351,38.5114],[26.6325,38.5153],[26.6257,38.517],[26.6278,38.5178],[26.6241,38.5206],[26.6246,38.5313],[26.6192,38.532],[26.6181,38.5297],[26.6145,38.5294],[26.6048,38.533],[26.6015,38.5389],[26.595,38.5413],[26.5911,38.5468],[26.5692,38.559],[26.5671,38.5651],[26.5696,38.5677],[26.5668,38.5689],[26.5653,38.5736],[26.5674,38.5806],[26.5652,38.5816],[26.5668,38.5827],[26.5645,38.587],[26.5655,38.5913],[26.5617,38.5933],[26.5619,38.602],[26.5588,38.6008],[26.5572,38.6046],[26.5526,38.6013],[26.5486,38.6019],[26.5359,38.6223],[26.5305,38.6229],[26.5332,38.6259],[26.5236,38.6296],[26.5256,38.634],[26.5216,38.6404],[26.5281,38.644],[26.5247,38.6451],[26.5228,38.6499],[26.5174,38.6516],[26.5167,38.6482],[26.5136,38.6471],[26.5013,38.6532],[26.4999,38.6568],[26.4916,38.6612],[26.4917,38.6636],[26.4894,38.6621],[26.4754,38.6745],[26.4652,38.6694],[26.4544,38.6727],[26.4411,38.6732],[26.4355,38.671],[26.4278,38.6763],[26.4274,38.6791],[26.4171,38.6806],[26.398,38.6674],[26.3811,38.6661],[26.3791,38.6635],[26.3697,38.6639],[26.3606,38.6596],[26.3593,38.6525],[26.3546,38.6471],[26.3532,38.638]]],[[[26.367,38.4295],[26.3681,38.4276],[26.3729,38.4325],[26.3733,38.435],[26.3691,38.4381],[26.367,38.4295]]],[[[26.3727,38.4274],[26.3826,38.4252],[26.3841,38.4228],[26.3884,38.4224],[26.3893,38.4245],[26.3849,38.4311],[26.3884,38.4332],[26.3849,38.4359],[26.382,38.433],[26.3734,38.4317],[26.3727,38.4274]]]]}},{"type":"Feature","properties":{"code":"35-17","provinceCode":"35","name":"Karşıyaka","center":[27.1237,38.5099]},"geometry":{"type":"Polygon","coordinates":[[[27.0625,38.4744],[27.0654,38.4729],[27.0677,38.4646],[27.0699,38.4672],[27.0785,38.4675],[27.0892,38.457],[27.0936,38.4559],[27.0934,38.4534],[27.0956,38.4525],[27.0945,38.4549],[27.0977,38.4517],[27.099,38.4534],[27.1125,38.4489],[27.1203,38.4553],[27.1244,38.4554],[27.1331,38.4647],[27.1354,38.4626],[27.1347,38.4653],[27.126,38.4683],[27.1163,38.4675],[27.1116,38.4699],[27.1154,38.4758],[27.1142,38.4866],[27.1163,38.4863],[27.1175,38.4863],[27.1193,38.4955],[27.1395,38.5049],[27.1416,38.5],[27.1445,38.5005],[27.1545,38.5098],[27.1554,38.5134],[27.1628,38.5151],[27.1659,38.5202],[27.1784,38.5255],[27.1862,38.5252],[27.1866,38.5349],[27.171,38.5419],[27.1679,38.5477],[27.1623,38.5513],[27.1478,38.557],[27.1434,38.557],[27.1389,38.5577],[27.1292,38.5517],[27.1021,38.5581],[27.1027,38.5553],[27.0926,38.5503],[27.0932,38.55],[27.0983,38.5462],[27.1005,38.5454],[27.0995,38.5417],[27.1008,38.5405],[27.1034,38.5407],[27.104,38.5396],[27.1109,38.5413],[27.1106,38.5376],[27.1127,38.5364],[27.1148,38.5367],[27.1189,38.5276],[27.0909,38.5052],[27.0928,38.497],[27.087,38.4913],[27.0872,38.4909],[27.0882,38.4894],[27.082,38.4869],[27.0835,38.4862],[27.0823,38.4849],[27.0814,38.4839],[27.0805,38.482],[27.0625,38.4744]]]}},{"type":"Feature","properties":{"code":"35-18","provinceCode":"35","name":"Kemalpaşa","center":[27.5028,38.4154]},"geometry":{"type":"Polygon","coordinates":[[[27.3207,38.4614],[27.3331,38.4523],[27.3397,38.4512],[27.3365,38.4443],[27.3343,38.4392],[27.3424,38.4309],[27.3455,38.4232],[27.3395,38.4141],[27.338,38.3958],[27.337,38.3933],[27.335,38.3914],[27.3467,38.3768],[27.3408,38.3739],[27.3404,38.3724],[27.352,38.373],[27.363,38.3698],[27.3697,38.3621],[27.3509,38.3474],[27.3475,38.3403],[27.3765,38.3346],[27.3852,38.326],[27.3933,38.3257],[27.3925,38.3212],[27.4,38.3147],[27.4032,38.3174],[27.4032,38.3152],[27.4057,38.3167],[27.4121,38.3147],[27.4136,38.3095],[27.4156,38.3116],[27.4508,38.2992],[27.465,38.2971],[27.4677,38.2939],[27.4825,38.2925],[27.492,38.2875],[27.5012,38.2998],[27.501,38.3007],[27.5002,38.3031],[27.5079,38.3178],[27.5392,38.3095],[27.541,38.3098],[27.5446,38.3107],[27.5492,38.3203],[27.5501,38.3325],[27.5603,38.328],[27.591,38.3273],[27.5919,38.3247],[27.5916,38.3238],[27.5937,38.3214],[27.5971,38.3201],[27.5976,38.3202],[27.5992,38.3238],[27.6038,38.3231],[27.6033,38.3212],[27.6084,38.3208],[27.6116,38.3214],[27.6125,38.3205],[27.6541,38.3435],[27.6612,38.3376],[27.6719,38.3378],[27.6859,38.3237],[27.6891,38.326],[27.6903,38.3277],[27.691,38.3286],[27.6914,38.3358],[27.6954,38.3423],[27.6955,38.3435],[27.6944,38.3454],[27.6943,38.3458],[27.6946,38.3464],[27.6974,38.3479],[27.7007,38.3504],[27.7025,38.354],[27.7011,38.3554],[27.7059,38.3593],[27.717,38.3833],[27.7149,38.3935],[27.7066,38.4075],[27.7068,38.409],[27.7063,38.4122],[27.7108,38.4204],[27.708,38.4273],[27.7005,38.4348],[27.7001,38.4501],[27.6949,38.45],[27.6946,38.4498],[27.6936,38.4493],[27.6893,38.4539],[27.6852,38.4534],[27.6773,38.4576],[27.6623,38.4711],[27.6539,38.4718],[27.6418,38.4844],[27.6344,38.488],[27.6396,38.4929],[27.6362,38.4956],[27.6165,38.5052],[27.6129,38.4919],[27.6053,38.488],[27.608,38.4832],[27.6026,38.4822],[27.5936,38.4714],[27.5786,38.4686],[27.5721,38.4579],[27.5591,38.4592],[27.5511,38.4576],[27.5478,38.4536],[27.5405,38.4681],[27.5368,38.4699],[27.5377,38.473],[27.5297,38.4788],[27.5138,38.4817],[27.5089,38.4876],[27.4942,38.5056],[27.4811,38.5216],[27.4517,38.5427],[27.4511,38.549],[27.4363,38.5495],[27.4335,38.5539],[27.4326,38.5553],[27.4157,38.5589],[27.4091,38.5603],[27.3956,38.5596],[27.3846,38.5551],[27.3733,38.5401],[27.354,38.5349],[27.3501,38.5235],[27.3528,38.5162],[27.3499,38.5046],[27.344,38.4961],[27.3334,38.494],[27.3318,38.4895],[27.3229,38.481],[27.3218,38.4664],[27.3207,38.4614]]]}},{"type":"Feature","properties":{"code":"35-19","provinceCode":"35","name":"Kınık","center":[27.3834,39.049]},"geometry":{"type":"Polygon","coordinates":[[[27.2214,39.0086],[27.2351,38.9886],[27.2424,38.989],[27.243,38.9901],[27.244,38.9919],[27.2451,38.9931],[27.2539,38.9952],[27.2679,38.9925],[27.2718,38.9897],[27.2735,38.9853],[27.2825,38.9844],[27.2849,38.9639],[27.2911,38.9589],[27.2941,38.963],[27.3065,38.9629],[27.3083,38.9648],[27.3118,38.9523],[27.3188,38.9443],[27.3409,38.9526],[27.3453,38.9492],[27.3463,38.9513],[27.3586,38.9506],[27.3597,38.9509],[27.3677,38.9481],[27.3757,38.9502],[27.3804,38.949],[27.3939,38.9428],[27.3936,38.9401],[27.3913,38.9378],[27.393,38.934],[27.3933,38.9318],[27.3978,38.927],[27.4022,38.9229],[27.4088,38.924],[27.4148,38.9227],[27.4411,38.927],[27.4425,38.9314],[27.4548,38.9302],[27.4598,38.9378],[27.472,38.9497],[27.4686,38.9545],[27.4709,38.9581],[27.4646,38.9647],[27.4644,38.969],[27.4658,38.9788],[27.4661,38.9806],[27.4679,38.9841],[27.4681,38.9875],[27.4691,38.9905],[27.4715,38.9901],[27.4836,38.9977],[27.4839,38.9991],[27.4864,38.9996],[27.4874,39.0066],[27.493,39.003],[27.4963,39.0047],[27.5029,39.0101],[27.5108,39.0168],[27.5212,39.0217],[27.5309,39.0325],[27.5351,39.029],[27.5407,39.0267],[27.5408,39.0281],[27.5417,39.0294],[27.5451,39.0295],[27.5468,39.0243],[27.5453,39.019],[27.5482,39.02],[27.5519,39.0173],[27.5571,39.0169],[27.5557,39.0194],[27.5583,39.0207],[27.5577,39.0231],[27.5612,39.0214],[27.5638,39.026],[27.5619,39.0293],[27.5532,39.0287],[27.5493,39.0395],[27.5443,39.0407],[27.5454,39.0428],[27.5416,39.0443],[27.5452,39.0451],[27.5393,39.0453],[27.5374,39.056],[27.5316,39.0581],[27.5339,39.06],[27.5305,39.0662],[27.5224,39.0678],[27.5245,39.0727],[27.5217,39.0781],[27.5246,39.0833],[27.5223,39.0914],[27.5167,39.0968],[27.5113,39.0957],[27.5102,39.1012],[27.5117,39.1007],[27.513,39.1019],[27.495,39.1163],[27.5061,39.1265],[27.5054,39.1306],[27.5012,39.1324],[27.4972,39.1349],[27.4941,39.1392],[27.4899,39.1393],[27.4869,39.139],[27.4857,39.1405],[27.4859,39.1413],[27.4851,39.142],[27.4736,39.1433],[27.4732,39.1447],[27.4725,39.1463],[27.4531,39.1501],[27.4441,39.1572],[27.4423,39.1569],[27.442,39.1582],[27.4393,39.1577],[27.4378,39.1628],[27.4402,39.1633],[27.4398,39.1647],[27.4362,39.1646],[27.4343,39.1644],[27.4325,39.1647],[27.4154,39.1594],[27.4135,39.1623],[27.4065,39.16],[27.3932,39.1611],[27.3907,39.1582],[27.3941,39.1571],[27.3945,39.1545],[27.387,39.1522],[27.3797,39.1557],[27.3755,39.1551],[27.3739,39.1523],[27.3689,39.1544],[27.366,39.1488],[27.3577,39.1529],[27.3465,39.1505],[27.3412,39.1548],[27.3286,39.1492],[27.3189,39.1506],[27.3205,39.1464],[27.3311,39.1458],[27.3319,39.1438],[27.3329,39.1414],[27.3286,39.1408],[27.3295,39.1369],[27.3274,39.1366],[27.3277,39.1359],[27.3204,39.1344],[27.32,39.1288],[27.3182,39.1283],[27.3169,39.1281],[27.3149,39.1278],[27.3126,39.1188],[27.307,39.117],[27.2952,39.1214],[27.2958,39.1228],[27.287,39.1249],[27.2859,39.1243],[27.2898,39.1322],[27.2937,39.1401],[27.2831,39.1356],[27.2735,39.1421],[27.252,39.1294],[27.2576,39.1169],[27.2604,39.1158],[27.2613,39.1153],[27.2585,39.1082],[27.2483,39.1039],[27.2553,39.0971],[27.2472,39.084],[27.2498,39.0749],[27.2465,39.0638],[27.2465,39.0532],[27.2355,39.0519],[27.233,39.0454],[27.2237,39.0423],[27.224,39.0418],[27.2242,39.0414],[27.2309,39.0358],[27.227,39.0227],[27.2216,39.0178],[27.2246,39.0137],[27.2214,39.0086]]]}},{"type":"Feature","properties":{"code":"35-20","provinceCode":"35","name":"Kiraz","center":[28.3042,38.2237]},"geometry":{"type":"Polygon","coordinates":[[[28.1225,38.302],[28.1363,38.2899],[28.132,38.2892],[28.1311,38.2881],[28.1305,38.2858],[28.1306,38.2849],[28.1338,38.283],[28.1251,38.278],[28.1256,38.2777],[28.1288,38.2752],[28.1296,38.2745],[28.1378,38.2569],[28.1354,38.2557],[28.1342,38.2486],[28.1291,38.2441],[28.1342,38.2384],[28.1325,38.2365],[28.1378,38.2331],[28.1355,38.2276],[28.1376,38.2217],[28.1403,38.2203],[28.1605,38.2241],[28.1682,38.2194],[28.1791,38.2189],[28.1751,38.2127],[28.1803,38.2087],[28.1744,38.1914],[28.1726,38.1912],[28.1726,38.1911],[28.1721,38.191],[28.1723,38.1907],[28.1734,38.1884],[28.1731,38.1857],[28.1659,38.1794],[28.1698,38.1795],[28.1699,38.1788],[28.1703,38.1782],[28.1706,38.1766],[28.1777,38.1783],[28.1849,38.1754],[28.1874,38.1538],[28.1898,38.152],[28.2008,38.1523],[28.2217,38.1414],[28.2277,38.1436],[28.2268,38.1483],[28.226,38.1489],[28.225,38.1491],[28.224,38.1498],[28.2248,38.1532],[28.2395,38.1531],[28.2412,38.1554],[28.2496,38.1569],[28.2499,38.1567],[28.2503,38.1563],[28.25,38.1551],[28.26,38.1528],[28.2737,38.1541],[28.2895,38.143],[28.2977,38.1409],[28.3306,38.1218],[28.3368,38.1231],[28.3431,38.1213],[28.366,38.1293],[28.3702,38.1151],[28.3754,38.1078],[28.3899,38.1115],[28.3995,38.1051],[28.4001,38.1002],[28.4041,38.1012],[28.4075,38.0971],[28.417,38.0967],[28.424,38.0909],[28.4361,38.0877],[28.4423,38.0952],[28.4542,38.0975],[28.4649,38.1043],[28.4688,38.1044],[28.4725,38.1141],[28.4828,38.1188],[28.4851,38.1226],[28.4756,38.1346],[28.4689,38.1388],[28.462,38.1395],[28.4655,38.1451],[28.4637,38.156],[28.451,38.1607],[28.4334,38.1758],[28.4342,38.1784],[28.4441,38.1805],[28.4507,38.1866],[28.4535,38.185],[28.4609,38.188],[28.4606,38.19],[28.4724,38.1899],[28.475,38.1935],[28.4863,38.1969],[28.4895,38.2007],[28.4862,38.2051],[28.4896,38.2083],[28.4886,38.2164],[28.4917,38.2204],[28.4901,38.2244],[28.493,38.2275],[28.4928,38.2318],[28.4894,38.2342],[28.4891,38.2448],[28.4806,38.2532],[28.472,38.2541],[28.4705,38.2556],[28.4683,38.2587],[28.4658,38.2594],[28.4406,38.2607],[28.4052,38.2673],[28.4012,38.2661],[28.3997,38.2659],[28.3893,38.2575],[28.3788,38.2542],[28.3735,38.2553],[28.3717,38.2565],[28.3716,38.2567],[28.38,38.2651],[28.3795,38.268],[28.3719,38.2703],[28.3694,38.2758],[28.3687,38.2754],[28.3672,38.2753],[28.3677,38.2809],[28.3562,38.2903],[28.3565,38.2981],[28.341,38.3029],[28.3373,38.3074],[28.3348,38.3125],[28.3336,38.314],[28.3278,38.3168],[28.3267,38.3179],[28.3129,38.3222],[28.3062,38.3209],[28.2924,38.3118],[28.284,38.3117],[28.2714,38.3157],[28.2733,38.3173],[28.2737,38.3182],[28.2619,38.314],[28.2509,38.3173],[28.2338,38.3298],[28.23,38.329],[28.2282,38.327],[28.2273,38.3244],[28.2108,38.3133],[28.2059,38.3211],[28.2119,38.3403],[28.2114,38.3414],[28.2049,38.3462],[28.1992,38.3473],[28.1933,38.3477],[28.1892,38.3585],[28.1903,38.3652],[28.1894,38.3665],[28.189,38.3688],[28.1825,38.3668],[28.1816,38.3653],[28.1684,38.3678],[28.1573,38.3586],[28.1485,38.3454],[28.1418,38.33],[28.1346,38.3277],[28.1256,38.3201],[28.1229,38.3185],[28.1225,38.302]]]}},{"type":"Feature","properties":{"code":"35-21","provinceCode":"35","name":"Konak","center":[27.1471,38.4194]},"geometry":{"type":"Polygon","coordinates":[[[27.0688,38.4013],[27.0706,38.3968],[27.0872,38.393],[27.0996,38.4014],[27.1112,38.4018],[27.1224,38.4062],[27.1315,38.3971],[27.1384,38.3944],[27.1454,38.406],[27.1538,38.4031],[27.1773,38.4085],[27.1867,38.4064],[27.1896,38.4081],[27.186,38.4085],[27.1868,38.4171],[27.1787,38.4205],[27.1808,38.448],[27.1793,38.4508],[27.1731,38.4492],[27.1732,38.4484],[27.1734,38.4471],[27.1657,38.4487],[27.1686,38.4445],[27.1664,38.4399],[27.1627,38.4417],[27.1624,38.4465],[27.1623,38.4465],[27.1593,38.4418],[27.158,38.4423],[27.1572,38.4426],[27.1592,38.4455],[27.1547,38.4474],[27.1519,38.4434],[27.1514,38.4427],[27.1475,38.4423],[27.1488,38.4472],[27.147,38.4455],[27.1458,38.4443],[27.1462,38.4426],[27.1429,38.4426],[27.1332,38.4287],[27.1316,38.4293],[27.133,38.4284],[27.1304,38.4228],[27.128,38.4235],[27.129,38.4229],[27.1287,38.4225],[27.1292,38.4221],[27.1192,38.411],[27.102,38.4077],[27.0868,38.3987],[27.0723,38.4034],[27.0688,38.4013]]]}},{"type":"Feature","properties":{"code":"35-22","provinceCode":"35","name":"Menderes","center":[27.1275,38.1479]},"geometry":{"type":"Polygon","coordinates":[[[26.9438,38.2911],[26.9571,38.2838],[26.9565,38.2831],[26.9556,38.2822],[26.9557,38.2819],[26.9582,38.2818],[26.9555,38.2772],[26.9509,38.2747],[26.9521,38.274],[26.9541,38.274],[26.9551,38.2736],[26.9608,38.2633],[26.9642,38.2622],[26.9614,38.2596],[26.9704,38.2477],[26.9726,38.2432],[26.9712,38.2399],[26.9796,38.2333],[26.9766,38.2247],[26.9714,38.2222],[26.9706,38.2219],[26.9666,38.2226],[26.962,38.2141],[26.9647,38.2111],[26.9661,38.2102],[26.9728,38.2082],[26.9864,38.1925],[26.9833,38.1884],[26.9852,38.1863],[26.9862,38.1863],[26.9866,38.1845],[26.9848,38.1836],[26.9838,38.1747],[26.9784,38.1555],[26.9826,38.1542],[26.9833,38.1504],[26.9797,38.142],[26.9869,38.1439],[26.9923,38.1335],[26.9828,38.0913],[26.9791,38.0864],[26.9792,38.0807],[26.9735,38.0753],[26.991,38.0709],[27.0178,38.0546],[27.0344,38.0538],[27.0482,38.049],[27.0607,38.0366],[27.0635,38.0378],[27.0681,38.0339],[27.073,38.025],[27.0709,38.019],[27.0746,38.0172],[27.0759,38.0125],[27.0784,38.0164],[27.0849,38.0139],[27.0882,38.0177],[27.0974,38.0165],[27.1109,38.0059],[27.1115,38.0009],[27.1151,38.0012],[27.1189,37.9923],[27.1209,37.9944],[27.1255,37.9937],[27.1325,37.9882],[27.1412,37.9879],[27.1452,37.9833],[27.1493,37.9868],[27.1538,37.9866],[27.1672,37.9813],[27.1751,37.9865],[27.1815,37.9858],[27.1861,37.9906],[27.1939,37.9885],[27.1997,37.9914],[27.2028,37.989],[27.2054,37.9926],[27.2114,37.9908],[27.2159,37.9928],[27.2189,37.9891],[27.2221,37.9894],[27.2313,37.9841],[27.237,37.9862],[27.2424,37.9826],[27.2419,37.9801],[27.2466,37.981],[27.2453,37.9857],[27.2498,37.9909],[27.2517,38.003],[27.257,38.0028],[27.2606,38.008],[27.2657,38.0086],[27.2654,38.0148],[27.2746,38.0177],[27.2748,38.0181],[27.2744,38.0189],[27.2735,38.0196],[27.2764,38.0182],[27.2817,38.0232],[27.2862,38.0382],[27.2996,38.0408],[27.3121,38.049],[27.3128,38.0504],[27.3137,38.0528],[27.3136,38.054],[27.3099,38.0552],[27.3086,38.0551],[27.3071,38.0607],[27.3084,38.0631],[27.3079,38.0709],[27.303,38.0787],[27.3091,38.0967],[27.3125,38.1158],[27.304,38.1288],[27.3023,38.13],[27.2982,38.1335],[27.2976,38.134],[27.2933,38.1351],[27.2857,38.1386],[27.2909,38.1444],[27.2901,38.146],[27.2875,38.152],[27.2808,38.1555],[27.2706,38.1543],[27.2632,38.1614],[27.2516,38.1638],[27.2574,38.1515],[27.2628,38.148],[27.2579,38.1399],[27.2433,38.1391],[27.2393,38.1424],[27.2367,38.1417],[27.2365,38.1499],[27.2299,38.1588],[27.2232,38.158],[27.2125,38.1793],[27.2115,38.1827],[27.2114,38.1829],[27.2109,38.1841],[27.2129,38.1845],[27.2126,38.1856],[27.2145,38.1862],[27.208,38.2019],[27.2066,38.2053],[27.2068,38.2064],[27.2088,38.217],[27.2206,38.2177],[27.2201,38.2128],[27.2247,38.2039],[27.2277,38.2092],[27.2325,38.2076],[27.2353,38.2102],[27.2453,38.2116],[27.2473,38.2205],[27.2436,38.2211],[27.2416,38.2254],[27.2416,38.2291],[27.2427,38.2291],[27.2447,38.229],[27.2425,38.2314],[27.2372,38.2377],[27.2362,38.2388],[27.2477,38.248],[27.2524,38.2566],[27.2289,38.272],[27.2084,38.2817],[27.2154,38.2846],[27.187,38.2845],[27.1705,38.2821],[27.1686,38.2827],[27.1671,38.283],[27.1635,38.2857],[27.1642,38.2848],[27.165,38.2815],[27.1626,38.2805],[27.1619,38.2736],[27.1584,38.2753],[27.1534,38.2781],[27.152,38.2826],[27.1515,38.2844],[27.1466,38.2909],[27.1389,38.2912],[27.1243,38.3016],[27.1142,38.2972],[27.094,38.3025],[27.0859,38.2935],[27.0867,38.2905],[27.0826,38.2915],[27.0817,38.2892],[27.0814,38.2883],[27.0807,38.29],[27.0782,38.2949],[27.0551,38.2984],[27.0518,38.3037],[27.0505,38.3042],[27.0412,38.3077],[27.036,38.3063],[27.0297,38.3087],[27.0252,38.3139],[27.012,38.3191],[27.0063,38.3163],[26.9999,38.3078],[26.9873,38.3073],[26.9866,38.3069],[26.9848,38.3057],[26.9854,38.302],[26.9773,38.2985],[26.972,38.2992],[26.9723,38.3018],[26.9683,38.3045],[26.9593,38.3014],[26.9519,38.3068],[26.9476,38.3068],[26.9495,38.303],[26.9479,38.2963],[26.9438,38.2911]]]}},{"type":"Feature","properties":{"code":"35-23","provinceCode":"35","name":"Menemen","center":[27.0527,38.6161]},"geometry":{"type":"Polygon","coordinates":[[[26.8155,38.5422],[26.8259,38.5323],[26.8251,38.5292],[26.8351,38.5237],[26.8721,38.5129],[26.8853,38.5063],[26.8871,38.5068],[26.8884,38.509],[26.8897,38.5161],[26.8909,38.523],[26.8992,38.5325],[26.9,38.5325],[26.9012,38.5318],[26.9214,38.5188],[26.9236,38.5191],[26.9253,38.5192],[26.9276,38.5194],[26.9388,38.5245],[26.939,38.5256],[26.939,38.5261],[26.939,38.5266],[26.9413,38.5267],[26.9444,38.5261],[26.9445,38.525],[26.9446,38.5235],[26.9449,38.5235],[26.9451,38.5247],[26.9447,38.5265],[26.9478,38.5224],[26.9583,38.5209],[26.9582,38.516],[26.9675,38.5139],[26.9707,38.5179],[26.9804,38.5142],[26.9932,38.5294],[26.9968,38.5235],[27.0009,38.523],[26.9995,38.5208],[27.0015,38.5204],[27.003,38.5202],[27.0049,38.5295],[27.0078,38.5297],[27.0073,38.5354],[27.0086,38.5354],[27.0091,38.5298],[27.0147,38.5303],[27.0234,38.5214],[27.031,38.5268],[27.0359,38.5221],[27.0383,38.5222],[27.0399,38.5222],[27.0405,38.5277],[27.0385,38.5288],[27.0471,38.5426],[27.069,38.5553],[27.085,38.5557],[27.0926,38.5503],[27.1027,38.5553],[27.1021,38.5581],[27.1292,38.5517],[27.1389,38.5577],[27.1434,38.557],[27.1478,38.557],[27.1623,38.5513],[27.1679,38.5477],[27.171,38.5419],[27.1868,38.5344],[27.1943,38.5357],[27.2084,38.5432],[27.2155,38.544],[27.2198,38.5504],[27.2218,38.5498],[27.2296,38.5514],[27.2361,38.5625],[27.2243,38.5721],[27.2244,38.5724],[27.2363,38.5716],[27.2498,38.573],[27.245,38.5749],[27.243,38.5757],[27.2367,38.5835],[27.2344,38.5933],[27.2348,38.6094],[27.238,38.6096],[27.2319,38.6206],[27.2325,38.6253],[27.2342,38.6252],[27.2351,38.626],[27.2342,38.6293],[27.2343,38.6314],[27.2288,38.6385],[27.2278,38.6408],[27.2399,38.6496],[27.232,38.6557],[27.2288,38.67],[27.2126,38.6747],[27.2026,38.6819],[27.2048,38.6853],[27.2021,38.6913],[27.2092,38.6888],[27.2158,38.6918],[27.223,38.6903],[27.223,38.7027],[27.2238,38.7066],[27.2235,38.7118],[27.2207,38.7152],[27.2172,38.7149],[27.2185,38.7185],[27.2141,38.7162],[27.2107,38.7194],[27.2042,38.7193],[27.2059,38.723],[27.2043,38.7249],[27.2013,38.7241],[27.1935,38.7236],[27.1927,38.7235],[27.1876,38.72],[27.1811,38.7226],[27.1727,38.7272],[27.1675,38.7335],[27.1617,38.7348],[27.1474,38.745],[27.1359,38.7357],[27.1219,38.7381],[27.108,38.7373],[27.0942,38.7286],[27.084,38.7259],[27.0709,38.7254],[27.0653,38.7276],[27.0547,38.7296],[27.0519,38.7281],[27.0472,38.7283],[27.0462,38.7277],[27.046,38.725],[27.0399,38.7196],[27.0412,38.7187],[27.041,38.7156],[27.0394,38.7122],[27.0381,38.7101],[27.0382,38.7079],[27.0415,38.7012],[27.0206,38.6929],[27.0126,38.6928],[27.0109,38.6896],[27.0054,38.6884],[27.0031,38.6911],[26.9984,38.6879],[26.9913,38.6763],[26.9884,38.6641],[26.9805,38.6644],[26.9804,38.6652],[26.98,38.6661],[26.9799,38.667],[26.976,38.6646],[26.9744,38.6659],[26.9741,38.668],[26.9725,38.6688],[26.9657,38.6659],[26.9647,38.6651],[26.9646,38.6644],[26.9636,38.6638],[26.9675,38.6533],[26.9612,38.6515],[26.957,38.6439],[26.9473,38.6445],[26.9417,38.6411],[26.9428,38.6275],[26.9362,38.6291],[26.9388,38.6364],[26.9385,38.6375],[26.9373,38.6389],[26.9365,38.6397],[26.9157,38.6328],[26.9044,38.6398],[26.8967,38.6366],[26.8996,38.6285],[26.904,38.6264],[26.8939,38.6221],[26.8842,38.626],[26.8907,38.6174],[26.8861,38.6162],[26.8843,38.6164],[26.8813,38.6172],[26.8806,38.6183],[26.8819,38.6226],[26.8741,38.6177],[26.8736,38.6253],[26.8637,38.6272],[26.8715,38.6374],[26.8667,38.6396],[26.8668,38.643],[26.8622,38.6478],[26.8558,38.6473],[26.8522,38.6431],[26.8453,38.6416],[26.8468,38.6396],[26.8443,38.6365],[26.8427,38.6402],[26.8404,38.6379],[26.8346,38.6386],[26.8343,38.6383],[26.833,38.636],[26.8426,38.6256],[26.8437,38.6197],[26.8524,38.6118],[26.8489,38.602],[26.8559,38.5891],[26.8411,38.5892],[26.8402,38.5877],[26.8402,38.5866],[26.8396,38.5861],[26.84,38.5805],[26.8427,38.5823],[26.8442,38.5818],[26.8459,38.5803],[26.8476,38.5769],[26.8481,38.5752],[26.8417,38.5681],[26.8423,38.5664],[26.8444,38.565],[26.8431,38.5634],[26.8467,38.5622],[26.8461,38.5591],[26.8387,38.5612],[26.8404,38.5563],[26.8338,38.5565],[26.8306,38.5578],[26.8343,38.5613],[26.8368,38.5613],[26.8323,38.5674],[26.8335,38.5655],[26.8343,38.5632],[26.8338,38.5619],[26.8306,38.5588],[26.8291,38.5577],[26.8283,38.5531],[26.8179,38.5467],[26.8178,38.544],[26.8162,38.5429],[26.8155,38.5422]]]}},{"type":"Feature","properties":{"code":"35-24","provinceCode":"35","name":"Narlıdere","center":[26.9853,38.3743]},"geometry":{"type":"Polygon","coordinates":[[[26.923,38.3787],[26.9247,38.3711],[26.933,38.3632],[26.9508,38.3625],[26.9535,38.3539],[26.9598,38.3545],[26.9667,38.3548],[26.9949,38.3324],[27.0036,38.3348],[27.0058,38.3424],[27.0159,38.3543],[27.0151,38.3611],[27.0224,38.3655],[27.0267,38.3743],[27.0256,38.3762],[27.0329,38.3772],[27.0335,38.3774],[27.0353,38.3818],[27.0319,38.3826],[27.0344,38.3871],[27.0309,38.391],[27.0232,38.3928],[27.0242,38.4],[27.0174,38.413],[27.0153,38.4133],[27.0098,38.4086],[26.995,38.4063],[26.9807,38.3966],[26.9552,38.3911],[26.9331,38.3833],[26.9254,38.3847],[26.923,38.3787]]]}},{"type":"Feature","properties":{"code":"35-25","provinceCode":"35","name":"Ödemiş","center":[28.0048,38.2128]},"geometry":{"type":"Polygon","coordinates":[[[27.7827,38.22],[27.7886,38.2139],[27.7895,38.2017],[27.7907,38.1997],[27.7934,38.1981],[27.7962,38.1951],[27.8005,38.1929],[27.8015,38.1939],[27.8035,38.1949],[27.8108,38.1869],[27.8165,38.1884],[27.8207,38.188],[27.8226,38.1881],[27.8245,38.1908],[27.832,38.1922],[27.8376,38.1886],[27.8378,38.1847],[27.8355,38.1828],[27.8423,38.1838],[27.8442,38.1738],[27.8476,38.1707],[27.8671,38.1735],[27.8676,38.1726],[27.8686,38.1717],[27.8766,38.174],[27.8823,38.1795],[27.8821,38.1756],[27.8845,38.1757],[27.8855,38.1755],[27.8863,38.175],[27.8838,38.1676],[27.8906,38.1688],[27.8929,38.1672],[27.9015,38.1738],[27.9057,38.1705],[27.9114,38.1747],[27.9117,38.1702],[27.9244,38.1658],[27.9199,38.1566],[27.9219,38.1566],[27.9217,38.1538],[27.9242,38.1537],[27.9276,38.142],[27.9303,38.142],[27.9369,38.1316],[27.9395,38.1312],[27.9425,38.1311],[27.9477,38.1286],[27.9491,38.1278],[27.9498,38.1266],[27.94,38.1213],[27.9235,38.1206],[27.9174,38.1172],[27.9253,38.1117],[27.9255,38.1091],[27.9224,38.1045],[27.9239,38.1036],[27.9249,38.1038],[27.9261,38.1039],[27.9257,38.0917],[27.9294,38.0907],[27.9326,38.0792],[27.9448,38.075],[27.9464,38.0756],[27.9494,38.0757],[27.9551,38.0725],[27.9551,38.071],[27.9602,38.067],[27.9635,38.0577],[27.9632,38.044],[27.9529,38.0341],[27.9424,38.0288],[27.9397,38.0139],[27.9263,38.0109],[27.9164,38.0147],[27.9062,38.0149],[27.9003,37.9937],[27.9005,37.9935],[27.9003,37.9933],[27.9264,37.9963],[27.9276,37.9976],[27.9413,37.9979],[27.9565,37.9947],[27.9588,37.9952],[27.9659,37.9994],[27.982,37.985],[28.004,37.9727],[28.0074,37.9658],[28.0101,37.9698],[28.0071,37.9811],[28.0183,37.9821],[28.0176,37.995],[28.027,38.0013],[28.0284,38.0017],[28.0291,38.0008],[28.0331,38.002],[28.0341,38.0058],[28.034,38.0112],[28.0365,38.0206],[28.0418,38.0288],[28.0426,38.0289],[28.0437,38.0306],[28.0435,38.0321],[28.0438,38.034],[28.0456,38.0359],[28.0516,38.039],[28.0551,38.0321],[28.0833,38.025],[28.0902,38.0256],[28.1022,38.0313],[28.1147,38.0243],[28.1275,38.0256],[28.1414,38.0225],[28.1462,38.0243],[28.1487,38.0281],[28.1511,38.0284],[28.1556,38.0407],[28.152,38.0488],[28.155,38.056],[28.1495,38.0578],[28.1517,38.0633],[28.1461,38.062],[28.1315,38.0667],[28.1218,38.0749],[28.1219,38.0775],[28.1199,38.0792],[28.1217,38.0831],[28.1245,38.0887],[28.1253,38.0916],[28.1336,38.0974],[28.1372,38.1099],[28.1357,38.117],[28.1518,38.1176],[28.1593,38.1219],[28.1612,38.1276],[28.1709,38.121],[28.1828,38.124],[28.1871,38.1264],[28.1896,38.1285],[28.1926,38.1275],[28.1965,38.1369],[28.1959,38.1408],[28.1949,38.1446],[28.1928,38.1511],[28.1898,38.152],[28.1874,38.1538],[28.1849,38.1754],[28.1777,38.1783],[28.1706,38.1766],[28.1703,38.1782],[28.1699,38.1788],[28.1698,38.1795],[28.1659,38.1794],[28.1731,38.1857],[28.1734,38.1884],[28.1723,38.1907],[28.1721,38.191],[28.1726,38.1911],[28.1726,38.1912],[28.1744,38.1914],[28.1803,38.2087],[28.1751,38.2127],[28.1791,38.2189],[28.1682,38.2194],[28.1605,38.2241],[28.1403,38.2203],[28.1376,38.2217],[28.1355,38.2276],[28.1378,38.2331],[28.1292,38.242],[28.1295,38.2456],[28.1342,38.2486],[28.1354,38.2557],[28.1378,38.2569],[28.1296,38.2745],[28.1288,38.2752],[28.1256,38.2777],[28.1251,38.278],[28.1338,38.283],[28.1306,38.2849],[28.1305,38.2858],[28.1311,38.2881],[28.132,38.2892],[28.1363,38.2899],[28.1225,38.302],[28.1229,38.3185],[28.1256,38.3201],[28.1346,38.3277],[28.1418,38.33],[28.1485,38.3454],[28.1573,38.3586],[28.1434,38.3616],[28.1335,38.3702],[28.117,38.3749],[28.1154,38.3812],[28.1034,38.3943],[28.083,38.4069],[28.0816,38.3994],[28.0696,38.4043],[28.0506,38.4007],[28.048,38.3996],[28.0478,38.3983],[28.0479,38.3972],[28.047,38.3925],[28.0375,38.391],[28.0324,38.3856],[28.0278,38.3892],[28.0241,38.3881],[28.0212,38.3921],[28.0177,38.3894],[28.0176,38.3887],[28.0062,38.3848],[28.0015,38.3781],[28.0001,38.3774],[27.9869,38.3814],[27.9706,38.3769],[27.9601,38.3786],[27.9592,38.3796],[27.9575,38.3811],[27.9559,38.3814],[27.9441,38.3965],[27.9236,38.4035],[27.924,38.4057],[27.9256,38.4081],[27.9211,38.4184],[27.9185,38.418],[27.9154,38.4165],[27.9088,38.4179],[27.9141,38.4148],[27.902,38.4106],[27.9002,38.4071],[27.8908,38.4009],[27.8773,38.3837],[27.8727,38.3846],[27.8665,38.3816],[27.8716,38.3735],[27.8698,38.3699],[27.8721,38.3655],[27.8684,38.3628],[27.8728,38.3622],[27.8737,38.3573],[27.8759,38.3569],[27.8778,38.3567],[27.882,38.3507],[27.8876,38.3501],[27.8884,38.3397],[27.8767,38.3367],[27.8683,38.3301],[27.8681,38.3269],[27.8611,38.3219],[27.8589,38.308],[27.8368,38.3096],[27.8361,38.3116],[27.8344,38.3139],[27.8276,38.3053],[27.8248,38.3076],[27.8179,38.3067],[27.8177,38.3077],[27.8151,38.3102],[27.8132,38.3109],[27.8032,38.2997],[27.802,38.2952],[27.8021,38.2939],[27.8032,38.2917],[27.8097,38.2795],[27.8234,38.2809],[27.8317,38.2774],[27.8335,38.2721],[27.8322,38.2719],[27.8324,38.2691],[27.8317,38.2669],[27.8281,38.2648],[27.8297,38.2596],[27.827,38.2582],[27.8269,38.257],[27.8286,38.2545],[27.8265,38.2508],[27.8257,38.2536],[27.8248,38.2537],[27.8226,38.2537],[27.8213,38.2543],[27.8202,38.254],[27.8186,38.2524],[27.8165,38.2513],[27.7995,38.2511],[27.7938,38.2386],[27.7831,38.2264],[27.7827,38.22]]]}},{"type":"Feature","properties":{"code":"35-26","provinceCode":"35","name":"Seferihisar","center":[26.8851,38.1845]},"geometry":{"type":"MultiPolygon","coordinates":[[[[26.7508,38.2507],[26.7516,38.2394],[26.7552,38.2319],[26.7536,38.2268],[26.7551,38.2225],[26.7588,38.2212],[26.7577,38.2194],[26.7622,38.2151],[26.7665,38.2172],[26.767,38.2137],[26.77,38.2143],[26.7744,38.2098],[26.7722,38.2072],[26.7729,38.2063],[26.7741,38.2055],[26.775,38.2046],[26.7819,38.2037],[26.7889,38.1992],[26.7864,38.1956],[26.7826,38.1948],[26.7844,38.1927],[26.7828,38.1907],[26.781,38.1949],[26.7828,38.1957],[26.7764,38.1994],[26.7724,38.197],[26.7742,38.192],[26.7708,38.1912],[26.7699,38.1861],[26.7701,38.1831],[26.7727,38.1826],[26.7676,38.1758],[26.7746,38.1744],[26.772,38.1712],[26.7748,38.1705],[26.7747,38.1616],[26.7781,38.1662],[26.7849,38.164],[26.7875,38.1703],[26.797,38.1731],[26.8243,38.1584],[26.8235,38.1486],[26.8197,38.1439],[26.8226,38.1408],[26.8303,38.1391],[26.8332,38.1324],[26.8366,38.1319],[26.8333,38.1248],[26.8406,38.1189],[26.8419,38.1133],[26.8512,38.1017],[26.8485,38.0953],[26.8505,38.0921],[26.8499,38.0831],[26.8457,38.08],[26.8459,38.072],[26.8558,38.0578],[26.8574,38.0462],[26.868,38.0397],[26.865,38.0326],[26.8685,38.0333],[26.8718,38.0302],[26.8764,38.0343],[26.8756,38.0379],[26.8821,38.0427],[26.8813,38.0471],[26.8836,38.0515],[26.8973,38.0611],[26.946,38.0751],[26.9604,38.0759],[26.9679,38.072],[26.9792,38.0807],[26.9923,38.1335],[26.9869,38.1439],[26.9797,38.142],[26.9833,38.1504],[26.9826,38.1542],[26.9784,38.1555],[26.9838,38.1747],[26.9848,38.1836],[26.9866,38.1845],[26.9862,38.1863],[26.9852,38.1863],[26.9833,38.1884],[26.9864,38.1925],[26.9728,38.2082],[26.9661,38.2102],[26.9647,38.2111],[26.962,38.2141],[26.9666,38.2226],[26.9706,38.2219],[26.9714,38.2222],[26.9766,38.2247],[26.9796,38.2333],[26.9712,38.2399],[26.9726,38.2432],[26.9704,38.2477],[26.9614,38.2596],[26.9642,38.2622],[26.9608,38.2633],[26.9551,38.2736],[26.9541,38.274],[26.9521,38.274],[26.9509,38.2747],[26.9582,38.2818],[26.9557,38.2819],[26.9556,38.2822],[26.9565,38.2831],[26.9571,38.2838],[26.9498,38.2893],[26.9484,38.2896],[26.9445,38.2905],[26.9438,38.2911],[26.9479,38.2963],[26.9414,38.3014],[26.9398,38.3086],[26.9393,38.3092],[26.9339,38.3086],[26.9241,38.3013],[26.9145,38.308],[26.9095,38.3022],[26.9062,38.3016],[26.9043,38.3012],[26.8971,38.302],[26.8945,38.3067],[26.89,38.3062],[26.8912,38.3008],[26.8875,38.2968],[26.8867,38.2908],[26.8817,38.29],[26.8781,38.2885],[26.8794,38.2843],[26.8721,38.2831],[26.8619,38.2639],[26.8574,38.2649],[26.8554,38.2604],[26.852,38.265],[26.8491,38.2619],[26.8412,38.2634],[26.8431,38.2657],[26.8433,38.2661],[26.8435,38.2666],[26.8399,38.2688],[26.8342,38.2634],[26.8298,38.2638],[26.8276,38.2671],[26.819,38.2708],[26.8159,38.2803],[26.8172,38.2802],[26.8176,38.281],[26.8115,38.2844],[26.8055,38.2878],[26.8004,38.2846],[26.7971,38.2851],[26.7949,38.2862],[26.7925,38.287],[26.7848,38.2849],[26.7771,38.2861],[26.7758,38.2836],[26.7741,38.2856],[26.7622,38.2671],[26.7612,38.2668],[26.7595,38.2652],[26.7586,38.2649],[26.7612,38.2624],[26.7591,38.2595],[26.7548,38.2612],[26.754,38.2605],[26.7508,38.2507]]],[[[26.8007,38.1579],[26.8054,38.1639],[26.8015,38.1617],[26.8007,38.1579]]],[[[26.8299,38.1265],[26.8301,38.1242],[26.8327,38.1247],[26.8299,38.1265]]]]}},{"type":"Feature","properties":{"code":"35-27","provinceCode":"35","name":"Selçuk","center":[27.3759,37.9579]},"geometry":{"type":"Polygon","coordinates":[[[27.2453,37.9857],[27.2454,37.9849],[27.2467,37.9812],[27.2557,37.9722],[27.2628,37.9584],[27.2719,37.9483],[27.277,37.9278],[27.2757,37.9222],[27.2716,37.922],[27.2726,37.9215],[27.2885,37.9105],[27.3169,37.8722],[27.3581,37.881],[27.3635,37.8779],[27.3666,37.8721],[27.3719,37.8709],[27.3756,37.8725],[27.3787,37.8781],[27.3877,37.8664],[27.3917,37.851],[27.3896,37.8444],[27.3871,37.8457],[27.381,37.8388],[27.3744,37.8377],[27.3897,37.8152],[27.4076,37.8264],[27.4406,37.8387],[27.4411,37.8405],[27.4412,37.8443],[27.4373,37.8484],[27.4359,37.8524],[27.4363,37.8542],[27.4389,37.8562],[27.436,37.8606],[27.438,37.8658],[27.4353,37.8704],[27.4247,37.8733],[27.427,37.8786],[27.4319,37.8791],[27.4592,37.8963],[27.4576,37.8986],[27.4581,37.9084],[27.4575,37.914],[27.4547,37.918],[27.4561,37.9202],[27.4565,37.921],[27.4576,37.9241],[27.456,37.9265],[27.4599,37.9273],[27.4649,37.9259],[27.4731,37.9325],[27.4751,37.9326],[27.4759,37.9308],[27.4804,37.9286],[27.4864,37.9293],[27.5021,37.9375],[27.4948,37.9377],[27.4968,37.9458],[27.4928,37.959],[27.4741,37.9625],[27.4732,37.9665],[27.4803,37.97],[27.4849,37.9761],[27.4849,37.9765],[27.4848,37.9782],[27.476,37.9812],[27.4736,37.988],[27.4732,37.9973],[27.4687,38.0035],[27.4684,38.0119],[27.4729,38.0145],[27.4724,38.0196],[27.4643,38.0243],[27.4712,38.0268],[27.4745,38.0304],[27.4743,38.0324],[27.4718,38.0348],[27.47,38.0361],[27.4706,38.0387],[27.4715,38.0404],[27.4638,38.0401],[27.4573,38.0357],[27.4391,38.0367],[27.432,38.0585],[27.4036,38.0813],[27.3941,38.0809],[27.392,38.077],[27.3932,38.0618],[27.3972,38.053],[27.394,38.0454],[27.3831,38.0444],[27.3788,38.0387],[27.3776,38.0377],[27.3639,38.0291],[27.355,38.0295],[27.3547,38.0351],[27.3381,38.0402],[27.3411,38.0415],[27.3438,38.0436],[27.339,38.0465],[27.3371,38.0509],[27.331,38.0509],[27.3279,38.0488],[27.3303,38.0449],[27.3175,38.0443],[27.3114,38.0479],[27.296,38.0393],[27.2862,38.0382],[27.2818,38.0234],[27.2764,38.0182],[27.2735,38.0196],[27.2744,38.0189],[27.2748,38.0181],[27.2746,38.0177],[27.2654,38.0148],[27.2657,38.0086],[27.2606,38.008],[27.257,38.0028],[27.2517,38.003],[27.2498,37.9909],[27.2453,37.9857]]]}},{"type":"Feature","properties":{"code":"35-28","provinceCode":"35","name":"Tire","center":[27.7255,38.0717]},"geometry":{"type":"Polygon","coordinates":[[[27.4643,38.0243],[27.4724,38.0196],[27.4729,38.0145],[27.4684,38.0119],[27.4687,38.0035],[27.4732,37.9973],[27.4736,37.988],[27.476,37.9812],[27.495,37.9741],[27.4998,37.9788],[27.501,37.9857],[27.5048,37.9888],[27.5057,37.9893],[27.509,37.9983],[27.52,38.002],[27.5215,38.0045],[27.524,38.0078],[27.5448,38.0037],[27.5448,38.0042],[27.5475,38.0063],[27.5491,38.0082],[27.556,38.0085],[27.5595,38.0104],[27.5627,38.0103],[27.5842,38.0037],[27.6187,38.0085],[27.6223,38.0075],[27.6226,38.0066],[27.6212,38.0049],[27.6238,37.9993],[27.622,37.9985],[27.6199,37.9984],[27.6191,37.997],[27.6244,37.9821],[27.6232,37.9777],[27.6227,37.9744],[27.6227,37.9723],[27.6273,37.9692],[27.631,37.97],[27.6317,37.9725],[27.6465,37.9638],[27.6624,37.9623],[27.661,37.9662],[27.6706,37.9662],[27.6802,37.9767],[27.6904,37.9782],[27.694,37.9824],[27.697,37.9823],[27.7026,37.9811],[27.7031,37.9783],[27.7046,37.9802],[27.7105,37.9786],[27.712,37.9811],[27.7141,37.9811],[27.7157,37.981],[27.7169,37.9812],[27.7229,37.9757],[27.7244,37.9788],[27.7307,37.9787],[27.7332,37.9812],[27.7394,37.9781],[27.74,37.9725],[27.7438,37.9727],[27.7452,37.969],[27.7484,37.9678],[27.7553,37.9492],[27.764,37.9607],[27.7651,37.9601],[27.7669,37.9593],[27.7673,37.9593],[27.7718,37.9638],[27.7723,37.9677],[27.7782,37.9752],[27.7852,37.9749],[27.7853,37.9719],[27.79,37.9697],[27.8005,37.9713],[27.8022,37.9699],[27.8003,37.9638],[27.8069,37.965],[27.8136,37.9628],[27.8239,37.9673],[27.8271,37.9719],[27.8431,37.9784],[27.844,37.9767],[27.8467,37.9782],[27.8451,37.9752],[27.8476,37.9719],[27.8477,37.9719],[27.8561,37.9704],[27.8636,37.9765],[27.867,37.9862],[27.8768,37.991],[27.8741,37.9941],[27.874,37.9973],[27.876,38.0009],[27.8777,38.004],[27.8798,38.0047],[27.8803,38.0066],[27.8785,38.009],[27.8796,38.0123],[27.9016,38.0109],[27.9019,38.0121],[27.9025,38.0131],[27.9035,38.0139],[27.911,38.0158],[27.9263,38.0109],[27.9397,38.0139],[27.9417,38.0277],[27.9616,38.0414],[27.9641,38.0515],[27.9602,38.067],[27.9551,38.071],[27.9551,38.0725],[27.9494,38.0757],[27.9336,38.0785],[27.9294,38.0907],[27.9257,38.0917],[27.9264,38.1026],[27.9224,38.1045],[27.9255,38.1091],[27.9253,38.1117],[27.9175,38.1177],[27.9201,38.1186],[27.9214,38.1199],[27.9235,38.1206],[27.94,38.1213],[27.9498,38.1266],[27.9491,38.1278],[27.9477,38.1286],[27.9425,38.1311],[27.9395,38.1312],[27.9369,38.1316],[27.9303,38.142],[27.9276,38.142],[27.9242,38.1537],[27.9217,38.1538],[27.9219,38.1566],[27.9199,38.1566],[27.9244,38.1658],[27.9117,38.1702],[27.9114,38.1747],[27.9057,38.1705],[27.9015,38.1738],[27.8929,38.1672],[27.8906,38.1688],[27.8838,38.1676],[27.8863,38.175],[27.8855,38.1755],[27.8845,38.1757],[27.8821,38.1756],[27.8823,38.1795],[27.8766,38.174],[27.8686,38.1717],[27.8676,38.1726],[27.8671,38.1735],[27.8476,38.1707],[27.8442,38.1738],[27.8423,38.1838],[27.8355,38.1828],[27.8378,38.1847],[27.8376,38.1886],[27.832,38.1922],[27.8245,38.1908],[27.8226,38.1881],[27.8207,38.188],[27.8165,38.1884],[27.8108,38.1869],[27.8035,38.1949],[27.8015,38.1939],[27.8005,38.1929],[27.7962,38.1951],[27.7934,38.1981],[27.7907,38.1997],[27.7886,38.2139],[27.7827,38.22],[27.7831,38.2264],[27.7821,38.2242],[27.7772,38.219],[27.7764,38.2165],[27.7757,38.2095],[27.7699,38.1868],[27.7653,38.1783],[27.7642,38.1682],[27.7634,38.1682],[27.7622,38.1683],[27.7618,38.1683],[27.7562,38.1459],[27.7514,38.1494],[27.7346,38.1482],[27.7291,38.1529],[27.722,38.1531],[27.722,38.1541],[27.722,38.1554],[27.7211,38.1554],[27.7172,38.1556],[27.7171,38.1557],[27.7163,38.1502],[27.7121,38.1563],[27.6999,38.1588],[27.6905,38.1536],[27.6884,38.1486],[27.6608,38.1509],[27.6588,38.1436],[27.6451,38.1436],[27.636,38.1487],[27.62,38.1505],[27.617,38.1569],[27.6071,38.1548],[27.6074,38.1579],[27.603,38.1583],[27.6034,38.1564],[27.6033,38.1561],[27.5882,38.1512],[27.5855,38.1479],[27.576,38.146],[27.5653,38.1472],[27.5653,38.149],[27.5658,38.1491],[27.5658,38.1499],[27.5606,38.149],[27.5568,38.1431],[27.557,38.1381],[27.5473,38.1371],[27.5384,38.1394],[27.5339,38.1376],[27.5236,38.14],[27.5147,38.1337],[27.5091,38.1343],[27.5088,38.1311],[27.4906,38.13],[27.4907,38.1235],[27.485,38.1241],[27.4778,38.1208],[27.4769,38.1128],[27.4947,38.1169],[27.5024,38.1122],[27.5067,38.1145],[27.508,38.1092],[27.5193,38.1105],[27.5174,38.1078],[27.5196,38.1047],[27.5141,38.1022],[27.5172,38.1007],[27.5124,38.0883],[27.5144,38.0834],[27.5143,38.0736],[27.5103,38.0735],[27.5046,38.0733],[27.5031,38.072],[27.5013,38.071],[27.4958,38.0696],[27.4931,38.0627],[27.4935,38.0546],[27.4691,38.0526],[27.4715,38.0404],[27.4706,38.0387],[27.47,38.0361],[27.4718,38.0348],[27.4743,38.0324],[27.4745,38.0304],[27.4712,38.0268],[27.4643,38.0243]]]}},{"type":"Feature","properties":{"code":"35-29","provinceCode":"35","name":"Torbalı","center":[27.3753,38.1837]},"geometry":{"type":"Polygon","coordinates":[[[27.2066,38.2053],[27.208,38.2019],[27.2145,38.1862],[27.2126,38.1856],[27.2129,38.1845],[27.2109,38.1841],[27.2114,38.1829],[27.2115,38.1827],[27.2125,38.1793],[27.2232,38.158],[27.2295,38.1591],[27.2364,38.1502],[27.2367,38.1417],[27.2497,38.1383],[27.2583,38.1401],[27.2628,38.148],[27.2574,38.1515],[27.2516,38.1638],[27.2632,38.1614],[27.2706,38.1543],[27.2808,38.1555],[27.2875,38.152],[27.2901,38.146],[27.2909,38.1444],[27.2857,38.1386],[27.2933,38.1351],[27.2976,38.134],[27.3103,38.1213],[27.3125,38.1158],[27.3091,38.0967],[27.303,38.0787],[27.3079,38.0709],[27.3084,38.0631],[27.3071,38.0607],[27.3086,38.0551],[27.3099,38.0552],[27.3136,38.054],[27.3114,38.0479],[27.3175,38.0443],[27.3303,38.0449],[27.3279,38.0488],[27.331,38.0509],[27.3371,38.0509],[27.339,38.0465],[27.3438,38.0436],[27.3411,38.0415],[27.3381,38.0402],[27.3547,38.0351],[27.355,38.0295],[27.3686,38.0306],[27.3831,38.0444],[27.394,38.0454],[27.3972,38.053],[27.3932,38.0618],[27.392,38.077],[27.3941,38.0809],[27.4036,38.0813],[27.432,38.0585],[27.4391,38.0367],[27.4573,38.0357],[27.4638,38.0401],[27.465,38.0403],[27.4677,38.0404],[27.4709,38.0411],[27.4697,38.0427],[27.4705,38.0453],[27.4691,38.0526],[27.4935,38.0546],[27.4931,38.0627],[27.4958,38.0696],[27.5013,38.071],[27.5031,38.072],[27.5046,38.0733],[27.5103,38.0735],[27.5143,38.0736],[27.5144,38.0834],[27.5124,38.0883],[27.5172,38.1007],[27.5141,38.1022],[27.5196,38.1047],[27.5174,38.1078],[27.5193,38.1105],[27.508,38.1092],[27.5067,38.1145],[27.5024,38.1122],[27.4947,38.1169],[27.4769,38.1128],[27.4789,38.1171],[27.4764,38.1179],[27.4763,38.1184],[27.4785,38.119],[27.477,38.127],[27.4688,38.1368],[27.4511,38.1357],[27.4388,38.1321],[27.4302,38.1236],[27.4454,38.153],[27.4454,38.1533],[27.4453,38.157],[27.4455,38.1574],[27.4477,38.1606],[27.4489,38.1599],[27.4519,38.1598],[27.4511,38.1565],[27.4515,38.156],[27.4531,38.1564],[27.4541,38.1559],[27.4584,38.1656],[27.4567,38.1743],[27.4607,38.1794],[27.4607,38.1816],[27.4597,38.1836],[27.4628,38.1873],[27.4653,38.1971],[27.4687,38.1988],[27.4678,38.2088],[27.4735,38.2091],[27.481,38.2164],[27.4838,38.2163],[27.4858,38.2146],[27.4867,38.2113],[27.4972,38.2146],[27.5197,38.2359],[27.5219,38.2409],[27.5228,38.2514],[27.5171,38.2545],[27.5164,38.2592],[27.5157,38.261],[27.5164,38.2631],[27.5127,38.2649],[27.5117,38.2654],[27.51,38.2642],[27.5072,38.2635],[27.5062,38.2655],[27.5056,38.2679],[27.5033,38.2719],[27.4928,38.2812],[27.4914,38.2836],[27.492,38.2875],[27.4834,38.2922],[27.4677,38.2939],[27.465,38.2971],[27.4508,38.2992],[27.4156,38.3116],[27.4136,38.3095],[27.4121,38.3147],[27.4057,38.3167],[27.4032,38.3152],[27.4032,38.3174],[27.4,38.3147],[27.3925,38.3212],[27.3933,38.3257],[27.3852,38.326],[27.3765,38.3346],[27.3475,38.3403],[27.3538,38.3357],[27.3483,38.3317],[27.3469,38.3242],[27.3469,38.324],[27.3487,38.3197],[27.3554,38.3206],[27.3641,38.3108],[27.3584,38.2986],[27.3659,38.2991],[27.3677,38.2967],[27.3621,38.2936],[27.3573,38.2939],[27.3579,38.2918],[27.3556,38.2926],[27.3554,38.2918],[27.3538,38.2902],[27.3531,38.2896],[27.3559,38.288],[27.3538,38.2861],[27.3413,38.2833],[27.3246,38.2877],[27.3202,38.2848],[27.3211,38.2873],[27.3083,38.2929],[27.2996,38.2896],[27.2949,38.2902],[27.2914,38.2871],[27.2892,38.2885],[27.2883,38.2858],[27.2829,38.285],[27.2822,38.2829],[27.2787,38.2837],[27.2774,38.2809],[27.2743,38.2823],[27.2647,38.2745],[27.2549,38.2737],[27.256,38.2751],[27.2545,38.2756],[27.2545,38.2759],[27.2406,38.2714],[27.2289,38.272],[27.2524,38.2566],[27.2477,38.248],[27.2362,38.2388],[27.2372,38.2377],[27.2425,38.2314],[27.2447,38.229],[27.2427,38.2291],[27.2416,38.2291],[27.2416,38.2254],[27.2436,38.2211],[27.2473,38.2205],[27.2476,38.217],[27.2462,38.2144],[27.2463,38.2132],[27.2327,38.2077],[27.2277,38.2092],[27.2247,38.2039],[27.2201,38.2128],[27.2206,38.2177],[27.2156,38.2173],[27.2103,38.2184],[27.2066,38.2053]]]}},{"type":"Feature","properties":{"code":"35-30","provinceCode":"35","name":"Urla","center":[26.6305,38.2908]},"geometry":{"type":"MultiPolygon","coordinates":[[[[26.439,38.213],[26.4515,38.209],[26.4518,38.2015],[26.4586,38.2055],[26.46,38.2052],[26.4609,38.2047],[26.462,38.2039],[26.457,38.1949],[26.4583,38.1917],[26.4635,38.1953],[26.4716,38.1906],[26.4857,38.1918],[26.4884,38.1956],[26.4916,38.1951],[26.4919,38.1947],[26.4926,38.1927],[26.4925,38.1918],[26.4864,38.1857],[26.4875,38.1829],[26.4932,38.1818],[26.4968,38.1777],[26.501,38.1837],[26.5013,38.1835],[26.5017,38.18],[26.5035,38.1773],[26.5058,38.1757],[26.507,38.1761],[26.5182,38.1879],[26.5205,38.1829],[26.5233,38.1833],[26.5183,38.1802],[26.517,38.1753],[26.5204,38.1709],[26.5203,38.1652],[26.5191,38.1643],[26.518,38.1678],[26.5157,38.1704],[26.5135,38.1702],[26.5124,38.1676],[26.5211,38.1553],[26.5239,38.1553],[26.5217,38.154],[26.5221,38.1534],[26.5245,38.1527],[26.5218,38.1523],[26.5211,38.1503],[26.5212,38.1474],[26.5207,38.1443],[26.5216,38.1423],[26.5328,38.1391],[26.5301,38.1384],[26.5295,38.1365],[26.5313,38.1281],[26.5346,38.1269],[26.5414,38.1304],[26.5421,38.1277],[26.5425,38.1276],[26.5442,38.1276],[26.5458,38.1277],[26.5437,38.1203],[26.5525,38.1226],[26.553,38.1215],[26.552,38.1189],[26.5524,38.1184],[26.5606,38.118],[26.5667,38.127],[26.5659,38.1277],[26.5645,38.1281],[26.5665,38.1379],[26.5625,38.1438],[26.5715,38.1439],[26.5843,38.126],[26.5846,38.1227],[26.5856,38.1218],[26.5841,38.1207],[26.5835,38.1183],[26.5844,38.1169],[26.5859,38.1156],[26.5827,38.1137],[26.5816,38.1115],[26.5836,38.1086],[26.5924,38.1032],[26.5989,38.1073],[26.6045,38.1033],[26.6058,38.1062],[26.6084,38.1064],[26.611,38.1075],[26.6144,38.1135],[26.6098,38.1267],[26.6128,38.1353],[26.6071,38.1348],[26.6014,38.1471],[26.6069,38.1395],[26.6078,38.142],[26.6104,38.1381],[26.6236,38.1384],[26.6242,38.1431],[26.6232,38.1442],[26.6234,38.1442],[26.6248,38.1444],[26.6263,38.1464],[26.6284,38.1612],[26.6306,38.1608],[26.6331,38.1672],[26.6305,38.1684],[26.6327,38.1746],[26.6283,38.1864],[26.6315,38.1996],[26.6356,38.1983],[26.639,38.2005],[26.6359,38.2079],[26.6453,38.2022],[26.65,38.2038],[26.6504,38.2091],[26.6531,38.2103],[26.6566,38.2073],[26.6598,38.2104],[26.6659,38.209],[26.667,38.2061],[26.671,38.2078],[26.6745,38.2047],[26.6784,38.2118],[26.6856,38.2089],[26.687,38.2066],[26.6835,38.2045],[26.6864,38.2024],[26.6885,38.2067],[26.6941,38.2055],[26.6955,38.208],[26.6936,38.2096],[26.6966,38.2115],[26.703,38.2072],[26.7041,38.2077],[26.7052,38.2081],[26.706,38.2086],[26.7061,38.2097],[26.7055,38.2114],[26.7104,38.2123],[26.7123,38.2101],[26.7163,38.2113],[26.7179,38.2089],[26.7212,38.2117],[26.7225,38.2078],[26.726,38.2099],[26.7326,38.2074],[26.7335,38.2079],[26.7344,38.2081],[26.7347,38.2088],[26.7322,38.2128],[26.7359,38.2163],[26.7403,38.213],[26.7437,38.2156],[26.7447,38.2129],[26.7452,38.2129],[26.7468,38.2144],[26.747,38.2162],[26.7453,38.2192],[26.7486,38.2185],[26.7501,38.2221],[26.7551,38.2225],[26.7536,38.2268],[26.7552,38.2319],[26.7511,38.2426],[26.7514,38.2533],[26.7548,38.2612],[26.7591,38.2595],[26.7612,38.2624],[26.7586,38.2649],[26.7595,38.2652],[26.7612,38.2668],[26.7622,38.2671],[26.7741,38.2856],[26.7758,38.2836],[26.7771,38.2861],[26.7848,38.2849],[26.7925,38.287],[26.7949,38.2862],[26.7971,38.2851],[26.8004,38.2846],[26.8055,38.2878],[26.8115,38.2844],[26.8176,38.281],[26.8172,38.2802],[26.8159,38.2803],[26.819,38.2708],[26.8276,38.2671],[26.8298,38.2638],[26.8342,38.2634],[26.8399,38.2688],[26.8435,38.2666],[26.8433,38.2661],[26.8431,38.2657],[26.8412,38.2634],[26.8491,38.2619],[26.852,38.265],[26.8554,38.2604],[26.8574,38.2649],[26.8619,38.2639],[26.8721,38.2831],[26.8794,38.2843],[26.8781,38.2885],[26.8817,38.29],[26.8867,38.2908],[26.8875,38.2968],[26.8776,38.3005],[26.877,38.3043],[26.8665,38.3037],[26.8482,38.2919],[26.845,38.2856],[26.8439,38.2918],[26.8345,38.2965],[26.8348,38.2954],[26.8349,38.2943],[26.8291,38.2935],[26.8281,38.2943],[26.8215,38.2981],[26.8136,38.3027],[26.8142,38.3031],[26.8144,38.3035],[26.8151,38.3042],[26.8107,38.3048],[26.8098,38.311],[26.8155,38.32],[26.8142,38.3306],[26.8213,38.3301],[26.8305,38.343],[26.8583,38.3647],[26.8567,38.3712],[26.8545,38.3735],[26.8239,38.3674],[26.8156,38.3626],[26.8111,38.3566],[26.8017,38.3552],[26.7857,38.3598],[26.7799,38.3642],[26.7919,38.3752],[26.7878,38.3778],[26.7848,38.3749],[26.783,38.3672],[26.7788,38.3632],[26.7709,38.3642],[26.7727,38.3649],[26.7664,38.3667],[26.7623,38.3717],[26.7624,38.3841],[26.75,38.3913],[26.7484,38.3941],[26.7507,38.3954],[26.7505,38.3932],[26.7511,38.3947],[26.7511,38.3949],[26.751,38.3954],[26.7475,38.3983],[26.7493,38.4002],[26.7413,38.4028],[26.7351,38.414],[26.7349,38.4192],[26.7403,38.4215],[26.7359,38.4287],[26.733,38.4289],[26.7325,38.4221],[26.7288,38.4265],[26.7311,38.4306],[26.7204,38.4369],[26.7217,38.4303],[26.7241,38.4291],[26.7229,38.4274],[26.7148,38.4273],[26.7111,38.4328],[26.7069,38.4344],[26.7053,38.4295],[26.6967,38.4256],[26.6912,38.4198],[26.6941,38.4198],[26.6883,38.4179],[26.6845,38.4124],[26.6865,38.4112],[26.6829,38.4095],[26.6863,38.4029],[26.6843,38.3996],[26.6781,38.3972],[26.6791,38.3953],[26.6755,38.3922],[26.6755,38.3823],[26.6826,38.3737],[26.6809,38.3689],[26.6825,38.3672],[26.6806,38.366],[26.6887,38.3514],[26.6844,38.3504],[26.6826,38.3567],[26.678,38.3601],[26.6754,38.3586],[26.6771,38.3532],[26.673,38.3465],[26.6805,38.348],[26.6923,38.3441],[26.6956,38.3399],[26.6934,38.3355],[26.7003,38.3321],[26.7019,38.3277],[26.6999,38.3228],[26.7037,38.3197],[26.7015,38.3148],[26.6923,38.3119],[26.6745,38.3113],[26.6669,38.3171],[26.665,38.3233],[26.6581,38.3265],[26.656,38.3303],[26.6522,38.329],[26.6535,38.3244],[26.6517,38.329],[26.6545,38.3349],[26.6516,38.338],[26.6437,38.3399],[26.6406,38.3482],[26.645,38.3577],[26.6443,38.3721],[26.6398,38.3788],[26.6302,38.3805],[26.6281,38.3832],[26.6298,38.3834],[26.6262,38.3902],[26.6229,38.3923],[26.6242,38.3986],[26.617,38.4034],[26.6178,38.4075],[26.6141,38.411],[26.616,38.4153],[26.6109,38.4196],[26.611,38.4227],[26.6041,38.4199],[26.6009,38.4158],[26.5846,38.4255],[26.5841,38.4284],[26.5876,38.4322],[26.5906,38.4305],[26.5986,38.4334],[26.6029,38.4415],[26.5842,38.4425],[26.5736,38.4369],[26.5645,38.4402],[26.5689,38.4449],[26.5682,38.4453],[26.5679,38.4457],[26.565,38.4499],[26.565,38.4552],[26.5613,38.4579],[26.5389,38.4658],[26.5321,38.4662],[26.5275,38.4636],[26.5164,38.4692],[26.5074,38.4688],[26.4919,38.4605],[26.482,38.4595],[26.4801,38.4579],[26.4802,38.4571],[26.4797,38.456],[26.4897,38.449],[26.4955,38.448],[26.5058,38.4364],[26.5153,38.4314],[26.5411,38.4363],[26.5416,38.4305],[26.5512,38.4147],[26.5453,38.4152],[26.5424,38.4123],[26.5344,38.414],[26.5287,38.4055],[26.5217,38.381],[26.5145,38.3761],[26.5131,38.3509],[26.4994,38.3449],[26.493,38.3379],[26.4936,38.3332],[26.5003,38.3263],[26.5105,38.3249],[26.5125,38.3148],[26.5172,38.3104],[26.5128,38.309],[26.5108,38.3071],[26.4974,38.303],[26.4994,38.2995],[26.4985,38.2942],[26.5071,38.2907],[26.5169,38.2813],[26.5239,38.2796],[26.5262,38.2694],[26.523,38.2677],[26.5214,38.268],[26.5181,38.2679],[26.5109,38.2634],[26.502,38.2629],[26.4763,38.2494],[26.4627,38.2492],[26.4608,38.2481],[26.4582,38.2467],[26.4561,38.2456],[26.4551,38.2389],[26.4582,38.2395],[26.4595,38.2399],[26.4577,38.2355],[26.4599,38.227],[26.4627,38.2248],[26.4651,38.2228],[26.4595,38.2228],[26.439,38.213]]],[[[26.6741,38.3318],[26.6746,38.3293],[26.6785,38.3299],[26.6795,38.3326],[26.6741,38.3318]]],[[[26.7681,38.4097],[26.7701,38.4045],[26.7735,38.4076],[26.7694,38.411],[26.7681,38.4097]]],[[[26.7807,38.4168],[26.7855,38.4155],[26.7822,38.4185],[26.7807,38.4168]]],[[[26.784,38.3948],[26.7856,38.3931],[26.7915,38.3959],[26.7913,38.3988],[26.789,38.3997],[26.784,38.3948]]],[[[26.7922,38.41],[26.7931,38.4069],[26.7989,38.4071],[26.7958,38.4154],[26.7922,38.41]]]]}}]}